{
"type": "FeatureCollection",
"name": " 400513",
"crs": { "type": "name", "properties": { "name": "urn:ogc:def:crs:EPSG::32722" } },
"xy_coordinate_resolution": 1e-15,
"features": [
{ "type": "Feature", "properties": { "fid": 90.0, "COMPR_M": 582.95, "CLASSE": "03 - Média", "CD_FAZ": " 400513", "TALHOES": "2, 1", "FAZ_tAL": "400501002, 400513001", "ID_LINHA": 152292 }, "geometry": { "type": "MultiLineString", "coordinates": [ [ [ 418537.509391201136168, 7647708.954921436496079 ], [ 419079.809007959614974, 7647495.589805220253766 ] ] ] } },
{ "type": "Feature", "properties": { "fid": 91.0, "COMPR_M": 582.82, "CLASSE": "03 - Média", "CD_FAZ": " 400513", "TALHOES": "2, 1", "FAZ_tAL": "400501002, 400513001", "ID_LINHA": 152293 }, "geometry": { "type": "MultiLineString", "coordinates": [ [ [ 418531.652911935467273, 7647693.205579627305269 ], [ 419073.832340339606162, 7647479.887750929221511 ] ] ] } },
{ "type": "Feature", "properties": { "fid": 92.0, "COMPR_M": 591.39, "CLASSE": "03 - Média", "CD_FAZ": " 400513", "TALHOES": "2, 1", "FAZ_tAL": "400501002, 400513001", "ID_LINHA": 152294 }, "geometry": { "type": "MultiLineString", "coordinates": [ [ [ 418525.796432668343186, 7647677.456237816251814 ], [ 419075.951557061925996, 7647461.00041077286005 ] ] ] } },
{ "type": "Feature", "properties": { "fid": 93.0, "COMPR_M": 590.65, "CLASSE": "03 - Média", "CD_FAZ": " 400513", "TALHOES": "2, 1", "FAZ_tAL": "400501002, 400513001", "ID_LINHA": 152295 }, "geometry": { "type": "MultiLineString", "coordinates": [ [ [ 418519.939953399938531, 7647661.70689600892365 ], [ 419069.403155411884654, 7647445.523302420042455 ] ] ] } },
{ "type": "Feature", "properties": { "fid": 94.0, "COMPR_M": 589.91, "CLASSE": "03 - Média", "CD_FAZ": " 400513", "TALHOES": "2, 1", "FAZ_tAL": "400501002, 400513001", "ID_LINHA": 152296 }, "geometry": { "type": "MultiLineString", "coordinates": [ [ [ 418514.083474133105483, 7647645.957554198801517 ], [ 419062.85475376364775, 7647430.046194065362215 ] ] ] } },
{ "type": "Feature", "properties": { "fid": 95.0, "COMPR_M": 589.16, "CLASSE": "03 - Média", "CD_FAZ": " 400513", "TALHOES": "2, 1", "FAZ_tAL": "400501002, 400513001", "ID_LINHA": 152297 }, "geometry": { "type": "MultiLineString", "coordinates": [ [ [ 418508.226994866563473, 7647630.20821239054203 ], [ 419056.306352114188485, 7647414.569085713475943 ] ] ] } },
{ "type": "Feature", "properties": { "fid": 96.0, "COMPR_M": 588.42, "CLASSE": "03 - Média", "CD_FAZ": " 400513", "TALHOES": "2, 1", "FAZ_tAL": "400501002, 400513001", "ID_LINHA": 152298 }, "geometry": { "type": "MultiLineString", "coordinates": [ [ [ 418502.370515598508064, 7647614.458870580419898 ], [ 419049.757950465602335, 7647399.091977363452315 ] ] ] } },
{ "type": "Feature", "properties": { "fid": 97.0, "COMPR_M": 587.67, "CLASSE": "03 - Média", "CD_FAZ": " 400513", "TALHOES": "2, 1", "FAZ_tAL": "400501002, 400513001", "ID_LINHA": 152299 }, "geometry": { "type": "MultiLineString", "coordinates": [ [ [ 418496.514036331733223, 7647598.709528770297766 ], [ 419043.209548815968446, 7647383.614869012497365 ] ] ] } },
{ "type": "Feature", "properties": { "fid": 98.0, "COMPR_M": 586.93, "CLASSE": "03 - Média", "CD_FAZ": " 400513", "TALHOES": "2, 1", "FAZ_tAL": "400501002, 400513001", "ID_LINHA": 152300 }, "geometry": { "type": "MultiLineString", "coordinates": [ [ [ 418490.657557064958382, 7647582.960186965763569 ], [ 419036.661147167498711, 7647368.13776065967977 ] ] ] } },
{ "type": "Feature", "properties": { "fid": 99.0, "COMPR_M": 586.19, "CLASSE": "03 - Média", "CD_FAZ": " 400513", "TALHOES": "2, 1", "FAZ_tAL": "400501002, 400513001", "ID_LINHA": 152301 }, "geometry": { "type": "MultiLineString", "coordinates": [ [ [ 418484.80107779771788, 7647567.210845156572759 ], [ 419030.112745517631993, 7647352.660652305930853 ] ] ] } },
{ "type": "Feature", "properties": { "fid": 100.0, "COMPR_M": 585.44, "CLASSE": "03 - Média", "CD_FAZ": " 400513", "TALHOES": "2, 1", "FAZ_tAL": "400501002, 400513001", "ID_LINHA": 152302 }, "geometry": { "type": "MultiLineString", "coordinates": [ [ [ 418478.944598530884832, 7647551.461503347381949 ], [ 419023.564343870501034, 7647337.183543954975903 ] ] ] } },
{ "type": "Feature", "properties": { "fid": 101.0, "COMPR_M": 584.7, "CLASSE": "03 - Média", "CD_FAZ": " 400513", "TALHOES": "2, 1", "FAZ_tAL": "400501002, 400513001", "ID_LINHA": 152303 }, "geometry": { "type": "MultiLineString", "coordinates": [ [ [ 418473.088119263178669, 7647535.712161537259817 ], [ 419017.015942220343277, 7647321.706435604020953 ] ] ] } },
{ "type": "Feature", "properties": { "fid": 102.0, "COMPR_M": 583.96, "CLASSE": "03 - Média", "CD_FAZ": " 400513", "TALHOES": "2, 1", "FAZ_tAL": "400501002, 400513001", "ID_LINHA": 152304 }, "geometry": { "type": "MultiLineString", "coordinates": [ [ [ 418467.23163999611279, 7647519.96281972527504 ], [ 419010.467540571233258, 7647306.22932724840939 ] ] ] } },
{ "type": "Feature", "properties": { "fid": 103.0, "COMPR_M": 583.21, "CLASSE": "03 - Média", "CD_FAZ": " 400513", "TALHOES": "2, 1", "FAZ_tAL": "400501002, 400513001", "ID_LINHA": 152305 }, "geometry": { "type": "MultiLineString", "coordinates": [ [ [ 418461.375160728406627, 7647504.213477920740843 ], [ 419003.919138920668047, 7647290.752218898385763 ] ] ] } },
{ "type": "Feature", "properties": { "fid": 104.0, "COMPR_M": 582.46, "CLASSE": "03 - Média", "CD_FAZ": " 400513", "TALHOES": "2, 1", "FAZ_tAL": "400501002, 400513001", "ID_LINHA": 152306 }, "geometry": { "type": "MultiLineString", "coordinates": [ [ [ 418455.51868146227207, 7647488.46413610689342 ], [ 418997.359123780450318, 7647275.279679818078876 ] ] ] } },
{ "type": "Feature", "properties": { "fid": 105.0, "COMPR_M": 581.68, "CLASSE": "03 - Média", "CD_FAZ": " 400513", "TALHOES": "2, 1", "FAZ_tAL": "400501002, 400513001", "ID_LINHA": 152307 }, "geometry": { "type": "MultiLineString", "coordinates": [ [ [ 418449.662202195147984, 7647472.714794296771288 ], [ 418990.782435922999866, 7647259.813700536265969 ] ] ] } },
{ "type": "Feature", "properties": { "fid": 182.0, "COMPR_M": 580.91, "CLASSE": "03 - Média", "CD_FAZ": " 400513", "TALHOES": "2, 1", "FAZ_tAL": "400501002, 400513001", "ID_LINHA": 152384 }, "geometry": { "type": "MultiLineString", "coordinates": [ [ [ 418442.927019834460225, 7647454.732096076011658 ], [ 418983.327044971927535, 7647242.114364840090275 ] ] ] } },
{ "type": "Feature", "properties": { "fid": 183.0, "COMPR_M": 581.68, "CLASSE": "03 - Média", "CD_FAZ": " 400513", "TALHOES": "2, 1", "FAZ_tAL": "400501002, 400513001", "ID_LINHA": 152385 }, "geometry": { "type": "MultiLineString", "coordinates": [ [ [ 418448.783499100769404, 7647470.481437885202467 ], [ 418989.903732829552609, 7647257.580344121903181 ] ] ] } },
{ "type": "Feature", "properties": { "fid": 184.0, "COMPR_M": 582.46, "CLASSE": "03 - Média", "CD_FAZ": " 400513", "TALHOES": "2, 1", "FAZ_tAL": "400501002, 400513001", "ID_LINHA": 152386 }, "geometry": { "type": "MultiLineString", "coordinates": [ [ [ 418454.639978368999436, 7647486.230779692530632 ], [ 418996.480420687294099, 7647273.046323403716087 ] ] ] } },
{ "type": "Feature", "properties": { "fid": 185.0, "COMPR_M": 583.21, "CLASSE": "03 - Média", "CD_FAZ": " 400513", "TALHOES": "2, 1", "FAZ_tAL": "400501002, 400513001", "ID_LINHA": 152387 }, "geometry": { "type": "MultiLineString", "coordinates": [ [ [ 418460.496457635541447, 7647501.980121502652764 ], [ 419003.04043582896702, 7647288.518862484954298 ] ] ] } },
{ "type": "Feature", "properties": { "fid": 186.0, "COMPR_M": 583.96, "CLASSE": "03 - Média", "CD_FAZ": " 400513", "TALHOES": "2, 1", "FAZ_tAL": "400501002, 400513001", "ID_LINHA": 152388 }, "geometry": { "type": "MultiLineString", "coordinates": [ [ [ 418466.352936903014779, 7647517.729463313706219 ], [ 419009.588837477029301, 7647303.995970837771893 ] ] ] } },
{ "type": "Feature", "properties": { "fid": 187.0, "COMPR_M": 584.7, "CLASSE": "03 - Média", "CD_FAZ": " 400513", "TALHOES": "2, 1", "FAZ_tAL": "400501002, 400513001", "ID_LINHA": 152389 }, "geometry": { "type": "MultiLineString", "coordinates": [ [ [ 418472.209416168625467, 7647533.478805121034384 ], [ 419016.137239126954228, 7647319.47307919152081 ] ] ] } },
{ "type": "Feature", "properties": { "fid": 188.0, "COMPR_M": 585.44, "CLASSE": "03 - Média", "CD_FAZ": " 400513", "TALHOES": "2, 1", "FAZ_tAL": "400501002, 400513001", "ID_LINHA": 152390 }, "geometry": { "type": "MultiLineString", "coordinates": [ [ [ 418478.065895435516723, 7647549.228146931156516 ], [ 419022.685640775947832, 7647334.950187539681792 ] ] ] } },
{ "type": "Feature", "properties": { "fid": 189.0, "COMPR_M": 586.19, "CLASSE": "03 - Média", "CD_FAZ": " 400513", "TALHOES": "2, 1", "FAZ_tAL": "400501002, 400513001", "ID_LINHA": 152391 }, "geometry": { "type": "MultiLineString", "coordinates": [ [ [ 418483.9223747048527, 7647564.977488741278648 ], [ 419029.234042425232474, 7647350.427295892499387 ] ] ] } },
{ "type": "Feature", "properties": { "fid": 190.0, "COMPR_M": 586.93, "CLASSE": "03 - Média", "CD_FAZ": " 400513", "TALHOES": "2, 1", "FAZ_tAL": "400501002, 400513001", "ID_LINHA": 152392 }, "geometry": { "type": "MultiLineString", "coordinates": [ [ [ 418489.778853971278295, 7647580.726830551400781 ], [ 419035.782444073993247, 7647365.90440424438566 ] ] ] } },
{ "type": "Feature", "properties": { "fid": 191.0, "COMPR_M": 587.67, "CLASSE": "03 - Média", "CD_FAZ": " 400513", "TALHOES": "2, 1", "FAZ_tAL": "400501002, 400513001", "ID_LINHA": 152393 }, "geometry": { "type": "MultiLineString", "coordinates": [ [ [ 418495.635333238577005, 7647596.476172357797623 ], [ 419042.33084572275402, 7647381.381512598134577 ] ] ] } },
{ "type": "Feature", "properties": { "fid": 192.0, "COMPR_M": 588.42, "CLASSE": "03 - Média", "CD_FAZ": " 400513", "TALHOES": "2, 1", "FAZ_tAL": "400501002, 400513001", "ID_LINHA": 152394 }, "geometry": { "type": "MultiLineString", "coordinates": [ [ [ 418501.491812505293638, 7647612.225514165125787 ], [ 419048.879247371281963, 7647396.858620949089527 ] ] ] } },
{ "type": "Feature", "properties": { "fid": 193.0, "COMPR_M": 589.16, "CLASSE": "03 - Média", "CD_FAZ": " 400513", "TALHOES": "2, 1", "FAZ_tAL": "400501002, 400513001", "ID_LINHA": 152395 }, "geometry": { "type": "MultiLineString", "coordinates": [ [ [ 418507.348291771311779, 7647627.97485597524792 ], [ 419055.427649021497928, 7647412.335729302838445 ] ] ] } },
{ "type": "Feature", "properties": { "fid": 194.0, "COMPR_M": 589.91, "CLASSE": "03 - Média", "CD_FAZ": " 400513", "TALHOES": "2, 1", "FAZ_tAL": "400501002, 400513001", "ID_LINHA": 152396 }, "geometry": { "type": "MultiLineString", "coordinates": [ [ [ 418513.204771039076149, 7647643.724197785370052 ], [ 419061.976050669327378, 7647427.812837653793395 ] ] ] } },
{ "type": "Feature", "properties": { "fid": 195.0, "COMPR_M": 590.65, "CLASSE": "03 - Média", "CD_FAZ": " 400513", "TALHOES": "2, 1", "FAZ_tAL": "400501002, 400513001", "ID_LINHA": 152397 }, "geometry": { "type": "MultiLineString", "coordinates": [ [ [ 418519.061250305268914, 7647659.473539595492184 ], [ 419068.524452319135889, 7647443.289946005679667 ] ] ] } },
{ "type": "Feature", "properties": { "fid": 196.0, "COMPR_M": 591.39, "CLASSE": "03 - Média", "CD_FAZ": " 400513", "TALHOES": "2, 1", "FAZ_tAL": "400501002, 400513001", "ID_LINHA": 152398 }, "geometry": { "type": "MultiLineString", "coordinates": [ [ [ 418524.917729574313853, 7647675.222881402820349 ], [ 419075.072853968886193, 7647458.767054356634617 ] ] ] } },
{ "type": "Feature", "properties": { "fid": 197.0, "COMPR_M": 583.92, "CLASSE": "03 - Média", "CD_FAZ": " 400513", "TALHOES": "2, 1", "FAZ_tAL": "400501002, 400513001", "ID_LINHA": 152399 }, "geometry": { "type": "MultiLineString", "coordinates": [ [ [ 418530.774208840099163, 7647690.972223212011158 ], [ 419073.974007755401544, 7647477.252934768795967 ] ] ] } },
{ "type": "Feature", "properties": { "fid": 198.0, "COMPR_M": 582.95, "CLASSE": "03 - Média", "CD_FAZ": " 400513", "TALHOES": "2, 1", "FAZ_tAL": "400501002, 400513001", "ID_LINHA": 152400 }, "geometry": { "type": "MultiLineString", "coordinates": [ [ [ 418536.630688107106835, 7647706.721565021201968 ], [ 419078.930304865003563, 7647493.356448808684945 ] ] ] } },
{ "type": "Feature", "properties": { "fid": 199.0, "COMPR_M": 586.66, "CLASSE": "03 - Média", "CD_FAZ": " 400513", "TALHOES": "1, 2", "FAZ_tAL": "400501001, 400501002, 400513001", "ID_LINHA": 152401 }, "geometry": { "type": "MultiLineString", "coordinates": [ [ [ 418542.487167375278659, 7647722.4709068313241 ], [ 419088.234840342018288, 7647507.749169865623116 ] ] ] } },
{ "type": "Feature", "properties": { "fid": 618.0, "COMPR_M": 588.77, "CLASSE": "03 - Média", "CD_FAZ": " 400513", "TALHOES": "1, 2", "FAZ_tAL": "400501001, 400501002, 400513001", "ID_LINHA": 152820 }, "geometry": { "type": "MultiLineString", "coordinates": [ [ [ 418556.761468576209154, 7647761.343845702707767 ], [ 419104.474586204218213, 7647545.848814206197858 ] ] ] } },
{ "type": "Feature", "properties": { "fid": 619.0, "COMPR_M": 588.77, "CLASSE": "03 - Média", "CD_FAZ": " 400513", "TALHOES": "1, 2", "FAZ_tAL": "400501001, 400501002, 400513001", "ID_LINHA": 152821 }, "geometry": { "type": "MultiLineString", "coordinates": [ [ [ 418555.663089709356427, 7647758.552150186151266 ], [ 419103.376207336375955, 7647543.057118687778711 ] ] ] } },
{ "type": "Feature", "properties": { "fid": 621.0, "COMPR_M": 588.06, "CLASSE": "03 - Média", "CD_FAZ": " 400513", "TALHOES": "1, 2", "FAZ_tAL": "400501001, 400501002, 400513001", "ID_LINHA": 152823 }, "geometry": { "type": "MultiLineString", "coordinates": [ [ [ 418552.003368174133357, 7647748.386199414730072 ], [ 419099.061337583058048, 7647533.148932757787406 ] ] ] } },
{ "type": "Feature", "properties": { "fid": 622.0, "COMPR_M": 588.06, "CLASSE": "03 - Média", "CD_FAZ": " 400513", "TALHOES": "1, 2", "FAZ_tAL": "400501001, 400501002, 400513001", "ID_LINHA": 152824 }, "geometry": { "type": "MultiLineString", "coordinates": [ [ [ 418550.904989307106007, 7647745.594503896310925 ], [ 419097.962958716147114, 7647530.357237238436937 ] ] ] } },
{ "type": "Feature", "properties": { "fid": 623.0, "COMPR_M": 588.06, "CLASSE": "03 - Média", "CD_FAZ": " 400513", "TALHOES": "1, 2", "FAZ_tAL": "400501001, 400501002, 400513001", "ID_LINHA": 152825 }, "geometry": { "type": "MultiLineString", "coordinates": [ [ [ 418549.806610439438373, 7647742.802808377891779 ], [ 419096.864579849294387, 7647527.565541723743081 ] ] ] } },
{ "type": "Feature", "properties": { "fid": 624.0, "COMPR_M": 587.36, "CLASSE": "03 - Média", "CD_FAZ": " 400513", "TALHOES": "1, 2", "FAZ_tAL": "400501001, 400501002, 400513001", "ID_LINHA": 152826 }, "geometry": { "type": "MultiLineString", "coordinates": [ [ [ 418547.245267775142565, 7647735.428553121164441 ], [ 419093.648088963644113, 7647520.449051309376955 ] ] ] } },
{ "type": "Feature", "properties": { "fid": 625.0, "COMPR_M": 587.36, "CLASSE": "03 - Média", "CD_FAZ": " 400513", "TALHOES": "1, 2", "FAZ_tAL": "400501001, 400501002, 400513001", "ID_LINHA": 152827 }, "geometry": { "type": "MultiLineString", "coordinates": [ [ [ 418546.146888907882385, 7647732.63685760460794 ], [ 419092.549710096325725, 7647517.657355798408389 ] ] ] } },
{ "type": "Feature", "properties": { "fid": 626.0, "COMPR_M": 587.36, "CLASSE": "03 - Média", "CD_FAZ": " 400513", "TALHOES": "1, 2", "FAZ_tAL": "400501001, 400501002, 400513001", "ID_LINHA": 152828 }, "geometry": { "type": "MultiLineString", "coordinates": [ [ [ 418545.048510040156543, 7647729.845162086188793 ], [ 419091.45133122918196, 7647514.865660274401307 ] ] ] } },
{ "type": "Feature", "properties": { "fid": 627.0, "COMPR_M": 587.36, "CLASSE": "03 - Média", "CD_FAZ": " 400513", "TALHOES": "1, 2", "FAZ_tAL": "400501001, 400501002, 400513001", "ID_LINHA": 152829 }, "geometry": { "type": "MultiLineString", "coordinates": [ [ [ 418543.950131173070986, 7647727.053466569632292 ], [ 419090.352952363260556, 7647512.073964757844806 ] ] ] } },
{ "type": "Feature", "properties": { "fid": 628.0, "COMPR_M": 586.66, "CLASSE": "03 - Média", "CD_FAZ": " 400513", "TALHOES": "1, 2", "FAZ_tAL": "400501001, 400501002, 400513001", "ID_LINHA": 152830 }, "geometry": { "type": "MultiLineString", "coordinates": [ [ [ 418541.388788508542348, 7647719.679211310110986 ], [ 419087.136461475747637, 7647504.957474349066615 ] ] ] } },
{ "type": "Feature", "properties": { "fid": 629.0, "COMPR_M": 586.66, "CLASSE": "03 - Média", "CD_FAZ": " 400513", "TALHOES": "1, 2", "FAZ_tAL": "400501001, 400501002, 400513001", "ID_LINHA": 152831 }, "geometry": { "type": "MultiLineString", "coordinates": [ [ [ 418540.29040964122396, 7647716.88751579541713 ], [ 419086.038082608836703, 7647502.165778830647469 ] ] ] } },
{ "type": "Feature", "properties": { "fid": 630.0, "COMPR_M": 586.66, "CLASSE": "03 - Média", "CD_FAZ": " 400513", "TALHOES": "1, 2", "FAZ_tAL": "400501001, 400501002, 400513001", "ID_LINHA": 152832 }, "geometry": { "type": "MultiLineString", "coordinates": [ [ [ 418539.192030774080195, 7647714.095820275135338 ], [ 419084.93970374262426, 7647499.374083314090967 ] ] ] } },
{ "type": "Feature", "properties": { "fid": 631.0, "COMPR_M": 586.66, "CLASSE": "03 - Média", "CD_FAZ": " 400513", "TALHOES": "1, 2", "FAZ_tAL": "400501001, 400501002, 400513001", "ID_LINHA": 152833 }, "geometry": { "type": "MultiLineString", "coordinates": [ [ [ 418538.093651908216998, 7647711.304124760441482 ], [ 419083.841324875829741, 7647496.582387792877853 ] ] ] } },
{ "type": "Feature", "properties": { "fid": 632.0, "COMPR_M": 582.95, "CLASSE": "03 - Média", "CD_FAZ": " 400513", "TALHOES": "2, 1", "FAZ_tAL": "400501002, 400513001", "ID_LINHA": 152834 }, "geometry": { "type": "MultiLineString", "coordinates": [ [ [ 418535.532309239031747, 7647703.929869502782822 ], [ 419077.83192599855829, 7647490.564753290265799 ] ] ] } },
{ "type": "Feature", "properties": { "fid": 633.0, "COMPR_M": 582.95, "CLASSE": "03 - Média", "CD_FAZ": " 400513", "TALHOES": "2, 1", "FAZ_tAL": "400501002, 400513001", "ID_LINHA": 152835 }, "geometry": { "type": "MultiLineString", "coordinates": [ [ [ 418534.433930372993927, 7647701.138173988088965 ], [ 419076.733547131414525, 7647487.773057773709297 ] ] ] } },
{ "type": "Feature", "properties": { "fid": 634.0, "COMPR_M": 582.95, "CLASSE": "03 - Média", "CD_FAZ": " 400513", "TALHOES": "2, 1", "FAZ_tAL": "400501002, 400513001", "ID_LINHA": 152836 }, "geometry": { "type": "MultiLineString", "coordinates": [ [ [ 418533.335551503754687, 7647698.346478467807174 ], [ 419075.635168264387175, 7647484.981362255290151 ] ] ] } },
{ "type": "Feature", "properties": { "fid": 635.0, "COMPR_M": 582.95, "CLASSE": "03 - Média", "CD_FAZ": " 400513", "TALHOES": "2, 1", "FAZ_tAL": "400501002, 400513001", "ID_LINHA": 152837 }, "geometry": { "type": "MultiLineString", "coordinates": [ [ [ 418532.237172637251206, 7647695.554782951250672 ], [ 419074.536789396021049, 7647482.189666736871004 ] ] ] } },
{ "type": "Feature", "properties": { "fid": 636.0, "COMPR_M": 585.56, "CLASSE": "03 - Média", "CD_FAZ": " 400513", "TALHOES": "2, 1", "FAZ_tAL": "400501002, 400513001", "ID_LINHA": 152838 }, "geometry": { "type": "MultiLineString", "coordinates": [ [ [ 418529.675829973944928, 7647688.180527692660689 ], [ 419074.406984077941161, 7647473.858735093846917 ] ] ] } },
{ "type": "Feature", "properties": { "fid": 637.0, "COMPR_M": 587.18, "CLASSE": "03 - Média", "CD_FAZ": " 400513", "TALHOES": "2, 1", "FAZ_tAL": "400501002, 400513001", "ID_LINHA": 152839 }, "geometry": { "type": "MultiLineString", "coordinates": [ [ [ 418528.577451105869841, 7647685.388832176104188 ], [ 419074.811489967105445, 7647470.475737076252699 ] ] ] } },
{ "type": "Feature", "properties": { "fid": 638.0, "COMPR_M": 588.87, "CLASSE": "03 - Média", "CD_FAZ": " 400513", "TALHOES": "2, 1", "FAZ_tAL": "400501002, 400513001", "ID_LINHA": 152840 }, "geometry": { "type": "MultiLineString", "coordinates": [ [ [ 418527.479072239890229, 7647682.597136657685041 ], [ 419075.286112223286182, 7647467.065151890739799 ] ] ] } },
{ "type": "Feature", "properties": { "fid": 639.0, "COMPR_M": 590.67, "CLASSE": "03 - Média", "CD_FAZ": " 400513", "TALHOES": "2, 1", "FAZ_tAL": "400501002, 400513001", "ID_LINHA": 152841 }, "geometry": { "type": "MultiLineString", "coordinates": [ [ [ 418526.380693372047972, 7647679.805441142991185 ], [ 419075.858102014055476, 7647463.616258033551276 ] ] ] } },
{ "type": "Feature", "properties": { "fid": 640.0, "COMPR_M": 591.39, "CLASSE": "03 - Média", "CD_FAZ": " 400513", "TALHOES": "2, 1", "FAZ_tAL": "400501002, 400513001", "ID_LINHA": 152842 }, "geometry": { "type": "MultiLineString", "coordinates": [ [ [ 418523.819350706762634, 7647672.431185885332525 ], [ 419073.974475100985728, 7647455.975358840078115 ] ] ] } },
{ "type": "Feature", "properties": { "fid": 641.0, "COMPR_M": 591.39, "CLASSE": "03 - Média", "CD_FAZ": " 400513", "TALHOES": "2, 1", "FAZ_tAL": "400501002, 400513001", "ID_LINHA": 152843 }, "geometry": { "type": "MultiLineString", "coordinates": [ [ [ 418522.720971842063591, 7647669.639490367844701 ], [ 419072.876096235879231, 7647453.183663321658969 ] ] ] } },
{ "type": "Feature", "properties": { "fid": 642.0, "COMPR_M": 591.39, "CLASSE": "03 - Média", "CD_FAZ": " 400513", "TALHOES": "2, 1", "FAZ_tAL": "400501002, 400513001", "ID_LINHA": 152844 }, "geometry": { "type": "MultiLineString", "coordinates": [ [ [ 418521.622592975443695, 7647666.847794849425554 ], [ 419071.777717368735466, 7647450.391967803239822 ] ] ] } },
{ "type": "Feature", "properties": { "fid": 643.0, "COMPR_M": 591.39, "CLASSE": "03 - Média", "CD_FAZ": " 400513", "TALHOES": "2, 1", "FAZ_tAL": "400501002, 400513001", "ID_LINHA": 152845 }, "geometry": { "type": "MultiLineString", "coordinates": [ [ [ 418520.524214108241722, 7647664.056099331006408 ], [ 419070.679338502988685, 7647447.600272284820676 ] ] ] } },
{ "type": "Feature", "properties": { "fid": 644.0, "COMPR_M": 590.65, "CLASSE": "03 - Média", "CD_FAZ": " 400513", "TALHOES": "2, 1", "FAZ_tAL": "400501002, 400513001", "ID_LINHA": 152846 }, "geometry": { "type": "MultiLineString", "coordinates": [ [ [ 418517.962871436495334, 7647656.681844079867005 ], [ 419067.426073455484584, 7647440.498250485397875 ] ] ] } },
{ "type": "Feature", "properties": { "fid": 645.0, "COMPR_M": 590.65, "CLASSE": "03 - Média", "CD_FAZ": " 400513", "TALHOES": "2, 1", "FAZ_tAL": "400501002, 400513001", "ID_LINHA": 152847 }, "geometry": { "type": "MultiLineString", "coordinates": [ [ [ 418516.86449256783817, 7647653.890148560516536 ], [ 419066.327694593230262, 7647437.706554965116084 ] ] ] } },
{ "type": "Feature", "properties": { "fid": 646.0, "COMPR_M": 590.65, "CLASSE": "03 - Média", "CD_FAZ": " 400513", "TALHOES": "2, 1", "FAZ_tAL": "400501002, 400513001", "ID_LINHA": 152848 }, "geometry": { "type": "MultiLineString", "coordinates": [ [ [ 418515.766113697900437, 7647651.098453044891357 ], [ 419065.229315730335657, 7647434.914859445765615 ] ] ] } },
{ "type": "Feature", "properties": { "fid": 647.0, "COMPR_M": 590.65, "CLASSE": "03 - Média", "CD_FAZ": " 400513", "TALHOES": "2, 1", "FAZ_tAL": "400501002, 400513001", "ID_LINHA": 152849 }, "geometry": { "type": "MultiLineString", "coordinates": [ [ [ 418514.667734829417896, 7647648.306757526472211 ], [ 419064.130936866160482, 7647432.123163927346468 ] ] ] } },
{ "type": "Feature", "properties": { "fid": 648.0, "COMPR_M": 589.91, "CLASSE": "03 - Média", "CD_FAZ": " 400513", "TALHOES": "2, 1", "FAZ_tAL": "400501002, 400513001", "ID_LINHA": 152850 }, "geometry": { "type": "MultiLineString", "coordinates": [ [ [ 418512.106392172980122, 7647640.93250226881355 ], [ 419060.877671803289559, 7647425.021142135374248 ] ] ] } },
{ "type": "Feature", "properties": { "fid": 649.0, "COMPR_M": 589.91, "CLASSE": "03 - Média", "CD_FAZ": " 400513", "TALHOES": "2, 1", "FAZ_tAL": "400501002, 400513001", "ID_LINHA": 152851 }, "geometry": { "type": "MultiLineString", "coordinates": [ [ [ 418511.008013304381166, 7647638.140806747600436 ], [ 419059.779292938008439, 7647422.229446616955101 ] ] ] } },
{ "type": "Feature", "properties": { "fid": 650.0, "COMPR_M": 589.91, "CLASSE": "03 - Média", "CD_FAZ": " 400513", "TALHOES": "2, 1", "FAZ_tAL": "400501002, 400513001", "ID_LINHA": 152852 }, "geometry": { "type": "MultiLineString", "coordinates": [ [ [ 418509.909634439158253, 7647635.349111231975257 ], [ 419058.680914071388543, 7647419.437751099467278 ] ] ] } },
{ "type": "Feature", "properties": { "fid": 651.0, "COMPR_M": 589.91, "CLASSE": "03 - Média", "CD_FAZ": " 400513", "TALHOES": "2, 1", "FAZ_tAL": "400501002, 400513001", "ID_LINHA": 152853 }, "geometry": { "type": "MultiLineString", "coordinates": [ [ [ 418508.81125557073392, 7647632.557415712624788 ], [ 419057.582535204826854, 7647416.646055581048131 ] ] ] } },
{ "type": "Feature", "properties": { "fid": 652.0, "COMPR_M": 589.16, "CLASSE": "03 - Média", "CD_FAZ": " 400513", "TALHOES": "2, 1", "FAZ_tAL": "400501002, 400513001", "ID_LINHA": 152854 }, "geometry": { "type": "MultiLineString", "coordinates": [ [ [ 418506.249912906554528, 7647625.183160457760096 ], [ 419054.32927015516907, 7647409.544033782556653 ] ] ] } },
{ "type": "Feature", "properties": { "fid": 653.0, "COMPR_M": 589.16, "CLASSE": "03 - Média", "CD_FAZ": " 400513", "TALHOES": "2, 1", "FAZ_tAL": "400501002, 400513001", "ID_LINHA": 152855 }, "geometry": { "type": "MultiLineString", "coordinates": [ [ [ 418505.151534039352555, 7647622.391464939340949 ], [ 419053.23089128814172, 7647406.752338266000152 ] ] ] } },
{ "type": "Feature", "properties": { "fid": 654.0, "COMPR_M": 589.16, "CLASSE": "03 - Média", "CD_FAZ": " 400513", "TALHOES": "2, 1", "FAZ_tAL": "400501002, 400513001", "ID_LINHA": 152856 }, "geometry": { "type": "MultiLineString", "coordinates": [ [ [ 418504.053155173547566, 7647619.599769421853125 ], [ 419052.132512422511354, 7647403.960642747581005 ] ] ] } },
{ "type": "Feature", "properties": { "fid": 655.0, "COMPR_M": 589.16, "CLASSE": "03 - Média", "CD_FAZ": " 400513", "TALHOES": "2, 1", "FAZ_tAL": "400501002, 400513001", "ID_LINHA": 152857 }, "geometry": { "type": "MultiLineString", "coordinates": [ [ [ 418502.954776305821724, 7647616.808073902502656 ], [ 419051.034133556298912, 7647401.168947229161859 ] ] ] } },
{ "type": "Feature", "properties": { "fid": 656.0, "COMPR_M": 588.42, "CLASSE": "03 - Média", "CD_FAZ": " 400513", "TALHOES": "2, 1", "FAZ_tAL": "400501002, 400513001", "ID_LINHA": 152858 }, "geometry": { "type": "MultiLineString", "coordinates": [ [ [ 418500.393433638673741, 7647609.433818648569286 ], [ 419047.780868506524712, 7647394.066925430670381 ] ] ] } },
{ "type": "Feature", "properties": { "fid": 657.0, "COMPR_M": 588.42, "CLASSE": "03 - Média", "CD_FAZ": " 400513", "TALHOES": "2, 1", "FAZ_tAL": "400501002, 400513001", "ID_LINHA": 152859 }, "geometry": { "type": "MultiLineString", "coordinates": [ [ [ 418499.295054771529976, 7647606.642123131081462 ], [ 419046.68248963856604, 7647391.275229914113879 ] ] ] } },
{ "type": "Feature", "properties": { "fid": 658.0, "COMPR_M": 588.42, "CLASSE": "03 - Média", "CD_FAZ": " 400513", "TALHOES": "2, 1", "FAZ_tAL": "400501002, 400513001", "ID_LINHA": 152860 }, "geometry": { "type": "MultiLineString", "coordinates": [ [ [ 418498.196675904502627, 7647603.850427612662315 ], [ 419045.584110772586428, 7647388.483534393832088 ] ] ] } },
{ "type": "Feature", "properties": { "fid": 659.0, "COMPR_M": 588.42, "CLASSE": "03 - Média", "CD_FAZ": " 400513", "TALHOES": "2, 1", "FAZ_tAL": "400501002, 400513001", "ID_LINHA": 152861 }, "geometry": { "type": "MultiLineString", "coordinates": [ [ [ 418497.098297038231976, 7647601.058732096105814 ], [ 419044.485731906723231, 7647385.691838875412941 ] ] ] } },
{ "type": "Feature", "properties": { "fid": 660.0, "COMPR_M": 587.67, "CLASSE": "03 - Média", "CD_FAZ": " 400513", "TALHOES": "2, 1", "FAZ_tAL": "400501002, 400513001", "ID_LINHA": 152862 }, "geometry": { "type": "MultiLineString", "coordinates": [ [ [ 418494.536954371433239, 7647593.684476841241121 ], [ 419041.232466855668463, 7647378.589817080646753 ] ] ] } },
{ "type": "Feature", "properties": { "fid": 661.0, "COMPR_M": 587.67, "CLASSE": "03 - Média", "CD_FAZ": " 400513", "TALHOES": "2, 1", "FAZ_tAL": "400501002, 400513001", "ID_LINHA": 152863 }, "geometry": { "type": "MultiLineString", "coordinates": [ [ [ 418493.438575505046174, 7647590.892781322821975 ], [ 419040.134087988699321, 7647375.798121559433639 ] ] ] } },
{ "type": "Feature", "properties": { "fid": 662.0, "COMPR_M": 587.67, "CLASSE": "03 - Média", "CD_FAZ": " 400513", "TALHOES": "2, 1", "FAZ_tAL": "400501002, 400513001", "ID_LINHA": 152864 }, "geometry": { "type": "MultiLineString", "coordinates": [ [ [ 418492.340196638775524, 7647588.101085805334151 ], [ 419039.035709123127162, 7647373.00642604008317 ] ] ] } },
{ "type": "Feature", "properties": { "fid": 663.0, "COMPR_M": 587.67, "CLASSE": "03 - Média", "CD_FAZ": " 400513", "TALHOES": "2, 1", "FAZ_tAL": "400501002, 400513001", "ID_LINHA": 152865 }, "geometry": { "type": "MultiLineString", "coordinates": [ [ [ 418491.241817771981005, 7647585.309390287846327 ], [ 419037.937330256216228, 7647370.214730524457991 ] ] ] } },
{ "type": "Feature", "properties": { "fid": 664.0, "COMPR_M": 586.93, "CLASSE": "03 - Média", "CD_FAZ": " 400513", "TALHOES": "2, 1", "FAZ_tAL": "400501002, 400513001", "ID_LINHA": 152866 }, "geometry": { "type": "MultiLineString", "coordinates": [ [ [ 418488.680475104250945, 7647577.935135030187666 ], [ 419034.684065207955427, 7647363.112708727829158 ] ] ] } },
{ "type": "Feature", "properties": { "fid": 665.0, "COMPR_M": 586.93, "CLASSE": "03 - Média", "CD_FAZ": " 400513", "TALHOES": "2, 1", "FAZ_tAL": "400501002, 400513001", "ID_LINHA": 152867 }, "geometry": { "type": "MultiLineString", "coordinates": [ [ [ 418487.582096238038503, 7647575.143439514562488 ], [ 419033.585686340753455, 7647360.321013210341334 ] ] ] } },
{ "type": "Feature", "properties": { "fid": 666.0, "COMPR_M": 586.93, "CLASSE": "03 - Média", "CD_FAZ": " 400513", "TALHOES": "2, 1", "FAZ_tAL": "400501002, 400513001", "ID_LINHA": 152868 }, "geometry": { "type": "MultiLineString", "coordinates": [ [ [ 418486.483717370545492, 7647572.351743996143341 ], [ 419032.487307474191766, 7647357.529317690990865 ] ] ] } },
{ "type": "Feature", "properties": { "fid": 667.0, "COMPR_M": 586.93, "CLASSE": "03 - Média", "CD_FAZ": " 400513", "TALHOES": "2, 1", "FAZ_tAL": "400501002, 400513001", "ID_LINHA": 152869 }, "geometry": { "type": "MultiLineString", "coordinates": [ [ [ 418485.385338502645027, 7647569.560048477724195 ], [ 419031.388928608386777, 7647354.737622171640396 ] ] ] } },
{ "type": "Feature", "properties": { "fid": 668.0, "COMPR_M": 586.19, "CLASSE": "03 - Média", "CD_FAZ": " 400513", "TALHOES": "2, 1", "FAZ_tAL": "400501002, 400513001", "ID_LINHA": 152870 }, "geometry": { "type": "MultiLineString", "coordinates": [ [ [ 418482.823995836020913, 7647562.185793220065534 ], [ 419028.135663559020031, 7647347.635600375011563 ] ] ] } },
{ "type": "Feature", "properties": { "fid": 669.0, "COMPR_M": 586.19, "CLASSE": "03 - Média", "CD_FAZ": " 400513", "TALHOES": "2, 1", "FAZ_tAL": "400501002, 400513001", "ID_LINHA": 152871 }, "geometry": { "type": "MultiLineString", "coordinates": [ [ [ 418481.725616970623378, 7647559.394097704440355 ], [ 419027.037284691468813, 7647344.843904855661094 ] ] ] } },
{ "type": "Feature", "properties": { "fid": 670.0, "COMPR_M": 586.19, "CLASSE": "03 - Média", "CD_FAZ": " 400513", "TALHOES": "2, 1", "FAZ_tAL": "400501002, 400513001", "ID_LINHA": 152872 }, "geometry": { "type": "MultiLineString", "coordinates": [ [ [ 418480.627238104061689, 7647556.602402185089886 ], [ 419025.938905823975801, 7647342.052209340035915 ] ] ] } },
{ "type": "Feature", "properties": { "fid": 671.0, "COMPR_M": 586.19, "CLASSE": "03 - Média", "CD_FAZ": " 400513", "TALHOES": "2, 1", "FAZ_tAL": "400501002, 400513001", "ID_LINHA": 152873 }, "geometry": { "type": "MultiLineString", "coordinates": [ [ [ 418479.528859237558208, 7647553.810706668533385 ], [ 419024.840526957297698, 7647339.260513817891479 ] ] ] } },
{ "type": "Feature", "properties": { "fid": 672.0, "COMPR_M": 585.44, "CLASSE": "03 - Média", "CD_FAZ": " 400513", "TALHOES": "2, 1", "FAZ_tAL": "400501002, 400513001", "ID_LINHA": 152874 }, "geometry": { "type": "MultiLineString", "coordinates": [ [ [ 418476.967516570119187, 7647546.43645141273737 ], [ 419021.587261909502558, 7647332.158492019400001 ] ] ] } },
{ "type": "Feature", "properties": { "fid": 673.0, "COMPR_M": 585.44, "CLASSE": "03 - Média", "CD_FAZ": " 400513", "TALHOES": "2, 1", "FAZ_tAL": "400501002, 400513001", "ID_LINHA": 152875 }, "geometry": { "type": "MultiLineString", "coordinates": [ [ [ 418475.869137702975422, 7647543.644755894318223 ], [ 419020.488883042358793, 7647329.366796504706144 ] ] ] } },
{ "type": "Feature", "properties": { "fid": 674.0, "COMPR_M": 585.44, "CLASSE": "03 - Média", "CD_FAZ": " 400513", "TALHOES": "2, 1", "FAZ_tAL": "400501002, 400513001", "ID_LINHA": 152876 }, "geometry": { "type": "MultiLineString", "coordinates": [ [ [ 418474.770758835889865, 7647540.853060377761722 ], [ 419019.390504176029935, 7647326.575100985355675 ] ] ] } },
{ "type": "Feature", "properties": { "fid": 675.0, "COMPR_M": 585.44, "CLASSE": "03 - Média", "CD_FAZ": " 400513", "TALHOES": "2, 1", "FAZ_tAL": "400501002, 400513001", "ID_LINHA": 152877 }, "geometry": { "type": "MultiLineString", "coordinates": [ [ [ 418473.67237996897893, 7647538.061364860273898 ], [ 419018.292125309060793, 7647323.783405467867851 ] ] ] } },
{ "type": "Feature", "properties": { "fid": 676.0, "COMPR_M": 584.7, "CLASSE": "03 - Média", "CD_FAZ": " 400513", "TALHOES": "2, 1", "FAZ_tAL": "400501002, 400513001", "ID_LINHA": 152878 }, "geometry": { "type": "MultiLineString", "coordinates": [ [ [ 418471.111037302180193, 7647530.687109604477882 ], [ 419015.038860260217916, 7647316.681383669376373 ] ] ] } },
{ "type": "Feature", "properties": { "fid": 677.0, "COMPR_M": 584.7, "CLASSE": "03 - Média", "CD_FAZ": " 400513", "TALHOES": "2, 1", "FAZ_tAL": "400501002, 400513001", "ID_LINHA": 152879 }, "geometry": { "type": "MultiLineString", "coordinates": [ [ [ 418470.012658435211051, 7647527.895414085127413 ], [ 419013.940481394238304, 7647313.889688150957227 ] ] ] } },
{ "type": "Feature", "properties": { "fid": 678.0, "COMPR_M": 584.7, "CLASSE": "03 - Média", "CD_FAZ": " 400513", "TALHOES": "2, 1", "FAZ_tAL": "400501002, 400513001", "ID_LINHA": 152880 }, "geometry": { "type": "MultiLineString", "coordinates": [ [ [ 418468.914279568998609, 7647525.103718567639589 ], [ 419012.84210252633784, 7647311.097992634400725 ] ] ] } },
{ "type": "Feature", "properties": { "fid": 679.0, "COMPR_M": 584.7, "CLASSE": "03 - Média", "CD_FAZ": " 400513", "TALHOES": "2, 1", "FAZ_tAL": "400501002, 400513001", "ID_LINHA": 152881 }, "geometry": { "type": "MultiLineString", "coordinates": [ [ [ 418467.815900702320505, 7647522.312023051083088 ], [ 419011.743723661173135, 7647308.306297115981579 ] ] ] } },
{ "type": "Feature", "properties": { "fid": 680.0, "COMPR_M": 583.96, "CLASSE": "03 - Média", "CD_FAZ": " 400513", "TALHOES": "2, 1", "FAZ_tAL": "400501002, 400513001", "ID_LINHA": 152882 }, "geometry": { "type": "MultiLineString", "coordinates": [ [ [ 418465.254558035521768, 7647514.93776779435575 ], [ 419008.490458609419875, 7647301.204275321215391 ] ] ] } },
{ "type": "Feature", "properties": { "fid": 681.0, "COMPR_M": 583.96, "CLASSE": "03 - Média", "CD_FAZ": " 400513", "TALHOES": "2, 1", "FAZ_tAL": "400501002, 400513001", "ID_LINHA": 152883 }, "geometry": { "type": "MultiLineString", "coordinates": [ [ [ 418464.156179168727249, 7647512.146072277799249 ], [ 419007.392079744604416, 7647298.412579800933599 ] ] ] } },
{ "type": "Feature", "properties": { "fid": 682.0, "COMPR_M": 583.96, "CLASSE": "03 - Média", "CD_FAZ": " 400513", "TALHOES": "2, 1", "FAZ_tAL": "400501002, 400513001", "ID_LINHA": 152884 }, "geometry": { "type": "MultiLineString", "coordinates": [ [ [ 418463.057800301467068, 7647509.35437675844878 ], [ 419006.293700877809897, 7647295.620884283445776 ] ] ] } },
{ "type": "Feature", "properties": { "fid": 683.0, "COMPR_M": 583.96, "CLASSE": "03 - Média", "CD_FAZ": " 400513", "TALHOES": "2, 1", "FAZ_tAL": "400501002, 400513001", "ID_LINHA": 152885 }, "geometry": { "type": "MultiLineString", "coordinates": [ [ [ 418461.959421434381511, 7647506.562681240960956 ], [ 419005.195322009851225, 7647292.829188762232661 ] ] ] } },
{ "type": "Feature", "properties": { "fid": 684.0, "COMPR_M": 583.21, "CLASSE": "03 - Média", "CD_FAZ": " 400513", "TALHOES": "2, 1", "FAZ_tAL": "400501002, 400513001", "ID_LINHA": 152886 }, "geometry": { "type": "MultiLineString", "coordinates": [ [ [ 418459.398078767582774, 7647499.188425984233618 ], [ 419001.942056961241178, 7647285.727166965603828 ] ] ] } },
{ "type": "Feature", "properties": { "fid": 685.0, "COMPR_M": 583.21, "CLASSE": "03 - Média", "CD_FAZ": " 400513", "TALHOES": "2, 1", "FAZ_tAL": "400501002, 400513001", "ID_LINHA": 152887 }, "geometry": { "type": "MultiLineString", "coordinates": [ [ [ 418458.299699901137501, 7647496.396730467677116 ], [ 419000.843678096192889, 7647282.935471449047327 ] ] ] } },
{ "type": "Feature", "properties": { "fid": 686.0, "COMPR_M": 583.21, "CLASSE": "03 - Média", "CD_FAZ": " 400513", "TALHOES": "2, 1", "FAZ_tAL": "400501002, 400513001", "ID_LINHA": 152888 }, "geometry": { "type": "MultiLineString", "coordinates": [ [ [ 418457.201321034808643, 7647493.60503494925797 ], [ 418999.745299229281954, 7647280.143775931559503 ] ] ] } },
{ "type": "Feature", "properties": { "fid": 687.0, "COMPR_M": 583.21, "CLASSE": "03 - Média", "CD_FAZ": " 400513", "TALHOES": "2, 1", "FAZ_tAL": "400501002, 400513001", "ID_LINHA": 152889 }, "geometry": { "type": "MultiLineString", "coordinates": [ [ [ 418456.102942168596201, 7647490.813339431770146 ], [ 418998.646920361788943, 7647277.352080413140357 ] ] ] } },
{ "type": "Feature", "properties": { "fid": 688.0, "COMPR_M": 582.46, "CLASSE": "03 - Média", "CD_FAZ": " 400513", "TALHOES": "2, 1", "FAZ_tAL": "400501002, 400513001", "ID_LINHA": 152890 }, "geometry": { "type": "MultiLineString", "coordinates": [ [ [ 418453.541599501331802, 7647483.439084174111485 ], [ 418995.382041821023449, 7647270.254627885296941 ] ] ] } },
{ "type": "Feature", "properties": { "fid": 689.0, "COMPR_M": 582.46, "CLASSE": "03 - Média", "CD_FAZ": " 400513", "TALHOES": "2, 1", "FAZ_tAL": "400501002, 400513001", "ID_LINHA": 152891 }, "geometry": { "type": "MultiLineString", "coordinates": [ [ [ 418452.44322063511936, 7647480.647388657554984 ], [ 418994.283662953530438, 7647267.462932366877794 ] ] ] } },
{ "type": "Feature", "properties": { "fid": 690.0, "COMPR_M": 582.46, "CLASSE": "03 - Média", "CD_FAZ": " 400513", "TALHOES": "2, 1", "FAZ_tAL": "400501002, 400513001", "ID_LINHA": 152892 }, "geometry": { "type": "MultiLineString", "coordinates": [ [ [ 418451.344841768441256, 7647477.855693140998483 ], [ 418993.185284086735919, 7647264.671236847527325 ] ] ] } },
{ "type": "Feature", "properties": { "fid": 691.0, "COMPR_M": 582.46, "CLASSE": "03 - Média", "CD_FAZ": " 400513", "TALHOES": "2, 1", "FAZ_tAL": "400501002, 400513001", "ID_LINHA": 152893 }, "geometry": { "type": "MultiLineString", "coordinates": [ [ [ 418450.246462901239283, 7647475.063997622579336 ], [ 418992.086905220756307, 7647261.879541330970824 ] ] ] } },
{ "type": "Feature", "properties": { "fid": 692.0, "COMPR_M": 581.68, "CLASSE": "03 - Média", "CD_FAZ": " 400513", "TALHOES": "2, 1", "FAZ_tAL": "400501002, 400513001", "ID_LINHA": 152894 }, "geometry": { "type": "MultiLineString", "coordinates": [ [ [ 418447.685120235430077, 7647467.689742366783321 ], [ 418988.805353963165544, 7647254.788648603484035 ] ] ] } },
{ "type": "Feature", "properties": { "fid": 693.0, "COMPR_M": 581.68, "CLASSE": "03 - Média", "CD_FAZ": " 400513", "TALHOES": "2, 1", "FAZ_tAL": "400501002, 400513001", "ID_LINHA": 152895 }, "geometry": { "type": "MultiLineString", "coordinates": [ [ [ 418446.586741368868388, 7647464.898046851158142 ], [ 418987.706975096196402, 7647251.996953085996211 ] ] ] } },
{ "type": "Feature", "properties": { "fid": 694.0, "COMPR_M": 581.68, "CLASSE": "03 - Média", "CD_FAZ": " 400513", "TALHOES": "2, 1", "FAZ_tAL": "400501002, 400513001", "ID_LINHA": 152896 }, "geometry": { "type": "MultiLineString", "coordinates": [ [ [ 418445.488362501200754, 7647462.106351332738996 ], [ 418986.608596229925752, 7647249.205257568508387 ] ] ] } },
{ "type": "Feature", "properties": { "fid": 695.0, "COMPR_M": 581.68, "CLASSE": "03 - Média", "CD_FAZ": " 400513", "TALHOES": "2, 1", "FAZ_tAL": "400501002, 400513001", "ID_LINHA": 152897 }, "geometry": { "type": "MultiLineString", "coordinates": [ [ [ 418444.389983635046519, 7647459.314655811525881 ], [ 418985.510217363771517, 7647246.41356205008924 ] ] ] } },
{ "type": "Feature", "properties": { "fid": 696.0, "COMPR_M": 580.91, "CLASSE": "03 - Média", "CD_FAZ": " 400513", "TALHOES": "2, 1", "FAZ_tAL": "400501002, 400513001", "ID_LINHA": 152898 }, "geometry": { "type": "MultiLineString", "coordinates": [ [ [ 418441.828640967432875, 7647451.940400556661189 ], [ 418982.228666106064338, 7647239.322669317945838 ] ] ] } },
{ "type": "Feature", "properties": { "fid": 697.0, "COMPR_M": 580.91, "CLASSE": "03 - Média", "CD_FAZ": " 400513", "TALHOES": "2, 1", "FAZ_tAL": "400501002, 400513001", "ID_LINHA": 152899 }, "geometry": { "type": "MultiLineString", "coordinates": [ [ [ 418440.730262100580148, 7647449.148705039173365 ], [ 418981.130287239560857, 7647236.530973804183304 ] ] ] } },
{ "type": "Feature", "properties": { "fid": 698.0, "COMPR_M": 580.91, "CLASSE": "03 - Média", "CD_FAZ": " 400513", "TALHOES": "2, 1", "FAZ_tAL": "400501002, 400513001", "ID_LINHA": 152900 }, "geometry": { "type": "MultiLineString", "coordinates": [ [ [ 418439.631883233203553, 7647446.357009521685541 ], [ 418980.031908373232, 7647233.739278283901513 ] ] ] } },
{ "type": "Feature", "properties": { "fid": 699.0, "COMPR_M": 580.91, "CLASSE": "03 - Média", "CD_FAZ": " 400513", "TALHOES": "2, 1", "FAZ_tAL": "400501002, 400513001", "ID_LINHA": 152901 }, "geometry": { "type": "MultiLineString", "coordinates": [ [ [ 418438.533504366059788, 7647443.565314006060362 ], [ 418978.933529506321065, 7647230.947582765482366 ] ] ] } }
]
}
