{
"type": "FeatureCollection",
"name": " 400508",
"crs": { "type": "name", "properties": { "name": "urn:ogc:def:crs:EPSG::32722" } },
"xy_coordinate_resolution": 1e-15,
"features": [
{ "type": "Feature", "properties": { "fid": 32.0, "COMPR_M": 34.07, "CLASSE": "01 - Muito curta", "CD_FAZ": " 400508", "TALHOES": "2", "FAZ_tAL": "400504002, 400508002", "ID_LINHA": 157640 }, "geometry": { "type": "MultiLineString", "coordinates": [ [ [ 419752.524342411546968, 7646373.949050465598702 ], [ 419737.400612063822336, 7646364.114212431944907 ], [ 419724.512761401245371, 7646354.612348004244268 ] ] ] } },
{ "type": "Feature", "properties": { "fid": 33.0, "COMPR_M": 59.09, "CLASSE": "01 - Muito curta", "CD_FAZ": " 400508", "TALHOES": "2", "FAZ_tAL": "400504002, 400508002", "ID_LINHA": 157641 }, "geometry": { "type": "MultiLineString", "coordinates": [ [ [ 419756.201331220043357, 7646379.592419747263193 ], [ 419743.399423001683317, 7646371.770928797312081 ], [ 419730.744692360865884, 7646363.057553680613637 ], [ 419718.791538923513144, 7646353.916198916733265 ], [ 419708.346857224591076, 7646345.119751576334238 ] ] ] } },
{ "type": "Feature", "properties": { "fid": 34.0, "COMPR_M": 79.31, "CLASSE": "01 - Muito curta", "CD_FAZ": " 400508", "TALHOES": "2", "FAZ_tAL": "400504002, 400508002", "ID_LINHA": 157642 }, "geometry": { "type": "MultiLineString", "coordinates": [ [ [ 419759.718071135692298, 7646384.989842215552926 ], [ 419744.448571673245169, 7646376.009442871436477 ], [ 419726.535482332692482, 7646363.688281871378422 ], [ 419709.84980528417509, 7646350.400455331429839 ], [ 419696.163836960855406, 7646337.965899035334587 ] ] ] } },
{ "type": "Feature", "properties": { "fid": 35.0, "COMPR_M": 86.16, "CLASSE": "01 - Muito curta", "CD_FAZ": " 400508", "TALHOES": "2", "FAZ_tAL": "400504002, 400508002", "ID_LINHA": 157643 }, "geometry": { "type": "MultiLineString", "coordinates": [ [ [ 419763.095335199614055, 7646390.17319992184639 ], [ 419745.600301318278071, 7646380.269118598662317 ], [ 419727.216432860586792, 7646367.91061782464385 ], [ 419710.262188691063784, 7646354.678471032530069 ], [ 419693.654346082592383, 7646339.708707761019468 ] ] ] } },
{ "type": "Feature", "properties": { "fid": 36.0, "COMPR_M": 85.25, "CLASSE": "01 - Muito curta", "CD_FAZ": " 400508", "TALHOES": "2", "FAZ_tAL": "400504002, 400508002", "ID_LINHA": 157644 }, "geometry": { "type": "MultiLineString", "coordinates": [ [ [ 419766.332060627173632, 7646395.140861722640693 ], [ 419749.739759105606936, 7646386.256816394627094 ], [ 419730.539434415346477, 7646373.959417317062616 ], [ 419713.151445895200595, 7646360.929850985296071 ], [ 419696.607314491993748, 7646346.645776544697583 ] ] ] } },
{ "type": "Feature", "properties": { "fid": 37.0, "COMPR_M": 84.58, "CLASSE": "01 - Muito curta", "CD_FAZ": " 400508", "TALHOES": "2", "FAZ_tAL": "400504002, 400508002", "ID_LINHA": 157645 }, "geometry": { "type": "MultiLineString", "coordinates": [ [ [ 419769.453344859997742, 7646399.931346674449742 ], [ 419751.192063572409097, 7646390.555379491299391 ], [ 419734.135861186252441, 7646380.040370166301727 ], [ 419716.193192432401702, 7646367.146673106588423 ], [ 419699.346805787237827, 7646353.183546116575599 ] ] ] } },
{ "type": "Feature", "properties": { "fid": 38.0, "COMPR_M": 83.27, "CLASSE": "01 - Muito curta", "CD_FAZ": " 400508", "TALHOES": "2", "FAZ_tAL": "400504002, 400508002", "ID_LINHA": 157646 }, "geometry": { "type": "MultiLineString", "coordinates": [ [ [ 419772.471176419930998, 7646404.563054524362087 ], [ 419755.968976641423069, 7646396.605171332135797 ], [ 419738.024177931714803, 7646386.145121267065406 ], [ 419719.38544197648298, 7646373.325722839683294 ], [ 419702.54048823134508, 7646359.934935288503766 ] ] ] } },
{ "type": "Feature", "properties": { "fid": 39.0, "COMPR_M": 78.42, "CLASSE": "01 - Muito curta", "CD_FAZ": " 400508", "TALHOES": "2", "FAZ_tAL": "400504002, 400508002", "ID_LINHA": 157647 }, "geometry": { "type": "MultiLineString", "coordinates": [ [ [ 419775.393327575351577, 7646409.047913989052176 ], [ 419757.895652513427194, 7646400.995553443208337 ], [ 419742.221878640702926, 7646392.262846075929701 ], [ 419725.393551178160124, 7646381.3433209778741 ], [ 419708.471454804064706, 7646368.707822343334556 ] ] ] } },
{ "type": "Feature", "properties": { "fid": 40.0, "COMPR_M": 57.84, "CLASSE": "01 - Muito curta", "CD_FAZ": " 400508", "TALHOES": "2", "FAZ_tAL": "400504002, 400508002", "ID_LINHA": 157648 }, "geometry": { "type": "MultiLineString", "coordinates": [ [ [ 419778.228379296720959, 7646413.399094976484776 ], [ 419767.399266533146147, 7646408.893037868663669 ], [ 419753.152705368935131, 7646401.903337438590825 ], [ 419740.67641327920137, 7646394.834201999008656 ], [ 419727.292609951517079, 7646386.281892005354166 ] ] ] } },
{ "type": "Feature", "properties": { "fid": 41.0, "COMPR_M": 49.0, "CLASSE": "01 - Muito curta", "CD_FAZ": " 400508", "TALHOES": "2", "FAZ_tAL": "400504002, 400508002", "ID_LINHA": 157649 }, "geometry": { "type": "MultiLineString", "coordinates": [ [ [ 419780.985622446285561, 7646417.63085691537708 ], [ 419770.105767818167806, 7646413.351898076944053 ], [ 419758.701132256304845, 7646408.114692522212863 ], [ 419737.058957801898941, 7646396.142969775944948 ] ] ] } },
{ "type": "Feature", "properties": { "fid": 45.0, "COMPR_M": 13.61, "CLASSE": "01 - Muito curta", "CD_FAZ": " 400508", "TALHOES": "2", "FAZ_tAL": "400504002, 400508002", "ID_LINHA": 157653 }, "geometry": { "type": "MultiLineString", "coordinates": [ [ [ 419507.449591997312382, 7646244.53262678720057 ], [ 419503.48770466982387, 7646231.521024790592492 ] ] ] } },
{ "type": "Feature", "properties": { "fid": 46.0, "COMPR_M": 399.22, "CLASSE": "03 - Média", "CD_FAZ": " 400508", "TALHOES": "2", "FAZ_tAL": "400504002, 400508002", "ID_LINHA": 157654 }, "geometry": { "type": "MultiLineString", "coordinates": [ [ [ 419830.391803740989417, 7646493.458481186069548 ], [ 419822.005784739390947, 7646497.561030727811158 ], [ 419801.817386901238933, 7646506.282524751499295 ], [ 419784.901670266466681, 7646512.884540403261781 ], [ 419769.385521704796702, 7646517.723519119434059 ], [ 419748.86568760802038, 7646522.322789577767253 ], [ 419739.340183689200785, 7646522.96739826630801 ], [ 419727.005570548644755, 7646521.554129708558321 ], [ 419717.014289673883468, 7646518.304664639756083 ], [ 419713.710548415256198, 7646516.384682337753475 ], [ 419710.749883370765019, 7646513.960850084200501 ], [ 419704.809345769288484, 7646507.746476019732654 ], [ 419698.553961919213179, 7646499.305046275258064 ], [ 419688.345152158581186, 7646480.904685986228287 ], [ 419682.389633738494013, 7646468.925452029332519 ], [ 419677.919189252716023, 7646458.362285085953772 ], [ 419669.928937363554724, 7646436.854206128045917 ], [ 419659.353213834110647, 7646415.426825767382979 ], [ 419646.076754290144891, 7646384.712694965302944 ], [ 419641.39935906935716, 7646372.188695522025228 ], [ 419631.003272872418165, 7646341.360986702144146 ], [ 419624.562806954665575, 7646326.459358358755708 ], [ 419616.877716864983086, 7646313.22506633028388 ], [ 419604.439440175483469, 7646295.095506578683853 ], [ 419591.382919926079921, 7646278.613029472529888 ], [ 419587.075179982639384, 7646273.909191507846117 ] ] ] } },
{ "type": "Feature", "properties": { "fid": 60.0, "COMPR_M": 221.48, "CLASSE": "02 - Curta", "CD_FAZ": " 400508", "TALHOES": "2", "FAZ_tAL": "400504002, 400508002", "ID_LINHA": 157661 }, "geometry": { "type": "MultiLineString", "coordinates": [ [ [ 419885.723064869293012, 7646525.45804154779762 ], [ 419848.81712517287815, 7646544.65585083886981 ], [ 419812.515603239531629, 7646560.236279560253024 ], [ 419798.523180900374427, 7646565.306804926134646 ], [ 419785.531189283588901, 7646569.302245704457164 ], [ 419756.161296388425399, 7646575.849939350038767 ], [ 419745.550955817045178, 7646576.894099390134215 ], [ 419735.984253017057199, 7646576.880050168372691 ], [ 419723.328201751166489, 7646575.717089409939945 ], [ 419713.288254881161265, 7646573.80173877812922 ], [ 419702.917584529030137, 7646570.777047201059759 ], [ 419693.764181098551489, 7646567.052514313720167 ], [ 419685.33769220294198, 7646562.384698548354208 ], [ 419678.682151127199177, 7646557.560196756385267 ] ] ] } },
{ "type": "Feature", "properties": { "fid": 76.0, "COMPR_M": 236.44, "CLASSE": "02 - Curta", "CD_FAZ": " 400508", "TALHOES": "2", "FAZ_tAL": "400504002, 400508002", "ID_LINHA": 157670 }, "geometry": { "type": "MultiLineString", "coordinates": [ [ [ 419913.413260884757619, 7646525.482056690379977 ], [ 419901.008096384641249, 7646533.746968084014952 ], [ 419889.761230901582167, 7646540.420913685113192 ], [ 419853.939509957155678, 7646558.827834088355303 ], [ 419816.824461564712692, 7646574.651974046602845 ], [ 419800.957661301246844, 7646580.30446077696979 ], [ 419786.760586492659058, 7646584.500496848486364 ], [ 419758.449826254276559, 7646590.675230191089213 ], [ 419748.578639068058692, 7646591.751835921779275 ], [ 419739.444804821861908, 7646591.984830125235021 ], [ 419726.562392233638093, 7646591.206638694740832 ], [ 419714.260046706767753, 7646589.389063829556108 ], [ 419702.344436636194587, 7646586.354685029946268 ], [ 419692.539106342126615, 7646582.89188040792942 ] ] ] } },
{ "type": "Feature", "properties": { "fid": 77.0, "COMPR_M": 228.86, "CLASSE": "02 - Curta", "CD_FAZ": " 400508", "TALHOES": "2", "FAZ_tAL": "400504002, 400508002", "ID_LINHA": 157671 }, "geometry": { "type": "MultiLineString", "coordinates": [ [ [ 419904.782785304938443, 7646527.734435494057834 ], [ 419884.966437209164724, 7646539.634903572499752 ], [ 419848.899863440426998, 7646557.833235224708915 ], [ 419824.588237080955878, 7646568.309627328999341 ], [ 419811.303002715925686, 7646573.523621590808034 ], [ 419795.164032335742377, 7646578.995993876829743 ], [ 419781.853771298890933, 7646582.629933699034154 ], [ 419755.579624886275269, 7646588.055760813876987 ], [ 419746.081126098637469, 7646588.882986759766936 ], [ 419735.450793865253218, 7646588.86851489264518 ], [ 419723.588792360387743, 7646587.853350427001715 ], [ 419712.548638352309354, 7646585.954621084034443 ], [ 419701.183297694777139, 7646582.848703414201736 ], [ 419690.199439906748012, 7646578.614772696979344 ] ] ] } },
{ "type": "Feature", "properties": { "fid": 78.0, "COMPR_M": 226.39, "CLASSE": "02 - Curta", "CD_FAZ": " 400508", "TALHOES": "2", "FAZ_tAL": "400504002, 400508002", "ID_LINHA": 157672 }, "geometry": { "type": "MultiLineString", "coordinates": [ [ [ 419900.149508861475624, 7646527.181061036884785 ], [ 419883.538633697491605, 7646536.996452808380127 ], [ 419855.432094435440376, 7646551.436144603416324 ], [ 419823.433154178783298, 7646565.540908097289503 ], [ 419809.163788515375927, 7646571.112171571701765 ], [ 419794.284858388069551, 7646576.127698880620301 ], [ 419782.520060557173565, 7646579.383410926908255 ], [ 419765.191823114873841, 7646583.294157982803881 ], [ 419755.188562977768015, 7646585.081155912950635 ], [ 419745.948583528166637, 7646585.885764919221401 ], [ 419735.584158654266503, 7646585.871398710645735 ], [ 419723.958182312897407, 7646584.876112949103117 ], [ 419713.205771634588018, 7646583.027326018549502 ], [ 419704.087147574173287, 7646580.613135507330298 ], [ 419695.282562827225775, 7646577.535508467815816 ], [ 419687.729574463912286, 7646574.099650216288865 ] ] ] } },
{ "type": "Feature", "properties": { "fid": 79.0, "COMPR_M": 224.16, "CLASSE": "02 - Curta", "CD_FAZ": " 400508", "TALHOES": "2", "FAZ_tAL": "400504002, 400508002", "ID_LINHA": 157673 }, "geometry": { "type": "MultiLineString", "coordinates": [ [ [ 419895.433524438762106, 7646526.617808368057013 ], [ 419881.03585851972457, 7646534.936610758304596 ], [ 419852.743096237885766, 7646549.420878786593676 ], [ 419820.129580013046507, 7646563.660102533176541 ], [ 419805.949732002045494, 7646569.081520243547857 ], [ 419792.179958442575298, 7646573.631561449728906 ], [ 419781.806359850510489, 7646576.4695213008672 ], [ 419762.953768157807644, 7646580.70599427074194 ], [ 419752.490469245472923, 7646582.382748734205961 ], [ 419743.678909820620902, 7646582.961572395637631 ], [ 419733.915620805928484, 7646582.780754446983337 ], [ 419722.501657773042098, 7646581.660086791962385 ], [ 419713.862904914130922, 7646580.100030958652496 ], [ 419703.027838134614285, 7646577.13897823356092 ], [ 419693.882589714892674, 7646573.699110103771091 ], [ 419685.075920356728602, 7646569.248546540737152 ] ] ] } },
{ "type": "Feature", "properties": { "fid": 81.0, "COMPR_M": 222.43, "CLASSE": "02 - Curta", "CD_FAZ": " 400508", "TALHOES": "2", "FAZ_tAL": "400504002, 400508002", "ID_LINHA": 157675 }, "geometry": { "type": "MultiLineString", "coordinates": [ [ [ 419890.627527809119783, 7646526.043805111199617 ], [ 419877.508158174867276, 7646533.41099567618221 ], [ 419850.113828838570043, 7646547.361163658089936 ], [ 419815.760358764324337, 7646562.185795086435974 ], [ 419801.685327203420456, 7646567.398038167506456 ], [ 419788.851145727268886, 7646571.484396368265152 ], [ 419758.701645484077744, 7646578.470276141539216 ], [ 419749.964737515198067, 7646579.613688733428717 ], [ 419739.592844492872246, 7646579.98529177904129 ], [ 419727.789272213587537, 7646579.269409998320043 ], [ 419716.639199600438587, 7646577.626486755907536 ], [ 419705.829858514072839, 7646574.871585983783007 ], [ 419697.519639948324766, 7646571.967535503208637 ], [ 419689.695819049142301, 7646568.375326020643115 ], [ 419682.108252154663205, 7646563.823398597538471 ] ] ] } },
{ "type": "Feature", "properties": { "fid": 83.0, "COMPR_M": 221.95, "CLASSE": "02 - Curta", "CD_FAZ": " 400508", "TALHOES": "2", "FAZ_tAL": "400504002, 400508002", "ID_LINHA": 157677 }, "geometry": { "type": "MultiLineString", "coordinates": [ [ [ 419880.708584629697725, 7646524.859138092957437 ], [ 419846.289176965365186, 7646542.534366700798273 ], [ 419809.308037333597895, 7646558.254796478897333 ], [ 419795.35190017009154, 7646563.199579238891602 ], [ 419783.48934738402022, 7646566.747518723830581 ], [ 419762.61784993391484, 7646571.573318582028151 ], [ 419753.624315342167392, 7646573.182736318558455 ], [ 419743.458404908364173, 7646573.963854283094406 ], [ 419731.29302472283598, 7646573.570954411290586 ], [ 419719.898956450633705, 7646572.139496002346277 ], [ 419707.572569451876916, 7646569.130036461167037 ], [ 419697.483256379375234, 7646565.449550248682499 ], [ 419689.770806606509723, 7646561.570106010884047 ], [ 419681.806180971325375, 7646556.217982418835163 ], [ 419674.471466989198234, 7646549.862710773944855 ] ] ] } },
{ "type": "Feature", "properties": { "fid": 85.0, "COMPR_M": 225.22, "CLASSE": "02 - Curta", "CD_FAZ": " 400508", "TALHOES": "2", "FAZ_tAL": "400504002, 400508002", "ID_LINHA": 157679 }, "geometry": { "type": "MultiLineString", "coordinates": [ [ [ 419875.578106619534083, 7646524.246380462311208 ], [ 419843.834038799803238, 7646540.367416752502322 ], [ 419817.657739660993684, 7646551.69731193780899 ], [ 419804.030122588039376, 7646557.01798322238028 ], [ 419791.039913384418469, 7646561.430114550516009 ], [ 419778.951557017688174, 7646564.813962796702981 ], [ 419758.903670569183305, 7646569.280419691465795 ], [ 419747.221865966741461, 7646570.794568173587322 ], [ 419736.250982591183856, 7646570.885817809030414 ], [ 419722.360762425640132, 7646569.509661504998803 ], [ 419711.566506714792922, 7646567.156602459028363 ], [ 419700.875255628838204, 7646563.61557605676353 ], [ 419691.273607985174749, 7646558.972809347324073 ], [ 419683.637756078969687, 7646553.841353034600616 ], [ 419676.003757812897675, 7646547.180376354604959 ], [ 419668.807531263795681, 7646539.508558236062527 ] ] ] } },
{ "type": "Feature", "properties": { "fid": 86.0, "COMPR_M": 274.99, "CLASSE": "02 - Curta", "CD_FAZ": " 400508", "TALHOES": "2", "FAZ_tAL": "400504002, 400508002", "ID_LINHA": 157680 }, "geometry": { "type": "MultiLineString", "coordinates": [ [ [ 419631.483514843741432, 7646471.277106106281281 ], [ 419625.937238548242021, 7646456.058498485013843 ], [ 419615.677430334035307, 7646435.337474893778563 ], [ 419601.576190555235371, 7646402.704607810825109 ], [ 419596.072474681015592, 7646387.983535243198276 ], [ 419586.221380568109453, 7646358.661507299169898 ], [ 419581.577511426527053, 7646347.833791742101312 ], [ 419575.189709550933912, 7646337.157520771026611 ], [ 419563.780513057718053, 7646320.825800327584147 ], [ 419554.162164383451454, 7646308.931962542235851 ], [ 419537.180434078676626, 7646290.936206712387502 ], [ 419527.080568763252813, 7646277.503701837733388 ], [ 419522.673236967646517, 7646270.035788228735328 ], [ 419513.727405118697789, 7646252.30284458398819 ], [ 419509.682318785809912, 7646241.793698609806597 ], [ 419506.121539185754955, 7646229.747339410707355 ] ] ] } },
{ "type": "Feature", "properties": { "fid": 87.0, "COMPR_M": 569.62, "CLASSE": "03 - Média", "CD_FAZ": " 400508", "TALHOES": "2", "FAZ_tAL": "400504002, 400508002", "ID_LINHA": 157681 }, "geometry": { "type": "MultiLineString", "coordinates": [ [ [ 419870.32870475546224, 7646523.619419189170003 ], [ 419842.578588200791273, 7646537.64272441342473 ], [ 419805.091113069676794, 7646553.430512914434075 ], [ 419781.938795632333495, 7646560.951296189799905 ], [ 419761.330863343493547, 7646565.712898883037269 ], [ 419752.842191525036469, 7646567.233526524156332 ], [ 419743.311401632556226, 7646567.965375543572009 ], [ 419734.794212489738129, 7646567.806165390647948 ], [ 419724.568017716752365, 7646566.8025933355093 ], [ 419715.419341740431264, 7646565.057363694533706 ], [ 419705.859036855283193, 7646562.270727623254061 ], [ 419697.63919919449836, 7646558.927872700616717 ], [ 419690.198408271593507, 7646554.807143319398165 ], [ 419683.56105370586738, 7646549.937435392290354 ], [ 419673.384380799427163, 7646540.171817296184599 ], [ 419663.221160186454654, 7646527.429635682143271 ], [ 419656.328759791736957, 7646516.256279580295086 ], [ 419643.963041792740114, 7646492.933780746534467 ], [ 419636.855773657443933, 7646476.889756487682462 ], [ 419628.68671972345328, 7646454.858230208978057 ], [ 419618.407166803139262, 7646434.093059327453375 ], [ 419604.782250311342068, 7646402.624756356701255 ], [ 419599.258191437227651, 7646388.004808807745576 ], [ 419588.78190819156589, 7646356.929142510518432 ], [ 419583.646170724183321, 7646345.334571963176131 ], [ 419576.815911738027353, 7646334.178400816395879 ], [ 419566.143778987752739, 7646318.977730844169855 ], [ 419556.41105460957624, 7646306.946215856820345 ], [ 419539.463980527827516, 7646288.990554261952639 ], [ 419529.599024374736473, 7646275.873378235846758 ], [ 419525.31556401879061, 7646268.615057351067662 ], [ 419516.469114222796634, 7646251.084756290540099 ], [ 419512.527216956368648, 7646240.841460721567273 ], [ 419508.759124013129622, 7646227.971128480508924 ] ] ] } },
{ "type": "Feature", "properties": { "fid": 88.0, "COMPR_M": 556.81, "CLASSE": "03 - Média", "CD_FAZ": " 400508", "TALHOES": "2", "FAZ_tAL": "400504002, 400508002", "ID_LINHA": 157682 }, "geometry": { "type": "MultiLineString", "coordinates": [ [ [ 419864.963105158531107, 7646522.978579862974584 ], [ 419840.208336710638832, 7646535.427097297273576 ], [ 419803.01109630742576, 7646551.00149861164391 ], [ 419779.96164809766924, 7646558.370375128462911 ], [ 419752.451129616354592, 7646564.258921626955271 ], [ 419743.237899995292537, 7646564.966136172413826 ], [ 419734.969930826569907, 7646564.811247576028109 ], [ 419724.981289706891403, 7646563.831094644963741 ], [ 419716.129704027087428, 7646562.142571998760104 ], [ 419706.839520965353586, 7646559.43528776243329 ], [ 419698.9308718922548, 7646556.219658827409148 ], [ 419691.818646960076876, 7646552.281291577965021 ], [ 419685.47004244721029, 7646547.622763941064477 ], [ 419675.60483382048551, 7646538.154359314590693 ], [ 419665.682184230245184, 7646525.713831497356296 ], [ 419658.949733511195518, 7646514.796633470803499 ], [ 419646.660795703995973, 7646491.621463991701603 ], [ 419639.640217344276607, 7646475.773099477402866 ], [ 419631.43620089959586, 7646453.657961938530207 ], [ 419621.136903271835763, 7646432.848643755540252 ], [ 419607.559203402604908, 7646401.489607812836766 ], [ 419602.088633387698792, 7646387.010518377646804 ], [ 419591.596665836346801, 7646355.891265457496047 ], [ 419586.284787187352777, 7646343.90705134999007 ], [ 419579.762309911486227, 7646333.19232476875186 ], [ 419568.507044915982988, 7646317.129661362618208 ], [ 419558.659944837854709, 7646304.960469176061451 ], [ 419541.747526977036614, 7646287.044901812449098 ], [ 419532.117479985347018, 7646274.243054633960128 ], [ 419527.957891069178004, 7646267.194326477125287 ], [ 419519.210823327186517, 7646249.866667997092009 ], [ 419515.816565819259267, 7646241.196422041393816 ], [ 419512.418391884071752, 7646230.070829454809427 ] ] ] } },
{ "type": "Feature", "properties": { "fid": 89.0, "COMPR_M": 543.82, "CLASSE": "03 - Média", "CD_FAZ": " 400508", "TALHOES": "2", "FAZ_tAL": "400504002, 400508002", "ID_LINHA": 157683 }, "geometry": { "type": "MultiLineString", "coordinates": [ [ [ 419859.498926861502696, 7646522.325966806150973 ], [ 419837.897740335029084, 7646533.176424296572804 ], [ 419814.19249095255509, 7646543.391154244542122 ], [ 419800.949923029285856, 7646548.561470212414861 ], [ 419779.206210498930886, 7646555.467028273269534 ], [ 419752.06006770854583, 7646561.284316727891564 ], [ 419743.16439835797064, 7646561.966896805912256 ], [ 419735.145649163750932, 7646561.816329766064882 ], [ 419725.394561695517041, 7646560.85959595348686 ], [ 419716.840066313219722, 7646559.227780303917825 ], [ 419707.820005075016525, 7646556.599847903475165 ], [ 419700.222544591291808, 7646553.511444957926869 ], [ 419693.438885650830343, 7646549.755439832806587 ], [ 419687.379031187389046, 7646545.308092491701245 ], [ 419677.825286841369234, 7646536.136901332065463 ], [ 419668.143208273744676, 7646523.99802730884403 ], [ 419661.570707229082473, 7646513.336987362243235 ], [ 419649.358549614669755, 7646490.309147232212126 ], [ 419642.424661030527204, 7646474.656442468985915 ], [ 419634.185682076611556, 7646452.457693668082356 ], [ 419623.866639740706887, 7646431.604228185489774 ], [ 419610.336156492936425, 7646400.354459267109632 ], [ 419604.919075338635594, 7646386.016227944754064 ], [ 419594.144159654038958, 7646354.133757447823882 ], [ 419588.594944541866425, 7646341.877492947503924 ], [ 419581.808768059010617, 7646330.851016897708178 ], [ 419570.870310847763903, 7646315.281591881066561 ], [ 419560.908835064910818, 7646302.97472249250859 ], [ 419544.031073426478542, 7646285.099249362945557 ], [ 419535.496388928731903, 7646273.918943187221885 ], [ 419530.600218120729551, 7646265.773595598526299 ], [ 419522.644444703124464, 7646250.169459805823863 ], [ 419519.115071887033992, 7646241.5321627818048 ], [ 419516.146619593608193, 7646232.260039577260613 ] ] ] } },
{ "type": "Feature", "properties": { "fid": 90.0, "COMPR_M": 530.77, "CLASSE": "03 - Média", "CD_FAZ": " 400508", "TALHOES": "2", "FAZ_tAL": "400504002, 400508002", "ID_LINHA": 157684 }, "geometry": { "type": "MultiLineString", "coordinates": [ [ [ 419854.04777599737281, 7646521.674909680150449 ], [ 419835.641055705084, 7646530.895004798658192 ], [ 419812.044166968087666, 7646541.034954955801368 ], [ 419797.891072260739747, 7646546.474890967831016 ], [ 419777.278209628304467, 7646552.8644251935184 ], [ 419751.669005800213199, 7646558.309711826965213 ], [ 419743.090896720008459, 7646558.967657437548041 ], [ 419733.905527981114574, 7646558.728753011673689 ], [ 419724.225915070564952, 7646557.654924765229225 ], [ 419716.095380182960071, 7646555.945505756884813 ], [ 419707.116358497121837, 7646553.161422109231353 ], [ 419699.444666357710958, 7646549.770648766309023 ], [ 419692.899948684731498, 7646545.770882212556899 ], [ 419687.851522932061926, 7646541.772804609499872 ], [ 419679.049900605576113, 7646533.00606573279947 ], [ 419669.73689651634777, 7646521.015845168381929 ], [ 419663.641720254090615, 7646510.883307757787406 ], [ 419651.565269620157778, 7646487.981237830594182 ], [ 419645.209104716894217, 7646473.539785456843674 ], [ 419636.935163251997437, 7646451.257425395771861 ], [ 419626.596376209869049, 7646430.359812612645328 ], [ 419613.113109580939636, 7646399.219310726970434 ], [ 419607.749517289397772, 7646385.021937511861324 ], [ 419596.953857789398171, 7646353.082257222384214 ], [ 419591.223586681473535, 7646340.43169024027884 ], [ 419584.305196219705977, 7646329.187324937433004 ], [ 419573.23357677704189, 7646313.433522399514914 ], [ 419563.157725292898249, 7646300.988975806161761 ], [ 419546.314619875396602, 7646283.15359691157937 ], [ 419537.989129798137583, 7646272.249583292752504 ], [ 419533.242545170884114, 7646264.352864722721279 ], [ 419525.363373221363872, 7646248.90129791200161 ], [ 419519.940158766345121, 7646234.487600496038795 ] ] ] } },
{ "type": "Feature", "properties": { "fid": 91.0, "COMPR_M": 517.81, "CLASSE": "03 - Média", "CD_FAZ": " 400508", "TALHOES": "2", "FAZ_tAL": "400504002, 400508002", "ID_LINHA": 157685 }, "geometry": { "type": "MultiLineString", "coordinates": [ [ [ 419848.778427464712877, 7646521.045566078275442 ], [ 419832.454739792621695, 7646529.010591722093523 ], [ 419809.905819548061118, 7646538.670562051236629 ], [ 419794.867974742723163, 7646544.359889192506671 ], [ 419775.383053478784859, 7646550.244514672085643 ], [ 419757.459073278936557, 7646554.270451511256397 ], [ 419749.581814881006721, 7646555.538167400285602 ], [ 419741.436852254206315, 7646555.991883490234613 ], [ 419732.785644944175147, 7646555.632678415626287 ], [ 419723.068331378744915, 7646554.419567180797458 ], [ 419715.521807193174027, 7646552.68720781058073 ], [ 419708.162126189097762, 7646550.34935637190938 ], [ 419700.837358830031008, 7646547.112837729975581 ], [ 419694.634165328694507, 7646543.322032223455608 ], [ 419689.819394039455801, 7646539.508166527375579 ], [ 419681.300250052358024, 7646531.022032833658159 ], [ 419672.225234678306151, 7646519.339921725913882 ], [ 419666.269893326913007, 7646509.43667421117425 ], [ 419654.269265020382591, 7646486.681830178014934 ], [ 419647.582677465456072, 7646471.391602613031864 ], [ 419639.684644428256433, 7646450.057157122530043 ], [ 419629.326112677867059, 7646429.115397041663527 ], [ 419615.890062671969645, 7646398.084162183105946 ], [ 419610.579959239345044, 7646384.027647079899907 ], [ 419599.763555923942477, 7646352.03075700160116 ], [ 419593.852228822303005, 7646338.985887533053756 ], [ 419586.801624379644636, 7646327.523632977157831 ], [ 419575.596842707251199, 7646311.585452916100621 ], [ 419565.406615521642379, 7646299.003229124471545 ], [ 419549.38825852307491, 7646282.127671733498573 ], [ 419541.29534314724151, 7646271.775189097970724 ], [ 419536.563803271215875, 7646264.175691947340965 ], [ 419528.77138781233225, 7646249.074740920215845 ], [ 419523.818704090197571, 7646236.765076912939548 ] ] ] } },
{ "type": "Feature", "properties": { "fid": 92.0, "COMPR_M": 508.49, "CLASSE": "03 - Média", "CD_FAZ": " 400508", "TALHOES": "2", "FAZ_tAL": "400504002, 400508002", "ID_LINHA": 157686 }, "geometry": { "type": "MultiLineString", "coordinates": [ [ [ 419846.82954587135464, 7646518.686800828203559 ], [ 419831.265990950283594, 7646526.256159765645862 ], [ 419808.769846162991598, 7646535.893946440890431 ], [ 419793.879895644320641, 7646541.527271058410406 ], [ 419774.669352771423291, 7646547.330625047907233 ], [ 419756.848551625502296, 7646551.333168981596828 ], [ 419749.258631062926725, 7646552.555436139926314 ], [ 419741.420076479378622, 7646552.99180194362998 ], [ 419734.333896132826339, 7646552.743952132761478 ], [ 419725.158491393143777, 7646551.727556396275759 ], [ 419717.604067566280719, 7646550.138138 ], [ 419709.207893880200572, 7646547.537290640175343 ], [ 419702.230051303049549, 7646544.455026692710817 ], [ 419696.368381973297801, 7646540.873182232491672 ], [ 419691.787265149119776, 7646537.243528448045254 ], [ 419683.550599500769749, 7646529.037999937310815 ], [ 419674.713572839682456, 7646517.663998282514513 ], [ 419668.384468342992477, 7646507.052152656950057 ], [ 419656.499451181502081, 7646484.390388259664178 ], [ 419650.372319650719874, 7646470.287996871396899 ], [ 419642.434125603467692, 7646448.856888850219548 ], [ 419632.055849146097898, 7646427.870981473475695 ], [ 419618.667015762068331, 7646396.949013637378812 ], [ 419613.410401190398261, 7646383.033356645144522 ], [ 419602.573254058952443, 7646350.97925677895546 ], [ 419596.480870964354835, 7646337.540084826759994 ], [ 419589.298052540863864, 7646325.859941015020013 ], [ 419577.960108636994846, 7646309.737383433617651 ], [ 419567.65550574864028, 7646297.017482442781329 ], [ 419551.656622427573893, 7646280.16434565000236 ], [ 419543.763077609066386, 7646270.069095568731427 ], [ 419537.352154516847804, 7646259.264679353684187 ], [ 419530.801230255805422, 7646246.364974122494459 ], [ 419527.811869141471107, 7646239.109857874922454 ] ] ] } },
{ "type": "Feature", "properties": { "fid": 93.0, "COMPR_M": 499.37, "CLASSE": "03 - Média", "CD_FAZ": " 400508", "TALHOES": "2", "FAZ_tAL": "400504002, 400508002", "ID_LINHA": 157687 }, "geometry": { "type": "MultiLineString", "coordinates": [ [ [ 419845.185939393471926, 7646516.164226299151778 ], [ 419830.077242107247002, 7646523.501727807335556 ], [ 419807.633872777689248, 7646533.117330830544233 ], [ 419793.880856277770363, 7646538.347775243222713 ], [ 419775.073597727692686, 7646544.138559324666858 ], [ 419750.495820074924268, 7646549.385897131636739 ], [ 419742.870391807984561, 7646549.969939325936139 ], [ 419734.548080207314342, 7646549.751551692374051 ], [ 419725.62477955390932, 7646548.763872210867703 ], [ 419718.358411257504486, 7646547.234454121440649 ], [ 419711.741941510583274, 7646545.258088467642665 ], [ 419705.389235384413041, 7646542.678589476272464 ], [ 419699.919840409420431, 7646539.652032859623432 ], [ 419693.755136257619597, 7646534.978890368714929 ], [ 419685.800948947435245, 7646527.053967043757439 ], [ 419677.201911001175176, 7646515.988074840977788 ], [ 419671.017997547460254, 7646505.615300010889769 ], [ 419659.209621965128463, 7646483.103910269215703 ], [ 419653.161961837671697, 7646469.184391129761934 ], [ 419645.183606778969988, 7646447.656620576046407 ], [ 419634.78558561578393, 7646426.626565902493894 ], [ 419621.443968851177488, 7646395.813865093514323 ], [ 419616.240843140636571, 7646382.039066213183105 ], [ 419605.382952194369864, 7646349.927756557241082 ], [ 419599.109513105591759, 7646336.094282122328877 ], [ 419591.794480702665169, 7646324.196249052882195 ], [ 419580.323374567669816, 7646307.889313952066004 ], [ 419570.220876515784767, 7646295.396577036008239 ], [ 419556.168022084166296, 7646280.739919709041715 ], [ 419546.99868293479085, 7646269.456714828498662 ], [ 419541.169526322744787, 7646260.09067209623754 ], [ 419531.973318884090986, 7646241.553455369547009 ] ] ] } },
{ "type": "Feature", "properties": { "fid": 94.0, "COMPR_M": 490.01, "CLASSE": "03 - Média", "CD_FAZ": " 400508", "TALHOES": "2", "FAZ_tAL": "400504002, 400508002", "ID_LINHA": 157688 }, "geometry": { "type": "MultiLineString", "coordinates": [ [ [ 419843.542323329369538, 7646513.641637059859931 ], [ 419832.780865826876834, 7646519.030889552086592 ], [ 419812.16153666790342, 7646527.960998824797571 ], [ 419791.903737447748426, 7646535.862034793943167 ], [ 419774.338727093825582, 7646541.229937369003892 ], [ 419750.10475816600956, 7646546.411292238160968 ], [ 419742.796890170546249, 7646546.970699960365891 ], [ 419736.024240847909823, 7646546.84174070879817 ], [ 419727.460921639867593, 7646546.002102496102452 ], [ 419720.39187774376478, 7646544.653821833431721 ], [ 419712.722425620711874, 7646542.422648606821895 ], [ 419706.680908084614202, 7646539.97037560492754 ], [ 419701.540079098544084, 7646537.126181114464998 ], [ 419695.723007366468664, 7646532.714252287521958 ], [ 419688.05129839584697, 7646525.069934146478772 ], [ 419679.690249163482804, 7646514.312151398509741 ], [ 419673.651526749134064, 7646504.178447363898158 ], [ 419661.919792747823521, 7646481.817432278767228 ], [ 419655.95160402241163, 7646468.080785389058292 ], [ 419647.9330879553454, 7646446.456352304667234 ], [ 419637.515322085120715, 7646425.382150332443416 ], [ 419624.22092194063589, 7646394.678716549649835 ], [ 419619.071285091340542, 7646381.044775781221688 ], [ 419608.192650328914169, 7646348.87625633738935 ], [ 419605.178474282496609, 7646341.498591113835573 ], [ 419601.738155245489907, 7646334.648479413241148 ], [ 419594.29090886306949, 7646322.532557092607021 ], [ 419582.686640497122426, 7646306.041244467720389 ], [ 419572.504101156373508, 7646293.450411336496472 ], [ 419558.398204972327221, 7646278.73334308154881 ], [ 419549.44219515461009, 7646267.716120477765799 ], [ 419544.430447312421165, 7646259.80298338085413 ], [ 419536.391698897292372, 7646244.147921962663531 ] ] ] } },
{ "type": "Feature", "properties": { "fid": 95.0, "COMPR_M": 480.28, "CLASSE": "03 - Média", "CD_FAZ": " 400508", "TALHOES": "2", "FAZ_tAL": "400504002, 400508002", "ID_LINHA": 157689 }, "geometry": { "type": "MultiLineString", "coordinates": [ [ [ 419841.898690483882092, 7646511.119022063910961 ], [ 419831.542954012635164, 7646516.298188262619078 ], [ 419810.978336952452082, 7646525.204180613160133 ], [ 419790.915658349520527, 7646533.029416660778224 ], [ 419773.603856462286785, 7646538.321315411478281 ], [ 419749.713696257851552, 7646543.436687337234616 ], [ 419742.72338853252586, 7646543.971460590139031 ], [ 419736.19995918427594, 7646543.846822896972299 ], [ 419727.874193627154455, 7646543.030603805556893 ], [ 419721.10224003001349, 7646541.739030135795474 ], [ 419713.702909729676321, 7646539.587208746932447 ], [ 419707.972580782137811, 7646537.262161736376584 ], [ 419703.160317788657267, 7646534.600329372100532 ], [ 419697.69087847485207, 7646530.449614208191633 ], [ 419690.301647842570674, 7646523.085901252925396 ], [ 419682.178587325848639, 7646512.636227957904339 ], [ 419676.285055951331742, 7646502.741594718769193 ], [ 419664.629963531624526, 7646480.530954288318753 ], [ 419658.741246209596284, 7646466.97717964835465 ], [ 419650.682569132011849, 7646445.256084032356739 ], [ 419640.245058553293347, 7646424.137734761461616 ], [ 419626.997875029162969, 7646393.543568005785346 ], [ 419621.901727042510174, 7646380.050485347397625 ], [ 419611.002348463342059, 7646347.824756111949682 ], [ 419607.912702150060795, 7646340.264026733115315 ], [ 419604.366797386552207, 7646333.202676709741354 ], [ 419596.787337023299187, 7646320.868865132331848 ], [ 419585.049906427506357, 7646304.193174987100065 ], [ 419574.40217643068172, 7646291.0602423902601 ], [ 419561.341092084359843, 7646277.514607785269618 ], [ 419552.609864812460728, 7646266.977557903155684 ], [ 419547.691161687194835, 7646259.473835757002234 ], [ 419541.198429562558886, 7646246.970427517779171 ] ] ] } },
{ "type": "Feature", "properties": { "fid": 96.0, "COMPR_M": 470.5, "CLASSE": "03 - Média", "CD_FAZ": " 400508", "TALHOES": "2", "FAZ_tAL": "400504002, 400508002", "ID_LINHA": 157690 }, "geometry": { "type": "MultiLineString", "coordinates": [ [ [ 419840.255057623027824, 7646508.596407045610249 ], [ 419830.305042198451702, 7646513.565486970357597 ], [ 419809.795137236942537, 7646522.447362398728728 ], [ 419789.927579251583666, 7646530.196798527613282 ], [ 419772.868985828361474, 7646535.412693455815315 ], [ 419749.32263434980996, 7646540.4620824418962 ], [ 419742.649886894447263, 7646540.972221218049526 ], [ 419736.375677520991303, 7646540.851905087009072 ], [ 419728.287465617642738, 7646540.05910511687398 ], [ 419721.812602316320408, 7646538.824238440021873 ], [ 419714.683393838931806, 7646536.751768887974322 ], [ 419709.264253480941989, 7646534.553947866894305 ], [ 419704.780556478479411, 7646532.074477628804743 ], [ 419699.658749582769815, 7646528.184976127929986 ], [ 419691.76424636086449, 7646520.19540729932487 ], [ 419683.991088958457112, 7646509.939782932400703 ], [ 419673.862706703832373, 7646491.984199287369847 ], [ 419666.895516582531855, 7646478.302016893401742 ], [ 419661.530888396548107, 7646465.873573906719685 ], [ 419653.432050308270846, 7646444.055815760046244 ], [ 419642.97479502169881, 7646422.893319191411138 ], [ 419629.77482812065864, 7646392.408419460989535 ], [ 419624.401777423161548, 7646378.111760415136814 ], [ 419613.812046598177403, 7646346.77325588837266 ], [ 419610.646930014365353, 7646339.029462354257703 ], [ 419606.99543952557724, 7646331.75687400251627 ], [ 419599.283765182888601, 7646319.20517317019403 ], [ 419587.413172357424628, 7646302.34510550647974 ], [ 419576.651066658378113, 7646289.074495706707239 ], [ 419563.561091253533959, 7646275.4967738147825 ], [ 419555.735261677764356, 7646266.154397757723927 ], [ 419550.933391789847519, 7646259.067356759682298 ], [ 419546.052311238774564, 7646249.82062008138746 ] ] ] } },
{ "type": "Feature", "properties": { "fid": 97.0, "COMPR_M": 460.84, "CLASSE": "03 - Média", "CD_FAZ": " 400508", "TALHOES": "2", "FAZ_tAL": "400504002, 400508002", "ID_LINHA": 157691 }, "geometry": { "type": "MultiLineString", "coordinates": [ [ [ 419838.611424748087302, 7646506.07379200309515 ], [ 419829.067130384268239, 7646510.832785679958761 ], [ 419808.611937520559877, 7646519.690544184297323 ], [ 419789.890106938313693, 7646527.030781980603933 ], [ 419773.162709702912252, 7646532.240253407508135 ], [ 419750.211118748295121, 7646537.304183157160878 ], [ 419743.827902409830131, 7646537.930215433239937 ], [ 419737.717995248211082, 7646537.917539826594293 ], [ 419723.719904139579739, 7646536.190605023875833 ], [ 419716.861891425447538, 7646534.316039374098182 ], [ 419710.555926179746166, 7646531.845733993686736 ], [ 419706.40079516795231, 7646529.548625882714987 ], [ 419701.626620692259166, 7646525.920338049530983 ], [ 419694.041389949736185, 7646518.24220628850162 ], [ 419686.504201184841804, 7646508.301268639042974 ], [ 419676.502349858928937, 7646490.558615580201149 ], [ 419669.611797147488687, 7646477.028489852324128 ], [ 419664.320530582626816, 7646464.769968163222075 ], [ 419656.181531484122388, 7646442.855547489598393 ], [ 419645.704531490977388, 7646421.648903623223305 ], [ 419632.551781209243927, 7646391.273270918056369 ], [ 419627.234707696828991, 7646377.124582935124636 ], [ 419616.6217447341769, 7646345.721755664795637 ], [ 419613.381157882045954, 7646337.794897970743477 ], [ 419609.624081666523125, 7646330.311071295291185 ], [ 419602.280848460097332, 7646318.295424499548972 ], [ 419590.247727615409531, 7646301.107918726280332 ], [ 419578.899956885608844, 7646287.088749021291733 ], [ 419567.859385983552784, 7646275.734813366085291 ], [ 419560.205727997526992, 7646267.010364240035415 ], [ 419554.783580481947865, 7646259.570142209529877 ], [ 419550.795402622898109, 7646252.605756741948426 ] ] ] } },
{ "type": "Feature", "properties": { "fid": 98.0, "COMPR_M": 450.87, "CLASSE": "03 - Média", "CD_FAZ": " 400508", "TALHOES": "2", "FAZ_tAL": "400504002, 400508002", "ID_LINHA": 157692 }, "geometry": { "type": "MultiLineString", "coordinates": [ [ [ 419836.967660754744429, 7646503.550975721329451 ], [ 419827.829218569619115, 7646508.100084388628602 ], [ 419807.428737804759294, 7646516.933725972659886 ], [ 419788.892419603536837, 7646524.201533664949238 ], [ 419772.407272104173899, 7646529.336906549520791 ], [ 419749.753412776975892, 7646534.339124988764524 ], [ 419737.85136003541993, 7646534.920423649251461 ], [ 419724.377037421916611, 7646533.263309958390892 ], [ 419717.784161644754931, 7646531.461176783777773 ], [ 419711.847598877851851, 7646529.137520123273134 ], [ 419708.021033857774455, 7646527.022774141281843 ], [ 419703.594491799362004, 7646523.655699968338013 ], [ 419696.318533539073542, 7646516.289005279541016 ], [ 419689.017313412565272, 7646506.662754341959953 ], [ 419679.141993013559841, 7646489.133031873032451 ], [ 419672.328077713376842, 7646475.754962812177837 ], [ 419666.740146498254035, 7646462.724599128589034 ], [ 419658.931012660264969, 7646441.655279213562608 ], [ 419648.851778748212382, 7646421.315828376449645 ], [ 419635.328734298818745, 7646390.138122376054525 ], [ 419630.067637971718796, 7646376.13740545231849 ], [ 419619.431442869303282, 7646344.670255441218615 ], [ 419616.115385747049004, 7646336.560333590954542 ], [ 419612.252723809331656, 7646328.865268591791391 ], [ 419604.782908300170675, 7646316.640213358215988 ], [ 419592.633460756507702, 7646299.288971119560301 ], [ 419581.148847113596275, 7646285.103002340532839 ], [ 419563.90040236513596, 7646266.78063677996397 ], [ 419555.833387568360195, 7646255.564054487273097 ] ] ] } },
{ "type": "Feature", "properties": { "fid": 99.0, "COMPR_M": 440.14, "CLASSE": "03 - Média", "CD_FAZ": " 400508", "TALHOES": "2", "FAZ_tAL": "400504002, 400508002", "ID_LINHA": 157693 }, "geometry": { "type": "MultiLineString", "coordinates": [ [ [ 419835.323790881375317, 7646501.027996942400932 ], [ 419826.591306756308768, 7646505.367383098229766 ], [ 419806.245538089424372, 7646514.176907757297158 ], [ 419787.894732270622626, 7646521.372285347431898 ], [ 419771.651834505086299, 7646526.433559692464769 ], [ 419749.295706804783549, 7646531.374066821299493 ], [ 419737.984724821988493, 7646531.923307468183339 ], [ 419725.034170703496784, 7646530.336014895699918 ], [ 419718.706431864353362, 7646528.60631419159472 ], [ 419713.13927157787839, 7646526.429306252859533 ], [ 419709.641272547305562, 7646524.496922397986054 ], [ 419705.56236290873494, 7646521.391061887145042 ], [ 419698.595677128178068, 7646514.335804264992476 ], [ 419691.530425640172325, 7646505.024240048602223 ], [ 419681.781636167899705, 7646487.707448165863752 ], [ 419675.044358279556036, 7646474.481435771100223 ], [ 419669.534907188266516, 7646461.634020617231727 ], [ 419661.680493834719528, 7646440.455010942183435 ], [ 419651.576654947828501, 7646420.060803836211562 ], [ 419638.1056873894413, 7646389.002973833121359 ], [ 419633.223494844161905, 7646376.073323617689312 ], [ 419621.920092596090399, 7646342.767381019890308 ], [ 419618.484260538651142, 7646334.525374755263329 ], [ 419614.881365948705934, 7646327.419465884566307 ], [ 419606.773049666371662, 7646314.214097290299833 ], [ 419594.502970145782456, 7646296.800897056236863 ], [ 419583.397737339895684, 7646283.117255656048656 ], [ 419569.549119419069029, 7646268.700459942221642 ], [ 419561.62647811655188, 7646258.965749194845557 ] ] ] } },
{ "type": "Feature", "properties": { "fid": 101.0, "COMPR_M": 414.5, "CLASSE": "03 - Média", "CD_FAZ": " 400508", "TALHOES": "2", "FAZ_tAL": "400504002, 400508002", "ID_LINHA": 157695 }, "geometry": { "type": "MultiLineString", "coordinates": [ [ [ 419832.036051136732567, 7646495.98203937895596 ], [ 419824.115483127941843, 7646499.901980515569448 ], [ 419802.99487657926511, 7646509.041787194088101 ], [ 419785.899357601359952, 7646515.713788717985153 ], [ 419770.140959306037985, 7646520.626865978352726 ], [ 419748.38029486045707, 7646525.443950484506786 ], [ 419738.251454396173358, 7646525.929075107909739 ], [ 419726.348437265900429, 7646524.481424771249294 ], [ 419715.722616974555422, 7646521.01287851203233 ], [ 419711.976331770361867, 7646518.833532325923443 ], [ 419708.738145908515435, 7646516.186509903520346 ], [ 419702.508402767416555, 7646509.671564217656851 ], [ 419696.018640850903466, 7646500.908957738429308 ], [ 419686.150266026263125, 7646483.163378855213523 ], [ 419680.067027760436758, 7646471.054677192121744 ], [ 419675.12442856450798, 7646459.452863593585789 ], [ 419667.179456187644973, 7646438.054474398493767 ], [ 419657.026407346595079, 7646417.550754752010107 ], [ 419643.659593569114804, 7646386.73267674446106 ], [ 419638.566428793419618, 7646373.175873004831374 ], [ 419627.86053727415856, 7646341.515754776075482 ], [ 419621.028741824207827, 7646326.173091540113091 ], [ 419612.809265688003507, 7646312.463881338946521 ], [ 419599.790660181723069, 7646293.832128307782114 ], [ 419587.895517796161585, 7646279.145762288942933 ], [ 419577.112094016280025, 7646268.058881295844913 ] ] ] } },
{ "type": "Feature", "properties": { "fid": 102.0, "COMPR_M": 381.42, "CLASSE": "03 - Média", "CD_FAZ": " 400508", "TALHOES": "2", "FAZ_tAL": "400504002, 400508002", "ID_LINHA": 157696 }, "geometry": { "type": "MultiLineString", "coordinates": [ [ [ 419828.281150404945947, 7646490.219092431478202 ], [ 419807.428735110734124, 7646499.607809425331652 ], [ 419787.156107370683458, 7646507.707294767722487 ], [ 419768.284947273263242, 7646514.005781268700957 ], [ 419754.756777072325349, 7646517.2946967035532 ], [ 419740.958559446502477, 7646518.707910601980984 ], [ 419729.030754683131818, 7646517.855927046388388 ], [ 419723.165033460711129, 7646516.519494272768497 ], [ 419719.47138028597692, 7646515.083705162629485 ], [ 419712.9816424024757, 7646510.572331512346864 ], [ 419706.19339625921566, 7646503.251954777166247 ], [ 419701.673704089189414, 7646496.760166056454182 ], [ 419685.714247894182336, 7646466.981008097529411 ], [ 419682.707241357245948, 7646459.628658218309283 ], [ 419675.529413503420074, 7646439.010180052369833 ], [ 419662.106569418974686, 7646412.406652296893299 ], [ 419654.117802967026364, 7646394.23708716314286 ], [ 419646.362405314750504, 7646373.841314047574997 ], [ 419633.986082851595711, 7646338.146499787457287 ], [ 419628.57254273223225, 7646325.378443598747253 ], [ 419623.879218951798975, 7646316.655668457970023 ], [ 419617.516999051556922, 7646306.561742516234517 ], [ 419607.131424261606298, 7646291.929462594911456 ], [ 419598.128264994360507, 7646280.399547640234232 ] ] ] } },
{ "type": "Feature", "properties": { "fid": 103.0, "COMPR_M": 369.1, "CLASSE": "03 - Média", "CD_FAZ": " 400508", "TALHOES": "2", "FAZ_tAL": "400504002, 400508002", "ID_LINHA": 157697 }, "geometry": { "type": "MultiLineString", "coordinates": [ [ [ 419826.62894842546666, 7646487.683325696736574 ], [ 419806.252105669060256, 7646496.848177133128047 ], [ 419786.118127987312619, 7646504.892571283504367 ], [ 419767.442177421646193, 7646511.126549817621708 ], [ 419754.217364736716263, 7646514.343443443067372 ], [ 419740.915356080746278, 7646515.707948245108128 ], [ 419729.515917670913041, 7646514.89499320089817 ], [ 419724.061658329563215, 7646513.655106732621789 ], [ 419720.775502777891234, 7646512.379055897705257 ], [ 419714.995764080202207, 7646508.347730780951679 ], [ 419708.535965317452792, 7646501.377137813717127 ], [ 419704.229798039421439, 7646495.189314041286707 ], [ 419688.445271458826028, 7646465.739143891260028 ], [ 419685.526203964662272, 7646458.60195654630661 ], [ 419678.291769115487114, 7646437.839480855502188 ], [ 419664.811433389899321, 7646411.109024057164788 ], [ 419656.897156871447805, 7646393.107820497825742 ], [ 419649.186042404267937, 7646372.827859342098236 ], [ 419636.796426087385044, 7646337.096658645197749 ], [ 419631.2675430123345, 7646324.060261052101851 ], [ 419626.469635369663592, 7646315.142357731238008 ], [ 419621.125635763048194, 7646306.569870225153863 ], [ 419605.420395600085612, 7646284.681476579979062 ] ] ] } },
{ "type": "Feature", "properties": { "fid": 104.0, "COMPR_M": 357.37, "CLASSE": "03 - Média", "CD_FAZ": " 400508", "TALHOES": "2", "FAZ_tAL": "400504002, 400508002", "ID_LINHA": 157698 }, "geometry": { "type": "MultiLineString", "coordinates": [ [ [ 419824.976746446453035, 7646485.147558962926269 ], [ 419805.075476228201296, 7646494.088544841855764 ], [ 419786.910584843659308, 7646501.39705806132406 ], [ 419768.454867169377394, 7646507.693909363821149 ], [ 419755.516056854859926, 7646511.03761488199234 ], [ 419742.697504095733166, 7646512.657043032348156 ], [ 419731.795920918637421, 7646512.19744342006743 ], [ 419723.462709492829163, 7646510.271153416484594 ], [ 419720.788241988862865, 7646508.983528254553676 ], [ 419717.00988575827796, 7646506.123130046762526 ], [ 419710.878534373594448, 7646499.502320848405361 ], [ 419706.785891987150535, 7646493.618462024256587 ], [ 419691.970548606244847, 7646466.203387070447206 ], [ 419688.34516657248605, 7646457.575254872441292 ], [ 419681.054124727612361, 7646436.668781657703221 ], [ 419667.516297361813486, 7646409.811395812779665 ], [ 419658.944719272200018, 7646390.165061012841761 ], [ 419651.346965067787096, 7646369.960007585585117 ], [ 419640.311388905683998, 7646337.960187111981213 ], [ 419635.72708778094966, 7646326.510352309793234 ], [ 419632.077785952715203, 7646319.04320556204766 ], [ 419626.940285764925648, 7646310.101375283673406 ], [ 419612.158720213396009, 7646288.638211414217949 ] ] ] } },
{ "type": "Feature", "properties": { "fid": 105.0, "COMPR_M": 345.92, "CLASSE": "03 - Média", "CD_FAZ": " 400508", "TALHOES": "2", "FAZ_tAL": "400504002, 400508002", "ID_LINHA": 157699 }, "geometry": { "type": "MultiLineString", "coordinates": [ [ [ 419823.324103804596234, 7646482.611115911975503 ], [ 419803.898846788099036, 7646491.328912546858191 ], [ 419785.857241842080839, 7646498.588048733770847 ], [ 419767.58459511725232, 7646504.822880716994405 ], [ 419754.921008774428628, 7646508.097093903459609 ], [ 419742.574508291494567, 7646509.65930755995214 ], [ 419732.185757167870179, 7646509.222520838491619 ], [ 419724.550641653011553, 7646507.47322647459805 ], [ 419722.315907939337194, 7646506.398472718894482 ], [ 419719.024007436644752, 7646503.898529317229986 ], [ 419713.22110343206441, 7646497.62750387750566 ], [ 419709.341985936276615, 7646492.047610009089112 ], [ 419694.67980802920647, 7646464.914772096090019 ], [ 419691.164129179902375, 7646456.548553203232586 ], [ 419683.816480339795817, 7646435.498082462698221 ], [ 419670.221161332097836, 7646408.513767572119832 ], [ 419661.72933063399978, 7646389.048823146149516 ], [ 419654.173270649334881, 7646368.954019817523658 ], [ 419643.130690926453099, 7646336.934673236683011 ], [ 419638.464914152340498, 7646325.283610310405493 ], [ 419630.581386470294092, 7646310.312255784869194 ], [ 419618.637644110713154, 7646292.442626506090164 ] ] ] } },
{ "type": "Feature", "properties": { "fid": 106.0, "COMPR_M": 334.67, "CLASSE": "03 - Média", "CD_FAZ": " 400508", "TALHOES": "2", "FAZ_tAL": "400504002, 400508002", "ID_LINHA": 157700 }, "geometry": { "type": "MultiLineString", "coordinates": [ [ [ 419821.670963057607878, 7646480.073908379301429 ], [ 419802.722217346774414, 7646488.569280257448554 ], [ 419784.803898840560578, 7646495.779039402492344 ], [ 419768.524348622071557, 7646501.394368831068277 ], [ 419756.063919848180376, 7646504.788377382792532 ], [ 419744.123755403445102, 7646506.570995482616127 ], [ 419734.200282825040631, 7646506.435087038204074 ], [ 419725.638573811738752, 7646504.675299532711506 ], [ 419721.038129113381729, 7646501.673928585834801 ], [ 419715.563672489020973, 7646495.752686912193894 ], [ 419711.89807988551911, 7646490.476757992058992 ], [ 419697.389067451353185, 7646463.626157123595476 ], [ 419693.983091787609737, 7646455.521851528435946 ], [ 419686.578835951397195, 7646434.327383263036609 ], [ 419672.926025304594077, 7646407.216139327734709 ], [ 419664.513941995508503, 7646387.932585277594626 ], [ 419642.07254029327305, 7646326.040940378792584 ], [ 419635.309411590511445, 7646312.458578213118017 ], [ 419624.925119517545681, 7646296.134623315185308 ] ] ] } },
{ "type": "Feature", "properties": { "fid": 107.0, "COMPR_M": 198.47, "CLASSE": "02 - Curta", "CD_FAZ": " 400508", "TALHOES": "2", "FAZ_tAL": "400504002, 400508002", "ID_LINHA": 157701 }, "geometry": { "type": "MultiLineString", "coordinates": [ [ [ 419819.381322093948256, 7646476.559812973253429 ], [ 419806.806231442606077, 7646480.797755423933268 ], [ 419794.862036085512955, 7646483.716312128119171 ], [ 419780.620953353820369, 7646485.809000723995268 ], [ 419768.213399384170771, 7646486.415295027196407 ], [ 419755.713412737590261, 7646485.841333596035838 ], [ 419743.386722307128366, 7646483.878143545240164 ], [ 419733.476946727139875, 7646481.002244049683213 ], [ 419724.093559919041581, 7646476.846259018406272 ], [ 419717.086262106779031, 7646472.525806395336986 ], [ 419710.600417247274891, 7646467.394051202572882 ], [ 419704.698651655693538, 7646461.574206667020917 ], [ 419698.238165596849285, 7646453.519572103396058 ], [ 419689.835406524478458, 7646439.43098047375679 ], [ 419674.689201900502667, 7646410.285280073061585 ], [ 419667.779934604419395, 7646395.827282762154937 ] ] ] } },
{ "type": "Feature", "properties": { "fid": 115.0, "COMPR_M": 145.09, "CLASSE": "02 - Curta", "CD_FAZ": " 400508", "TALHOES": "2", "FAZ_tAL": "400504002, 400508002", "ID_LINHA": 157709 }, "geometry": { "type": "MultiLineString", "coordinates": [ [ [ 419821.056906167301349, 7646479.131466077640653 ], [ 419811.637229245738126, 7646482.461965417489409 ], [ 419801.58062695740955, 7646485.297264808788896 ], [ 419791.325209407950751, 7646487.419639086350799 ], [ 419780.903220453532413, 7646488.795776413753629 ], [ 419770.347052780736703, 7646489.392476702108979 ], [ 419761.826390017464291, 7646489.283544795587659 ], [ 419751.160417295701336, 7646488.325652927160263 ], [ 419742.725418070913292, 7646486.804549414664507 ], [ 419734.47898827760946, 7646484.52321532741189 ], [ 419726.518945350951981, 7646481.397598527371883 ], [ 419720.799995414214209, 7646478.449542498216033 ], [ 419713.618813627399504, 7646473.718501072376966 ], [ 419707.018449018651154, 7646468.190105367451906 ], [ 419701.054584332043305, 7646461.991162569262087 ], [ 419695.784248831332661, 7646455.245732914656401 ], [ 419691.817053323436994, 7646449.112237609922886 ] ] ] } },
{ "type": "Feature", "properties": { "fid": 118.0, "COMPR_M": 85.62, "CLASSE": "01 - Muito curta", "CD_FAZ": " 400508", "TALHOES": "2", "FAZ_tAL": "400504002, 400508002", "ID_LINHA": 157712 }, "geometry": { "type": "MultiLineString", "coordinates": [ [ [ 419794.026971663930453, 7646437.646460277028382 ], [ 419780.53569372673519, 7646440.521522359922528 ], [ 419768.075681517133489, 7646441.414166357368231 ], [ 419756.547940162126906, 7646440.600458827801049 ], [ 419747.25309356150683, 7646438.082328086718917 ], [ 419741.706496437720489, 7646434.766398282721639 ], [ 419736.159457494388334, 7646429.128550846129656 ], [ 419731.893864450219553, 7646422.568059727549553 ], [ 419724.516085747047327, 7646408.547323293052614 ] ] ] } },
{ "type": "Feature", "properties": { "fid": 119.0, "COMPR_M": 99.76, "CLASSE": "01 - Muito curta", "CD_FAZ": " 400508", "TALHOES": "2", "FAZ_tAL": "400504002, 400508002", "ID_LINHA": 157713 }, "geometry": { "type": "MultiLineString", "coordinates": [ [ [ 419795.737547070137225, 7646440.27181738615036 ], [ 419782.375590545067098, 7646443.28307260107249 ], [ 419768.084862706600688, 7646444.414241602644324 ], [ 419754.896151618973818, 7646443.363885346800089 ], [ 419749.573254045913927, 7646442.101159668527544 ], [ 419744.589550882694311, 7646440.159331368282437 ], [ 419738.451641388994176, 7646435.951467227190733 ], [ 419732.593000315479003, 7646429.353320747613907 ], [ 419727.766815552662592, 7646421.301918346434832 ], [ 419717.627339691622183, 7646401.859717518091202 ] ] ] } },
{ "type": "Feature", "properties": { "fid": 120.0, "COMPR_M": 109.83, "CLASSE": "02 - Curta", "CD_FAZ": " 400508", "TALHOES": "2", "FAZ_tAL": "400504002, 400508002", "ID_LINHA": 157714 }, "geometry": { "type": "MultiLineString", "coordinates": [ [ [ 419797.445613993040752, 7646442.89332452043891 ], [ 419790.149492784403265, 7646444.843004750087857 ], [ 419781.365557011624333, 7646446.464019916951656 ], [ 419766.620397342892829, 7646447.407456856220961 ], [ 419759.538640918559395, 7646447.027682676911354 ], [ 419753.15568775893189, 7646446.085679400712252 ], [ 419747.69090977567248, 7646444.651615247130394 ], [ 419742.489652619115077, 7646442.452252885326743 ], [ 419735.70897688518744, 7646437.511595113202929 ], [ 419729.492587455257308, 7646430.136181149631739 ], [ 419725.126428734627552, 7646422.726189637556672 ], [ 419712.63155117694987, 7646398.783260008320212 ] ] ] } },
{ "type": "Feature", "properties": { "fid": 121.0, "COMPR_M": 119.19, "CLASSE": "02 - Curta", "CD_FAZ": " 400508", "TALHOES": "2", "FAZ_tAL": "400504002, 400508002", "ID_LINHA": 157715 }, "geometry": { "type": "MultiLineString", "coordinates": [ [ [ 419799.147205196321011, 7646445.504892851226032 ], [ 419790.820558089064434, 7646447.767064723186195 ], [ 419783.292592897836585, 7646449.212746727280319 ], [ 419774.195066308253445, 7646450.208936747163534 ], [ 419766.582794470828958, 7646450.407314313575625 ], [ 419759.244392597349361, 7646450.013348132371902 ], [ 419752.560296545038, 7646449.026190766133368 ], [ 419746.747201097663492, 7646447.499586680904031 ], [ 419741.074568565585651, 7646445.097945664077997 ], [ 419733.659653465845622, 7646439.702917275950313 ], [ 419726.999014695407823, 7646431.80448002833873 ], [ 419722.486041918455157, 7646424.150460930541158 ], [ 419707.980912675557192, 7646396.322925843298435 ] ] ] } },
{ "type": "Feature", "properties": { "fid": 122.0, "COMPR_M": 129.16, "CLASSE": "02 - Curta", "CD_FAZ": " 400508", "TALHOES": "2", "FAZ_tAL": "400504002, 400508002", "ID_LINHA": 157716 }, "geometry": { "type": "MultiLineString", "coordinates": [ [ [ 419800.847418010875117, 7646448.114345659501851 ], [ 419793.030940349271987, 7646450.326310027390718 ], [ 419783.751094073639251, 7646452.177583795040846 ], [ 419774.387370681273751, 7646453.202852806076407 ], [ 419766.545191597542726, 7646453.407171772792935 ], [ 419757.496636776602827, 7646452.842087171971798 ], [ 419750.661068905959837, 7646451.687678977847099 ], [ 419744.683225266402587, 7646449.960077951662242 ], [ 419738.755406584590673, 7646447.241946112364531 ], [ 419734.257895610062405, 7646444.176330567337573 ], [ 419730.749386454350315, 7646441.067162096500397 ], [ 419724.505441938759759, 7646433.472778902389109 ], [ 419719.005741500703152, 7646424.000330710783601 ], [ 419703.089015237404965, 7646393.306988124735653 ] ] ] } },
{ "type": "Feature", "properties": { "fid": 123.0, "COMPR_M": 143.4, "CLASSE": "02 - Curta", "CD_FAZ": " 400508", "TALHOES": "2", "FAZ_tAL": "400504002, 400508002", "ID_LINHA": 157717 }, "geometry": { "type": "MultiLineString", "coordinates": [ [ [ 419802.542702889419161, 7646450.716235166415572 ], [ 419793.74341423320584, 7646453.240556261502206 ], [ 419784.209595251479186, 7646455.142420860007405 ], [ 419774.579675054526888, 7646456.196768863126636 ], [ 419764.903676420624834, 7646456.374283412471414 ], [ 419755.660461022634991, 7646455.632261541672051 ], [ 419748.662745316221844, 7646454.295851576142013 ], [ 419742.506284252682235, 7646452.346302457153797 ], [ 419736.281811324239243, 7646449.259951693937182 ], [ 419731.439759307424538, 7646445.749971209093928 ], [ 419727.740392345993314, 7646442.289439531974494 ], [ 419721.238867007719819, 7646433.957245776429772 ], [ 419715.482687350711785, 7646423.742109023034573 ], [ 419696.430548417032696, 7646386.385147246532142 ] ] ] } },
{ "type": "Feature", "properties": { "fid": 124.0, "COMPR_M": 200.63, "CLASSE": "02 - Curta", "CD_FAZ": " 400508", "TALHOES": "2", "FAZ_tAL": "400504002, 400508002", "ID_LINHA": 157718 }, "geometry": { "type": "MultiLineString", "coordinates": [ [ [ 419804.23700235207798, 7646453.316612279973924 ], [ 419792.833754002815112, 7646456.539244642481208 ], [ 419781.379649772658013, 7646458.566490096971393 ], [ 419769.793651849380694, 7646459.39669839758426 ], [ 419759.949099585588556, 7646459.111882765777409 ], [ 419749.338460432074498, 7646457.540490717627108 ], [ 419741.410881032352336, 7646455.139476290903986 ], [ 419734.706494834274054, 7646451.81346938200295 ], [ 419728.504775623558089, 7646447.180961503647268 ], [ 419721.97299352689879, 7646440.209898239001632 ], [ 419717.078120910737198, 7646432.904110102914274 ], [ 419696.224500058800913, 7646392.957352271303535 ], [ 419687.430553599901032, 7646372.573865214362741 ], [ 419675.549737288267352, 7646338.893075237050653 ] ] ] } },
{ "type": "Feature", "properties": { "fid": 125.0, "COMPR_M": 219.58, "CLASSE": "02 - Curta", "CD_FAZ": " 400508", "TALHOES": "2", "FAZ_tAL": "400504002, 400508002", "ID_LINHA": 157719 }, "geometry": { "type": "MultiLineString", "coordinates": [ [ [ 419805.926574691722635, 7646455.909734298475087 ], [ 419793.504819308873266, 7646459.463304611854255 ], [ 419781.75067910621874, 7646461.543540688231587 ], [ 419769.848991942941211, 7646462.396276228129864 ], [ 419758.067399310879409, 7646461.956009952351451 ], [ 419747.204499335377477, 7646460.1163792880252 ], [ 419739.038358321529813, 7646457.411269088275731 ], [ 419732.002383741084486, 7646453.646726489067078 ], [ 419725.462359789118636, 7646448.468205917626619 ], [ 419719.60858286509756, 7646442.056789469905198 ], [ 419714.493079842766747, 7646434.426649892702699 ], [ 419691.897630891471636, 7646390.86923975776881 ], [ 419683.263996441848576, 7646370.017363680526614 ], [ 419668.298540543415584, 7646327.1395009951666 ] ] ] } },
{ "type": "Feature", "properties": { "fid": 126.0, "COMPR_M": 236.53, "CLASSE": "02 - Curta", "CD_FAZ": " 400508", "TALHOES": "2", "FAZ_tAL": "400504002, 400508002", "ID_LINHA": 157720 }, "geometry": { "type": "MultiLineString", "coordinates": [ [ [ 419807.616147030610591, 7646458.502856316044927 ], [ 419794.175884614698589, 7646462.387364584952593 ], [ 419782.121708440128714, 7646464.520591276697814 ], [ 419769.904332035745028, 7646465.395854059606791 ], [ 419757.77315098955296, 7646464.941675408743322 ], [ 419746.475376345333643, 7646463.026643145829439 ], [ 419737.864824715768918, 7646460.172546373680234 ], [ 419730.351041745161638, 7646456.151733865961432 ], [ 419722.321468097215984, 7646449.610897958278656 ], [ 419716.316031381371431, 7646442.683917479589581 ], [ 419711.036426624865271, 7646434.442151952534914 ], [ 419688.386330653214827, 7646390.436231193132699 ], [ 419680.451261523994617, 7646371.060705961659551 ], [ 419666.376235704869032, 7646330.651680427603424 ], [ 419661.226928814314306, 7646317.450995203107595 ] ] ] } },
{ "type": "Feature", "properties": { "fid": 127.0, "COMPR_M": 245.95, "CLASSE": "02 - Curta", "CD_FAZ": " 400508", "TALHOES": "2", "FAZ_tAL": "400504002, 400508002", "ID_LINHA": 157721 }, "geometry": { "type": "MultiLineString", "coordinates": [ [ [ 419809.301160793169402, 7646461.088981920853257 ], [ 419796.593309768417384, 7646464.897541188634932 ], [ 419782.492737776366994, 7646467.497641867026687 ], [ 419769.959672129247338, 7646468.395431889221072 ], [ 419757.478902667586226, 7646467.927340862341225 ], [ 419745.746253353659995, 7646465.936907002702355 ], [ 419736.691291108552832, 7646462.933823658153415 ], [ 419728.699699746270198, 7646458.656741246581078 ], [ 419721.363712951482739, 7646452.850850240327418 ], [ 419714.879761543066707, 7646445.750571932643652 ], [ 419709.322997708746698, 7646437.471729469485581 ], [ 419686.468250955920666, 7646393.423124503344297 ], [ 419678.327901871525683, 7646373.950456065125763 ], [ 419662.811110683775041, 7646329.600898863747716 ], [ 419656.755221964558586, 7646314.825215163640678 ] ] ] } },
{ "type": "Feature", "properties": { "fid": 128.0, "COMPR_M": 255.55, "CLASSE": "02 - Curta", "CD_FAZ": " 400508", "TALHOES": "2", "FAZ_tAL": "400504002, 400508002", "ID_LINHA": 157722 }, "geometry": { "type": "MultiLineString", "coordinates": [ [ [ 419810.985574516816996, 7646463.67418659850955 ], [ 419797.305783653748222, 7646467.811787419952452 ], [ 419784.685010151471943, 7646470.234010137617588 ], [ 419770.01501222193474, 7646471.395009719766676 ], [ 419757.184654345619492, 7646470.913006317801774 ], [ 419745.017130364256445, 7646468.847170857712626 ], [ 419735.517757503897883, 7646465.695100948214531 ], [ 419727.048357750987634, 7646461.161748623475432 ], [ 419719.314389532722998, 7646455.042172403074801 ], [ 419712.515350881556515, 7646447.597463167272508 ], [ 419706.737956641416531, 7646438.994269259274006 ], [ 419683.753560989862308, 7646394.700066874735057 ], [ 419674.825791688170284, 7646373.147390523925424 ], [ 419658.455014418228529, 7646326.515841629356146 ], [ 419652.098939632764086, 7646312.091052661649883 ] ] ] } },
{ "type": "Feature", "properties": { "fid": 129.0, "COMPR_M": 265.35, "CLASSE": "02 - Curta", "CD_FAZ": " 400508", "TALHOES": "2", "FAZ_tAL": "400504002, 400508002", "ID_LINHA": 157723 }, "geometry": { "type": "MultiLineString", "coordinates": [ [ [ 419812.668461269990075, 7646466.257047712802887 ], [ 419799.841396743839141, 7646470.266625453718007 ], [ 419785.099941793479957, 7646473.205258912406862 ], [ 419770.070352315204218, 7646474.394587552174926 ], [ 419756.890406024293043, 7646473.898671772330999 ], [ 419744.288007373805158, 7646471.757434711791575 ], [ 419734.34422389860265, 7646468.456378230825067 ], [ 419725.39701575471554, 7646463.666756002232432 ], [ 419717.265066113672219, 7646457.233494560234249 ], [ 419710.150940220279153, 7646449.444354400970042 ], [ 419704.152915573853534, 7646440.516809045337141 ], [ 419681.038871021184605, 7646395.977009249851108 ], [ 419672.013056770898402, 7646374.190732806921005 ], [ 419655.655880939157214, 7646327.595251446589828 ], [ 419651.335632774571422, 7646317.399715958163142 ], [ 419647.226599721005186, 7646309.230021447874606 ] ] ] } },
{ "type": "Feature", "properties": { "fid": 130.0, "COMPR_M": 275.42, "CLASSE": "02 - Curta", "CD_FAZ": " 400508", "TALHOES": "2", "FAZ_tAL": "400504002, 400508002", "ID_LINHA": 157724 }, "geometry": { "type": "MultiLineString", "coordinates": [ [ [ 419814.348226058820728, 7646468.835117295384407 ], [ 419800.594898695941083, 7646473.170533126220107 ], [ 419785.514873436128255, 7646476.176507692784071 ], [ 419770.125692407775205, 7646477.394165380857885 ], [ 419756.596157702908386, 7646476.884337231516838 ], [ 419743.558884383703116, 7646474.667698571458459 ], [ 419733.170690291794017, 7646471.217655517160892 ], [ 419723.745673757453915, 7646466.171763380989432 ], [ 419715.215742694854271, 7646459.424816723912954 ], [ 419707.786529558710754, 7646451.291245631873608 ], [ 419701.567874506057706, 7646442.039348836056888 ], [ 419679.175642826536205, 7646399.046830252744257 ], [ 419669.903932984627318, 7646377.118611952289939 ], [ 419652.069860105169937, 7646326.667152961716056 ], [ 419647.680326052708551, 7646316.697549746371806 ], [ 419642.09483810007805, 7646306.216658165678382 ] ] ] } },
{ "type": "Feature", "properties": { "fid": 131.0, "COMPR_M": 285.78, "CLASSE": "02 - Curta", "CD_FAZ": " 400508", "TALHOES": "2", "FAZ_tAL": "400504002, 400508002", "ID_LINHA": 157725 }, "geometry": { "type": "MultiLineString", "coordinates": [ [ [ 419816.027990847826004, 7646471.41318687889725 ], [ 419801.348400647111703, 7646476.074440797790885 ], [ 419785.929805079416838, 7646479.147756468504667 ], [ 419770.181032500928268, 7646480.393743213266134 ], [ 419756.30190938024316, 7646479.870002686046064 ], [ 419742.829761392553337, 7646477.577962428331375 ], [ 419731.997156686906237, 7646473.978932802565396 ], [ 419722.094331760541536, 7646468.676770756021142 ], [ 419713.166419275745284, 7646461.616138882935047 ], [ 419705.422118896851316, 7646453.138136862777174 ], [ 419698.982833438669331, 7646443.561888623051345 ], [ 419676.470082888612524, 7646400.342997250147164 ], [ 419667.095943357096985, 7646378.174663912504911 ], [ 419648.481712222564965, 7646325.806515431031585 ], [ 419643.062551736482419, 7646314.18368964176625 ], [ 419636.670820449071471, 7646303.031682551838458 ] ] ] } },
{ "type": "Feature", "properties": { "fid": 132.0, "COMPR_M": 296.45, "CLASSE": "02 - Curta", "CD_FAZ": " 400508", "TALHOES": "2", "FAZ_tAL": "400504002, 400508002", "ID_LINHA": 157726 }, "geometry": { "type": "MultiLineString", "coordinates": [ [ [ 419817.705738022050355, 7646473.988159868866205 ], [ 419802.101902600028552, 7646478.978348473086953 ], [ 419786.344736722006928, 7646482.119005246087909 ], [ 419770.236372592742555, 7646483.393321042880416 ], [ 419756.007661059556995, 7646482.855668142437935 ], [ 419742.10063840233488, 7646480.488226283341646 ], [ 419730.823623081319965, 7646476.740210089832544 ], [ 419720.442989763920195, 7646471.181778135709465 ], [ 419711.117095856170636, 7646463.807461042888463 ], [ 419704.30309087142814, 7646456.538402242586017 ], [ 419697.426240582892206, 7646446.799365848302841 ], [ 419674.647565778228454, 7646403.466460827738047 ], [ 419669.569411142379977, 7646392.428730827756226 ], [ 419664.287953727471177, 7646379.230715876445174 ], [ 419645.710374662128743, 7646326.955482110381126 ], [ 419639.42157790530473, 7646313.715374956838787 ], [ 419630.934627326321788, 7646299.663397934287786 ] ] ] } }
]
}
