{
"type": "FeatureCollection",
"name": " 400511",
"crs": { "type": "name", "properties": { "name": "urn:ogc:def:crs:EPSG::32722" } },
"xy_coordinate_resolution": 1e-15,
"features": [
{ "type": "Feature", "properties": { "fid": 162.0, "COMPR_M": 1124.05, "CLASSE": "06 - Acima do limite", "CD_FAZ": " 400511", "TALHOES": "3, 1, 2", "FAZ_tAL": "400083003, 400511001, 400083002", "ID_LINHA": 23739 }, "geometry": { "type": "MultiLineString", "coordinates": [ [ [ 420925.971547877299599, 7648786.090240662917495 ], [ 420935.510504959092941, 7648764.597911455668509 ], [ 420945.735183976299595, 7648739.041405512019992 ], [ 420955.069699346204288, 7648713.073084649629891 ], [ 420963.599950897798408, 7648686.758920347318053 ], [ 420973.848333915986586, 7648651.236872922629118 ], [ 420980.649612507550046, 7648624.316279288381338 ], [ 420986.590096091385931, 7648597.199193470180035 ], [ 420991.576317601662595, 7648569.924919721670449 ], [ 420995.514653198653832, 7648542.532817628234625 ], [ 420998.311310093675274, 7648515.062354821711779 ], [ 420999.872325154952705, 7648487.55317254178226 ], [ 421000.180061578284949, 7648469.211893735453486 ], [ 420999.472463258251082, 7648441.726989502087235 ], [ 420998.181416766950861, 7648423.440557049587369 ], [ 420996.23126716108527, 7648405.204375465400517 ], [ 420992.145734968129545, 7648377.972796055488288 ], [ 420988.701164902828168, 7648359.916317149996758 ], [ 420982.543092397565488, 7648333.005887839943171 ], [ 420977.829363664612174, 7648315.197717987000942 ], [ 420969.936030734796077, 7648288.710860477760434 ], [ 420954.884236535523087, 7648245.255987715907395 ], [ 420944.89172530680662, 7648219.618063857778907 ], [ 420934.283308148616925, 7648194.271838091313839 ], [ 420915.457864255993627, 7648152.582004565745592 ], [ 420895.531713403412141, 7648111.444996386766434 ], [ 420870.702869322267361, 7648062.58372385147959 ], [ 420786.62622846045997, 7647900.57789130974561 ], [ 420774.743320788140409, 7647875.984490500763059 ], [ 420764.079047698818613, 7647850.959520373493433 ], [ 420757.957080582971685, 7647833.917841939255595 ], [ 420752.816715809458401, 7647816.507853260263801 ], [ 420747.017523655609693, 7647789.766906280070543 ], [ 420743.507334424590226, 7647762.509372347965837 ], [ 420742.43629073392367, 7647744.182932550087571 ], [ 420742.381444249360356, 7647725.745593552477658 ] ] ] } },
{ "type": "Feature", "properties": { "fid": 163.0, "COMPR_M": 1121.71, "CLASSE": "06 - Acima do limite", "CD_FAZ": " 400511", "TALHOES": "3, 1, 2", "FAZ_tAL": "400083003, 400511001, 400083002", "ID_LINHA": 23740 }, "geometry": { "type": "MultiLineString", "coordinates": [ [ [ 420927.809264765412081, 7648789.259676799178123 ], [ 420938.274066161888186, 7648765.765438305214047 ], [ 420948.54054047469981, 7648740.104556454345584 ], [ 420957.90911622857675, 7648714.041568649932742 ], [ 420966.466842837049626, 7648687.642732219770551 ], [ 420976.745724974665791, 7648652.014905008487403 ], [ 420983.569278326933272, 7648625.006064932793379 ], [ 420989.531118461338338, 7648597.791384946554899 ], [ 420994.536958555923775, 7648570.40965308342129 ], [ 420998.492198246065527, 7648542.899768058210611 ], [ 421001.301899266836699, 7648515.300844662822783 ], [ 421002.870782669284381, 7648487.652344901114702 ], [ 421003.180168369784951, 7648469.212178617715836 ], [ 421002.46848466200754, 7648441.570182684808969 ], [ 421001.169746601080988, 7648423.174812177196145 ], [ 420999.208383702440187, 7648404.833651818335056 ], [ 420995.101012558094226, 7648377.45618480630219 ], [ 420991.639359383669216, 7648359.310097912326455 ], [ 420985.4531230313587, 7648332.276419650763273 ], [ 420980.719555758638307, 7648314.39326748251915 ], [ 420972.795792863529641, 7648287.804194133728743 ], [ 420957.693895910982974, 7648244.204318165779114 ], [ 420947.672719206195325, 7648218.492796774953604 ], [ 420937.037508729496039, 7648193.082512584514916 ], [ 420918.173336040577851, 7648151.306748418137431 ], [ 420898.217895584995858, 7648110.109161728993058 ], [ 420873.368638240615837, 7648061.20761314406991 ], [ 420789.307843855931424, 7647899.232877381145954 ], [ 420777.470083855674602, 7647874.733362445607781 ], [ 420766.875837295665406, 7647849.873575543984771 ], [ 420760.808127466181759, 7647832.983244944363832 ], [ 420755.718218899623025, 7647815.744150554761291 ], [ 420749.974342708883341, 7647789.257941534742713 ], [ 420746.496503519359976, 7647762.251285407692194 ], [ 420745.435159463260788, 7647744.09073300473392 ], [ 420745.318340909201652, 7647731.490035175345838 ] ] ] } },
{ "type": "Feature", "properties": { "fid": 164.0, "COMPR_M": 1119.23, "CLASSE": "06 - Acima do limite", "CD_FAZ": " 400511", "TALHOES": "3, 1, 2", "FAZ_tAL": "400083003, 400511001, 400083002", "ID_LINHA": 23741 }, "geometry": { "type": "MultiLineString", "coordinates": [ [ [ 420929.645136544131674, 7648792.425930744037032 ], [ 420941.03762736346107, 7648766.932965151965618 ], [ 420951.345896972576156, 7648741.167707394808531 ], [ 420960.748533109435812, 7648715.010052647441626 ], [ 420969.333734774729237, 7648688.526544092223048 ], [ 420979.643116031831596, 7648652.792937094345689 ], [ 420986.488944143755361, 7648625.695850579999387 ], [ 420992.47214083065046, 7648598.383576421067119 ], [ 420997.497599509777501, 7648570.894386450760067 ], [ 421001.469743295630906, 7648543.266718488186598 ], [ 421004.292488442384638, 7648515.539334502071142 ], [ 421005.869240181113128, 7648487.75151726230979 ], [ 421006.180275161692407, 7648469.212463500909507 ], [ 421005.464506067510229, 7648441.413375869393349 ], [ 421004.158076434629038, 7648422.909067308530211 ], [ 421002.185500242107082, 7648404.462928171269596 ], [ 420998.056290150852874, 7648376.939573557116091 ], [ 420994.577553865907248, 7648358.70387867745012 ], [ 420988.363153665093705, 7648331.546951461583376 ], [ 420983.609747853130102, 7648313.588816979900002 ], [ 420975.655554989876691, 7648286.897527785971761 ], [ 420960.503555284871254, 7648243.152648616582155 ], [ 420950.453713106107898, 7648217.367529691196978 ], [ 420939.791709310899023, 7648191.893187075853348 ], [ 420920.888807826966513, 7648150.031492272391915 ], [ 420900.904077766521368, 7648108.773327073082328 ], [ 420876.034407158032991, 7648059.831502434797585 ], [ 420791.989459251635708, 7647897.887863451614976 ], [ 420780.196846922335681, 7647873.482234387658536 ], [ 420769.672626893618144, 7647848.787630714476109 ], [ 420761.014261535077821, 7647823.561223121359944 ], [ 420754.578115869895555, 7647797.564395790919662 ], [ 420750.384990119549911, 7647770.953345023095608 ], [ 420748.835401663149241, 7647753.004904393106699 ], [ 420748.321724219480529, 7647737.367363314144313 ] ] ] } },
{ "type": "Feature", "properties": { "fid": 165.0, "COMPR_M": 1116.54, "CLASSE": "06 - Acima do limite", "CD_FAZ": " 400511", "TALHOES": "3, 1, 2", "FAZ_tAL": "400083003, 400511001, 400083002", "ID_LINHA": 23742 }, "geometry": { "type": "MultiLineString", "coordinates": [ [ [ 420931.464565195841715, 7648795.563825897872448 ], [ 420943.801188566489145, 7648768.100492004305124 ], [ 420954.15125347126741, 7648742.230858333408833 ], [ 420963.587949990178458, 7648715.978536646813154 ], [ 420972.20062671485357, 7648689.410355968400836 ], [ 420982.540507091325708, 7648653.570969182997942 ], [ 420989.408609962789342, 7648626.385636223480105 ], [ 420995.413163199904375, 7648598.975767897441983 ], [ 421000.458240463864058, 7648571.379119815304875 ], [ 421004.447288344847038, 7648543.633668916299939 ], [ 421007.283077617059462, 7648515.777824339456856 ], [ 421008.867697695910465, 7648487.850689623504877 ], [ 421009.180381953192409, 7648469.212748382240534 ], [ 421008.460527472139802, 7648441.256569052115083 ], [ 421007.146406266256236, 7648422.643322436138988 ], [ 421005.162616780027747, 7648404.09220452606678 ], [ 421001.011567741748877, 7648376.422962306067348 ], [ 420997.51574834738858, 7648358.09765943698585 ], [ 420991.273184298886918, 7648330.817483272403479 ], [ 420986.499939947971143, 7648312.784366473555565 ], [ 420978.515317118435632, 7648285.990861441940069 ], [ 420963.313214660505764, 7648242.100979067385197 ], [ 420953.23470700631151, 7648216.242262607440352 ], [ 420942.545909892651252, 7648190.703861566260457 ], [ 420923.60427961446112, 7648148.756236126646399 ], [ 420903.590259947697632, 7648107.437492417171597 ], [ 420878.700176075333729, 7648058.455391726456583 ], [ 420794.671074647631031, 7647896.542849525809288 ], [ 420782.923609986668453, 7647872.231106331571937 ], [ 420772.469416490872391, 7647847.701685882173479 ], [ 420763.891780898091383, 7647822.71157531067729 ], [ 420757.519163119664881, 7647796.971011542715132 ], [ 420753.365799817023799, 7647770.61197111941874 ], [ 420751.42500217090128, 7647743.440175516530871 ] ] ] } },
{ "type": "Feature", "properties": { "fid": 166.0, "COMPR_M": 1113.51, "CLASSE": "06 - Acima do limite", "CD_FAZ": " 400511", "TALHOES": "3, 1, 2", "FAZ_tAL": "400083003, 400511001, 400083002", "ID_LINHA": 23743 }, "geometry": { "type": "MultiLineString", "coordinates": [ [ [ 420933.283993849065155, 7648798.701721047982574 ], [ 420946.564749769517221, 7648769.26801885291934 ], [ 420956.95660996879451, 7648743.294009275734425 ], [ 420966.427366871444974, 7648716.947020644322038 ], [ 420975.06751865404658, 7648690.294167839922011 ], [ 420985.43789814930642, 7648654.349001267924905 ], [ 420992.328275781939737, 7648627.075421873480082 ], [ 420998.354185568459798, 7648599.567959373816848 ], [ 421003.418881418940146, 7648571.863853179849684 ], [ 421007.424833393539302, 7648544.000619348138571 ], [ 421010.27366679138504, 7648516.016314179636538 ], [ 421011.866155208321288, 7648487.949861989356577 ], [ 421012.180488745099865, 7648469.213033266365528 ], [ 421011.456548877933528, 7648441.099762232974172 ], [ 421010.134736101841554, 7648422.377577564679086 ], [ 421008.139733321499079, 7648403.721480879932642 ], [ 421003.966845332761295, 7648375.906351055949926 ], [ 421000.453942828113213, 7648357.491440202109516 ], [ 420994.183214931399561, 7648330.088015086017549 ], [ 420989.390132042462938, 7648311.979915970005095 ], [ 420981.375079244666267, 7648285.084195094183087 ], [ 420966.122874035791028, 7648241.049309516325593 ], [ 420956.015700904245023, 7648215.116995523683727 ], [ 420945.300110474287067, 7648189.514536054804921 ], [ 420926.319751399743836, 7648147.480979980900884 ], [ 420906.276442128117196, 7648106.101657759398222 ], [ 420881.365944994380698, 7648057.079281016252935 ], [ 420797.352690044499468, 7647895.19783559627831 ], [ 420785.650373054086231, 7647870.979978273622692 ], [ 420775.266206088592298, 7647846.615741053596139 ], [ 420766.769300263025798, 7647821.861927499994636 ], [ 420760.460210368968546, 7647796.377627298235893 ], [ 420756.346609513217118, 7647770.270597213879228 ], [ 420754.700781867431942, 7647749.850556807592511 ] ] ] } },
{ "type": "Feature", "properties": { "fid": 167.0, "COMPR_M": 1110.2, "CLASSE": "06 - Acima do limite", "CD_FAZ": " 400511", "TALHOES": "3, 1, 2", "FAZ_tAL": "400083003, 400511001, 400083002", "ID_LINHA": 23744 }, "geometry": { "type": "MultiLineString", "coordinates": [ [ [ 420935.103422501182649, 7648801.839616199955344 ], [ 420945.628097829641774, 7648779.035774966701865 ], [ 420956.391828565276228, 7648753.093682763166726 ], [ 420966.196045202668756, 7648726.765568836592138 ], [ 420977.934410592948552, 7648691.177979715168476 ], [ 420988.335289207752794, 7648655.127033356577158 ], [ 420995.247941600566264, 7648627.765207517892122 ], [ 421001.295207937655505, 7648600.160150850191712 ], [ 421006.379522372270003, 7648572.348586546257138 ], [ 421010.402378441824112, 7648544.367569776251912 ], [ 421013.264255964255426, 7648516.254804018884897 ], [ 421014.864612721663434, 7648488.049034349620342 ], [ 421015.180595536599867, 7648469.213318150490522 ], [ 421014.452570282155648, 7648440.942955414764583 ], [ 421013.123065933585167, 7648422.111832694150507 ], [ 421011.116849860642105, 7648403.350757231935859 ], [ 421006.922122923948336, 7648375.389739806763828 ], [ 420999.320355542120524, 7648338.501740377396345 ], [ 420994.744992356747389, 7648320.24937741085887 ], [ 420987.020564678066876, 7648293.138319308869541 ], [ 420975.310168760363013, 7648257.540917942300439 ], [ 420958.796694805263542, 7648213.991728441789746 ], [ 420936.791191714059096, 7648162.96272130869329 ], [ 420913.042709815665148, 7648113.00735741853714 ], [ 420884.031713911215775, 7648055.703170308843255 ], [ 420804.115713462291751, 7647901.915415316820145 ], [ 420792.142574225901626, 7647877.767770569771528 ], [ 420784.761227357608732, 7647861.681575443595648 ], [ 420775.021929191949312, 7647837.408875798806548 ], [ 420767.324231258477084, 7647812.689339739270508 ], [ 420761.801618915749714, 7647787.22208255995065 ], [ 420759.327419209352229, 7647769.929223309271038 ], [ 420758.113934975932352, 7647756.529764464125037 ] ] ] } },
{ "type": "Feature", "properties": { "fid": 168.0, "COMPR_M": 1106.53, "CLASSE": "06 - Acima do limite", "CD_FAZ": " 400511", "TALHOES": "3, 1, 2", "FAZ_tAL": "400083003, 400511001, 400083002", "ID_LINHA": 23745 }, "geometry": { "type": "MultiLineString", "coordinates": [ [ [ 420936.922851154755335, 7648804.97751135379076 ], [ 420948.375796514330432, 7648780.24017031211406 ], [ 420959.184172369306907, 7648754.190566948615015 ], [ 420969.024894910457078, 7648727.764508095569909 ], [ 420980.801302532374393, 7648692.061791585758328 ], [ 420991.23268026590813, 7648655.905065443366766 ], [ 420998.167607418028638, 7648628.454993164166808 ], [ 421004.236230306094512, 7648600.752342328429222 ], [ 421009.340163325890899, 7648572.833319908007979 ], [ 421013.379923490923829, 7648544.734520207159221 ], [ 421016.254845140152611, 7648516.493293857201934 ], [ 421017.863070235238411, 7648488.148206711746752 ], [ 421018.180702327867039, 7648469.213603034615517 ], [ 421017.448591686901636, 7648440.786148597486317 ], [ 421016.111395767424256, 7648421.846087821759284 ], [ 421014.09396639931947, 7648402.980033585801721 ], [ 421009.877400515193585, 7648374.873128557577729 ], [ 421002.240037384734023, 7648337.811894336715341 ], [ 420992.584047603188083, 7648301.298175540752709 ], [ 420987.094603501667734, 7648283.270862402394414 ], [ 420978.139611021266319, 7648256.543680692091584 ], [ 420961.57768870529253, 7648212.866461357101798 ], [ 420939.521139885066077, 7648161.718749105930328 ], [ 420915.733905112429056, 7648111.681648962199688 ], [ 420886.697482830495574, 7648054.327059598639607 ], [ 420806.789159314124845, 7647900.554262908175588 ], [ 420794.851067527546547, 7647876.477637972682714 ], [ 420787.50907515862491, 7647860.477371871471405 ], [ 420777.84553247859003, 7647836.394534738734365 ], [ 420770.22573434811784, 7647811.925637036561966 ], [ 420764.758437969547231, 7647786.713117813691497 ], [ 420761.702428765129298, 7647763.552096726372838 ] ] ] } },
{ "type": "Feature", "properties": { "fid": 169.0, "COMPR_M": 1102.4, "CLASSE": "06 - Acima do limite", "CD_FAZ": " 400511", "TALHOES": "3, 1, 2", "FAZ_tAL": "400083003, 400511001, 400083002", "ID_LINHA": 23746 }, "geometry": { "type": "MultiLineString", "coordinates": [ [ [ 420938.732816262403503, 7648808.099085109308362 ], [ 420951.123495200416073, 7648781.444565656594932 ], [ 420961.976516175142024, 7648755.287451133131981 ], [ 420971.853744622319937, 7648728.763447353616357 ], [ 420980.849390881194267, 7648701.941076575778425 ], [ 420991.635271634440869, 7648665.798184487037361 ], [ 420998.859698450076394, 7648638.355077775195241 ], [ 421005.249716819496825, 7648610.63818752579391 ], [ 421010.706508666044101, 7648582.683133572340012 ], [ 421015.130046392092481, 7648554.525859931483865 ], [ 421018.418975826818496, 7648526.203023055568337 ], [ 421020.470571315963753, 7648497.75248221680522 ], [ 421021.099571558064781, 7648478.733995476737618 ], [ 421020.857243626960553, 7648450.159909257665277 ], [ 421019.859589977015276, 7648431.099688735790551 ], [ 421017.071082940325141, 7648402.609309936873615 ], [ 421012.832678106613457, 7648374.356517307460308 ], [ 421005.159719227813184, 7648337.122048290446401 ], [ 421000.545362094300799, 7648318.714055109769106 ], [ 420992.760445786232594, 7648291.390468171797693 ], [ 420987.050635981198866, 7648273.380660194903612 ], [ 420977.800431998621207, 7648246.697750857099891 ], [ 420960.82268175506033, 7648203.104902308434248 ], [ 420938.380891893059015, 7648152.049721358343959 ], [ 420914.33498867333401, 7648102.094153787009418 ], [ 420889.363251748960465, 7648052.950948891229928 ], [ 420813.593621253618039, 7647907.26044082455337 ], [ 420793.830662252439652, 7647867.226594103500247 ], [ 420783.656574880355038, 7647843.357906560413539 ], [ 420775.401858355966397, 7647819.312984062358737 ], [ 420769.283352117985487, 7647794.597474550828338 ], [ 420765.516903926152736, 7647771.016652489081025 ] ] ] } },
{ "type": "Feature", "properties": { "fid": 170.0, "COMPR_M": 1097.64, "CLASSE": "06 - Acima do limite", "CD_FAZ": " 400511", "TALHOES": "3, 1, 2", "FAZ_tAL": "400083003, 400511001, 400083002", "ID_LINHA": 23747 }, "geometry": { "type": "MultiLineString", "coordinates": [ [ [ 420940.534166175173596, 7648811.205800589174032 ], [ 420953.871193884522654, 7648782.648960998281837 ], [ 420964.768859978707042, 7648756.384335324168205 ], [ 420974.682594331738073, 7648729.762386616319418 ], [ 420983.707789793610573, 7648702.851991715840995 ], [ 420994.525155049515888, 7648666.603646753355861 ], [ 421001.77200507663656, 7648639.07529129087925 ], [ 421008.183769895462319, 7648611.263981593772769 ], [ 421013.66086008423008, 7648583.204812411218882 ], [ 421018.102325510233641, 7648554.93324320949614 ], [ 421021.405723646399565, 7648526.485534936189651 ], [ 421023.467069045873359, 7648497.899301713332534 ], [ 421024.099251351552084, 7648478.784319564700127 ], [ 421023.855581520474516, 7648450.056606564670801 ], [ 421022.852267009380739, 7648430.888404245488346 ], [ 421021.151570578513201, 7648411.7631711717695 ], [ 421017.361300254880916, 7648383.275602741166949 ], [ 421010.2088384013623, 7648345.731404364109039 ], [ 421005.823337468318641, 7648327.170142330229282 ], [ 420998.344241206417792, 7648299.618449803441763 ], [ 420992.814127756399103, 7648281.457529710605741 ], [ 420983.798495543247554, 7648254.54920618981123 ], [ 420974.026465080620255, 7648228.057323050685227 ], [ 420963.594501211191528, 7648201.957227654755116 ], [ 420941.103420221596025, 7648150.789596851915121 ], [ 420917.02117085485952, 7648100.75831913203001 ], [ 420892.029020666552242, 7648051.574838180094957 ], [ 420816.262440176447853, 7647905.890252636745572 ], [ 420796.557425317994785, 7647865.975466046482325 ], [ 420786.453364477492869, 7647842.271961729973555 ], [ 420778.279377720202319, 7647818.463336249813437 ], [ 420774.010173353482969, 7647802.241835759021342 ], [ 420769.626883389020804, 7647779.059481338597834 ] ] ] } },
{ "type": "Feature", "properties": { "fid": 171.0, "COMPR_M": 1092.06, "CLASSE": "06 - Acima do limite", "CD_FAZ": " 400511", "TALHOES": "3, 1, 2", "FAZ_tAL": "400083003, 400511001, 400083002", "ID_LINHA": 23748 }, "geometry": { "type": "MultiLineString", "coordinates": [ [ [ 420942.335516088467557, 7648814.312516067177057 ], [ 420952.734191474737599, 7648792.554474839009345 ], [ 420964.028791042568628, 7648766.314056051895022 ], [ 420974.298946414259262, 7648739.702278979122639 ], [ 420986.566188706667162, 7648703.762906856834888 ], [ 420997.41503846750129, 7648667.409109017811716 ], [ 421004.684311703196727, 7648639.795504808425903 ], [ 421011.117822970496491, 7648611.889775661751628 ], [ 421016.61521150264889, 7648583.726491251960397 ], [ 421021.074604630004615, 7648555.340626487508416 ], [ 421024.392471467261203, 7648526.768046819604933 ], [ 421026.463566773687489, 7648498.046121210791171 ], [ 421027.09893114597071, 7648478.834643652662635 ], [ 421026.853919412184041, 7648449.953303871676326 ], [ 421025.84494404355064, 7648430.677119754254818 ], [ 421024.134678419970442, 7648411.444166001863778 ], [ 421020.324429576285183, 7648382.806080061011016 ], [ 421013.137926186434925, 7648345.082633836194873 ], [ 421008.7333681017044, 7648326.440674141049385 ], [ 421001.224338009371422, 7648298.778586933389306 ], [ 420995.673889884434175, 7648280.550863362848759 ], [ 420986.627937804965768, 7648253.551968939602375 ], [ 420976.826407151005697, 7648226.980055800639093 ], [ 420966.366320666915271, 7648200.809553005732596 ], [ 420943.825948551064357, 7648149.529472348280251 ], [ 420919.707353036850691, 7648099.42248447239399 ], [ 420894.694789584493265, 7648050.1987274736166 ], [ 420818.931259102304466, 7647904.520064452663064 ], [ 420799.28418838523794, 7647864.724337989464402 ], [ 420789.250154076493345, 7647841.186016900464892 ], [ 420783.616502540768124, 7647825.506468985229731 ], [ 420778.930243617563974, 7647809.634528926573694 ], [ 420774.130949526443146, 7647787.873499365523458 ] ] ] } },
{ "type": "Feature", "properties": { "fid": 172.0, "COMPR_M": 1085.35, "CLASSE": "06 - Acima do limite", "CD_FAZ": " 400511", "TALHOES": "3, 1", "FAZ_tAL": "400083003, 400511001", "ID_LINHA": 23749 }, "geometry": { "type": "MultiLineString", "coordinates": [ [ [ 420944.136866001121234, 7648817.419231547042727 ], [ 420955.464984176971484, 7648793.796736923977733 ], [ 420966.807218398549594, 7648767.445738467387855 ], [ 420977.116456896008458, 7648740.732777325436473 ], [ 420989.424587619723752, 7648704.673821996897459 ], [ 421000.304921885253862, 7648668.214571283198893 ], [ 421007.596618329756893, 7648640.515718324109912 ], [ 421014.051876046054531, 7648612.515569729730487 ], [ 421019.569562920602039, 7648584.248170093633235 ], [ 421024.046883748727851, 7648555.74800976831466 ], [ 421027.379219286085572, 7648527.05055870115757 ], [ 421029.460064502083696, 7648498.192940707318485 ], [ 421030.098610939225182, 7648478.884967740625143 ], [ 421029.852257304009981, 7648449.85000117868185 ], [ 421028.837621077662334, 7648430.465835263952613 ], [ 421027.117786262882873, 7648411.12516083009541 ], [ 421023.287558897049166, 7648382.336557378992438 ], [ 421016.067013969121035, 7648344.433863311074674 ], [ 421011.643398736370727, 7648325.711205955594778 ], [ 421004.104434810695238, 7648297.938724066130817 ], [ 420998.533652012061793, 7648279.644197016954422 ], [ 420989.457380065578036, 7648252.55473168939352 ], [ 420979.626349221100099, 7648225.902788549661636 ], [ 420969.138140122231562, 7648199.661878355778754 ], [ 420946.54847687802976, 7648148.269347843714058 ], [ 420922.393535217270255, 7648098.086649816483259 ], [ 420897.360558503074571, 7648048.822616765275598 ], [ 420821.60007802664768, 7647903.149876268580556 ], [ 420805.685040731099434, 7647871.317107581533492 ], [ 420795.17296801507473, 7647847.87195934727788 ], [ 420789.139945622009691, 7647832.337170500308275 ], [ 420784.034416449430864, 7647816.764040626585484 ], [ 420779.174206115421839, 7647797.742660504765809 ] ] ] } },
{ "type": "Feature", "properties": { "fid": 173.0, "COMPR_M": 1076.87, "CLASSE": "06 - Acima do limite", "CD_FAZ": " 400511", "TALHOES": "3, 1", "FAZ_tAL": "400083003, 400511001", "ID_LINHA": 23750 }, "geometry": { "type": "MultiLineString", "coordinates": [ [ [ 420945.93821591429878, 7648820.525947028771043 ], [ 420958.195776877983008, 7648795.038999008014798 ], [ 420969.58564575802302, 7648768.577420879155397 ], [ 420979.933967380435206, 7648741.763275671750307 ], [ 420989.34002699458506, 7648714.667417779564857 ], [ 421000.588116980623454, 7648678.206638045608997 ], [ 421008.158913618477527, 7648650.533445792272687 ], [ 421014.926195642270613, 7648622.538652162998915 ], [ 421020.788617437821813, 7648594.255709059536457 ], [ 421025.643089198449161, 7648565.718402763828635 ], [ 421029.384580710611772, 7648536.961377459578216 ], [ 421031.906011010636576, 7648508.020819174125791 ], [ 421032.855357800319325, 7648488.644068523310125 ], [ 421033.100054822862148, 7648459.484926580451429 ], [ 421031.830298110318836, 7648430.25455077085644 ], [ 421030.100894105329644, 7648410.806155659258366 ], [ 421026.250688218337018, 7648381.867034697905183 ], [ 421022.908923395501915, 7648362.749957662075758 ], [ 421016.838446601410396, 7648334.362664118409157 ], [ 421012.146101568825543, 7648315.643410513177514 ], [ 421004.240208002564032, 7648287.894765895791352 ], [ 420998.449026620713994, 7648269.628207812085748 ], [ 420989.07842934911605, 7648242.597735412418842 ], [ 420978.989222054718994, 7648216.010125043801963 ], [ 420968.27446946199052, 7648189.831027464941144 ], [ 420945.328053901786916, 7648138.554186957888305 ], [ 420920.945644293155055, 7648088.475011816248298 ], [ 420895.814286394161172, 7648039.301344524137676 ], [ 420828.424991702719126, 7647909.853748412802815 ], [ 420808.393534031463787, 7647870.026974985376 ], [ 420801.24831416120287, 7647854.456354007124901 ], [ 420794.843733269488439, 7647839.014127241447568 ], [ 420789.318596310506109, 7647823.63727499358356 ], [ 420785.049277996993624, 7647809.239603025838733 ] ] ] } },
{ "type": "Feature", "properties": { "fid": 174.0, "COMPR_M": 1064.62, "CLASSE": "06 - Acima do limite", "CD_FAZ": " 400511", "TALHOES": "3, 1", "FAZ_tAL": "400083003, 400511001", "ID_LINHA": 23751 }, "geometry": { "type": "MultiLineString", "coordinates": [ [ [ 420947.727333952148911, 7648823.611566685140133 ], [ 420960.926569579110947, 7648796.281261090189219 ], [ 420972.3640731163905, 7648769.709103291854262 ], [ 420982.751477864279877, 7648742.793774018064141 ], [ 420992.189280324149877, 7648715.606558389030397 ], [ 421003.470489280240145, 7648679.038571320474148 ], [ 421011.063786943734158, 7648651.283068196848035 ], [ 421017.853119771403726, 7648623.196971192955971 ], [ 421023.736417288833763, 7648594.813201508484781 ], [ 421028.609719479922205, 7648566.165042573586106 ], [ 421032.366964223794639, 7648537.28670721873641 ], [ 421034.89986775140278, 7648508.214078597724438 ], [ 421035.853815312846564, 7648488.743240881711245 ], [ 421036.099734307092149, 7648459.433996024541557 ], [ 421034.822975144837983, 7648430.043266283348203 ], [ 421033.084001947951037, 7648410.487150488421321 ], [ 421029.213817539508455, 7648381.397512014955282 ], [ 421025.855868032842409, 7648362.187785677611828 ], [ 421019.758128444838803, 7648333.672818077728152 ], [ 421015.046286438824609, 7648314.8757493654266 ], [ 421007.110148557112552, 7648287.02084032818675 ], [ 421001.298624282469973, 7648268.690094714984298 ], [ 420991.897928686870728, 7648241.572731551714242 ], [ 420981.779599334055092, 7648214.908326016739011 ], [ 420971.037349556805566, 7648188.662001622840762 ], [ 420948.043525687302463, 7648137.278930811211467 ], [ 420923.627259138738737, 7648087.130034025758505 ], [ 420814.889235246111639, 7647876.55672166030854 ], [ 420800.715667430136818, 7647845.573572939261794 ], [ 420792.665811599930748, 7647824.144416235387325 ] ] ] } },
{ "type": "Feature", "properties": { "fid": 175.0, "COMPR_M": 1040.3, "CLASSE": "06 - Acima do limite", "CD_FAZ": " 400511", "TALHOES": "3, 1", "FAZ_tAL": "400083003, 400511001", "ID_LINHA": 23752 }, "geometry": { "type": "MultiLineString", "coordinates": [ [ [ 420949.510854067164473, 7648826.687531830742955 ], [ 420963.657362282974645, 7648797.523523172363639 ], [ 420975.142500473652035, 7648770.840785706415772 ], [ 420985.568988346902188, 7648743.82427236251533 ], [ 420995.038533653481863, 7648716.545699001289904 ], [ 421006.352861578459851, 7648679.870504598133266 ], [ 421013.968660271086264, 7648652.032690595835447 ], [ 421020.780043903097976, 7648623.855290221981704 ], [ 421026.68421713943826, 7648595.370693956501782 ], [ 421031.57634976261761, 7648566.6116823842749 ], [ 421035.349347737268545, 7648537.612036976963282 ], [ 421037.893724493158516, 7648508.40733801946044 ], [ 421038.852272826945409, 7648488.842413244768977 ], [ 421039.099413791962434, 7648459.383065471425653 ], [ 421038.420741521753371, 7648439.688500877469778 ], [ 421037.029704600747209, 7648419.985873724333942 ], [ 421033.635236623347737, 7648390.637794485315681 ], [ 421030.56434365385212, 7648371.256849812343717 ], [ 421024.854277320438996, 7648342.487551731988788 ], [ 421020.373490637284704, 7648323.522801386192441 ], [ 421012.744725215248764, 7648295.419135459698737 ], [ 421004.148221942305099, 7648267.751981619745493 ], [ 420994.717428024159744, 7648240.547727691009641 ], [ 420984.569976614322513, 7648213.806526990607381 ], [ 420973.800229651504196, 7648187.49297578074038 ], [ 420954.716061864979565, 7648144.488974331878126 ], [ 420930.452081762079615, 7648094.079145846888423 ], [ 420905.357865258061793, 7648044.6942846365273 ], [ 420825.50328027328942, 7647891.026196056976914 ], [ 420813.8105206330074, 7647867.44670978654176 ], [ 420805.821930878097191, 7647849.889658194035292 ] ] ] } },
{ "type": "Feature", "properties": { "fid": 176.0, "COMPR_M": 684.28, "CLASSE": "04 - Longa", "CD_FAZ": " 400511", "TALHOES": "3, 1", "FAZ_tAL": "400083003, 400511001", "ID_LINHA": 23753 }, "geometry": { "type": "MultiLineString", "coordinates": [ [ [ 420951.294374180899467, 7648829.763496976345778 ], [ 420962.288820830814075, 7648807.611764864996076 ], [ 420970.357385995914228, 7648789.875333064235747 ], [ 420985.01017495279666, 7648753.925518678501248 ], [ 420991.655692589352839, 7648735.756022172048688 ], [ 421000.858183272066526, 7648708.317482560873032 ], [ 421014.41180873173289, 7648662.12932213768363 ], [ 421021.524933966633398, 7648633.973278338089585 ], [ 421025.788088348461315, 7648615.018745999783278 ], [ 421033.025290959805716, 7648576.711186829023063 ], [ 421037.200283879705239, 7648547.670123647898436 ], [ 421039.32621056487551, 7648528.180606225505471 ], [ 421040.88758123468142, 7648508.600597438402474 ], [ 421041.850730339996517, 7648488.94158560782671 ], [ 421042.181556662602816, 7648469.215882099233568 ], [ 421041.845608871837612, 7648449.436790410429239 ], [ 421040.018034434469882, 7648419.720128851942718 ], [ 421037.910898717294913, 7648400.01424441114068 ], [ 421035.140076181094628, 7648380.458466652780771 ], [ 421027.783365103998221, 7648341.838781205937266 ], [ 421018.292052988195792, 7648303.935410931706429 ], [ 421012.85002966481261, 7648285.272989191114902 ], [ 421003.93033464596374, 7648257.662969769909978 ], [ 420987.360353894066066, 7648212.704727962613106 ], [ 420969.937555882846937, 7648170.960801449604332 ] ] ] } },
{ "type": "Feature", "properties": { "fid": 177.0, "COMPR_M": 649.09, "CLASSE": "04 - Longa", "CD_FAZ": " 400511", "TALHOES": "3, 1", "FAZ_tAL": "400083003, 400511001", "ID_LINHA": 23754 }, "geometry": { "type": "MultiLineString", "coordinates": [ [ [ 420953.077894296613522, 7648832.8394621219486 ], [ 420965.001616815221496, 7648808.892862180247903 ], [ 420973.105084681767039, 7648791.079728409647942 ], [ 420987.815531452128198, 7648754.98866962082684 ], [ 420994.484542298712768, 7648736.754961431026459 ], [ 421003.716582185588777, 7648709.228397702798247 ], [ 421017.309199790412094, 7648662.907354224473238 ], [ 421024.444599784794264, 7648634.663063982501626 ], [ 421028.722141423786525, 7648615.644540070556104 ], [ 421035.985931913193781, 7648577.195920191705227 ], [ 421041.314114763285033, 7648538.26269649527967 ], [ 421044.442553145170677, 7648498.927038194611669 ], [ 421045.09700991155114, 7648479.136588180437684 ], [ 421045.098772761470173, 7648459.281204359605908 ], [ 421043.80100624501938, 7648429.40941281337291 ], [ 421040.888015258416999, 7648399.643520763143897 ], [ 421038.103205502731726, 7648379.988943967968225 ], [ 421034.696701945737004, 7648360.501269727014005 ], [ 421026.193551904987544, 7648322.063865008763969 ], [ 421015.719970219186507, 7648284.399063621647656 ], [ 421003.604591371549759, 7648247.568545432761312 ], [ 420988.074472623411566, 7648206.410157208330929 ] ] ] } },
{ "type": "Feature", "properties": { "fid": 178.0, "COMPR_M": 625.03, "CLASSE": "04 - Longa", "CD_FAZ": " 400511", "TALHOES": "3, 1", "FAZ_tAL": "400083003, 400511001", "ID_LINHA": 23755 }, "geometry": { "type": "MultiLineString", "coordinates": [ [ [ 420954.861414409708232, 7648835.915427267551422 ], [ 420971.84974038717337, 7648801.25030942261219 ], [ 420987.107610415667295, 7648765.159408817999065 ], [ 421000.500369442568626, 7648728.568828623741865 ], [ 421014.999978473701049, 7648682.36630442738533 ], [ 421027.36426560318796, 7648635.352849630638957 ], [ 421035.527616695908364, 7648597.043171305209398 ], [ 421041.880558460368775, 7648558.192309442907572 ], [ 421046.160736884339713, 7648518.878192249685526 ], [ 421047.439050874207169, 7648499.073857692070305 ], [ 421048.09668970463099, 7648479.186912268400192 ], [ 421047.842284655431286, 7648449.230185026302934 ], [ 421045.994694100809284, 7648419.188639110885561 ], [ 421043.865131797792856, 7648399.272797117009759 ], [ 421041.066334824310616, 7648379.51942128688097 ], [ 421035.712276604259387, 7648350.216809366829693 ], [ 421026.647025913931429, 7648311.805104769766331 ], [ 421015.692224777827505, 7648274.204198940657079 ], [ 421001.129130797460675, 7648231.926027880050242 ] ] ] } },
{ "type": "Feature", "properties": { "fid": 179.0, "COMPR_M": 606.4, "CLASSE": "04 - Longa", "CD_FAZ": " 400511", "TALHOES": "3, 1", "FAZ_tAL": "400083003, 400511001", "ID_LINHA": 23756 }, "geometry": { "type": "MultiLineString", "coordinates": [ [ [ 420956.635191704728641, 7648838.974589365534484 ], [ 420966.136522196698934, 7648820.372931117191911 ], [ 420974.58053309074603, 7648802.492571506649256 ], [ 420989.899954220512882, 7648766.256293004378676 ], [ 421003.339786324650049, 7648729.537312622182071 ], [ 421015.151079234026838, 7648692.503474517725408 ], [ 421027.982764717657119, 7648645.557212938554585 ], [ 421036.58747636526823, 7648607.266448568552732 ], [ 421043.44287089118734, 7648568.398241629824042 ], [ 421048.286454023909755, 7648529.028141867369413 ], [ 421049.869151456980035, 7648509.180375702679157 ], [ 421050.846102878684178, 7648489.239102691411972 ], [ 421051.098131729988381, 7648459.179343247786164 ], [ 421049.786360313708428, 7648428.986843830905855 ], [ 421046.842248336819466, 7648398.902073470875621 ], [ 421042.385454019298777, 7648369.190404812805355 ], [ 421034.3565376609331, 7648330.223587859421968 ], [ 421024.265112422755919, 7648292.059683986008167 ], [ 421011.687135035870597, 7648252.562084916979074 ] ] ] } },
{ "type": "Feature", "properties": { "fid": 180.0, "COMPR_M": 591.15, "CLASSE": "03 - Média", "CD_FAZ": " 400511", "TALHOES": "3, 1", "FAZ_tAL": "400083003, 400511001", "ID_LINHA": 23757 }, "geometry": { "type": "MultiLineString", "coordinates": [ [ [ 420958.401169657590799, 7648842.020300252363086 ], [ 420973.140004768618383, 7648812.73615412786603 ], [ 420989.034637263976038, 7648776.49919777456671 ], [ 421002.9710914278985, 7648739.751779211685061 ], [ 421015.20400580088608, 7648702.667534071952105 ], [ 421028.493026902666315, 7648655.780802599154413 ], [ 421037.524300650693476, 7648617.521922271698713 ], [ 421044.867854775104206, 7648578.650120288133621 ], [ 421050.261265301844105, 7648539.238685772754252 ], [ 421053.432046330766752, 7648499.367496689781547 ], [ 421054.181983831280377, 7648469.217021629214287 ], [ 421053.400848546996713, 7648438.904466792009771 ], [ 421050.982649002165999, 7648408.57311946246773 ], [ 421046.992593465314712, 7648378.580375921912491 ], [ 421043.537535858573392, 7648358.814753776416183 ], [ 421039.499716238933615, 7648339.243699103593826 ], [ 421029.852821367094293, 7648300.717608914710581 ], [ 421020.690555610111915, 7648270.159643726423383 ] ] ] } },
{ "type": "Feature", "properties": { "fid": 181.0, "COMPR_M": 578.24, "CLASSE": "03 - Média", "CD_FAZ": " 400511", "TALHOES": "3, 1", "FAZ_tAL": "400083003, 400511001", "ID_LINHA": 23758 }, "geometry": { "type": "MultiLineString", "coordinates": [ [ [ 420960.167147610161919, 7648845.06601114012301 ], [ 420975.85280075162882, 7648814.017251445911825 ], [ 420991.813064622343518, 7648777.630880186334252 ], [ 421005.799941137316637, 7648740.750718468800187 ], [ 421018.070897739846259, 7648703.55134594719857 ], [ 421028.898764022625983, 7648666.019482569769025 ], [ 421038.341588685405441, 7648627.805204400792718 ], [ 421046.158725682820659, 7648588.943279659375548 ], [ 421052.088009122642688, 7648549.5048757949844 ], [ 421055.856864938221406, 7648509.566894548013806 ], [ 421057.095729087595828, 7648479.337884532287717 ], [ 421056.837298330035992, 7648448.920276949182153 ], [ 421054.959683600289281, 7648418.391404496505857 ], [ 421051.45783156354446, 7648388.112420765683055 ], [ 421046.484480497136246, 7648358.252581792883575 ], [ 421037.833674440160394, 7648319.14599225204438 ], [ 421028.613798622158356, 7648285.645950705744326 ] ] ] } },
{ "type": "Feature", "properties": { "fid": 182.0, "COMPR_M": 566.95, "CLASSE": "03 - Média", "CD_FAZ": " 400511", "TALHOES": "3, 1", "FAZ_tAL": "400083003, 400511001", "ID_LINHA": 23759 }, "geometry": { "type": "MultiLineString", "coordinates": [ [ [ 420961.933125563256908, 7648848.111722028814256 ], [ 420978.565596736792941, 7648815.29834876395762 ], [ 420990.781729011621792, 7648787.948448449373245 ], [ 421005.291561731661204, 7648751.037760787643492 ], [ 421018.008576751220971, 7648713.78297340683639 ], [ 421029.203756055794656, 7648676.269193941727281 ], [ 421039.042928876238875, 7648638.111992212943733 ], [ 421047.318816101585981, 7648599.273141102865338 ], [ 421053.769674935203511, 7648559.82184255681932 ], [ 421058.123093581350986, 7648519.832151604816318 ], [ 421059.841475418477785, 7648489.53661978058517 ], [ 421060.097170183842536, 7648459.026551580056548 ], [ 421058.764391412900295, 7648428.352990358136594 ], [ 421055.773597956169397, 7648397.789902532473207 ], [ 421051.251286792336032, 7648367.640571067109704 ], [ 421045.357891804422252, 7648337.946158049628139 ], [ 421035.781993404903915, 7648299.656484613195062 ] ] ] } },
{ "type": "Feature", "properties": { "fid": 183.0, "COMPR_M": 557.35, "CLASSE": "03 - Média", "CD_FAZ": " 400511", "TALHOES": "3, 1", "FAZ_tAL": "400083003, 400511001", "ID_LINHA": 23760 }, "geometry": { "type": "MultiLineString", "coordinates": [ [ [ 420963.699103516119067, 7648851.157432914711535 ], [ 420981.278392720792908, 7648816.579446077346802 ], [ 420993.545290215348359, 7648789.115975297987461 ], [ 421004.647670442529488, 7648761.367575261741877 ], [ 421017.832560287148226, 7648724.058823891915381 ], [ 421029.41183996910695, 7648686.52597080823034 ], [ 421039.631991223315708, 7648648.438067005947232 ], [ 421048.351565840886906, 7648609.635214472189546 ], [ 421055.309392017603386, 7648570.184800872579217 ], [ 421060.233445302874316, 7648530.158189390785992 ], [ 421062.42153951554792, 7648499.807955181226134 ], [ 421063.182304207526613, 7648469.217876277863979 ], [ 421062.388912759721279, 7648438.434046340174973 ], [ 421059.931972529215273, 7648407.616103950887918 ], [ 421055.881981429236475, 7648377.171807877719402 ], [ 421050.40324901137501, 7648347.185713186860085 ], [ 421042.220224333868828, 7648312.126284993253648 ] ] ] } },
{ "type": "Feature", "properties": { "fid": 184.0, "COMPR_M": 549.99, "CLASSE": "03 - Média", "CD_FAZ": " 400511", "TALHOES": "3, 1", "FAZ_tAL": "400083003, 400511001", "ID_LINHA": 23761 }, "geometry": { "type": "MultiLineString", "coordinates": [ [ [ 420965.463413880264852, 7648854.200267778709531 ], [ 420979.604829291114584, 7648826.977266581729054 ], [ 420996.308851417852566, 7648790.283502147533 ], [ 421007.453026941046119, 7648762.430726204067469 ], [ 421020.681813615199644, 7648724.997964503243566 ], [ 421032.294212266453542, 7648687.357904084026814 ], [ 421042.544297850516159, 7648649.158280522562563 ], [ 421051.292588210257236, 7648610.22740594856441 ], [ 421058.276022300356999, 7648570.631440683268011 ], [ 421062.190799354750197, 7648540.54000480659306 ], [ 421064.838435161800589, 7648510.146672809496522 ], [ 421066.094768470909912, 7648479.488856797106564 ], [ 421065.83231200708542, 7648448.610368872061372 ], [ 421063.924673099827487, 7648417.59416988492012 ], [ 421060.369129032711498, 7648386.849733909592032 ], [ 421055.325314409157727, 7648356.566065844148397 ], [ 421047.90716563584283, 7648322.472788922488689 ] ] ] } },
{ "type": "Feature", "properties": { "fid": 185.0, "COMPR_M": 543.22, "CLASSE": "03 - Média", "CD_FAZ": " 400511", "TALHOES": "3, 1", "FAZ_tAL": "400083003, 400511001", "ID_LINHA": 23762 }, "geometry": { "type": "MultiLineString", "coordinates": [ [ [ 420967.212472621409688, 7648857.216798786073923 ], [ 420982.298490710207261, 7648828.298133676871657 ], [ 420999.072412619716488, 7648791.451028997078538 ], [ 421010.258383438922465, 7648763.493877144530416 ], [ 421023.5310669450555, 7648725.937105113640428 ], [ 421035.176584566361271, 7648688.189837358891964 ], [ 421045.456604476494249, 7648649.878494037315249 ], [ 421054.233610578929074, 7648610.819597425870597 ], [ 421059.671059546526521, 7648581.073787111788988 ], [ 421065.173182867700234, 7648540.865334562957287 ], [ 421067.832291902275756, 7648510.339932233095169 ], [ 421069.094448264688253, 7648479.539180882275105 ], [ 421068.830649899202399, 7648448.507066178135574 ], [ 421066.913002933608368, 7648417.328425012528896 ], [ 421063.339561523171142, 7648386.428838290274143 ], [ 421058.27225904725492, 7648356.003893861547112 ], [ 421053.290240759088192, 7648332.266455659642816 ] ] ] } },
{ "type": "Feature", "properties": { "fid": 186.0, "COMPR_M": 536.99, "CLASSE": "03 - Média", "CD_FAZ": " 400511", "TALHOES": "3, 1", "FAZ_tAL": "400083003, 400511001", "ID_LINHA": 23763 }, "geometry": { "type": "MultiLineString", "coordinates": [ [ [ 420968.961531363427639, 7648860.233329794369638 ], [ 420984.992152129474562, 7648829.619000769220293 ], [ 420997.834372846642509, 7648801.919286506250501 ], [ 421009.446360853151418, 7648773.93448231369257 ], [ 421023.215704489790369, 7648736.316700613126159 ], [ 421035.27466956601711, 7648698.507628148421645 ], [ 421045.922266862879042, 7648660.278537002392113 ], [ 421055.128619104274549, 7648621.276686681434512 ], [ 421060.930482773168478, 7648591.551673863083124 ], [ 421066.975734366220422, 7648551.339627942070365 ], [ 421070.085450279759243, 7648520.786110961809754 ], [ 421071.835305471089669, 7648489.933309228159487 ], [ 421072.095888120005839, 7648458.822829357348382 ], [ 421070.735099548939615, 7648427.507852395996451 ], [ 421067.682064114953391, 7648396.307007942348719 ], [ 421063.072397157782689, 7648365.574126065708697 ], [ 421058.40601270145271, 7648341.573805897496641 ] ] ] } },
{ "type": "Feature", "properties": { "fid": 187.0, "COMPR_M": 531.23, "CLASSE": "03 - Média", "CD_FAZ": " 400511", "TALHOES": "3, 1", "FAZ_tAL": "400083003, 400511001", "ID_LINHA": 23764 }, "geometry": { "type": "MultiLineString", "coordinates": [ [ [ 420970.710590104339644, 7648863.249860798940063 ], [ 420987.685813547635917, 7648830.939867861568928 ], [ 421000.582071531796828, 7648803.123681852594018 ], [ 421012.238704656832851, 7648775.031366499140859 ], [ 421026.055121372104622, 7648737.285184610635042 ], [ 421038.149468186544254, 7648699.365364380180836 ], [ 421048.827140189358033, 7648661.028159404173493 ], [ 421058.062672179134097, 7648621.902480746619403 ], [ 421063.884834191645496, 7648592.073352703824639 ], [ 421068.631070528586861, 7648561.858758948743343 ], [ 421072.180436580616515, 7648531.288236917927861 ], [ 421074.407530431635678, 7648500.395233172923326 ], [ 421075.182731374050491, 7648469.219015812501311 ], [ 421074.37299838126637, 7648437.806819071993232 ], [ 421071.864403899817262, 7648406.340083269402385 ], [ 421067.734498713514768, 7648375.293717151507735 ], [ 421063.286994081514422, 7648350.453991278074682 ] ] ] } },
{ "type": "Feature", "properties": { "fid": 188.0, "COMPR_M": 525.87, "CLASSE": "03 - Média", "CD_FAZ": " 400511", "TALHOES": "3, 1", "FAZ_tAL": "400083003, 400511001", "ID_LINHA": 23765 }, "geometry": { "type": "MultiLineString", "coordinates": [ [ [ 420972.459648846066557, 7648866.266391806304455 ], [ 420985.764577344118152, 7648841.496867648325861 ], [ 420999.15766740613617, 7648813.672930255532265 ], [ 421011.262056127889082, 7648785.552657082676888 ], [ 421025.601889104000293, 7648747.743293285369873 ], [ 421038.139141313324217, 7648709.738029063679278 ], [ 421049.180501429364085, 7648671.465707178227603 ], [ 421058.830057599698193, 7648632.41343760676682 ], [ 421065.00561520998599, 7648602.618095798417926 ], [ 421070.142543428170029, 7648572.417999926954508 ], [ 421074.12033340788912, 7648541.841323841363192 ], [ 421076.813862125971355, 7648510.919710498303175 ], [ 421078.093487647711299, 7648479.690153148025274 ], [ 421077.825663575204089, 7648448.197158101946115 ], [ 421075.87799243349582, 7648416.531190400011837 ], [ 421072.25085899408441, 7648385.16615143045783 ], [ 421067.962172050960362, 7648358.95974940713495 ] ] ] } },
{ "type": "Feature", "properties": { "fid": 189.0, "COMPR_M": 520.86, "CLASSE": "03 - Média", "CD_FAZ": " 400511", "TALHOES": "3, 1", "FAZ_tAL": "400083003, 400511001", "ID_LINHA": 23766 }, "geometry": { "type": "MultiLineString", "coordinates": [ [ [ 420974.2087075872696, 7648869.282922811806202 ], [ 420988.437919752614107, 7648842.858400664292276 ], [ 421001.888460108661093, 7648814.91519233956933 ], [ 421014.040483485849109, 7648786.684339495375752 ], [ 421028.430738813593052, 7648748.742232548072934 ], [ 421038.017369141743984, 7648720.159379391930997 ], [ 421049.432939973659813, 7648681.907429801300168 ], [ 421059.480589606449939, 7648642.940491738729179 ], [ 421065.997700053325389, 7648613.188363332301378 ], [ 421071.513623362756334, 7648583.012720570899546 ], [ 421075.908369511540513, 7648552.440479234792292 ], [ 421079.057217803259846, 7648521.501580480486155 ], [ 421080.830678010708652, 7648490.23082631174475 ], [ 421081.09492657269584, 7648458.670037692412734 ], [ 421079.713130649237428, 7648426.873998926021159 ], [ 421076.61341373284813, 7648395.194837003946304 ], [ 421072.457458878867328, 7648367.138223620131612 ] ] ] } },
{ "type": "Feature", "properties": { "fid": 190.0, "COMPR_M": 516.16, "CLASSE": "03 - Média", "CD_FAZ": " 400511", "TALHOES": "3, 1", "FAZ_tAL": "400083003, 400511001", "ID_LINHA": 23767 }, "geometry": { "type": "MultiLineString", "coordinates": [ [ [ 420975.953048651106656, 7648872.29131742939353 ], [ 420991.111262159945909, 7648844.219933684915304 ], [ 421004.619252810662147, 7648816.157454425469041 ], [ 421016.81891084270319, 7648787.81602190900594 ], [ 421027.831645597703755, 7648759.281747551634908 ], [ 421040.875768055499066, 7648721.070294532924891 ], [ 421052.322823391994461, 7648682.7128920648247 ], [ 421062.40025542548392, 7648643.630277385935187 ], [ 421068.938722423219588, 7648613.780554806813598 ], [ 421074.474264316551853, 7648583.49745393358171 ], [ 421078.885914560465608, 7648552.807429664768279 ], [ 421082.047806976363063, 7648521.740070318803191 ], [ 421083.829135522246361, 7648490.329998674802482 ], [ 421084.09460605843924, 7648458.619107138365507 ], [ 421083.361062594223768, 7648437.336398620158434 ], [ 421080.813727426400874, 7648405.383067756891251 ], [ 421076.796079232939519, 7648375.031667587347329 ] ] ] } },
{ "type": "Feature", "properties": { "fid": 191.0, "COMPR_M": 511.77, "CLASSE": "03 - Média", "CD_FAZ": " 400511", "TALHOES": "3, 1", "FAZ_tAL": "400083003, 400511001", "ID_LINHA": 23768 }, "geometry": { "type": "MultiLineString", "coordinates": [ [ [ 420977.686753936344758, 7648875.281368950381875 ], [ 420993.78460456879111, 7648845.581466701813042 ], [ 421007.350045512779616, 7648817.399716505780816 ], [ 421019.597338201710954, 7648788.947704320773482 ], [ 421030.649156081490219, 7648760.312245897017419 ], [ 421040.62658692029072, 7648731.571948780678213 ], [ 421052.470818358007818, 7648693.181437018327415 ], [ 421062.930444237077609, 7648654.199775137007236 ], [ 421069.798884481540881, 7648624.405657020397484 ], [ 421075.702239863574505, 7648594.160068064928055 ], [ 421080.520187002839521, 7648563.488292064517736 ], [ 421084.127427859813906, 7648532.418284440413117 ], [ 421086.393521344987676, 7648500.982511160895228 ], [ 421087.183158541680314, 7648469.220155343413353 ], [ 421086.357084000657778, 7648437.179591801017523 ], [ 421083.79683526919689, 7648405.064062584191561 ], [ 421080.970299013308249, 7648382.626010317355394 ] ] ] } },
{ "type": "Feature", "properties": { "fid": 192.0, "COMPR_M": 507.67, "CLASSE": "03 - Média", "CD_FAZ": " 400511", "TALHOES": "3, 1", "FAZ_tAL": "400083003, 400511001", "ID_LINHA": 23769 }, "geometry": { "type": "MultiLineString", "coordinates": [ [ [ 420979.420459222805221, 7648878.271420474164188 ], [ 420996.457946976472158, 7648846.942999720573425 ], [ 421010.080838214955293, 7648818.641978589817882 ], [ 421022.375765558972489, 7648790.079386735334992 ], [ 421033.466666563996114, 7648761.342744244262576 ], [ 421043.475840250554029, 7648732.511089392006397 ], [ 421055.353190656693187, 7648694.013370294123888 ], [ 421065.842750863754191, 7648654.919988652691245 ], [ 421072.732937556924298, 7648625.031451088376343 ], [ 421078.656591281818692, 7648594.681746906600893 ], [ 421083.492466120165773, 7648563.89567534532398 ], [ 421087.114175679860637, 7648532.700796321965754 ], [ 421089.390019074722659, 7648501.129330659285188 ], [ 421090.183265333296731, 7648469.220440225675702 ], [ 421089.819015142973512, 7648447.783947331830859 ], [ 421087.831311766582076, 7648415.46821091324091 ], [ 421084.993647343479097, 7648389.945865942165256 ] ] ] } },
{ "type": "Feature", "properties": { "fid": 193.0, "COMPR_M": 503.78, "CLASSE": "03 - Média", "CD_FAZ": " 400511", "TALHOES": "3, 1", "FAZ_tAL": "400083003, 400511001", "ID_LINHA": 23770 }, "geometry": { "type": "MultiLineString", "coordinates": [ [ [ 420981.154164509149268, 7648881.26147199422121 ], [ 420994.252274973900057, 7648857.704992935061455 ], [ 421008.406352563353721, 7648829.39041924290359 ], [ 421021.180902241205331, 7648800.79124379530549 ], [ 421032.701235425658524, 7648771.999084668233991 ], [ 421043.091622657608241, 7648743.096088599413633 ], [ 421055.398259901616257, 7648704.511781782843173 ], [ 421066.256380148290191, 7648665.525893808342516 ], [ 421073.464678252115846, 7648635.705032754689455 ], [ 421079.744614468247164, 7648605.405558042228222 ], [ 421084.975694837572519, 7648574.651198984123766 ], [ 421089.032250973104965, 7648543.467972632497549 ], [ 421091.783145830384456, 7648511.886007603257895 ], [ 421093.091886619746219, 7648479.941773587837815 ], [ 421093.093644511769526, 7648458.466315466910601 ], [ 421091.683838784403633, 7648426.028860962018371 ], [ 421088.911286376416683, 7648397.073399968445301 ] ] ] } },
{ "type": "Feature", "properties": { "fid": 194.0, "COMPR_M": 500.06, "CLASSE": "03 - Média", "CD_FAZ": " 400511", "TALHOES": "3, 1", "FAZ_tAL": "400083003, 400511001", "ID_LINHA": 23771 }, "geometry": { "type": "MultiLineString", "coordinates": [ [ [ 420982.887869795376901, 7648884.251523517072201 ], [ 420996.904068279371131, 7648859.108044886961579 ], [ 421011.119148547120858, 7648830.671516560018063 ], [ 421023.94446344388416, 7648801.958770642057061 ], [ 421035.506591926387046, 7648773.062235606834292 ], [ 421045.931039538932964, 7648744.064572596922517 ], [ 421058.273058519640472, 7648705.369518016465008 ], [ 421069.161253475467674, 7648666.275516210123897 ], [ 421076.391602382296696, 7648636.363351784646511 ], [ 421082.692414319142699, 7648605.963050492107868 ], [ 421087.942325119161978, 7648575.09783879481256 ], [ 421092.014634485822171, 7648543.793302390724421 ], [ 421094.777002571849152, 7648512.079267026856542 ], [ 421096.09156641329173, 7648479.992097675800323 ], [ 421096.09332399466075, 7648458.415384911000729 ], [ 421094.676515818107873, 7648425.817576471716166 ], [ 421092.737837241671514, 7648404.035213259980083 ] ] ] } },
{ "type": "Feature", "properties": { "fid": 195.0, "COMPR_M": 496.65, "CLASSE": "03 - Média", "CD_FAZ": " 400511", "TALHOES": "3, 1", "FAZ_tAL": "400083003, 400511001", "ID_LINHA": 23772 }, "geometry": { "type": "MultiLineString", "coordinates": [ [ [ 420984.621575080789626, 7648887.241575038060546 ], [ 420999.555861586937681, 7648860.511096838861704 ], [ 421013.831944531644695, 7648831.952613878063858 ], [ 421026.708024647261482, 7648803.12629749532789 ], [ 421038.311948423273861, 7648774.125386548228562 ], [ 421048.770456420141272, 7648745.0330565944314 ], [ 421058.207384886278305, 7648715.924712180159986 ], [ 421069.46223883877974, 7648676.911931784823537 ], [ 421076.998584516986739, 7648647.079205618239939 ], [ 421083.6438342690235, 7648616.741512190550566 ], [ 421089.27746908768313, 7648585.921120759099722 ], [ 421093.773639803461265, 7648554.642181813716888 ], [ 421097.000752849155106, 7648522.932519514113665 ], [ 421098.821423088083975, 7648490.82586048450321 ], [ 421099.183585708378814, 7648469.22129487618804 ], [ 421098.34116962045664, 7648436.552364535629749 ], [ 421096.408226899686269, 7648410.71291555929929 ] ] ] } },
{ "type": "Feature", "properties": { "fid": 196.0, "COMPR_M": 493.35, "CLASSE": "03 - Média", "CD_FAZ": " 400511", "TALHOES": "3, 1", "FAZ_tAL": "400083003, 400511001", "ID_LINHA": 23773 }, "geometry": { "type": "MultiLineString", "coordinates": [ [ [ 420986.352544386289082, 7648890.22690792568028 ], [ 420997.100252406671643, 7648871.385332938283682 ], [ 421011.928766318480484, 7648842.827671702951193 ], [ 421025.311359697603621, 7648813.963239947333932 ], [ 421037.369798899337184, 7648784.90332418307662 ], [ 421048.232686781499069, 7648755.734807362779975 ], [ 421061.074276825762354, 7648716.808524053543806 ], [ 421072.359629896352999, 7648677.689963872544467 ], [ 421079.918250336311758, 7648647.768991263583302 ], [ 421086.584856638102792, 7648617.333703665994108 ], [ 421092.238110041245818, 7648586.405854124575853 ], [ 421096.751184853201266, 7648555.00913224183023 ], [ 421099.991342023597099, 7648523.171009353362024 ], [ 421101.819880602648482, 7648490.92503284662962 ], [ 421102.183692499471363, 7648469.221579757519066 ], [ 421101.812366709695198, 7648447.370736563578248 ], [ 421100.013473686412908, 7648417.272100547328591 ] ] ] } },
{ "type": "Feature", "properties": { "fid": 197.0, "COMPR_M": 490.2, "CLASSE": "03 - Média", "CD_FAZ": " 400511", "TALHOES": "3, 1", "FAZ_tAL": "400083003, 400511001", "ID_LINHA": 23774 }, "geometry": { "type": "MultiLineString", "coordinates": [ [ [ 420988.07252287317533, 7648893.193285390734673 ], [ 420999.729426798643544, 7648872.830329485237598 ], [ 421014.622427737282123, 7648844.148538794368505 ], [ 421028.059058382757939, 7648815.167635293677449 ], [ 421040.162142704764847, 7648786.000208370387554 ], [ 421051.061536492663436, 7648756.733746621757746 ], [ 421060.884560447128024, 7648727.446700518019497 ], [ 421072.55200731131481, 7648688.351127926260233 ], [ 421080.404283995449077, 7648658.521056236699224 ], [ 421087.403202935762238, 7648628.160421429201961 ], [ 421093.428348372108303, 7648597.290141109377146 ], [ 421098.353861714771483, 7648565.932591738179326 ], [ 421102.047914777765982, 7648534.113355727866292 ], [ 421104.372507717518602, 7648501.863428145647049 ], [ 421105.090605796489399, 7648480.143069941550493 ], [ 421104.810704602918122, 7648447.267433872446418 ], [ 421103.534336309938226, 7648423.677761697210371 ] ] ] } },
{ "type": "Feature", "properties": { "fid": 198.0, "COMPR_M": 487.25, "CLASSE": "03 - Média", "CD_FAZ": " 400511", "TALHOES": "3, 1", "FAZ_tAL": "400083003, 400511001", "ID_LINHA": 23775 }, "geometry": { "type": "MultiLineString", "coordinates": [ [ [ 420989.792501360236201, 7648896.159662855789065 ], [ 421002.358601188287139, 7648874.275326028466225 ], [ 421017.316089156258386, 7648845.469405887648463 ], [ 421030.806757067912258, 7648816.372030636295676 ], [ 421042.95448650920298, 7648787.097092555835843 ], [ 421053.890386202023365, 7648757.732685880735517 ], [ 421063.742959360650275, 7648728.357615659013391 ], [ 421075.44189072860172, 7648689.15659019164741 ], [ 421083.316590623580851, 7648659.241269752383232 ], [ 421090.337256010097917, 7648628.786215493455529 ], [ 421096.382699789712206, 7648597.811819950118661 ], [ 421101.326140831923112, 7648566.339975018054247 ], [ 421103.944168539717793, 7648545.094621427357197 ], [ 421106.752429536369164, 7648512.852304711937904 ], [ 421107.81679562793579, 7648491.123377571813762 ], [ 421108.092041934025474, 7648458.211662691086531 ], [ 421106.949140480777714, 7648429.890466007404029 ] ] ] } },
{ "type": "Feature", "properties": { "fid": 199.0, "COMPR_M": 484.37, "CLASSE": "03 - Média", "CD_FAZ": " 400511", "TALHOES": "3, 1", "FAZ_tAL": "400083003, 400511001", "ID_LINHA": 23776 }, "geometry": { "type": "MultiLineString", "coordinates": [ [ [ 420991.512479847529903, 7648899.126040321774781 ], [ 421004.987775578221772, 7648875.720322572626173 ], [ 421020.009750575467478, 7648846.790272981859744 ], [ 421029.196387128555216, 7648827.337813173420727 ], [ 421041.824757065856829, 7648798.001163627952337 ], [ 421053.189239949046168, 7648768.55623266659677 ], [ 421063.420613555063028, 7648739.085073673166335 ], [ 421075.529796746210195, 7648699.836903227493167 ], [ 421083.685620108270086, 7648670.023628214374185 ], [ 421091.026223034830764, 7648639.654946930706501 ], [ 421097.43141357821878, 7648608.750512736849487 ], [ 421102.775476528913714, 7648577.331037851050496 ], [ 421106.926552052900661, 7648545.419951185584068 ], [ 421109.746286275913008, 7648513.045564131811261 ], [ 421110.815253142034635, 7648491.22254993300885 ], [ 421111.091721418779343, 7648458.160732135176659 ], [ 421110.330314219114371, 7648436.04198498558253 ] ] ] } },
{ "type": "Feature", "properties": { "fid": 200.0, "COMPR_M": 481.71, "CLASSE": "03 - Média", "CD_FAZ": " 400511", "TALHOES": "3, 1", "FAZ_tAL": "400083003, 400511001", "ID_LINHA": 23777 }, "geometry": { "type": "MultiLineString", "coordinates": [ [ [ 420993.232458333717659, 7648902.092417787760496 ], [ 421007.616949968447443, 7648877.16531911958009 ], [ 421022.703411994851194, 7648848.111140077002347 ], [ 421031.927179828926455, 7648828.580075258389115 ], [ 421044.603184424689971, 7648799.132846044376493 ], [ 421056.006750432192348, 7648769.586731011047959 ], [ 421066.269866884395014, 7648740.024214284494519 ], [ 421078.412169046176132, 7648700.668836502358317 ], [ 421086.59049343469087, 7648670.773250613361597 ], [ 421093.953147165593691, 7648640.313265963457525 ], [ 421100.379213429172523, 7648609.308005186729133 ], [ 421105.742106811027043, 7648577.77767766173929 ], [ 421108.661365047271829, 7648556.476933961734176 ], [ 421111.953698721539695, 7648524.124968709424138 ], [ 421113.362000902998261, 7648502.303886637091637 ], [ 421114.184119668148924, 7648469.222719289362431 ], [ 421113.589878545317333, 7648441.972254580818117 ] ] ] } },
{ "type": "Feature", "properties": { "fid": 201.0, "COMPR_M": 471.47, "CLASSE": "03 - Média", "CD_FAZ": " 400511", "TALHOES": "3, 1", "FAZ_tAL": "400083003, 400511001", "ID_LINHA": 23778 }, "geometry": { "type": "MultiLineString", "coordinates": [ [ [ 420994.95243682077853, 7648905.058795252814889 ], [ 421010.246124359080568, 7648878.610315663740039 ], [ 421020.518028649501503, 7648859.196796883828938 ], [ 421034.657972530694678, 7648829.822337338700891 ], [ 421047.381611780438107, 7648800.264528457075357 ], [ 421058.824260916095227, 7648770.617229359224439 ], [ 421069.119120214192662, 7648740.963354895822704 ], [ 421078.396648854017258, 7648711.373671648092568 ], [ 421086.846585186955053, 7648681.580124305561185 ], [ 421094.516579427639954, 7648651.217919496819377 ], [ 421101.289968482800759, 7648620.294661046937108 ], [ 421107.041314812551718, 7648588.829520947299898 ], [ 421110.242978189373389, 7648567.562124855816364 ], [ 421113.994906056497712, 7648535.243403252214193 ], [ 421115.733999758784194, 7648513.432082979008555 ], [ 421117.08932497393107, 7648480.344366293400526 ], [ 421117.025092609168496, 7648455.482886930927634 ] ] ] } }
]
}
