{
"type": "FeatureCollection",
"name": " 400534",
"crs": { "type": "name", "properties": { "name": "urn:ogc:def:crs:EPSG::32722" } },
"xy_coordinate_resolution": 1e-15,
"features": [
{ "type": "Feature", "properties": { "fid": 710.0, "COMPR_M": 711.26, "CLASSE": "04 - Longa", "CD_FAZ": " 400534", "TALHOES": "42, 5", "FAZ_tAL": "400347042, 400534005", "ID_LINHA": 96633 }, "geometry": { "type": "MultiLineString", "coordinates": [ [ [ 425316.886007842549589, 7637757.952508782967925 ], [ 425297.437584056868218, 7637765.819455452263355 ], [ 425273.842405798612162, 7637774.183878829702735 ], [ 425255.90790250810096, 7637779.724280696362257 ], [ 425231.716088423738256, 7637786.126142925582826 ], [ 425213.393816046183929, 7637790.182230936363339 ], [ 425188.767935456125997, 7637794.590205244719982 ], [ 425163.961633004888427, 7637797.848118716850877 ], [ 425145.26716459490126, 7637799.531557455658913 ], [ 425126.518699040811043, 7637800.558930531144142 ], [ 425101.4915726139443, 7637800.903000123798847 ], [ 425082.732393164653331, 7637800.392976833507419 ], [ 425057.772236950346269, 7637798.691527055576444 ], [ 425032.914293400826864, 7637795.825078830122948 ], [ 425014.37394528236473, 7637792.913862181827426 ], [ 424995.951424225466326, 7637789.356100328266621 ], [ 424971.604421997384634, 7637783.615591085515916 ], [ 424947.546160686586518, 7637776.74626190867275 ], [ 424929.719515696691815, 7637770.859898798167706 ], [ 424906.286747777019627, 7637762.045237561687827 ], [ 424888.994577118661255, 7637754.720280990935862 ], [ 424866.354105095320847, 7637744.014952288940549 ], [ 424849.712751101935282, 7637735.290253763087094 ], [ 424833.388350391294807, 7637725.977481907233596 ], [ 424812.201895454432815, 7637712.69980183430016 ], [ 424796.769757126457989, 7637702.131076676771045 ], [ 424776.808996023144573, 7637687.263356106355786 ], [ 424757.55431580718141, 7637671.55023012124002 ], [ 424738.93297254369827, 7637654.949676444754004 ], [ 424720.94098240416497, 7637637.383200354874134 ], [ 424707.924590978538617, 7637623.56668709218502 ], [ 424691.298264503770042, 7637604.27800500113517 ], [ 424678.837045584223233, 7637588.336275335401297 ] ] ] } },
{ "type": "Feature", "properties": { "fid": 711.0, "COMPR_M": 706.2, "CLASSE": "04 - Longa", "CD_FAZ": " 400534", "TALHOES": "42, 5", "FAZ_tAL": "400347042, 400534005", "ID_LINHA": 96634 }, "geometry": { "type": "MultiLineString", "coordinates": [ [ [ 425315.653077473922167, 7637755.217045313678682 ], [ 425296.36895619565621, 7637763.016181111335754 ], [ 425272.906686662463471, 7637771.333486063405871 ], [ 425255.072850039752666, 7637776.842788886278868 ], [ 425231.016538866097108, 7637783.20879196934402 ], [ 425212.796647170558572, 7637787.242214921861887 ], [ 425188.308171233802568, 7637791.625593758188188 ], [ 425163.640342831378803, 7637794.865321685560048 ], [ 425145.050463894731365, 7637796.539342867210507 ], [ 425126.407217273139395, 7637797.560951033607125 ], [ 425101.520531867106911, 7637797.9030886515975 ], [ 425082.8664617666509, 7637797.395922861993313 ], [ 425058.046127901878208, 7637795.70400451682508 ], [ 425033.327597299707122, 7637792.853633353486657 ], [ 425014.891178211837541, 7637789.958734994754195 ], [ 424996.571699290361721, 7637786.420872179791331 ], [ 424972.360695404931903, 7637780.712428065016866 ], [ 424948.43683231738396, 7637773.881473984569311 ], [ 424930.70991474436596, 7637768.028041339479387 ], [ 424907.40830243594246, 7637759.26271672360599 ], [ 424890.213033223000821, 7637751.978808184154332 ], [ 424867.699896248115692, 7637741.333691736683249 ], [ 424851.15268399863271, 7637732.658351557329297 ], [ 424834.921164170315024, 7637723.398567594587803 ], [ 424813.854017370380461, 7637710.195646176114678 ], [ 424798.507143460621592, 7637699.68530897051096 ], [ 424778.654357597872149, 7637684.89799858443439 ], [ 424759.501156336860731, 7637669.26767149195075 ], [ 424740.978679466701578, 7637652.755280859768391 ], [ 424723.086728662834503, 7637635.286513291299343 ], [ 424710.14603664947208, 7637621.550370268523693 ], [ 424693.621155197382905, 7637602.37943160161376 ], [ 424681.840756515157409, 7637587.351936593651772 ] ] ] } },
{ "type": "Feature", "properties": { "fid": 712.0, "COMPR_M": 701.07, "CLASSE": "04 - Longa", "CD_FAZ": " 400534", "TALHOES": "42, 5", "FAZ_tAL": "400347042, 400534005", "ID_LINHA": 96635 }, "geometry": { "type": "MultiLineString", "coordinates": [ [ [ 425314.42014710768126, 7637752.481581846252084 ], [ 425295.300328332697973, 7637760.212906777858734 ], [ 425271.970967527129687, 7637768.48309329804033 ], [ 425254.237797574140131, 7637773.961297075264156 ], [ 425230.316989308339544, 7637780.291441011242568 ], [ 425212.199478293361608, 7637784.302198903635144 ], [ 425187.848407010023948, 7637788.660982275381684 ], [ 425163.319052656006534, 7637791.882524656131864 ], [ 425144.833763194037601, 7637793.547128280624747 ], [ 425126.295735507446807, 7637794.562971536070108 ], [ 425101.549491120153107, 7637794.90317717846483 ], [ 425083.000530370103661, 7637794.398868890479207 ], [ 425058.320018853642978, 7637792.716481978073716 ], [ 425033.740901200275403, 7637789.882187874987721 ], [ 425015.408411143231206, 7637787.003607805818319 ], [ 424997.191974357119761, 7637783.485644031316042 ], [ 424973.116968812304549, 7637777.809265047311783 ], [ 424949.327503950102255, 7637771.016686061397195 ], [ 424931.700313792971428, 7637765.196183880791068 ], [ 424908.529857097310014, 7637756.480195884592831 ], [ 424891.431489326118026, 7637749.237335377372801 ], [ 424869.045687401550822, 7637738.652431183494627 ], [ 424852.592616895562969, 7637730.026449354365468 ], [ 424836.4539779513143, 7637720.819653281010687 ], [ 424815.506139287550468, 7637707.691490523517132 ], [ 424800.244529796764255, 7637697.239541259594262 ], [ 424780.499719171668403, 7637682.532641060650349 ], [ 424761.447996868635528, 7637666.985112861730158 ], [ 424743.024386388249695, 7637650.560885274782777 ], [ 424725.232474922784604, 7637633.189826233312488 ], [ 424712.367482320521958, 7637619.534053447656333 ], [ 424699.966157422284596, 7637605.335296724922955 ], [ 424684.889559506671503, 7637586.403231035917997 ] ] ] } },
{ "type": "Feature", "properties": { "fid": 713.0, "COMPR_M": 695.95, "CLASSE": "04 - Longa", "CD_FAZ": " 400534", "TALHOES": "42, 5", "FAZ_tAL": "400347042, 400534005", "ID_LINHA": 96636 }, "geometry": { "type": "MultiLineString", "coordinates": [ [ [ 425313.187216739985161, 7637749.746118374168873 ], [ 425294.231700471253134, 7637757.409632440656424 ], [ 425271.035248391330242, 7637765.632700533606112 ], [ 425253.402745107188821, 7637771.079805267043412 ], [ 425229.617439750290941, 7637777.374090052209795 ], [ 425211.602309416630305, 7637781.362182886339724 ], [ 425187.388642787351273, 7637785.696370787918568 ], [ 425162.997762484883424, 7637788.899727625772357 ], [ 425144.617062494042329, 7637790.554913690313697 ], [ 425126.184253740415443, 7637791.564992036670446 ], [ 425101.578450372326188, 7637791.903265707194805 ], [ 425083.134598972275853, 7637791.401814918965101 ], [ 425058.593909806921147, 7637789.728959439322352 ], [ 425034.154205099795945, 7637786.910742402076721 ], [ 425015.92564407386817, 7637784.048480618745089 ], [ 424997.812249423004687, 7637780.55041588563472 ], [ 424973.873242220724933, 7637774.906102026812732 ], [ 424950.218175582704134, 7637768.151898138225079 ], [ 424932.690712841867935, 7637762.364326423034072 ], [ 424909.651411755825393, 7637753.697675049304962 ], [ 424892.649945430690423, 7637746.495862567797303 ], [ 424870.391478554927744, 7637735.97117062844336 ], [ 424854.032549790048506, 7637727.394547149538994 ], [ 424837.986791730334517, 7637718.240738965570927 ], [ 424817.158261204080191, 7637705.187334867194295 ], [ 424801.981916130927857, 7637694.793773554265499 ], [ 424782.345080746570602, 7637680.167283538728952 ], [ 424763.394837399187963, 7637664.702554229646921 ], [ 424745.07009331160225, 7637648.366489693522453 ], [ 424727.378221181919798, 7637631.093139171600342 ], [ 424714.588927991688251, 7637617.517736626788974 ], [ 424702.263663738500327, 7637603.406085962429643 ], [ 424687.93836250109598, 7637585.454525480046868 ] ] ] } },
{ "type": "Feature", "properties": { "fid": 714.0, "COMPR_M": 690.82, "CLASSE": "04 - Longa", "CD_FAZ": " 400534", "TALHOES": "42, 5", "FAZ_tAL": "400347042, 400534005", "ID_LINHA": 96637 }, "geometry": { "type": "MultiLineString", "coordinates": [ [ [ 425311.954286372754723, 7637747.010654905810952 ], [ 425293.163072609400842, 7637754.606358106248081 ], [ 425270.099529255065136, 7637762.782307771965861 ], [ 425252.567692639015149, 7637768.1983134560287 ], [ 425228.91789019072894, 7637774.456739092245698 ], [ 425211.005140541587025, 7637778.422166867181659 ], [ 425186.928878564562183, 7637782.731759300455451 ], [ 425162.676472309976816, 7637785.91693059541285 ], [ 425144.40036179474555, 7637787.562699105590582 ], [ 425126.07277197134681, 7637788.567012537270784 ], [ 425101.607409625779837, 7637788.90335423219949 ], [ 425083.268667575262953, 7637788.40476094558835 ], [ 425058.867800759791862, 7637786.741436900570989 ], [ 425034.567508999607526, 7637783.939296919852495 ], [ 425016.442877003864851, 7637781.093353431671858 ], [ 424998.432524488074705, 7637777.615187738090754 ], [ 424974.629515627690125, 7637772.002939006313682 ], [ 424951.108847213268746, 7637765.28711021412164 ], [ 424933.681111888494343, 7637759.532468967139721 ], [ 424910.772966415504925, 7637750.915154211223125 ], [ 424893.868401533458382, 7637743.754389761947095 ], [ 424871.737269707664382, 7637733.289910074323416 ], [ 424855.472482687386218, 7637724.762644946575165 ], [ 424839.51960550993681, 7637715.661824652925134 ], [ 424818.810383121832274, 7637702.683179209940135 ], [ 424803.719302465091459, 7637692.348005846142769 ], [ 424784.190442320483271, 7637677.801926015876234 ], [ 424765.341677929856814, 7637662.419995598495007 ], [ 424747.115800232219044, 7637646.172094108536839 ], [ 424729.523967440996785, 7637628.996452111750841 ], [ 424716.810373662854545, 7637615.501419804990292 ], [ 424704.561170053551905, 7637601.476875198073685 ], [ 424690.98716549371602, 7637584.505819924175739 ] ] ] } },
{ "type": "Feature", "properties": { "fid": 715.0, "COMPR_M": 685.7, "CLASSE": "04 - Longa", "CD_FAZ": " 400534", "TALHOES": "42, 5", "FAZ_tAL": "400347042, 400534005", "ID_LINHA": 96638 }, "geometry": { "type": "MultiLineString", "coordinates": [ [ [ 425310.721356005291454, 7637744.275191435590386 ], [ 425292.094444747199304, 7637751.803083771839738 ], [ 425269.163810119673144, 7637759.931915001943707 ], [ 425251.732640172878746, 7637765.316821645945311 ], [ 425228.21834063361166, 7637771.539388135075569 ], [ 425210.407971664390061, 7637775.482150850817561 ], [ 425186.469114342238754, 7637779.76714781485498 ], [ 425162.355182134604547, 7637782.934133565053344 ], [ 425144.183661094226409, 7637784.570484516210854 ], [ 425125.961290205596015, 7637785.569033041596413 ], [ 425101.636368879000656, 7637785.903442760929465 ], [ 425083.402736178366467, 7637785.407706972211599 ], [ 425059.141691711498424, 7637783.75391435995698 ], [ 425034.980812898371369, 7637780.967851446941495 ], [ 425016.960109935025685, 7637778.138226243667305 ], [ 424999.052799555007368, 7637774.679959591478109 ], [ 424975.385789034422487, 7637769.099775988608599 ], [ 424951.999518845113926, 7637762.422322292812169 ], [ 424934.671510937390849, 7637756.700611504726112 ], [ 424911.894521074951626, 7637748.132633373141289 ], [ 424895.086857636924833, 7637741.01291695702821 ], [ 424873.083060861041304, 7637730.608649521134794 ], [ 424856.912415582337417, 7637722.130742739886045 ], [ 424841.052419289539102, 7637713.082910338416696 ], [ 424820.462505038944073, 7637700.179023556411266 ], [ 424805.456688800477423, 7637689.902238138951361 ], [ 424786.035803895560093, 7637675.436568492092192 ], [ 424767.288518460583873, 7637660.137436965480447 ], [ 424749.161507153359707, 7637643.977698523551226 ], [ 424731.669713699957356, 7637626.89976505190134 ], [ 424719.031819333496969, 7637613.485102981328964 ], [ 424706.858676368137822, 7637599.547664435580373 ], [ 424694.035968485288322, 7637583.557114366441965 ] ] ] } },
{ "type": "Feature", "properties": { "fid": 716.0, "COMPR_M": 680.57, "CLASSE": "04 - Longa", "CD_FAZ": " 400534", "TALHOES": "42, 5", "FAZ_tAL": "400347042, 400534005", "ID_LINHA": 96639 }, "geometry": { "type": "MultiLineString", "coordinates": [ [ [ 425309.488425638352055, 7637741.539727969095111 ], [ 425291.025816883309744, 7637748.999809430912137 ], [ 425268.228090983815491, 7637757.081522233784199 ], [ 425250.897587705403566, 7637762.435329835861921 ], [ 425227.518791076319758, 7637768.622037176042795 ], [ 425209.810802788240835, 7637772.542134834453464 ], [ 425186.009350119100418, 7637776.802536331117153 ], [ 425162.033891961444169, 7637779.951336534693837 ], [ 425143.966960393823683, 7637781.578269930556417 ], [ 425125.849808437167667, 7637782.571053543128073 ], [ 425101.665328130882699, 7637782.903531286865473 ], [ 425083.536804780131206, 7637782.410652998834848 ], [ 425059.415582663437817, 7637780.766391822136939 ], [ 425035.394116798765026, 7637777.996405968442559 ], [ 425017.477342864847742, 7637775.183099057525396 ], [ 424999.673074621008709, 7637771.744731443934143 ], [ 424976.142062442260794, 7637766.196612969040871 ], [ 424952.89019047684269, 7637759.557534364983439 ], [ 424935.661909986520186, 7637753.868754049763083 ], [ 424913.016075734165497, 7637745.350112535990775 ], [ 424896.305313740624115, 7637738.271444151178002 ], [ 424874.428852013777941, 7637727.927388967014849 ], [ 424858.352348478802014, 7637719.498840535059571 ], [ 424842.585233069141395, 7637710.503996023908257 ], [ 424822.11462695535738, 7637697.674867901019752 ], [ 424807.194075135281309, 7637687.456470430828631 ], [ 424787.881165468948893, 7637673.071210971102118 ], [ 424769.235358992009424, 7637657.854878336191177 ], [ 424755.658575964625925, 7637645.886166332289577 ], [ 424738.098007859836798, 7637629.133573659695685 ], [ 424725.39135192084359, 7637615.970767486840487 ], [ 424709.156182682258077, 7637597.618453670293093 ], [ 424697.084771480411291, 7637582.608408808708191 ] ] ] } },
{ "type": "Feature", "properties": { "fid": 717.0, "COMPR_M": 675.45, "CLASSE": "04 - Longa", "CD_FAZ": " 400534", "TALHOES": "42, 5", "FAZ_tAL": "400347042, 400534005", "ID_LINHA": 96640 }, "geometry": { "type": "MultiLineString", "coordinates": [ [ [ 425308.255495269899257, 7637738.804264497943223 ], [ 425289.957189021573868, 7637746.196535096503794 ], [ 425267.292371848074254, 7637754.231129471212626 ], [ 425250.062535238743294, 7637759.553838025778532 ], [ 425226.819241518096533, 7637765.704686219803989 ], [ 425209.21363391057821, 7637769.602118818089366 ], [ 425185.549585896427743, 7637773.837924846448004 ], [ 425161.712601787177846, 7637776.968539506196976 ], [ 425143.750259693479165, 7637778.586055342108011 ], [ 425125.738326670776587, 7637779.573074046522379 ], [ 425101.694287383870687, 7637779.903619814664125 ], [ 425083.670873381372076, 7637779.413599029183388 ], [ 425059.689473615610041, 7637777.778869282454252 ], [ 425035.807420699449722, 7637775.024960491806269 ], [ 425017.994575796590652, 7637772.227971871383488 ], [ 425000.293349686893634, 7637768.809503296390176 ], [ 424976.898335849866271, 7637763.29344994854182 ], [ 424953.780862108513247, 7637756.692746444605291 ], [ 424936.652309034718201, 7637751.036896593868732 ], [ 424914.137630393786822, 7637742.567591698840261 ], [ 424897.523769846418872, 7637735.529971343465149 ], [ 424875.774643167038448, 7637725.24612841475755 ], [ 424859.792281375499442, 7637716.866938332095742 ], [ 424844.118046847346704, 7637707.925081711262465 ], [ 424823.766748872993048, 7637695.170712245628238 ], [ 424808.931461470667273, 7637685.010702721774578 ], [ 424789.726527043501846, 7637670.705853447318077 ], [ 424771.182199522911105, 7637655.57231970410794 ], [ 424757.679459166072775, 7637643.668890485540032 ], [ 424740.218638498685323, 7637627.011489777825773 ], [ 424727.587512432306539, 7637613.926941980607808 ], [ 424711.453688997135032, 7637595.689242908731103 ], [ 424700.137917591142468, 7637581.658351793885231 ] ] ] } },
{ "type": "Feature", "properties": { "fid": 718.0, "COMPR_M": 670.32, "CLASSE": "04 - Longa", "CD_FAZ": " 400534", "TALHOES": "42, 5", "FAZ_tAL": "400347042, 400534005", "ID_LINHA": 96641 }, "geometry": { "type": "MultiLineString", "coordinates": [ [ [ 425307.022564901912119, 7637736.068801028653979 ], [ 425288.888561160129029, 7637743.393260760232806 ], [ 425266.356652712565847, 7637751.380736703984439 ], [ 425249.22748277138453, 7637756.672346215695143 ], [ 425226.119691961037461, 7637762.787335261702538 ], [ 425208.616465035360307, 7637766.662102801725268 ], [ 425185.089821672881953, 7637770.87331335991621 ], [ 425161.39131161372643, 7637773.985742475837469 ], [ 425143.533558992552571, 7637775.593840751796961 ], [ 425125.626844902988523, 7637776.575094547122717 ], [ 425101.723246636101976, 7637776.903708340600133 ], [ 425083.804941985406913, 7637776.416545055806637 ], [ 425059.963364568597171, 7637774.791346741840243 ], [ 425036.22072459908668, 7637772.053515011444688 ], [ 425018.511808724957518, 7637769.272844680584967 ], [ 425000.913624752603937, 7637765.874275149777532 ], [ 424977.654609257238917, 7637760.390286929905415 ], [ 424954.671533740707673, 7637753.827958521433175 ], [ 424937.642708082566969, 7637748.205039132386446 ], [ 424915.259185052593239, 7637739.785070863552392 ], [ 424898.742225950292777, 7637732.788498536683619 ], [ 424877.120434319716878, 7637722.564867861568928 ], [ 424861.232214271090925, 7637714.235036126337945 ], [ 424845.65086062689079, 7637705.346167396754026 ], [ 424825.41887078928994, 7637692.666556589305401 ], [ 424810.668847805412952, 7637682.564935017377138 ], [ 424791.571888617123477, 7637668.340495923534036 ], [ 424773.12904005323071, 7637653.289761073887348 ], [ 424759.700342368916608, 7637641.451614636927843 ], [ 424742.339269134507049, 7637624.889405898749828 ], [ 424729.783672942605335, 7637611.883116479031742 ], [ 424717.678133143577725, 7637598.37465918622911 ], [ 424703.202433224651031, 7637580.704756883904338 ] ] ] } },
{ "type": "Feature", "properties": { "fid": 719.0, "COMPR_M": 665.19, "CLASSE": "04 - Longa", "CD_FAZ": " 400534", "TALHOES": "42, 5", "FAZ_tAL": "400347042, 400534005", "ID_LINHA": 96642 }, "geometry": { "type": "MultiLineString", "coordinates": [ [ [ 425305.789634534390643, 7637733.333337560296059 ], [ 425287.819933297636453, 7637740.589986424893141 ], [ 425265.420933577232063, 7637748.530343939550221 ], [ 425248.392430303501897, 7637753.790854403749108 ], [ 425225.420142402406782, 7637759.869984304532409 ], [ 425208.019296159851365, 7637763.722086783498526 ], [ 425184.630057450558525, 7637767.908701873384416 ], [ 425161.070021439925767, 7637771.002945443615317 ], [ 425143.316858292382676, 7637772.601626167073846 ], [ 425125.51536313520046, 7637773.5771150495857 ], [ 425101.752205888857134, 7637773.903796868398786 ], [ 425083.939010588102974, 7637773.419491084292531 ], [ 425060.237255521176849, 7637771.803824204951525 ], [ 425036.634028498316184, 7637769.08206953946501 ], [ 425019.029041656525806, 7637766.317717498168349 ], [ 425001.533899818139616, 7637762.939047003164887 ], [ 424978.410882665775716, 7637757.487123908475041 ], [ 424955.562205372261815, 7637750.963170599192381 ], [ 424938.633107131987344, 7637745.373181675560772 ], [ 424916.380739711865317, 7637737.002550024539232 ], [ 424899.960682053701021, 7637730.047025730833411 ], [ 424878.4662254730938, 7637719.883607306517661 ], [ 424862.672147165634669, 7637711.603133920580149 ], [ 424847.183674406434875, 7637702.767253082245588 ], [ 424827.070992706168909, 7637690.162400935776532 ], [ 424812.406234140158631, 7637680.119167308323085 ], [ 424793.417250191792846, 7637665.975138400681317 ], [ 424775.075880584307015, 7637651.007202440872788 ], [ 424761.721225569141097, 7637639.234338791109622 ], [ 424744.459899771260098, 7637622.767322018742561 ], [ 424731.979833455639891, 7637609.839290974661708 ], [ 424719.950262278085575, 7637596.415627166628838 ], [ 424706.266948857810348, 7637579.751161974854767 ] ] ] } },
{ "type": "Feature", "properties": { "fid": 720.0, "COMPR_M": 660.06, "CLASSE": "04 - Longa", "CD_FAZ": " 400534", "TALHOES": "42, 5", "FAZ_tAL": "400347042, 400534005", "ID_LINHA": 96643 }, "geometry": { "type": "MultiLineString", "coordinates": [ [ [ 425304.556704167334829, 7637730.597874090075493 ], [ 425286.751305434736423, 7637737.786712088622153 ], [ 425264.485214440093841, 7637745.679951176047325 ], [ 425247.55737783695804, 7637750.909362593665719 ], [ 425224.720592844299972, 7637756.95263334363699 ], [ 425207.422127282887232, 7637760.782070766203105 ], [ 425184.170293228002265, 7637764.944090387783945 ], [ 425160.748731266241521, 7637768.020148412324488 ], [ 425143.100157591630705, 7637769.609411578625441 ], [ 425125.403881367412396, 7637770.579135550186038 ], [ 425101.78116514213616, 7637770.903885396197438 ], [ 425084.073079190333374, 7637770.42243711091578 ], [ 425060.511146473290864, 7637768.816301666200161 ], [ 425037.047332397894934, 7637766.110624061897397 ], [ 425019.546274588035885, 7637763.362590309232473 ], [ 425002.154174882802181, 7637760.003818857483566 ], [ 424979.167156072100624, 7637754.583960890769958 ], [ 424956.452877003699541, 7637748.098382674157619 ], [ 424939.623506179777905, 7637742.541324216872454 ], [ 424917.502294370904565, 7637734.22002918459475 ], [ 424901.179138156527188, 7637727.305552922189236 ], [ 424879.812016627052799, 7637717.202346749603748 ], [ 424864.112080062972382, 7637708.97123171761632 ], [ 424848.716488187201321, 7637700.188338769599795 ], [ 424833.662287411745638, 7637690.875940931029618 ], [ 424818.963695322338026, 7637681.056339472532272 ], [ 424799.922839438077062, 7637667.204209884628654 ], [ 424781.522796602803282, 7637652.521101866848767 ], [ 424763.742108773440123, 7637637.017062943428755 ], [ 424746.580530408304185, 7637620.645238139666617 ], [ 424734.175993966171518, 7637607.795465471222997 ], [ 424722.222391413641162, 7637594.456595148891211 ], [ 424709.331464492017403, 7637578.79756707046181 ] ] ] } },
{ "type": "Feature", "properties": { "fid": 721.0, "COMPR_M": 654.93, "CLASSE": "04 - Longa", "CD_FAZ": " 400534", "TALHOES": "42, 5", "FAZ_tAL": "400347042, 400534005", "ID_LINHA": 96644 }, "geometry": { "type": "MultiLineString", "coordinates": [ [ [ 425303.323773800744675, 7637727.86241062078625 ], [ 425285.682677573466208, 7637734.983437752351165 ], [ 425269.116731406014878, 7637740.965742444619536 ], [ 425252.351558656489942, 7637746.360788305290043 ], [ 425229.722397782257758, 7637752.632942140102386 ], [ 425212.571555164584424, 7637756.639953968115151 ], [ 425189.506832814018708, 7637761.046012626960874 ], [ 425166.261387074308004, 7637764.374545896425843 ], [ 425148.737722071935423, 7637766.158818080089986 ], [ 425125.292399600264616, 7637767.581156053580344 ], [ 425107.680886044341605, 7637767.926330278627574 ], [ 425090.072537107800599, 7637767.65345155633986 ], [ 425066.633212037850171, 7637766.330495190806687 ], [ 425043.279985048633534, 7637763.913910291157663 ], [ 425025.851492807618342, 7637761.385746532119811 ], [ 425008.524281830701511, 7637758.248701700009406 ], [ 424985.612529332342092, 7637753.127495654858649 ], [ 424962.960627542168368, 7637746.944120150990784 ], [ 424946.169424577266909, 7637741.616087410598993 ], [ 424924.084881833055988, 7637733.601701036095619 ], [ 424907.779424121370539, 7637726.918420115485787 ], [ 424886.423048182798084, 7637717.125145317986608 ], [ 424870.721493279910646, 7637709.127920619212091 ], [ 424855.314518026076257, 7637700.579460863023996 ], [ 424835.285179423051886, 7637688.352743029594421 ], [ 424820.673066315241158, 7637678.590909369289875 ], [ 424801.741821036965121, 7637664.818505512550473 ], [ 424787.959437812562101, 7637653.943376917392015 ], [ 424770.128700828412548, 7637638.734368454664946 ], [ 424752.903186107461806, 7637622.67296401783824 ], [ 424740.433957321278285, 7637610.062461788766086 ], [ 424724.494520548963919, 7637592.497563126496971 ], [ 424712.395980123896152, 7637577.843972161412239 ] ] ] } },
{ "type": "Feature", "properties": { "fid": 722.0, "COMPR_M": 649.8, "CLASSE": "04 - Longa", "CD_FAZ": " 400534", "TALHOES": "42, 5", "FAZ_tAL": "400347042, 400534005", "ID_LINHA": 96645 }, "geometry": { "type": "MultiLineString", "coordinates": [ [ [ 425302.090843433397822, 7637725.126947149634361 ], [ 425284.614049710449763, 7637732.180163415148854 ], [ 425268.147643712465651, 7637738.126520906575024 ], [ 425251.482857291935943, 7637743.489261526614428 ], [ 425228.988847950182389, 7637749.723954099230468 ], [ 425211.940196389972698, 7637753.707089958712459 ], [ 425189.012619204935618, 7637758.086949044838548 ], [ 425165.905375217960682, 7637761.395693661645055 ], [ 425148.486086667166092, 7637763.169338820502162 ], [ 425125.180917833815329, 7637764.583176555112004 ], [ 425107.674765351985116, 7637764.926285218447447 ], [ 425090.171591527410783, 7637764.655036102049053 ], [ 425066.872183571278583, 7637763.33997690398246 ], [ 425043.658481893769931, 7637760.937830938026309 ], [ 425026.334180249890778, 7637758.42478047683835 ], [ 425009.11030868801754, 7637755.306444358080626 ], [ 424986.334952612640336, 7637750.215724786743522 ], [ 424963.817850576946512, 7637744.069146385416389 ], [ 424947.126688823802397, 7637738.77285829000175 ], [ 424925.173860698647331, 7637730.806270498782396 ], [ 424908.965715599653777, 7637724.162876544520259 ], [ 424887.737201572046615, 7637714.428237499669194 ], [ 424872.130173598532565, 7637706.479159725829959 ], [ 424856.816565192304552, 7637697.982506257481873 ], [ 424836.908071431331336, 7637685.829545127227902 ], [ 424822.382437308202498, 7637676.125479268841445 ], [ 424803.560802635271102, 7637662.432801140472293 ], [ 424789.856332883529831, 7637651.619144367054105 ], [ 424772.124838238407392, 7637636.494790541939437 ], [ 424754.998769188066944, 7637620.526143830269575 ], [ 424742.604882252344396, 7637607.991853577084839 ], [ 424726.766649686731398, 7637590.538531108759344 ], [ 424715.460495757404715, 7637576.890377250500023 ] ] ] } },
{ "type": "Feature", "properties": { "fid": 723.0, "COMPR_M": 644.66, "CLASSE": "04 - Longa", "CD_FAZ": " 400534", "TALHOES": "42, 5", "FAZ_tAL": "400347042, 400534005", "ID_LINHA": 96646 }, "geometry": { "type": "MultiLineString", "coordinates": [ [ [ 425300.857913064479362, 7637722.391483683139086 ], [ 425283.54542184836464, 7637729.376889079809189 ], [ 425267.178556021244731, 7637735.287299364805222 ], [ 425250.614155927381944, 7637740.617734745144844 ], [ 425228.255298117292114, 7637746.81496605463326 ], [ 425211.308837615477387, 7637750.774225947447121 ], [ 425188.51840559579432, 7637755.127885462716222 ], [ 425165.549363359692506, 7637758.416841425932944 ], [ 425148.23445126065053, 7637760.179859560914338 ], [ 425125.06943606591085, 7637761.58519705850631 ], [ 425107.668644659861457, 7637761.926240155473351 ], [ 425090.270645948767196, 7637761.656620644964278 ], [ 425067.111155104474165, 7637760.349458621814847 ], [ 425044.036978739197366, 7637757.961751588620245 ], [ 425026.816867693909444, 7637755.463814419694245 ], [ 425009.696335543994792, 7637752.364187017083168 ], [ 424987.057375893637072, 7637747.303953923285007 ], [ 424964.675073611433618, 7637741.194172620773315 ], [ 424948.083953069290146, 7637735.929629165679216 ], [ 424926.262839565228205, 7637728.010839961469173 ], [ 424910.152007077995222, 7637721.407332971692085 ], [ 424889.051354959548917, 7637711.731329683214426 ], [ 424873.538853919017129, 7637703.830398836173117 ], [ 424858.318612359464169, 7637695.38555165566504 ], [ 424838.530963441939093, 7637683.306347226724029 ], [ 424824.091808301280253, 7637673.660049163736403 ], [ 424805.379784234217368, 7637660.047096768394113 ], [ 424791.753227953158785, 7637649.294911816716194 ], [ 424774.120975647470914, 7637634.255212624557316 ], [ 424757.094352268381044, 7637618.37932363897562 ], [ 424744.775807185971644, 7637605.921245362609625 ], [ 424732.894244463474024, 7637592.993050245568156 ], [ 424718.541135069041047, 7637575.931765088811517 ] ] ] } },
{ "type": "Feature", "properties": { "fid": 724.0, "COMPR_M": 639.52, "CLASSE": "04 - Longa", "CD_FAZ": " 400534", "TALHOES": "42, 5", "FAZ_tAL": "400347042, 400534005", "ID_LINHA": 96647 }, "geometry": { "type": "MultiLineString", "coordinates": [ [ [ 425299.624982696725056, 7637719.656020213849843 ], [ 425282.47679398523178, 7637726.573614742606878 ], [ 425266.209468327695504, 7637732.448077825829387 ], [ 425249.745454563526437, 7637737.746207972057164 ], [ 425227.521748287370428, 7637743.905978016555309 ], [ 425210.677478840399999, 7637747.841361938044429 ], [ 425188.024191987293307, 7637752.168821883387864 ], [ 425165.193351504160091, 7637755.437989188358188 ], [ 425147.982815855008084, 7637757.190380299463868 ], [ 425124.957954299403355, 7637758.587217557244003 ], [ 425107.662523967272136, 7637758.926195096224546 ], [ 425090.369700369308703, 7637758.65820519067347 ], [ 425067.350126638193615, 7637757.358940339647233 ], [ 425044.415475583053194, 7637754.985672238282859 ], [ 425027.299555137054995, 7637752.502848367206752 ], [ 425010.282362402591389, 7637749.421929677017033 ], [ 424987.779799175390508, 7637744.392183057032526 ], [ 424965.532296644232702, 7637738.319198857061565 ], [ 424949.041217316291295, 7637733.086400045081973 ], [ 424927.351818433380686, 7637725.215409426018596 ], [ 424911.338298556394875, 7637718.651789398863912 ], [ 424890.365508349437732, 7637709.034421864897013 ], [ 424874.947534239443485, 7637701.181637942790985 ], [ 424859.82065952476114, 7637692.78859705477953 ], [ 424840.153855450917035, 7637680.783149323426187 ], [ 424825.801179294532631, 7637671.194619061425328 ], [ 424807.198765831883065, 7637657.66139239538461 ], [ 424793.650123022787739, 7637646.970679264515638 ], [ 424776.117113056359813, 7637632.015634709969163 ], [ 424759.189935348345898, 7637616.232503449544311 ], [ 424746.946732116106432, 7637603.850637149997056 ], [ 424735.141016301931813, 7637591.004990416578948 ], [ 424721.621845290414058, 7637574.97313086129725 ] ] ] } },
{ "type": "Feature", "properties": { "fid": 725.0, "COMPR_M": 634.39, "CLASSE": "04 - Longa", "CD_FAZ": " 400534", "TALHOES": "42, 5", "FAZ_tAL": "400347042, 400534005", "ID_LINHA": 96648 }, "geometry": { "type": "MultiLineString", "coordinates": [ [ [ 425298.392052329378203, 7637716.920556744560599 ], [ 425281.408166123670526, 7637723.770340407267213 ], [ 425265.240380634437315, 7637729.608856285922229 ], [ 425248.876753199787345, 7637734.874681191518903 ], [ 425226.788198456633836, 7637740.996989973820746 ], [ 425210.046120063518174, 7637744.908497928641737 ], [ 425187.529978378734086, 7637749.20975830219686 ], [ 425164.837339648744091, 7637752.459136954508722 ], [ 425147.731180448201485, 7637754.200901039876044 ], [ 425124.846472530858591, 7637755.589238063432276 ], [ 425107.656403276254423, 7637755.926150036975741 ], [ 425090.468754790199455, 7637755.659789737313986 ], [ 425067.589098170981742, 7637754.368422055616975 ], [ 425044.79397242795676, 7637752.009592885151505 ], [ 425027.782242581131868, 7637749.541882310062647 ], [ 425010.868389259150717, 7637746.47967233415693 ], [ 424988.502222454641014, 7637741.480412187054753 ], [ 424966.389519680058584, 7637735.444225089624524 ], [ 424949.998481561604422, 7637730.243170920759439 ], [ 424928.440797299845144, 7637722.419978888705373 ], [ 424912.524590036133304, 7637715.896245826035738 ], [ 424891.679661738337018, 7637706.337514044716954 ], [ 424876.356214559753425, 7637698.53287704847753 ], [ 424861.322706691047642, 7637690.191642449237406 ], [ 424846.607286476530135, 7637681.327220425009727 ], [ 424832.228299065260217, 7637671.960351688787341 ], [ 424813.584085806098301, 7637658.717231957241893 ], [ 424799.999158790335059, 7637648.239722013473511 ], [ 424782.417136621894315, 7637633.569725434295833 ], [ 424765.431029924890026, 7637618.085366282612085 ], [ 424753.127176292880904, 7637605.932894442230463 ], [ 424737.387788140680641, 7637589.016930585727096 ], [ 424724.70255551149603, 7637574.014496630057693 ] ] ] } },
{ "type": "Feature", "properties": { "fid": 726.0, "COMPR_M": 629.25, "CLASSE": "04 - Longa", "CD_FAZ": " 400534", "TALHOES": "42, 5", "FAZ_tAL": "400347042, 400534005", "ID_LINHA": 96649 }, "geometry": { "type": "MultiLineString", "coordinates": [ [ [ 425297.159121961332858, 7637714.185093274340034 ], [ 425280.339538261701819, 7637720.967066070064902 ], [ 425264.271292940946296, 7637726.769634746015072 ], [ 425248.008051835466176, 7637732.003154414705932 ], [ 425226.054648624325637, 7637738.088001931086183 ], [ 425209.414761290070601, 7637741.975633921101689 ], [ 425187.035764770233072, 7637746.25069472193718 ], [ 425164.481327792746015, 7637749.480284719727933 ], [ 425147.479545041685924, 7637751.211421779356897 ], [ 425124.734990764292888, 7637752.591258563101292 ], [ 425107.650282584188972, 7637752.926104977726936 ], [ 425090.567809210915584, 7637752.661374281160533 ], [ 425067.828069704934023, 7637751.377903772518039 ], [ 425045.172469273151364, 7637749.033513535745442 ], [ 425028.264930024393834, 7637746.580916258506477 ], [ 425011.45441611635033, 7637743.53741499222815 ], [ 424989.224645735288505, 7637738.568641319870949 ], [ 424967.246742714138236, 7637732.569251324981451 ], [ 424950.955745808430947, 7637727.399941801093519 ], [ 424929.529776166542433, 7637719.624548352323472 ], [ 424913.710881513892673, 7637713.140702257864177 ], [ 424892.993815126887057, 7637703.640606229193509 ], [ 424877.764894879946951, 7637695.884116156958044 ], [ 424862.824753857566975, 7637687.594687844626606 ], [ 424848.20054830040317, 7637678.785208109766245 ], [ 424833.909248021896929, 7637669.475455475971103 ], [ 424815.376278096227907, 7637656.311337099410594 ], [ 424801.870491305016913, 7637645.894858198240399 ], [ 424784.388606322929263, 7637631.308404119685292 ], [ 424767.501637458510231, 7637615.91444912366569 ], [ 424755.272922551550437, 7637603.836207380518317 ], [ 424739.63455997989513, 7637587.028870755806565 ], [ 424727.783265735430177, 7637573.055862403474748 ] ] ] } },
{ "type": "Feature", "properties": { "fid": 727.0, "COMPR_M": 624.12, "CLASSE": "04 - Longa", "CD_FAZ": " 400534", "TALHOES": "42, 5", "FAZ_tAL": "400347042, 400534005", "ID_LINHA": 96650 }, "geometry": { "type": "MultiLineString", "coordinates": [ [ [ 425295.926191593636759, 7637711.449629805982113 ], [ 425279.270910398685373, 7637718.163791732862592 ], [ 425263.302205249026883, 7637723.930413205176592 ], [ 425247.139350471785292, 7637729.131627634167671 ], [ 425225.321098793065175, 7637735.179013889282942 ], [ 425208.783402515458874, 7637739.042769910767674 ], [ 425186.541551161673851, 7637743.291631139814854 ], [ 425164.125315935525578, 7637746.50143248680979 ], [ 425147.227909635286778, 7637748.221942519769073 ], [ 425124.623508996446617, 7637749.593279066495597 ], [ 425107.644161891657859, 7637749.926059918478131 ], [ 425090.666863630758598, 7637749.662958825007081 ], [ 425068.067041238013189, 7637748.38738548848778 ], [ 425045.550966117414646, 7637746.057434183545411 ], [ 425028.747617468587123, 7637743.619950206950307 ], [ 425012.040442973491736, 7637740.595157651230693 ], [ 424989.947069015353918, 7637735.656870454549789 ], [ 424968.103965749265626, 7637729.694277562201023 ], [ 424951.913010055490304, 7637724.556712679564953 ], [ 424930.61875503428746, 7637716.829117815941572 ], [ 424914.897172992408741, 7637710.385158684104681 ], [ 424894.30796851584455, 7637700.943698408082128 ], [ 424879.173575200082269, 7637693.235355263575912 ], [ 424864.326801024319138, 7637684.997733243741095 ], [ 424849.793810121947899, 7637676.24319579731673 ], [ 424835.590196978533641, 7637666.990559261292219 ], [ 424817.168470385600813, 7637653.905442243441939 ], [ 424803.74182382010622, 7637643.549994381144643 ], [ 424786.36007602250902, 7637629.047082805074751 ], [ 424769.572244992130436, 7637613.743531960994005 ], [ 424757.41866881144233, 7637601.739520320668817 ], [ 424741.881331819458865, 7637585.040810925886035 ], [ 424730.865659700357355, 7637572.096704239025712 ] ] ] } },
{ "type": "Feature", "properties": { "fid": 728.0, "COMPR_M": 618.97, "CLASSE": "04 - Longa", "CD_FAZ": " 400534", "TALHOES": "42, 5", "FAZ_tAL": "400347042, 400534005", "ID_LINHA": 96651 }, "geometry": { "type": "MultiLineString", "coordinates": [ [ [ 425294.693261227163021, 7637708.714166335761547 ], [ 425278.202282537298743, 7637715.360517398454249 ], [ 425262.333117555477656, 7637721.091191666200757 ], [ 425246.270649108220823, 7637726.260100856423378 ], [ 425224.587548960291315, 7637732.270025847479701 ], [ 425208.152043738286011, 7637736.109905899502337 ], [ 425186.047337551834062, 7637740.33256755862385 ], [ 425163.769304080400616, 7637743.522580250166357 ], [ 425146.976274229818955, 7637745.232463258318603 ], [ 425124.512027229182422, 7637746.595299568027258 ], [ 425107.638041199417785, 7637746.926014857366681 ], [ 425090.765918051067274, 7637746.664543369784951 ], [ 425068.306012770277448, 7637745.396867207251489 ], [ 425045.929462961328682, 7637743.081354833208025 ], [ 425029.23030491132522, 7637740.658984148874879 ], [ 425012.626469831331633, 7637737.652900309301913 ], [ 424990.669492296234239, 7637732.745099587365985 ], [ 424968.961188781424426, 7637726.819303795695305 ], [ 424952.870274301385507, 7637721.71348355896771 ], [ 424931.707733899587765, 7637714.033687280490994 ], [ 424916.083464471565094, 7637707.629615113139153 ], [ 424895.622121904452797, 7637698.246790591627359 ], [ 424880.582255520042963, 7637690.586594371125102 ], [ 424865.828848189907148, 7637682.400778640992939 ], [ 424851.387071945122443, 7637673.701183481141925 ], [ 424837.271145934355445, 7637664.505663046613336 ], [ 424818.960662675614003, 7637651.499547388404608 ], [ 424805.613156335661188, 7637641.205130565911531 ], [ 424788.331545721914154, 7637626.785761492326856 ], [ 424771.642852525576018, 7637611.57261480204761 ], [ 424759.564415069238748, 7637599.642833262681961 ], [ 424747.910613058658782, 7637587.272984305396676 ], [ 424733.963034130632877, 7637571.132884556427598 ] ] ] } }
]
}
