{
"type": "FeatureCollection",
"name": " 400024",
"crs": { "type": "name", "properties": { "name": "urn:ogc:def:crs:EPSG::32722" } },
"xy_coordinate_resolution": 1e-15,
"features": [
{ "type": "Feature", "properties": { "fid": 45.0, "COMPR_M": 62.3, "CLASSE": "01 - Muito curta", "CD_FAZ": " 400024", "TALHOES": "1", "FAZ_tAL": "400561001, 400024001", "ID_LINHA": 175126 }, "geometry": { "type": "MultiLineString", "coordinates": [ [ [ 417483.128935484215617, 7641477.295716354623437 ], [ 417544.50494339922443, 7641466.737362015992403 ] ] ] } },
{ "type": "Feature", "properties": { "fid": 46.0, "COMPR_M": 62.38, "CLASSE": "01 - Muito curta", "CD_FAZ": " 400024", "TALHOES": "1", "FAZ_tAL": "400561001, 400024001", "ID_LINHA": 175127 }, "geometry": { "type": "MultiLineString", "coordinates": [ [ [ 417481.912541850586422, 7641475.069716183468699 ], [ 417543.368823591445107, 7641464.497552546672523 ] ] ] } },
{ "type": "Feature", "properties": { "fid": 47.0, "COMPR_M": 62.47, "CLASSE": "01 - Muito curta", "CD_FAZ": " 400024", "TALHOES": "1", "FAZ_tAL": "400561001, 400024001", "ID_LINHA": 175128 }, "geometry": { "type": "MultiLineString", "coordinates": [ [ [ 417480.696148219169118, 7641472.843716011382639 ], [ 417542.243424969783518, 7641462.255898736417294 ] ] ] } },
{ "type": "Feature", "properties": { "fid": 335.0, "COMPR_M": 270.79, "CLASSE": "02 - Curta", "CD_FAZ": " 400024", "TALHOES": "1", "FAZ_tAL": "400561001, 400024001", "ID_LINHA": 175416 }, "geometry": { "type": "MultiLineString", "coordinates": [ [ [ 417130.374781948921736, 7640831.755666194483638 ], [ 417397.161303454835434, 7640785.861077690497041 ] ] ] } },
{ "type": "Feature", "properties": { "fid": 336.0, "COMPR_M": 270.98, "CLASSE": "02 - Curta", "CD_FAZ": " 400024", "TALHOES": "1", "FAZ_tAL": "400561001, 400024001", "ID_LINHA": 175417 }, "geometry": { "type": "MultiLineString", "coordinates": [ [ [ 417129.158388314419426, 7640829.529666018672287 ], [ 417396.131806956254877, 7640783.60292609129101 ] ] ] } },
{ "type": "Feature", "properties": { "fid": 337.0, "COMPR_M": 271.17, "CLASSE": "02 - Curta", "CD_FAZ": " 400024", "TALHOES": "1", "FAZ_tAL": "400561001, 400024001", "ID_LINHA": 175418 }, "geometry": { "type": "MultiLineString", "coordinates": [ [ [ 417127.941994683467783, 7640827.303665848448873 ], [ 417395.102310456801206, 7640781.344774493947625 ] ] ] } },
{ "type": "Feature", "properties": { "fid": 338.0, "COMPR_M": 271.36, "CLASSE": "02 - Curta", "CD_FAZ": " 400024", "TALHOES": "1", "FAZ_tAL": "400561001, 400024001", "ID_LINHA": 175419 }, "geometry": { "type": "MultiLineString", "coordinates": [ [ [ 417126.725601048965473, 7640825.0776656717062 ], [ 417394.072813957114704, 7640779.086622893810272 ] ] ] } },
{ "type": "Feature", "properties": { "fid": 339.0, "COMPR_M": 271.55, "CLASSE": "02 - Curta", "CD_FAZ": " 400024", "TALHOES": "1", "FAZ_tAL": "400561001, 400024001", "ID_LINHA": 175420 }, "geometry": { "type": "MultiLineString", "coordinates": [ [ [ 417125.509207417489961, 7640822.851665500551462 ], [ 417393.043317457311787, 7640776.828471296466887 ] ] ] } },
{ "type": "Feature", "properties": { "fid": 340.0, "COMPR_M": 271.74, "CLASSE": "02 - Curta", "CD_FAZ": " 400024", "TALHOES": "1", "FAZ_tAL": "400561001, 400024001", "ID_LINHA": 175421 }, "geometry": { "type": "MultiLineString", "coordinates": [ [ [ 417124.292813783686142, 7640820.62566532753408 ], [ 417392.013820957974531, 7640774.570319697260857 ] ] ] } },
{ "type": "Feature", "properties": { "fid": 366.0, "COMPR_M": 276.67, "CLASSE": "02 - Curta", "CD_FAZ": " 400024", "TALHOES": "1", "FAZ_tAL": "400561001, 400024001", "ID_LINHA": 175447 }, "geometry": { "type": "MultiLineString", "coordinates": [ [ [ 417092.666579328128137, 7640762.749660829082131 ], [ 417365.246911977883428, 7640715.858378130942583 ] ] ] } },
{ "type": "Feature", "properties": { "fid": 367.0, "COMPR_M": 276.86, "CLASSE": "02 - Curta", "CD_FAZ": " 400024", "TALHOES": "1", "FAZ_tAL": "400561001, 400024001", "ID_LINHA": 175448 }, "geometry": { "type": "MultiLineString", "coordinates": [ [ [ 417091.450185695604887, 7640760.523660656996071 ], [ 417364.217415478371549, 7640713.600226532667875 ] ] ] } },
{ "type": "Feature", "properties": { "fid": 368.0, "COMPR_M": 277.05, "CLASSE": "02 - Curta", "CD_FAZ": " 400024", "TALHOES": "1", "FAZ_tAL": "400561001, 400024001", "ID_LINHA": 175449 }, "geometry": { "type": "MultiLineString", "coordinates": [ [ [ 417090.233792062150314, 7640758.297660482116044 ], [ 417363.187918979441747, 7640711.342074934393167 ] ] ] } },
{ "type": "Feature", "properties": { "fid": 369.0, "COMPR_M": 277.24, "CLASSE": "02 - Curta", "CD_FAZ": " 400024", "TALHOES": "1", "FAZ_tAL": "400561001, 400024001", "ID_LINHA": 175450 }, "geometry": { "type": "MultiLineString", "coordinates": [ [ [ 417089.017398429801688, 7640756.071660310961306 ], [ 417362.15842247963883, 7640709.083923334255815 ] ] ] } },
{ "type": "Feature", "properties": { "fid": 370.0, "COMPR_M": 277.43, "CLASSE": "02 - Curta", "CD_FAZ": " 400024", "TALHOES": "1", "FAZ_tAL": "400561001, 400024001", "ID_LINHA": 175451 }, "geometry": { "type": "MultiLineString", "coordinates": [ [ [ 417087.801004797162022, 7640753.845660137012601 ], [ 417361.128925980301574, 7640706.825771735981107 ] ] ] } },
{ "type": "Feature", "properties": { "fid": 371.0, "COMPR_M": 277.62, "CLASSE": "02 - Curta", "CD_FAZ": " 400024", "TALHOES": "1", "FAZ_tAL": "400561001, 400024001", "ID_LINHA": 175452 }, "geometry": { "type": "MultiLineString", "coordinates": [ [ [ 417086.584611163532827, 7640751.619659963995218 ], [ 417360.099429479509126, 7640704.567620135843754 ] ] ] } },
{ "type": "Feature", "properties": { "fid": 372.0, "COMPR_M": 277.81, "CLASSE": "02 - Curta", "CD_FAZ": " 400024", "TALHOES": "1", "FAZ_tAL": "400561001, 400024001", "ID_LINHA": 175453 }, "geometry": { "type": "MultiLineString", "coordinates": [ [ [ 417085.36821753095137, 7640749.393659789115191 ], [ 417359.069932980521116, 7640702.309468539431691 ] ] ] } },
{ "type": "Feature", "properties": { "fid": 373.0, "COMPR_M": 278.0, "CLASSE": "02 - Curta", "CD_FAZ": " 400024", "TALHOES": "1", "FAZ_tAL": "400561001, 400024001", "ID_LINHA": 175454 }, "geometry": { "type": "MultiLineString", "coordinates": [ [ [ 417084.151823898078874, 7640747.167659617960453 ], [ 417358.040436482639052, 7640700.051316939294338 ] ] ] } },
{ "type": "Feature", "properties": { "fid": 374.0, "COMPR_M": 278.19, "CLASSE": "02 - Curta", "CD_FAZ": " 400024", "TALHOES": "1", "FAZ_tAL": "400561001, 400024001", "ID_LINHA": 175455 }, "geometry": { "type": "MultiLineString", "coordinates": [ [ [ 417082.935430265613832, 7640744.941659446805716 ], [ 417357.010939982719719, 7640697.79316534101963 ] ] ] } },
{ "type": "Feature", "properties": { "fid": 375.0, "COMPR_M": 278.38, "CLASSE": "02 - Curta", "CD_FAZ": " 400024", "TALHOES": "1", "FAZ_tAL": "400561001, 400024001", "ID_LINHA": 175456 }, "geometry": { "type": "MultiLineString", "coordinates": [ [ [ 417081.719036632159259, 7640742.715659270994365 ], [ 417355.981443484546617, 7640695.535013742744923 ] ] ] } },
{ "type": "Feature", "properties": { "fid": 376.0, "COMPR_M": 278.57, "CLASSE": "02 - Curta", "CD_FAZ": " 400024", "TALHOES": "1", "FAZ_tAL": "400561001, 400024001", "ID_LINHA": 175457 }, "geometry": { "type": "MultiLineString", "coordinates": [ [ [ 417080.502643001789693, 7640740.489659101702273 ], [ 417354.95194698421983, 7640693.27686214260757 ] ] ] } },
{ "type": "Feature", "properties": { "fid": 377.0, "COMPR_M": 278.76, "CLASSE": "02 - Curta", "CD_FAZ": " 400024", "TALHOES": "1", "FAZ_tAL": "400561001, 400024001", "ID_LINHA": 175458 }, "geometry": { "type": "MultiLineString", "coordinates": [ [ [ 417079.286249365191907, 7640738.2636589249596 ], [ 417353.922450485697482, 7640691.018710543401539 ] ] ] } },
{ "type": "Feature", "properties": { "fid": 378.0, "COMPR_M": 278.95, "CLASSE": "02 - Curta", "CD_FAZ": " 400024", "TALHOES": "1", "FAZ_tAL": "400561001, 400024001", "ID_LINHA": 175459 }, "geometry": { "type": "MultiLineString", "coordinates": [ [ [ 417078.069855732901487, 7640736.037658751010895 ], [ 417352.892953985719942, 7640688.760558946058154 ] ] ] } },
{ "type": "Feature", "properties": { "fid": 379.0, "COMPR_M": 279.14, "CLASSE": "02 - Curta", "CD_FAZ": " 400024", "TALHOES": "1", "FAZ_tAL": "400561001, 400024001", "ID_LINHA": 175460 }, "geometry": { "type": "MultiLineString", "coordinates": [ [ [ 417076.85346210032003, 7640733.811658577993512 ], [ 417351.863457486906555, 7640686.502407347783446 ] ] ] } },
{ "type": "Feature", "properties": { "fid": 380.0, "COMPR_M": 279.33, "CLASSE": "02 - Curta", "CD_FAZ": " 400024", "TALHOES": "1", "FAZ_tAL": "400561001, 400024001", "ID_LINHA": 175461 }, "geometry": { "type": "MultiLineString", "coordinates": [ [ [ 417075.637068468146026, 7640731.58565840870142 ], [ 417350.83396098727826, 7640684.244255747646093 ] ] ] } },
{ "type": "Feature", "properties": { "fid": 381.0, "COMPR_M": 279.52, "CLASSE": "02 - Curta", "CD_FAZ": " 400024", "TALHOES": "1", "FAZ_tAL": "400561001, 400024001", "ID_LINHA": 175462 }, "geometry": { "type": "MultiLineString", "coordinates": [ [ [ 417074.420674834342208, 7640729.359658233821392 ], [ 417349.804464487475343, 7640681.986104151234031 ] ] ] } },
{ "type": "Feature", "properties": { "fid": 382.0, "COMPR_M": 279.71, "CLASSE": "02 - Curta", "CD_FAZ": " 400024", "TALHOES": "1", "FAZ_tAL": "400561001, 400024001", "ID_LINHA": 175463 }, "geometry": { "type": "MultiLineString", "coordinates": [ [ [ 417073.204281202924903, 7640727.133658060804009 ], [ 417348.774967988778371, 7640679.727952551096678 ] ] ] } },
{ "type": "Feature", "properties": { "fid": 383.0, "COMPR_M": 279.9, "CLASSE": "02 - Curta", "CD_FAZ": " 400024", "TALHOES": "1", "FAZ_tAL": "400561001, 400024001", "ID_LINHA": 175464 }, "geometry": { "type": "MultiLineString", "coordinates": [ [ [ 417071.9878875692375, 7640724.907657887786627 ], [ 417347.745471489266492, 7640677.46980095282197 ] ] ] } },
{ "type": "Feature", "properties": { "fid": 384.0, "COMPR_M": 280.09, "CLASSE": "02 - Curta", "CD_FAZ": " 400024", "TALHOES": "1", "FAZ_tAL": "400561001, 400024001", "ID_LINHA": 175465 }, "geometry": { "type": "MultiLineString", "coordinates": [ [ [ 417070.771493935899343, 7640722.681657714769244 ], [ 417346.715974988997914, 7640675.211649354547262 ] ] ] } },
{ "type": "Feature", "properties": { "fid": 385.0, "COMPR_M": 280.28, "CLASSE": "02 - Curta", "CD_FAZ": " 400024", "TALHOES": "1", "FAZ_tAL": "400561001, 400024001", "ID_LINHA": 175466 }, "geometry": { "type": "MultiLineString", "coordinates": [ [ [ 417069.555100303667132, 7640720.455657542683184 ], [ 417345.686478491174057, 7640672.953497752547264 ] ] ] } },
{ "type": "Feature", "properties": { "fid": 386.0, "COMPR_M": 280.47, "CLASSE": "02 - Curta", "CD_FAZ": " 400024", "TALHOES": "1", "FAZ_tAL": "400561001, 400024001", "ID_LINHA": 175467 }, "geometry": { "type": "MultiLineString", "coordinates": [ [ [ 417068.338706669164822, 7640718.229657368734479 ], [ 417344.656981992535293, 7640670.695346155203879 ] ] ] } },
{ "type": "Feature", "properties": { "fid": 387.0, "COMPR_M": 280.66, "CLASSE": "02 - Curta", "CD_FAZ": " 400024", "TALHOES": "1", "FAZ_tAL": "400561001, 400024001", "ID_LINHA": 175468 }, "geometry": { "type": "MultiLineString", "coordinates": [ [ [ 417067.122313036990818, 7640716.003657194785774 ], [ 417343.627485491801053, 7640668.437194557860494 ] ] ] } },
{ "type": "Feature", "properties": { "fid": 388.0, "COMPR_M": 280.84, "CLASSE": "02 - Curta", "CD_FAZ": " 400024", "TALHOES": "1", "FAZ_tAL": "400561001, 400024001", "ID_LINHA": 175469 }, "geometry": { "type": "MultiLineString", "coordinates": [ [ [ 417065.905919404583983, 7640713.777657022699714 ], [ 417342.597988992813043, 7640666.179042955860496 ] ] ] } },
{ "type": "Feature", "properties": { "fid": 389.0, "COMPR_M": 281.03, "CLASSE": "02 - Curta", "CD_FAZ": " 400024", "TALHOES": "1", "FAZ_tAL": "400561001, 400024001", "ID_LINHA": 175470 }, "geometry": { "type": "MultiLineString", "coordinates": [ [ [ 417064.689525772526395, 7640711.551656849682331 ], [ 417341.568492493010126, 7640663.920891359448433 ] ] ] } },
{ "type": "Feature", "properties": { "fid": 390.0, "COMPR_M": 281.22, "CLASSE": "02 - Curta", "CD_FAZ": " 400024", "TALHOES": "1", "FAZ_tAL": "400561001, 400024001", "ID_LINHA": 175471 }, "geometry": { "type": "MultiLineString", "coordinates": [ [ [ 417063.473132138897199, 7640709.325656676664948 ], [ 417340.53899599442957, 7640661.66273975931108 ] ] ] } },
{ "type": "Feature", "properties": { "fid": 391.0, "COMPR_M": 281.41, "CLASSE": "02 - Curta", "CD_FAZ": " 400024", "TALHOES": "1", "FAZ_tAL": "400561001, 400024001", "ID_LINHA": 175472 }, "geometry": { "type": "MultiLineString", "coordinates": [ [ [ 417062.256738506315742, 7640707.099656503647566 ], [ 417339.509499495616183, 7640659.404588161036372 ] ] ] } },
{ "type": "Feature", "properties": { "fid": 392.0, "COMPR_M": 281.6, "CLASSE": "02 - Curta", "CD_FAZ": " 400024", "TALHOES": "1", "FAZ_tAL": "400561001, 400024001", "ID_LINHA": 175473 }, "geometry": { "type": "MultiLineString", "coordinates": [ [ [ 417061.040344872802962, 7640704.873656328767538 ], [ 417338.480002996046096, 7640657.14643656462431 ] ] ] } },
{ "type": "Feature", "properties": { "fid": 393.0, "COMPR_M": 281.79, "CLASSE": "02 - Curta", "CD_FAZ": " 400024", "TALHOES": "1", "FAZ_tAL": "400561001, 400024001", "ID_LINHA": 175474 }, "geometry": { "type": "MultiLineString", "coordinates": [ [ [ 417059.823951240337919, 7640702.647656157612801 ], [ 417337.450506496941671, 7640654.888284962624311 ] ] ] } },
{ "type": "Feature", "properties": { "fid": 394.0, "COMPR_M": 281.98, "CLASSE": "02 - Curta", "CD_FAZ": " 400024", "TALHOES": "1", "FAZ_tAL": "400561001, 400024001", "ID_LINHA": 175475 }, "geometry": { "type": "MultiLineString", "coordinates": [ [ [ 417058.607557606941555, 7640700.421655983664095 ], [ 417336.42100999772083, 7640652.630133366212249 ] ] ] } },
{ "type": "Feature", "properties": { "fid": 395.0, "COMPR_M": 282.17, "CLASSE": "02 - Curta", "CD_FAZ": " 400024", "TALHOES": "1", "FAZ_tAL": "400561001, 400024001", "ID_LINHA": 175476 }, "geometry": { "type": "MultiLineString", "coordinates": [ [ [ 417057.39116397453472, 7640698.195655811578035 ], [ 417335.391513497626875, 7640650.371981767006218 ] ] ] } },
{ "type": "Feature", "properties": { "fid": 396.0, "COMPR_M": 282.36, "CLASSE": "02 - Curta", "CD_FAZ": " 400024", "TALHOES": "1", "FAZ_tAL": "400561001, 400024001", "ID_LINHA": 175477 }, "geometry": { "type": "MultiLineString", "coordinates": [ [ [ 417056.174770340614486, 7640695.969655636698008 ], [ 417334.362016998697072, 7640648.113830169662833 ] ] ] } },
{ "type": "Feature", "properties": { "fid": 397.0, "COMPR_M": 282.55, "CLASSE": "02 - Curta", "CD_FAZ": " 400024", "TALHOES": "1", "FAZ_tAL": "400561001, 400024001", "ID_LINHA": 175478 }, "geometry": { "type": "MultiLineString", "coordinates": [ [ [ 417054.958376708324067, 7640693.74365546554327 ], [ 417333.332520499709062, 7640645.85567856952548 ] ] ] } },
{ "type": "Feature", "properties": { "fid": 398.0, "COMPR_M": 282.74, "CLASSE": "02 - Curta", "CD_FAZ": " 400024", "TALHOES": "1", "FAZ_tAL": "400561001, 400024001", "ID_LINHA": 175479 }, "geometry": { "type": "MultiLineString", "coordinates": [ [ [ 417053.741983074578457, 7640691.517655292525887 ], [ 417332.303024000488222, 7640643.597526971250772 ] ] ] } },
{ "type": "Feature", "properties": { "fid": 399.0, "COMPR_M": 282.93, "CLASSE": "02 - Curta", "CD_FAZ": " 400024", "TALHOES": "1", "FAZ_tAL": "400561001, 400024001", "ID_LINHA": 175480 }, "geometry": { "type": "MultiLineString", "coordinates": [ [ [ 417052.525589443044737, 7640689.291655119508505 ], [ 417331.273527501150966, 7640641.33937537111342 ] ] ] } },
{ "type": "Feature", "properties": { "fid": 400.0, "COMPR_M": 283.12, "CLASSE": "02 - Curta", "CD_FAZ": " 400024", "TALHOES": "1", "FAZ_tAL": "400561001, 400024001", "ID_LINHA": 175481 }, "geometry": { "type": "MultiLineString", "coordinates": [ [ [ 417051.309195808658842, 7640687.065654946491122 ], [ 417330.244031000940595, 7640639.081223772838712 ] ] ] } },
{ "type": "Feature", "properties": { "fid": 401.0, "COMPR_M": 283.31, "CLASSE": "02 - Curta", "CD_FAZ": " 400024", "TALHOES": "1", "FAZ_tAL": "400561001, 400024001", "ID_LINHA": 175482 }, "geometry": { "type": "MultiLineString", "coordinates": [ [ [ 417050.092802177998237, 7640684.839654774405062 ], [ 417329.214534502592869, 7640636.823072174564004 ] ] ] } },
{ "type": "Feature", "properties": { "fid": 402.0, "COMPR_M": 283.5, "CLASSE": "02 - Curta", "CD_FAZ": " 400024", "TALHOES": "1", "FAZ_tAL": "400561001, 400024001", "ID_LINHA": 175483 }, "geometry": { "type": "MultiLineString", "coordinates": [ [ [ 417048.87640854442725, 7640682.61365460138768 ], [ 417328.185038003430236, 7640634.564920574426651 ] ] ] } },
{ "type": "Feature", "properties": { "fid": 403.0, "COMPR_M": 283.69, "CLASSE": "02 - Curta", "CD_FAZ": " 400024", "TALHOES": "1", "FAZ_tAL": "400561001, 400024001", "ID_LINHA": 175484 }, "geometry": { "type": "MultiLineString", "coordinates": [ [ [ 417047.660014911845792, 7640680.38765442930162 ], [ 417327.155541504733264, 7640632.306768978014588 ] ] ] } },
{ "type": "Feature", "properties": { "fid": 404.0, "COMPR_M": 283.88, "CLASSE": "02 - Curta", "CD_FAZ": " 400024", "TALHOES": "1", "FAZ_tAL": "400561001, 400024001", "ID_LINHA": 175485 }, "geometry": { "type": "MultiLineString", "coordinates": [ [ [ 417046.443621277750935, 7640678.161654255352914 ], [ 417326.126045004639309, 7640630.048617379739881 ] ] ] } },
{ "type": "Feature", "properties": { "fid": 405.0, "COMPR_M": 284.07, "CLASSE": "02 - Curta", "CD_FAZ": " 400024", "TALHOES": "1", "FAZ_tAL": "400561001, 400024001", "ID_LINHA": 175486 }, "geometry": { "type": "MultiLineString", "coordinates": [ [ [ 417045.227227645344101, 7640675.935654079541564 ], [ 417325.096548506349791, 7640627.790465779602528 ] ] ] } },
{ "type": "Feature", "properties": { "fid": 406.0, "COMPR_M": 284.26, "CLASSE": "02 - Curta", "CD_FAZ": " 400024", "TALHOES": "1", "FAZ_tAL": "400561001, 400024001", "ID_LINHA": 175487 }, "geometry": { "type": "MultiLineString", "coordinates": [ [ [ 417044.010834012005944, 7640673.709653908386827 ], [ 417324.067052006605081, 7640625.532314180396497 ] ] ] } },
{ "type": "Feature", "properties": { "fid": 407.0, "COMPR_M": 284.45, "CLASSE": "02 - Curta", "CD_FAZ": " 400024", "TALHOES": "1", "FAZ_tAL": "400561001, 400024001", "ID_LINHA": 175488 }, "geometry": { "type": "MultiLineString", "coordinates": [ [ [ 417042.794440378434956, 7640671.483653734438121 ], [ 417323.037555507326033, 7640623.274162581190467 ] ] ] } },
{ "type": "Feature", "properties": { "fid": 408.0, "COMPR_M": 284.64, "CLASSE": "02 - Curta", "CD_FAZ": " 400024", "TALHOES": "1", "FAZ_tAL": "400561001, 400024001", "ID_LINHA": 175489 }, "geometry": { "type": "MultiLineString", "coordinates": [ [ [ 417041.578046746493783, 7640669.257653562352061 ], [ 417322.008059007232077, 7640621.016010983847082 ] ] ] } },
{ "type": "Feature", "properties": { "fid": 409.0, "COMPR_M": 284.83, "CLASSE": "02 - Curta", "CD_FAZ": " 400024", "TALHOES": "1", "FAZ_tAL": "400561001, 400024001", "ID_LINHA": 175490 }, "geometry": { "type": "MultiLineString", "coordinates": [ [ [ 417040.361653113679495, 7640667.031653391197324 ], [ 417320.978562509699259, 7640618.757859383709729 ] ] ] } },
{ "type": "Feature", "properties": { "fid": 410.0, "COMPR_M": 285.02, "CLASSE": "02 - Curta", "CD_FAZ": " 400024", "TALHOES": "1", "FAZ_tAL": "400561001, 400024001", "ID_LINHA": 175491 }, "geometry": { "type": "MultiLineString", "coordinates": [ [ [ 417039.14525948127266, 7640664.805653216317296 ], [ 417319.949066008673981, 7640616.499707785435021 ] ] ] } },
{ "type": "Feature", "properties": { "fid": 411.0, "COMPR_M": 285.21, "CLASSE": "02 - Curta", "CD_FAZ": " 400024", "TALHOES": "1", "FAZ_tAL": "400561001, 400024001", "ID_LINHA": 175492 }, "geometry": { "type": "MultiLineString", "coordinates": [ [ [ 417037.928865848574787, 7640662.579653045162559 ], [ 417318.91956950945314, 7640614.241556188091636 ] ] ] } },
{ "type": "Feature", "properties": { "fid": 412.0, "COMPR_M": 285.4, "CLASSE": "02 - Curta", "CD_FAZ": " 400024", "TALHOES": "1", "FAZ_tAL": "400561001, 400024001", "ID_LINHA": 175493 }, "geometry": { "type": "MultiLineString", "coordinates": [ [ [ 417036.712472215644084, 7640660.353652868419886 ], [ 417317.890073010756169, 7640611.983404587954283 ] ] ] } },
{ "type": "Feature", "properties": { "fid": 413.0, "COMPR_M": 285.59, "CLASSE": "02 - Curta", "CD_FAZ": " 400024", "TALHOES": "1", "FAZ_tAL": "400561001, 400024001", "ID_LINHA": 175494 }, "geometry": { "type": "MultiLineString", "coordinates": [ [ [ 417035.496078581782058, 7640658.127652697265148 ], [ 417316.860576510604005, 7640609.725252988748252 ] ] ] } },
{ "type": "Feature", "properties": { "fid": 414.0, "COMPR_M": 285.78, "CLASSE": "02 - Curta", "CD_FAZ": " 400024", "TALHOES": "1", "FAZ_tAL": "400561001, 400024001", "ID_LINHA": 175495 }, "geometry": { "type": "MultiLineString", "coordinates": [ [ [ 417034.279684949666262, 7640655.901652526110411 ], [ 417315.831080011674203, 7640607.467101387679577 ] ] ] } },
{ "type": "Feature", "properties": { "fid": 415.0, "COMPR_M": 285.97, "CLASSE": "02 - Curta", "CD_FAZ": " 400024", "TALHOES": "1", "FAZ_tAL": "400561001, 400024001", "ID_LINHA": 175496 }, "geometry": { "type": "MultiLineString", "coordinates": [ [ [ 417033.063291315920651, 7640653.675652351230383 ], [ 417314.801583511813078, 7640605.208949793130159 ] ] ] } },
{ "type": "Feature", "properties": { "fid": 416.0, "COMPR_M": 286.16, "CLASSE": "02 - Curta", "CD_FAZ": " 400024", "TALHOES": "1", "FAZ_tAL": "400561001, 400024001", "ID_LINHA": 175497 }, "geometry": { "type": "MultiLineString", "coordinates": [ [ [ 417031.846897683280986, 7640651.449652179144323 ], [ 417313.772087013872806, 7640602.950798192992806 ] ] ] } },
{ "type": "Feature", "properties": { "fid": 417.0, "COMPR_M": 286.35, "CLASSE": "02 - Curta", "CD_FAZ": " 400024", "TALHOES": "1", "FAZ_tAL": "400561001, 400024001", "ID_LINHA": 175498 }, "geometry": { "type": "MultiLineString", "coordinates": [ [ [ 417030.630504050292075, 7640649.223652005195618 ], [ 417312.74259051377885, 7640600.692646596580744 ] ] ] } },
{ "type": "Feature", "properties": { "fid": 418.0, "COMPR_M": 286.54, "CLASSE": "02 - Curta", "CD_FAZ": " 400024", "TALHOES": "1", "FAZ_tAL": "400561001, 400024001", "ID_LINHA": 175499 }, "geometry": { "type": "MultiLineString", "coordinates": [ [ [ 417029.414110417128541, 7640646.99765183031559 ], [ 417311.71309401554754, 7640598.434494996443391 ] ] ] } },
{ "type": "Feature", "properties": { "fid": 419.0, "COMPR_M": 286.73, "CLASSE": "02 - Curta", "CD_FAZ": " 400024", "TALHOES": "1", "FAZ_tAL": "400561001, 400024001", "ID_LINHA": 175500 }, "geometry": { "type": "MultiLineString", "coordinates": [ [ [ 417028.197716785012744, 7640644.771651659160852 ], [ 417310.683597513881978, 7640596.176343396306038 ] ] ] } },
{ "type": "Feature", "properties": { "fid": 420.0, "COMPR_M": 286.92, "CLASSE": "02 - Curta", "CD_FAZ": " 400024", "TALHOES": "1", "FAZ_tAL": "400561001, 400024001", "ID_LINHA": 175501 }, "geometry": { "type": "MultiLineString", "coordinates": [ [ [ 417026.981323151325341, 7640642.54565148614347 ], [ 417309.654101016698405, 7640593.918191797100008 ] ] ] } },
{ "type": "Feature", "properties": { "fid": 421.0, "COMPR_M": 287.11, "CLASSE": "02 - Curta", "CD_FAZ": " 400024", "TALHOES": "1", "FAZ_tAL": "400561001, 400024001", "ID_LINHA": 175502 }, "geometry": { "type": "MultiLineString", "coordinates": [ [ [ 417025.76492951932596, 7640640.319651313126087 ], [ 417308.624604517943226, 7640591.660040199756622 ] ] ] } },
{ "type": "Feature", "properties": { "fid": 422.0, "COMPR_M": 287.29, "CLASSE": "02 - Curta", "CD_FAZ": " 400024", "TALHOES": "1", "FAZ_tAL": "400561001, 400024001", "ID_LINHA": 175503 }, "geometry": { "type": "MultiLineString", "coordinates": [ [ [ 417024.548535887035541, 7640638.093651140108705 ], [ 417307.595108017150778, 7640589.401888599619269 ] ] ] } },
{ "type": "Feature", "properties": { "fid": 423.0, "COMPR_M": 287.48, "CLASSE": "02 - Curta", "CD_FAZ": " 400024", "TALHOES": "1", "FAZ_tAL": "400561001, 400024001", "ID_LINHA": 175504 }, "geometry": { "type": "MultiLineString", "coordinates": [ [ [ 417023.332142252591439, 7640635.867650968953967 ], [ 417306.565611518220976, 7640587.143737001344562 ] ] ] } },
{ "type": "Feature", "properties": { "fid": 424.0, "COMPR_M": 287.67, "CLASSE": "02 - Curta", "CD_FAZ": " 400024", "TALHOES": "1", "FAZ_tAL": "400561001, 400024001", "ID_LINHA": 175505 }, "geometry": { "type": "MultiLineString", "coordinates": [ [ [ 417022.115748620475642, 7640633.641650794073939 ], [ 417305.536115019815043, 7640584.885585401207209 ] ] ] } },
{ "type": "Feature", "properties": { "fid": 425.0, "COMPR_M": 287.86, "CLASSE": "02 - Curta", "CD_FAZ": " 400024", "TALHOES": "1", "FAZ_tAL": "400561001, 400024001", "ID_LINHA": 175506 }, "geometry": { "type": "MultiLineString", "coordinates": [ [ [ 417020.899354987486731, 7640631.415650621056557 ], [ 417304.506618520535994, 7640582.627433804795146 ] ] ] } },
{ "type": "Feature", "properties": { "fid": 426.0, "COMPR_M": 288.05, "CLASSE": "02 - Curta", "CD_FAZ": " 400024", "TALHOES": "1", "FAZ_tAL": "400561001, 400024001", "ID_LINHA": 175507 }, "geometry": { "type": "MultiLineString", "coordinates": [ [ [ 417019.682961353566498, 7640629.189650447107852 ], [ 417303.477122021140531, 7640580.369282204657793 ] ] ] } },
{ "type": "Feature", "properties": { "fid": 427.0, "COMPR_M": 288.24, "CLASSE": "02 - Curta", "CD_FAZ": " 400024", "TALHOES": "1", "FAZ_tAL": "400561001, 400024001", "ID_LINHA": 175508 }, "geometry": { "type": "MultiLineString", "coordinates": [ [ [ 417018.466567722032778, 7640626.963650276884437 ], [ 417302.44762552093016, 7640578.11113060824573 ] ] ] } },
{ "type": "Feature", "properties": { "fid": 428.0, "COMPR_M": 288.43, "CLASSE": "02 - Curta", "CD_FAZ": " 400024", "TALHOES": "1", "FAZ_tAL": "400561001, 400024001", "ID_LINHA": 175509 }, "geometry": { "type": "MultiLineString", "coordinates": [ [ [ 417017.250174088869244, 7640624.737650103867054 ], [ 417301.418129022582434, 7640575.852979008108377 ] ] ] } },
{ "type": "Feature", "properties": { "fid": 429.0, "COMPR_M": 288.62, "CLASSE": "02 - Curta", "CD_FAZ": " 400024", "TALHOES": "1", "FAZ_tAL": "400561001, 400024001", "ID_LINHA": 175510 }, "geometry": { "type": "MultiLineString", "coordinates": [ [ [ 417016.033780455531087, 7640622.511649928987026 ], [ 417300.388632522779517, 7640573.594827412627637 ] ] ] } },
{ "type": "Feature", "properties": { "fid": 430.0, "COMPR_M": 288.81, "CLASSE": "02 - Curta", "CD_FAZ": " 400024", "TALHOES": "1", "FAZ_tAL": "400561001, 400024001", "ID_LINHA": 175511 }, "geometry": { "type": "MultiLineString", "coordinates": [ [ [ 417014.817386822542176, 7640620.285649755038321 ], [ 417299.359136022801977, 7640571.336675811558962 ] ] ] } },
{ "type": "Feature", "properties": { "fid": 431.0, "COMPR_M": 289.0, "CLASSE": "02 - Curta", "CD_FAZ": " 400024", "TALHOES": "1", "FAZ_tAL": "400561001, 400024001", "ID_LINHA": 175512 }, "geometry": { "type": "MultiLineString", "coordinates": [ [ [ 417013.60099319065921, 7640618.059649583883584 ], [ 417298.329639524687082, 7640569.078524213284254 ] ] ] } },
{ "type": "Feature", "properties": { "fid": 432.0, "COMPR_M": 289.19, "CLASSE": "02 - Curta", "CD_FAZ": " 400024", "TALHOES": "1", "FAZ_tAL": "400561001, 400024001", "ID_LINHA": 175513 }, "geometry": { "type": "MultiLineString", "coordinates": [ [ [ 417012.384599555225577, 7640615.833649409934878 ], [ 417297.300143025815487, 7640566.820372613146901 ] ] ] } },
{ "type": "Feature", "properties": { "fid": 433.0, "COMPR_M": 289.38, "CLASSE": "02 - Curta", "CD_FAZ": " 400024", "TALHOES": "1", "FAZ_tAL": "400561001, 400024001", "ID_LINHA": 175514 }, "geometry": { "type": "MultiLineString", "coordinates": [ [ [ 417011.168205924157519, 7640613.607649238780141 ], [ 417296.270646524790209, 7640564.562221013009548 ] ] ] } },
{ "type": "Feature", "properties": { "fid": 434.0, "COMPR_M": 289.57, "CLASSE": "02 - Curta", "CD_FAZ": " 400024", "TALHOES": "1", "FAZ_tAL": "400561001, 400024001", "ID_LINHA": 175515 }, "geometry": { "type": "MultiLineString", "coordinates": [ [ [ 417009.951812291517854, 7640611.381649063900113 ], [ 417295.24115002626786, 7640562.304069416597486 ] ] ] } },
{ "type": "Feature", "properties": { "fid": 435.0, "COMPR_M": 289.76, "CLASSE": "02 - Curta", "CD_FAZ": " 400024", "TALHOES": "1", "FAZ_tAL": "400561001, 400024001", "ID_LINHA": 175516 }, "geometry": { "type": "MultiLineString", "coordinates": [ [ [ 417008.735418657888658, 7640609.15564889088273 ], [ 417294.211653526988812, 7640560.045917814597487 ] ] ] } },
{ "type": "Feature", "properties": { "fid": 436.0, "COMPR_M": 289.95, "CLASSE": "02 - Curta", "CD_FAZ": " 400024", "TALHOES": "1", "FAZ_tAL": "400561001, 400024001", "ID_LINHA": 175517 }, "geometry": { "type": "MultiLineString", "coordinates": [ [ [ 417007.5190250260639, 7640606.929648719727993 ], [ 417293.182157028117217, 7640557.787766218185425 ] ] ] } },
{ "type": "Feature", "properties": { "fid": 437.0, "COMPR_M": 290.14, "CLASSE": "02 - Curta", "CD_FAZ": " 400024", "TALHOES": "1", "FAZ_tAL": "400561001, 400024001", "ID_LINHA": 175518 }, "geometry": { "type": "MultiLineString", "coordinates": [ [ [ 417006.302631392725743, 7640604.703648545779288 ], [ 417292.152660528547131, 7640555.529614618979394 ] ] ] } },
{ "type": "Feature", "properties": { "fid": 438.0, "COMPR_M": 290.33, "CLASSE": "02 - Curta", "CD_FAZ": " 400024", "TALHOES": "1", "FAZ_tAL": "400561001, 400024001", "ID_LINHA": 175519 }, "geometry": { "type": "MultiLineString", "coordinates": [ [ [ 417005.086237759678625, 7640602.477648371830583 ], [ 417291.123164028162137, 7640553.271463019773364 ] ] ] } },
{ "type": "Feature", "properties": { "fid": 439.0, "COMPR_M": 290.52, "CLASSE": "02 - Curta", "CD_FAZ": " 400024", "TALHOES": "1", "FAZ_tAL": "400561001, 400024001", "ID_LINHA": 175520 }, "geometry": { "type": "MultiLineString", "coordinates": [ [ [ 417003.869844126398675, 7640600.251648199744523 ], [ 417290.09366752958158, 7640551.013311425223947 ] ] ] } },
{ "type": "Feature", "properties": { "fid": 440.0, "COMPR_M": 290.71, "CLASSE": "02 - Curta", "CD_FAZ": " 400024", "TALHOES": "1", "FAZ_tAL": "400561001, 400024001", "ID_LINHA": 175521 }, "geometry": { "type": "MultiLineString", "coordinates": [ [ [ 417002.653450494282879, 7640598.02564802672714 ], [ 417289.064171030884609, 7640548.755159823223948 ] ] ] } },
{ "type": "Feature", "properties": { "fid": 441.0, "COMPR_M": 290.9, "CLASSE": "02 - Curta", "CD_FAZ": " 400024", "TALHOES": "1", "FAZ_tAL": "400561001, 400024001", "ID_LINHA": 175522 }, "geometry": { "type": "MultiLineString", "coordinates": [ [ [ 417001.437056861876044, 7640595.79964785464108 ], [ 417288.034674531430937, 7640546.497008224949241 ] ] ] } },
{ "type": "Feature", "properties": { "fid": 442.0, "COMPR_M": 291.09, "CLASSE": "02 - Curta", "CD_FAZ": " 400024", "TALHOES": "1", "FAZ_tAL": "400561001, 400024001", "ID_LINHA": 175523 }, "geometry": { "type": "MultiLineString", "coordinates": [ [ [ 417000.220663228537887, 7640593.57364768255502 ], [ 417287.005178032501135, 7640544.238856626674533 ] ] ] } },
{ "type": "Feature", "properties": { "fid": 443.0, "COMPR_M": 291.28, "CLASSE": "02 - Curta", "CD_FAZ": " 400024", "TALHOES": "1", "FAZ_tAL": "400561001, 400024001", "ID_LINHA": 175524 }, "geometry": { "type": "MultiLineString", "coordinates": [ [ [ 416999.0042695949669, 7640591.34764750674367 ], [ 417285.975681532756425, 7640541.980705028399825 ] ] ] } },
{ "type": "Feature", "properties": { "fid": 444.0, "COMPR_M": 291.47, "CLASSE": "02 - Curta", "CD_FAZ": " 400024", "TALHOES": "1", "FAZ_tAL": "400561001, 400024001", "ID_LINHA": 175525 }, "geometry": { "type": "MultiLineString", "coordinates": [ [ [ 416997.78787596244365, 7640589.121647332794964 ], [ 417284.946185033535585, 7640539.722553428262472 ] ] ] } },
{ "type": "Feature", "properties": { "fid": 445.0, "COMPR_M": 291.66, "CLASSE": "02 - Curta", "CD_FAZ": " 400024", "TALHOES": "1", "FAZ_tAL": "400561001, 400024001", "ID_LINHA": 175526 }, "geometry": { "type": "MultiLineString", "coordinates": [ [ [ 416996.571482329687569, 7640586.895647160708904 ], [ 417283.916688533499837, 7640537.464401829056442 ] ] ] } },
{ "type": "Feature", "properties": { "fid": 448.0, "COMPR_M": 40.91, "CLASSE": "01 - Muito curta", "CD_FAZ": " 400024", "TALHOES": "1", "FAZ_tAL": "400561001, 400024001", "ID_LINHA": 175528 }, "geometry": { "type": "MultiLineString", "coordinates": [ [ [ 416837.223916422284674, 7640295.289624501951039 ], [ 416877.526228477247059, 7640288.356523018330336 ] ] ] } },
{ "type": "Feature", "properties": { "fid": 449.0, "COMPR_M": 60.35, "CLASSE": "01 - Muito curta", "CD_FAZ": " 400024", "TALHOES": "1", "FAZ_tAL": "400561001, 400024001", "ID_LINHA": 175529 }, "geometry": { "type": "MultiLineString", "coordinates": [ [ [ 416838.440310054982547, 7640297.515624674037099 ], [ 416897.894484737014864, 7640287.287878287956119 ] ] ] } },
{ "type": "Feature", "properties": { "fid": 450.0, "COMPR_M": 79.43, "CLASSE": "01 - Muito curta", "CD_FAZ": " 400024", "TALHOES": "1", "FAZ_tAL": "400561001, 400024001", "ID_LINHA": 175530 }, "geometry": { "type": "MultiLineString", "coordinates": [ [ [ 416839.656703688087873, 7640299.741624848917127 ], [ 416917.916443444089964, 7640286.278806215152144 ] ] ] } },
{ "type": "Feature", "properties": { "fid": 451.0, "COMPR_M": 96.29, "CLASSE": "01 - Muito curta", "CD_FAZ": " 400024", "TALHOES": "1", "FAZ_tAL": "400561001, 400024001", "ID_LINHA": 175531 }, "geometry": { "type": "MultiLineString", "coordinates": [ [ [ 416840.8730973204365, 7640301.967625020071864 ], [ 416935.743394533870742, 7640285.647335570305586 ] ] ] } },
{ "type": "Feature", "properties": { "fid": 452.0, "COMPR_M": 112.22, "CLASSE": "02 - Curta", "CD_FAZ": " 400024", "TALHOES": "1", "FAZ_tAL": "400561001, 400024001", "ID_LINHA": 175532 }, "geometry": { "type": "MultiLineString", "coordinates": [ [ [ 416842.08949095319258, 7640304.193625194951892 ], [ 416952.651239505386911, 7640285.173976352438331 ] ] ] } },
{ "type": "Feature", "properties": { "fid": 453.0, "COMPR_M": 124.98, "CLASSE": "02 - Curta", "CD_FAZ": " 400024", "TALHOES": "1", "FAZ_tAL": "400561001, 400024001", "ID_LINHA": 175533 }, "geometry": { "type": "MultiLineString", "coordinates": [ [ [ 416843.305884585774038, 7640306.419625368900597 ], [ 416966.440585770469625, 7640285.23708432354033 ] ] ] } },
{ "type": "Feature", "properties": { "fid": 454.0, "COMPR_M": 140.73, "CLASSE": "02 - Curta", "CD_FAZ": " 400024", "TALHOES": "1", "FAZ_tAL": "400561001, 400024001", "ID_LINHA": 175534 }, "geometry": { "type": "MultiLineString", "coordinates": [ [ [ 416844.522278220159933, 7640308.64562554191798 ], [ 416983.169518670532852, 7640284.794502882286906 ] ] ] } },
{ "type": "Feature", "properties": { "fid": 455.0, "COMPR_M": 153.84, "CLASSE": "02 - Curta", "CD_FAZ": " 400024", "TALHOES": "1", "FAZ_tAL": "400561001, 400024001", "ID_LINHA": 175535 }, "geometry": { "type": "MultiLineString", "coordinates": [ [ [ 416845.738671853090636, 7640310.871625715866685 ], [ 416997.304580391617492, 7640284.798138327896595 ] ] ] } },
{ "type": "Feature", "properties": { "fid": 456.0, "COMPR_M": 164.56, "CLASSE": "02 - Curta", "CD_FAZ": " 400024", "TALHOES": "1", "FAZ_tAL": "400561001, 400024001", "ID_LINHA": 175536 }, "geometry": { "type": "MultiLineString", "coordinates": [ [ [ 416846.955065487127285, 7640313.097625888884068 ], [ 417009.083664669655263, 7640285.207066414877772 ] ] ] } },
{ "type": "Feature", "properties": { "fid": 457.0, "COMPR_M": 175.31, "CLASSE": "02 - Curta", "CD_FAZ": " 400024", "TALHOES": "1", "FAZ_tAL": "400561001, 400024001", "ID_LINHA": 175537 }, "geometry": { "type": "MultiLineString", "coordinates": [ [ [ 416848.17145912029082, 7640315.32362606190145 ], [ 417020.890748881385662, 7640285.611177748069167 ] ] ] } },
{ "type": "Feature", "properties": { "fid": 458.0, "COMPR_M": 202.23, "CLASSE": "02 - Curta", "CD_FAZ": " 400024", "TALHOES": "1", "FAZ_tAL": "400561001, 400024001", "ID_LINHA": 175538 }, "geometry": { "type": "MultiLineString", "coordinates": [ [ [ 416849.38785275205737, 7640317.549626233056188 ], [ 417048.629755764617585, 7640283.274562038481236 ] ] ] } },
{ "type": "Feature", "properties": { "fid": 459.0, "COMPR_M": 227.52, "CLASSE": "02 - Curta", "CD_FAZ": " 400024", "TALHOES": "1", "FAZ_tAL": "400561001, 400024001", "ID_LINHA": 175539 }, "geometry": { "type": "MultiLineString", "coordinates": [ [ [ 416850.604246384231374, 7640319.77562640607357 ], [ 417074.76249555934919, 7640281.214268255978823 ] ] ] } },
{ "type": "Feature", "properties": { "fid": 460.0, "COMPR_M": 246.72, "CLASSE": "02 - Curta", "CD_FAZ": " 400024", "TALHOES": "1", "FAZ_tAL": "400561001, 400024001", "ID_LINHA": 175540 }, "geometry": { "type": "MultiLineString", "coordinates": [ [ [ 416851.820640017569531, 7640322.001626579090953 ], [ 417094.887743165832944, 7640280.187427666038275 ] ] ] } },
{ "type": "Feature", "properties": { "fid": 461.0, "COMPR_M": 265.83, "CLASSE": "02 - Curta", "CD_FAZ": " 400024", "TALHOES": "1", "FAZ_tAL": "400561001, 400024001", "ID_LINHA": 175541 }, "geometry": { "type": "MultiLineString", "coordinates": [ [ [ 416853.037033650674857, 7640324.227626752108335 ], [ 417114.937009324552491, 7640279.173657964915037 ] ] ] } },
{ "type": "Feature", "properties": { "fid": 462.0, "COMPR_M": 291.86, "CLASSE": "02 - Curta", "CD_FAZ": " 400024", "TALHOES": "1", "FAZ_tAL": "400561001, 400024001", "ID_LINHA": 175542 }, "geometry": { "type": "MultiLineString", "coordinates": [ [ [ 416854.253427282965276, 7640326.453626924194396 ], [ 417141.798954995989334, 7640276.987920800223947 ] ] ] } },
{ "type": "Feature", "properties": { "fid": 463.0, "COMPR_M": 306.76, "CLASSE": "03 - Média", "CD_FAZ": " 400024", "TALHOES": "1", "FAZ_tAL": "400561001, 400024001", "ID_LINHA": 175543 }, "geometry": { "type": "MultiLineString", "coordinates": [ [ [ 416855.469820915721357, 7640328.679627098143101 ], [ 417157.68964651011629, 7640276.689539840444922 ] ] ] } },
{ "type": "Feature", "properties": { "fid": 464.0, "COMPR_M": 310.02, "CLASSE": "03 - Média", "CD_FAZ": " 400024", "TALHOES": "1", "FAZ_tAL": "400561001, 400024001", "ID_LINHA": 175544 }, "geometry": { "type": "MultiLineString", "coordinates": [ [ [ 416856.68621454766253, 7640330.905627270229161 ], [ 417162.117500071879476, 7640278.363080946728587 ] ] ] } },
{ "type": "Feature", "properties": { "fid": 465.0, "COMPR_M": 311.11, "CLASSE": "03 - Média", "CD_FAZ": " 400024", "TALHOES": "1", "FAZ_tAL": "400561001, 400024001", "ID_LINHA": 175545 }, "geometry": { "type": "MultiLineString", "coordinates": [ [ [ 416857.902608182048425, 7640333.131627443246543 ], [ 417164.415508024336305, 7640280.403013832867146 ] ] ] } },
{ "type": "Feature", "properties": { "fid": 466.0, "COMPR_M": 311.71, "CLASSE": "03 - Média", "CD_FAZ": " 400024", "TALHOES": "1", "FAZ_tAL": "400561001, 400024001", "ID_LINHA": 175546 }, "geometry": { "type": "MultiLineString", "coordinates": [ [ [ 416859.119001813640352, 7640335.357627615332603 ], [ 417166.21667992969742, 7640282.528416128829122 ] ] ] } },
{ "type": "Feature", "properties": { "fid": 467.0, "COMPR_M": 312.29, "CLASSE": "03 - Média", "CD_FAZ": " 400024", "TALHOES": "1", "FAZ_tAL": "400561001, 400024001", "ID_LINHA": 175547 }, "geometry": { "type": "MultiLineString", "coordinates": [ [ [ 416860.335395447618794, 7640337.583627789281309 ], [ 417168.007810822746251, 7640284.655545752495527 ] ] ] } },
{ "type": "Feature", "properties": { "fid": 468.0, "COMPR_M": 312.71, "CLASSE": "03 - Média", "CD_FAZ": " 400024", "TALHOES": "1", "FAZ_tAL": "400561001, 400024001", "ID_LINHA": 175548 }, "geometry": { "type": "MultiLineString", "coordinates": [ [ [ 416861.551789080142044, 7640339.809627961367369 ], [ 417169.642577114747837, 7640286.809574369341135 ] ] ] } },
{ "type": "Feature", "properties": { "fid": 469.0, "COMPR_M": 312.53, "CLASSE": "03 - Média", "CD_FAZ": " 400024", "TALHOES": "1", "FAZ_tAL": "400561001, 400024001", "ID_LINHA": 175549 }, "geometry": { "type": "MultiLineString", "coordinates": [ [ [ 416862.768182711792178, 7640342.035628135316074 ], [ 417170.672073614026885, 7640289.067725967615843 ] ] ] } },
{ "type": "Feature", "properties": { "fid": 470.0, "COMPR_M": 312.34, "CLASSE": "03 - Média", "CD_FAZ": " 400024", "TALHOES": "1", "FAZ_tAL": "400561001, 400024001", "ID_LINHA": 175550 }, "geometry": { "type": "MultiLineString", "coordinates": [ [ [ 416863.984576345887035, 7640344.261628307402134 ], [ 417171.701570113131311, 7640291.325877565890551 ] ] ] } },
{ "type": "Feature", "properties": { "fid": 471.0, "COMPR_M": 312.15, "CLASSE": "03 - Média", "CD_FAZ": " 400024", "TALHOES": "1", "FAZ_tAL": "400561001, 400024001", "ID_LINHA": 175551 }, "geometry": { "type": "MultiLineString", "coordinates": [ [ [ 416865.200969977187924, 7640346.487628480419517 ], [ 417172.731066612235736, 7640293.584029162302613 ] ] ] } },
{ "type": "Feature", "properties": { "fid": 472.0, "COMPR_M": 311.96, "CLASSE": "03 - Média", "CD_FAZ": " 400024", "TALHOES": "1", "FAZ_tAL": "400561001, 400024001", "ID_LINHA": 175552 }, "geometry": { "type": "MultiLineString", "coordinates": [ [ [ 416866.417363610293251, 7640348.713628651574254 ], [ 417173.76056310988497, 7640295.842180764302611 ] ] ] } },
{ "type": "Feature", "properties": { "fid": 473.0, "COMPR_M": 311.77, "CLASSE": "03 - Média", "CD_FAZ": " 400024", "TALHOES": "1", "FAZ_tAL": "400561001, 400024001", "ID_LINHA": 175553 }, "geometry": { "type": "MultiLineString", "coordinates": [ [ [ 416867.633757243806031, 7640350.939628825522959 ], [ 417174.790059610095341, 7640298.100332362577319 ] ] ] } },
{ "type": "Feature", "properties": { "fid": 474.0, "COMPR_M": 311.58, "CLASSE": "03 - Média", "CD_FAZ": " 400024", "TALHOES": "1", "FAZ_tAL": "400561001, 400024001", "ID_LINHA": 175554 }, "geometry": { "type": "MultiLineString", "coordinates": [ [ [ 416868.85015087784268, 7640353.165628999471664 ], [ 417175.819556110189296, 7640300.358483958989382 ] ] ] } },
{ "type": "Feature", "properties": { "fid": 475.0, "COMPR_M": 311.39, "CLASSE": "03 - Média", "CD_FAZ": " 400024", "TALHOES": "1", "FAZ_tAL": "400561001, 400024001", "ID_LINHA": 175555 }, "geometry": { "type": "MultiLineString", "coordinates": [ [ [ 416870.066544509725645, 7640355.391629170626402 ], [ 417176.849052608944476, 7640302.61663556098938 ] ] ] } },
{ "type": "Feature", "properties": { "fid": 476.0, "COMPR_M": 311.2, "CLASSE": "03 - Média", "CD_FAZ": " 400024", "TALHOES": "1", "FAZ_tAL": "400561001, 400024001", "ID_LINHA": 175556 }, "geometry": { "type": "MultiLineString", "coordinates": [ [ [ 416871.282938143354841, 7640357.61762934550643 ], [ 417177.878549108223524, 7640304.874787157401443 ] ] ] } },
{ "type": "Feature", "properties": { "fid": 477.0, "COMPR_M": 311.01, "CLASSE": "03 - Média", "CD_FAZ": " 400024", "TALHOES": "1", "FAZ_tAL": "400561001, 400024001", "ID_LINHA": 175557 }, "geometry": { "type": "MultiLineString", "coordinates": [ [ [ 416872.499331775470637, 7640359.843629516661167 ], [ 417178.90804560680408, 7640307.132938754744828 ] ] ] } },
{ "type": "Feature", "properties": { "fid": 478.0, "COMPR_M": 310.82, "CLASSE": "03 - Média", "CD_FAZ": " 400024", "TALHOES": "1", "FAZ_tAL": "400561001, 400024001", "ID_LINHA": 175558 }, "geometry": { "type": "MultiLineString", "coordinates": [ [ [ 416873.715725407353602, 7640362.069629691541195 ], [ 417179.937542106606998, 7640309.391090353950858 ] ] ] } },
{ "type": "Feature", "properties": { "fid": 479.0, "COMPR_M": 310.63, "CLASSE": "03 - Média", "CD_FAZ": " 400024", "TALHOES": "1", "FAZ_tAL": "400561001, 400024001", "ID_LINHA": 175559 }, "geometry": { "type": "MultiLineString", "coordinates": [ [ [ 416874.932119042437989, 7640364.295629864558578 ], [ 417180.967038606293499, 7640311.649241953156888 ] ] ] } },
{ "type": "Feature", "properties": { "fid": 480.0, "COMPR_M": 310.44, "CLASSE": "03 - Média", "CD_FAZ": " 400024", "TALHOES": "1", "FAZ_tAL": "400561001, 400024001", "ID_LINHA": 175560 }, "geometry": { "type": "MultiLineString", "coordinates": [ [ [ 416876.148512673331425, 7640366.521630035713315 ], [ 417181.996535104583018, 7640313.907393552362919 ] ] ] } },
{ "type": "Feature", "properties": { "fid": 481.0, "COMPR_M": 310.25, "CLASSE": "03 - Média", "CD_FAZ": " 400024", "TALHOES": "1", "FAZ_tAL": "400561001, 400024001", "ID_LINHA": 175561 }, "geometry": { "type": "MultiLineString", "coordinates": [ [ [ 416877.364906307309866, 7640368.747630207799375 ], [ 417183.026031604851596, 7640316.165545149706304 ] ] ] } },
{ "type": "Feature", "properties": { "fid": 482.0, "COMPR_M": 310.06, "CLASSE": "03 - Média", "CD_FAZ": " 400024", "TALHOES": "1", "FAZ_tAL": "400561001, 400024001", "ID_LINHA": 175562 }, "geometry": { "type": "MultiLineString", "coordinates": [ [ [ 416878.581299939134624, 7640370.97363038174808 ], [ 417184.055528103606775, 7640318.423696748912334 ] ] ] } },
{ "type": "Feature", "properties": { "fid": 483.0, "COMPR_M": 309.87, "CLASSE": "03 - Média", "CD_FAZ": " 400024", "TALHOES": "1", "FAZ_tAL": "400561001, 400024001", "ID_LINHA": 175563 }, "geometry": { "type": "MultiLineString", "coordinates": [ [ [ 416879.797693571425043, 7640373.199630554765463 ], [ 417185.085024603060447, 7640320.681848348118365 ] ] ] } },
{ "type": "Feature", "properties": { "fid": 484.0, "COMPR_M": 309.68, "CLASSE": "03 - Média", "CD_FAZ": " 400024", "TALHOES": "1", "FAZ_tAL": "400561001, 400024001", "ID_LINHA": 175564 }, "geometry": { "type": "MultiLineString", "coordinates": [ [ [ 416881.014087204239331, 7640375.4256307259202 ], [ 417186.114521102281287, 7640322.939999946393073 ] ] ] } },
{ "type": "Feature", "properties": { "fid": 485.0, "COMPR_M": 309.49, "CLASSE": "03 - Média", "CD_FAZ": " 400024", "TALHOES": "1", "FAZ_tAL": "400561001, 400024001", "ID_LINHA": 175565 }, "geometry": { "type": "MultiLineString", "coordinates": [ [ [ 416882.23048083804315, 7640377.651630902662873 ], [ 417187.144017601502128, 7640325.198151545599103 ] ] ] } },
{ "type": "Feature", "properties": { "fid": 486.0, "COMPR_M": 309.3, "CLASSE": "03 - Média", "CD_FAZ": " 400024", "TALHOES": "1", "FAZ_tAL": "400561001, 400024001", "ID_LINHA": 175566 }, "geometry": { "type": "MultiLineString", "coordinates": [ [ [ 416883.446874472429045, 7640379.877631076611578 ], [ 417188.173514101246838, 7640327.456303144805133 ] ] ] } },
{ "type": "Feature", "properties": { "fid": 487.0, "COMPR_M": 309.11, "CLASSE": "03 - Média", "CD_FAZ": " 400024", "TALHOES": "1", "FAZ_tAL": "400561001, 400024001", "ID_LINHA": 175567 }, "geometry": { "type": "MultiLineString", "coordinates": [ [ [ 416884.663268103904556, 7640382.103631246834993 ], [ 417189.203010601573624, 7640329.714454744011164 ] ] ] } },
{ "type": "Feature", "properties": { "fid": 488.0, "COMPR_M": 308.92, "CLASSE": "03 - Média", "CD_FAZ": " 400024", "TALHOES": "1", "FAZ_tAL": "400561001, 400024001", "ID_LINHA": 175568 }, "geometry": { "type": "MultiLineString", "coordinates": [ [ [ 416885.879661736544222, 7640384.329631421715021 ], [ 417190.232507099863142, 7640331.972606343217194 ] ] ] } },
{ "type": "Feature", "properties": { "fid": 489.0, "COMPR_M": 308.73, "CLASSE": "03 - Média", "CD_FAZ": " 400024", "TALHOES": "1", "FAZ_tAL": "400561001, 400024001", "ID_LINHA": 175569 }, "geometry": { "type": "MultiLineString", "coordinates": [ [ [ 416887.096055369649548, 7640386.555631594732404 ], [ 417191.262003599375021, 7640334.23075794428587 ] ] ] } },
{ "type": "Feature", "properties": { "fid": 490.0, "COMPR_M": 308.54, "CLASSE": "03 - Média", "CD_FAZ": " 400024", "TALHOES": "1", "FAZ_tAL": "400561001, 400024001", "ID_LINHA": 175570 }, "geometry": { "type": "MultiLineString", "coordinates": [ [ [ 416888.312449003162328, 7640388.781631769612432 ], [ 417192.291500098188408, 7640336.488909538835287 ] ] ] } },
{ "type": "Feature", "properties": { "fid": 491.0, "COMPR_M": 308.35, "CLASSE": "03 - Média", "CD_FAZ": " 400024", "TALHOES": "1", "FAZ_tAL": "400561001, 400024001", "ID_LINHA": 175571 }, "geometry": { "type": "MultiLineString", "coordinates": [ [ [ 416889.528842635918409, 7640391.007631940767169 ], [ 417193.320996597467456, 7640338.74706113897264 ] ] ] } },
{ "type": "Feature", "properties": { "fid": 492.0, "COMPR_M": 308.16, "CLASSE": "03 - Média", "CD_FAZ": " 400024", "TALHOES": "1", "FAZ_tAL": "400561001, 400024001", "ID_LINHA": 175572 }, "geometry": { "type": "MultiLineString", "coordinates": [ [ [ 416890.745236268383451, 7640393.233632111921906 ], [ 417194.350493097386789, 7640341.005212737247348 ] ] ] } },
{ "type": "Feature", "properties": { "fid": 493.0, "COMPR_M": 307.97, "CLASSE": "03 - Média", "CD_FAZ": " 400024", "TALHOES": "1", "FAZ_tAL": "400561001, 400024001", "ID_LINHA": 175573 }, "geometry": { "type": "MultiLineString", "coordinates": [ [ [ 416891.96162990265293, 7640395.459632286801934 ], [ 417195.379989596549422, 7640343.263364334590733 ] ] ] } },
{ "type": "Feature", "properties": { "fid": 494.0, "COMPR_M": 307.78, "CLASSE": "03 - Média", "CD_FAZ": " 400024", "TALHOES": "1", "FAZ_tAL": "400561001, 400024001", "ID_LINHA": 175574 }, "geometry": { "type": "MultiLineString", "coordinates": [ [ [ 416893.178023536107503, 7640397.685632460750639 ], [ 417196.409486095595639, 7640345.521515934728086 ] ] ] } },
{ "type": "Feature", "properties": { "fid": 495.0, "COMPR_M": 307.59, "CLASSE": "03 - Média", "CD_FAZ": " 400024", "TALHOES": "1", "FAZ_tAL": "400561001, 400024001", "ID_LINHA": 175575 }, "geometry": { "type": "MultiLineString", "coordinates": [ [ [ 416894.394417167990468, 7640399.911632631905377 ], [ 417197.438982593943365, 7640347.779667533002794 ] ] ] } },
{ "type": "Feature", "properties": { "fid": 496.0, "COMPR_M": 307.4, "CLASSE": "03 - Média", "CD_FAZ": " 400024", "TALHOES": "1", "FAZ_tAL": "400561001, 400024001", "ID_LINHA": 175576 }, "geometry": { "type": "MultiLineString", "coordinates": [ [ [ 416895.610810801619664, 7640402.137632806785405 ], [ 417198.468479094735812, 7640350.037819133140147 ] ] ] } },
{ "type": "Feature", "properties": { "fid": 497.0, "COMPR_M": 307.21, "CLASSE": "03 - Média", "CD_FAZ": " 400024", "TALHOES": "1", "FAZ_tAL": "400561001, 400024001", "ID_LINHA": 175577 }, "geometry": { "type": "MultiLineString", "coordinates": [ [ [ 416896.827204433153383, 7640404.36363297700882 ], [ 417199.497975593549199, 7640352.295970730483532 ] ] ] } },
{ "type": "Feature", "properties": { "fid": 498.0, "COMPR_M": 307.02, "CLASSE": "03 - Média", "CD_FAZ": " 400024", "TALHOES": "1", "FAZ_tAL": "400561001, 400024001", "ID_LINHA": 175578 }, "geometry": { "type": "MultiLineString", "coordinates": [ [ [ 416898.043598067073617, 7640406.589633150026202 ], [ 417200.527472092886455, 7640354.554122330620885 ] ] ] } },
{ "type": "Feature", "properties": { "fid": 499.0, "COMPR_M": 306.83, "CLASSE": "03 - Média", "CD_FAZ": " 400024", "TALHOES": "1", "FAZ_tAL": "400561001, 400024001", "ID_LINHA": 175579 }, "geometry": { "type": "MultiLineString", "coordinates": [ [ [ 416899.259991698199883, 7640408.815633323043585 ], [ 417201.556968592107296, 7640356.812273928895593 ] ] ] } },
{ "type": "Feature", "properties": { "fid": 500.0, "COMPR_M": 306.64, "CLASSE": "03 - Média", "CD_FAZ": " 400024", "TALHOES": "1", "FAZ_tAL": "400561001, 400024001", "ID_LINHA": 175580 }, "geometry": { "type": "MultiLineString", "coordinates": [ [ [ 416900.476385331712663, 7640411.041633495129645 ], [ 417202.586465091968421, 7640359.0704255271703 ] ] ] } },
{ "type": "Feature", "properties": { "fid": 501.0, "COMPR_M": 306.45, "CLASSE": "03 - Média", "CD_FAZ": " 400024", "TALHOES": "1", "FAZ_tAL": "400561001, 400024001", "ID_LINHA": 175581 }, "geometry": { "type": "MultiLineString", "coordinates": [ [ [ 416901.69277896505082, 7640413.26763366907835 ], [ 417203.615961590316147, 7640361.328577129170299 ] ] ] } },
{ "type": "Feature", "properties": { "fid": 502.0, "COMPR_M": 306.26, "CLASSE": "03 - Média", "CD_FAZ": " 400024", "TALHOES": "1", "FAZ_tAL": "400561001, 400024001", "ID_LINHA": 175582 }, "geometry": { "type": "MultiLineString", "coordinates": [ [ [ 416902.909172597515862, 7640415.49363384116441 ], [ 417204.645458090002649, 7640363.586728723719716 ] ] ] } },
{ "type": "Feature", "properties": { "fid": 503.0, "COMPR_M": 306.08, "CLASSE": "03 - Média", "CD_FAZ": " 400024", "TALHOES": "1", "FAZ_tAL": "400561001, 400024001", "ID_LINHA": 175583 }, "geometry": { "type": "MultiLineString", "coordinates": [ [ [ 416904.12556623108685, 7640417.719634015113115 ], [ 417205.674954588874243, 7640365.844880323857069 ] ] ] } },
{ "type": "Feature", "properties": { "fid": 504.0, "COMPR_M": 305.89, "CLASSE": "03 - Média", "CD_FAZ": " 400024", "TALHOES": "1", "FAZ_tAL": "400561001, 400024001", "ID_LINHA": 175584 }, "geometry": { "type": "MultiLineString", "coordinates": [ [ [ 416905.341959865065292, 7640419.945634191855788 ], [ 417206.704451088327914, 7640368.103031922131777 ] ] ] } },
{ "type": "Feature", "properties": { "fid": 505.0, "COMPR_M": 305.7, "CLASSE": "03 - Média", "CD_FAZ": " 400024", "TALHOES": "1", "FAZ_tAL": "400561001, 400024001", "ID_LINHA": 175585 }, "geometry": { "type": "MultiLineString", "coordinates": [ [ [ 416906.558353496307973, 7640422.171634361147881 ], [ 417207.73394758766517, 7640370.361183520406485 ] ] ] } },
{ "type": "Feature", "properties": { "fid": 506.0, "COMPR_M": 305.51, "CLASSE": "03 - Média", "CD_FAZ": " 400024", "TALHOES": "1", "FAZ_tAL": "400561001, 400024001", "ID_LINHA": 175586 }, "geometry": { "type": "MultiLineString", "coordinates": [ [ [ 416907.774747129296884, 7640424.397634534165263 ], [ 417208.763444086245727, 7640372.619335119612515 ] ] ] } },
{ "type": "Feature", "properties": { "fid": 507.0, "COMPR_M": 305.32, "CLASSE": "03 - Média", "CD_FAZ": " 400024", "TALHOES": "1", "FAZ_tAL": "400561001, 400024001", "ID_LINHA": 175587 }, "geometry": { "type": "MultiLineString", "coordinates": [ [ [ 416908.991140762693249, 7640426.623634709045291 ], [ 417209.792940586048644, 7640374.877486718818545 ] ] ] } },
{ "type": "Feature", "properties": { "fid": 508.0, "COMPR_M": 305.13, "CLASSE": "03 - Média", "CD_FAZ": " 400024", "TALHOES": "1", "FAZ_tAL": "400561001, 400024001", "ID_LINHA": 175588 }, "geometry": { "type": "MultiLineString", "coordinates": [ [ [ 416910.207534395856783, 7640428.849634880200028 ], [ 417210.822437085793354, 7640377.135638318024576 ] ] ] } },
{ "type": "Feature", "properties": { "fid": 509.0, "COMPR_M": 304.94, "CLASSE": "03 - Média", "CD_FAZ": " 400024", "TALHOES": "1", "FAZ_tAL": "400561001, 400024001", "ID_LINHA": 175589 }, "geometry": { "type": "MultiLineString", "coordinates": [ [ [ 416911.42392802820541, 7640431.075635053217411 ], [ 417211.851933584723156, 7640379.393789915367961 ] ] ] } },
{ "type": "Feature", "properties": { "fid": 510.0, "COMPR_M": 304.75, "CLASSE": "03 - Média", "CD_FAZ": " 400024", "TALHOES": "1", "FAZ_tAL": "400561001, 400024001", "ID_LINHA": 175590 }, "geometry": { "type": "MultiLineString", "coordinates": [ [ [ 416912.640321660321206, 7640433.301635224372149 ], [ 417212.881430084235035, 7640381.651941515505314 ] ] ] } },
{ "type": "Feature", "properties": { "fid": 511.0, "COMPR_M": 304.56, "CLASSE": "03 - Média", "CD_FAZ": " 400024", "TALHOES": "1", "FAZ_tAL": "400561001, 400024001", "ID_LINHA": 175591 }, "geometry": { "type": "MultiLineString", "coordinates": [ [ [ 416913.856715291622095, 7640435.527635397389531 ], [ 417213.910926582990214, 7640383.910093114711344 ] ] ] } },
{ "type": "Feature", "properties": { "fid": 512.0, "COMPR_M": 304.37, "CLASSE": "03 - Média", "CD_FAZ": " 400024", "TALHOES": "1", "FAZ_tAL": "400561001, 400024001", "ID_LINHA": 175592 }, "geometry": { "type": "MultiLineString", "coordinates": [ [ [ 416915.073108925949782, 7640437.753635571338236 ], [ 417214.94042308232747, 7640386.168244711123407 ] ] ] } },
{ "type": "Feature", "properties": { "fid": 513.0, "COMPR_M": 304.18, "CLASSE": "03 - Média", "CD_FAZ": " 400024", "TALHOES": "1", "FAZ_tAL": "400561001, 400024001", "ID_LINHA": 175593 }, "geometry": { "type": "MultiLineString", "coordinates": [ [ [ 416916.289502559462562, 7640439.979635743424296 ], [ 417215.969919580908027, 7640388.42639630753547 ] ] ] } },
{ "type": "Feature", "properties": { "fid": 514.0, "COMPR_M": 303.99, "CLASSE": "03 - Média", "CD_FAZ": " 400024", "TALHOES": "1", "FAZ_tAL": "400561001, 400024001", "ID_LINHA": 175594 }, "geometry": { "type": "MultiLineString", "coordinates": [ [ [ 416917.505896192684304, 7640442.205635918304324 ], [ 417216.999416080652736, 7640390.684547908604145 ] ] ] } },
{ "type": "Feature", "properties": { "fid": 515.0, "COMPR_M": 303.8, "CLASSE": "03 - Média", "CD_FAZ": " 400024", "TALHOES": "1", "FAZ_tAL": "400561001, 400024001", "ID_LINHA": 175595 }, "geometry": { "type": "MultiLineString", "coordinates": [ [ [ 416918.722289824509062, 7640444.431636089459062 ], [ 417218.028912580339238, 7640392.942699508741498 ] ] ] } },
{ "type": "Feature", "properties": { "fid": 516.0, "COMPR_M": 303.61, "CLASSE": "03 - Média", "CD_FAZ": " 400024", "TALHOES": "1", "FAZ_tAL": "400561001, 400024001", "ID_LINHA": 175596 }, "geometry": { "type": "MultiLineString", "coordinates": [ [ [ 416919.938683457963634, 7640446.657636264339089 ], [ 417219.058409079909325, 7640395.200851106084883 ] ] ] } },
{ "type": "Feature", "properties": { "fid": 517.0, "COMPR_M": 303.42, "CLASSE": "03 - Média", "CD_FAZ": " 400024", "TALHOES": "1", "FAZ_tAL": "400561001, 400024001", "ID_LINHA": 175597 }, "geometry": { "type": "MultiLineString", "coordinates": [ [ [ 416921.155077089963015, 7640448.883636437356472 ], [ 417220.087905578664504, 7640397.459002707153559 ] ] ] } },
{ "type": "Feature", "properties": { "fid": 518.0, "COMPR_M": 303.23, "CLASSE": "03 - Média", "CD_FAZ": " 400024", "TALHOES": "1", "FAZ_tAL": "400561001, 400024001", "ID_LINHA": 175598 }, "geometry": { "type": "MultiLineString", "coordinates": [ [ [ 416922.371470723708626, 7640451.109636611305177 ], [ 417221.117402078059968, 7640399.717154304496944 ] ] ] } },
{ "type": "Feature", "properties": { "fid": 519.0, "COMPR_M": 303.04, "CLASSE": "03 - Média", "CD_FAZ": " 400024", "TALHOES": "1", "FAZ_tAL": "400561001, 400024001", "ID_LINHA": 175599 }, "geometry": { "type": "MultiLineString", "coordinates": [ [ [ 416923.587864355940837, 7640453.33563678059727 ], [ 417222.146898577339016, 7640401.975305903702974 ] ] ] } },
{ "type": "Feature", "properties": { "fid": 520.0, "COMPR_M": 302.85, "CLASSE": "03 - Média", "CD_FAZ": " 400024", "TALHOES": "1", "FAZ_tAL": "400561001, 400024001", "ID_LINHA": 175600 }, "geometry": { "type": "MultiLineString", "coordinates": [ [ [ 416924.804257989861071, 7640455.561636957339942 ], [ 417223.176395076501649, 7640404.233457503840327 ] ] ] } },
{ "type": "Feature", "properties": { "fid": 521.0, "COMPR_M": 302.66, "CLASSE": "03 - Média", "CD_FAZ": " 400024", "TALHOES": "1", "FAZ_tAL": "400561001, 400024001", "ID_LINHA": 175601 }, "geometry": { "type": "MultiLineString", "coordinates": [ [ [ 416926.020651622966398, 7640457.787637133151293 ], [ 417224.205891576188151, 7640406.491609102115035 ] ] ] } },
{ "type": "Feature", "properties": { "fid": 522.0, "COMPR_M": 302.47, "CLASSE": "03 - Média", "CD_FAZ": " 400024", "TALHOES": "1", "FAZ_tAL": "400561001, 400024001", "ID_LINHA": 175602 }, "geometry": { "type": "MultiLineString", "coordinates": [ [ [ 416927.237045256537385, 7640460.01363730430603 ], [ 417225.235388075816445, 7640408.749760702252388 ] ] ] } },
{ "type": "Feature", "properties": { "fid": 523.0, "COMPR_M": 302.28, "CLASSE": "03 - Média", "CD_FAZ": " 400024", "TALHOES": "1", "FAZ_tAL": "400561001, 400024001", "ID_LINHA": 175603 }, "geometry": { "type": "MultiLineString", "coordinates": [ [ [ 416928.453438889817335, 7640462.239637478254735 ], [ 417226.264884575328324, 7640411.007912300527096 ] ] ] } },
{ "type": "Feature", "properties": { "fid": 524.0, "COMPR_M": 302.09, "CLASSE": "03 - Média", "CD_FAZ": " 400024", "TALHOES": "1", "FAZ_tAL": "400561001, 400024001", "ID_LINHA": 175604 }, "geometry": { "type": "MultiLineString", "coordinates": [ [ [ 416929.6698325217003, 7640464.465637649409473 ], [ 417227.294381073443219, 7640413.266063898801804 ] ] ] } },
{ "type": "Feature", "properties": { "fid": 525.0, "COMPR_M": 301.9, "CLASSE": "03 - Média", "CD_FAZ": " 400024", "TALHOES": "1", "FAZ_tAL": "400561001, 400024001", "ID_LINHA": 175605 }, "geometry": { "type": "MultiLineString", "coordinates": [ [ [ 416930.886226154572796, 7640466.69163782056421 ], [ 417228.323877573362552, 7640415.524215495213866 ] ] ] } },
{ "type": "Feature", "properties": { "fid": 526.0, "COMPR_M": 301.71, "CLASSE": "03 - Média", "CD_FAZ": " 400024", "TALHOES": "1", "FAZ_tAL": "400561001, 400024001", "ID_LINHA": 175606 }, "geometry": { "type": "MultiLineString", "coordinates": [ [ [ 416932.102619786630385, 7640468.917637994512916 ], [ 417229.3533740718849, 7640417.782367093488574 ] ] ] } },
{ "type": "Feature", "properties": { "fid": 527.0, "COMPR_M": 301.52, "CLASSE": "03 - Média", "CD_FAZ": " 400024", "TALHOES": "1", "FAZ_tAL": "400561001, 400024001", "ID_LINHA": 175607 }, "geometry": { "type": "MultiLineString", "coordinates": [ [ [ 416933.319013420375995, 7640471.143638167530298 ], [ 417230.382870571687818, 7640420.040518693625927 ] ] ] } },
{ "type": "Feature", "properties": { "fid": 528.0, "COMPR_M": 301.33, "CLASSE": "03 - Média", "CD_FAZ": " 400024", "TALHOES": "1", "FAZ_tAL": "400561001, 400024001", "ID_LINHA": 175608 }, "geometry": { "type": "MultiLineString", "coordinates": [ [ [ 416934.535407053306699, 7640473.369638340547681 ], [ 417231.412367071374319, 7640422.298670290969312 ] ] ] } },
{ "type": "Feature", "properties": { "fid": 529.0, "COMPR_M": 301.14, "CLASSE": "03 - Média", "CD_FAZ": " 400024", "TALHOES": "1", "FAZ_tAL": "400561001, 400024001", "ID_LINHA": 175609 }, "geometry": { "type": "MultiLineString", "coordinates": [ [ [ 416935.751800686004572, 7640475.595638513565063 ], [ 417232.441863570187707, 7640424.556821892037988 ] ] ] } },
{ "type": "Feature", "properties": { "fid": 530.0, "COMPR_M": 300.95, "CLASSE": "03 - Média", "CD_FAZ": " 400024", "TALHOES": "1", "FAZ_tAL": "400561001, 400024001", "ID_LINHA": 175610 }, "geometry": { "type": "MultiLineString", "coordinates": [ [ [ 416936.968194319168106, 7640477.821638686582446 ], [ 417233.471360069641378, 7640426.81497348845005 ] ] ] } },
{ "type": "Feature", "properties": { "fid": 531.0, "COMPR_M": 300.76, "CLASSE": "03 - Média", "CD_FAZ": " 400024", "TALHOES": "1", "FAZ_tAL": "400561001, 400024001", "ID_LINHA": 175611 }, "geometry": { "type": "MultiLineString", "coordinates": [ [ [ 416938.184587952680886, 7640480.047638860531151 ], [ 417234.500856568920426, 7640429.073125088587403 ] ] ] } },
{ "type": "Feature", "properties": { "fid": 532.0, "COMPR_M": 300.57, "CLASSE": "03 - Média", "CD_FAZ": " 400024", "TALHOES": "1", "FAZ_tAL": "400561001, 400024001", "ID_LINHA": 175612 }, "geometry": { "type": "MultiLineString", "coordinates": [ [ [ 416939.40098158409819, 7640482.273639032617211 ], [ 417235.530353067442775, 7640431.331276688724756 ] ] ] } },
{ "type": "Feature", "properties": { "fid": 533.0, "COMPR_M": 300.38, "CLASSE": "03 - Média", "CD_FAZ": " 400024", "TALHOES": "1", "FAZ_tAL": "400561001, 400024001", "ID_LINHA": 175613 }, "geometry": { "type": "MultiLineString", "coordinates": [ [ [ 416940.617375217843801, 7640484.499639207497239 ], [ 417236.5598495665472, 7640433.589428286068141 ] ] ] } },
{ "type": "Feature", "properties": { "fid": 534.0, "COMPR_M": 300.19, "CLASSE": "03 - Média", "CD_FAZ": " 400024", "TALHOES": "1", "FAZ_tAL": "400561001, 400024001", "ID_LINHA": 175614 }, "geometry": { "type": "MultiLineString", "coordinates": [ [ [ 416941.833768850076012, 7640486.725639375858009 ], [ 417237.58934606553521, 7640435.847579887136817 ] ] ] } },
{ "type": "Feature", "properties": { "fid": 535.0, "COMPR_M": 300.0, "CLASSE": "03 - Média", "CD_FAZ": " 400024", "TALHOES": "1", "FAZ_tAL": "400561001, 400024001", "ID_LINHA": 175615 }, "geometry": { "type": "MultiLineString", "coordinates": [ [ [ 416943.050162482832093, 7640488.951639549806714 ], [ 417238.618842565745581, 7640438.10573148354888 ] ] ] } },
{ "type": "Feature", "properties": { "fid": 536.0, "COMPR_M": 299.82, "CLASSE": "02 - Curta", "CD_FAZ": " 400024", "TALHOES": "1", "FAZ_tAL": "400561001, 400024001", "ID_LINHA": 175616 }, "geometry": { "type": "MultiLineString", "coordinates": [ [ [ 416944.266556116635911, 7640491.177639724686742 ], [ 417239.64833906450076, 7640440.363883083686233 ] ] ] } },
{ "type": "Feature", "properties": { "fid": 537.0, "COMPR_M": 299.63, "CLASSE": "02 - Curta", "CD_FAZ": " 400024", "TALHOES": "1", "FAZ_tAL": "400561001, 400024001", "ID_LINHA": 175617 }, "geometry": { "type": "MultiLineString", "coordinates": [ [ [ 416945.482949747529346, 7640493.403639895841479 ], [ 417240.677835564478301, 7640442.62203468196094 ] ] ] } },
{ "type": "Feature", "properties": { "fid": 538.0, "COMPR_M": 299.44, "CLASSE": "02 - Curta", "CD_FAZ": " 400024", "TALHOES": "1", "FAZ_tAL": "400561001, 400024001", "ID_LINHA": 175618 }, "geometry": { "type": "MultiLineString", "coordinates": [ [ [ 416946.699343380867504, 7640495.629640070721507 ], [ 417241.707332063000649, 7640444.880186278373003 ] ] ] } },
{ "type": "Feature", "properties": { "fid": 539.0, "COMPR_M": 299.25, "CLASSE": "02 - Curta", "CD_FAZ": " 400024", "TALHOES": "1", "FAZ_tAL": "400561001, 400024001", "ID_LINHA": 175619 }, "geometry": { "type": "MultiLineString", "coordinates": [ [ [ 416947.915737014671322, 7640497.85564024373889 ], [ 417242.736828563443851, 7640447.138337878510356 ] ] ] } },
{ "type": "Feature", "properties": { "fid": 540.0, "COMPR_M": 299.06, "CLASSE": "02 - Curta", "CD_FAZ": " 400024", "TALHOES": "1", "FAZ_tAL": "400561001, 400024001", "ID_LINHA": 175620 }, "geometry": { "type": "MultiLineString", "coordinates": [ [ [ 416949.13213064824231, 7640500.081640414893627 ], [ 417243.766325062373653, 7640449.396489474922419 ] ] ] } },
{ "type": "Feature", "properties": { "fid": 541.0, "COMPR_M": 298.87, "CLASSE": "02 - Curta", "CD_FAZ": " 400024", "TALHOES": "1", "FAZ_tAL": "400561001, 400024001", "ID_LINHA": 175621 }, "geometry": { "type": "MultiLineString", "coordinates": [ [ [ 416950.348524279543199, 7640502.307640589773655 ], [ 417244.795821561245248, 7640451.654641075059772 ] ] ] } },
{ "type": "Feature", "properties": { "fid": 542.0, "COMPR_M": 298.68, "CLASSE": "02 - Curta", "CD_FAZ": " 400024", "TALHOES": "1", "FAZ_tAL": "400561001, 400024001", "ID_LINHA": 175622 }, "geometry": { "type": "MultiLineString", "coordinates": [ [ [ 416951.564917912706733, 7640504.533640760928392 ], [ 417245.825318060698919, 7640453.912792672403157 ] ] ] } },
{ "type": "Feature", "properties": { "fid": 543.0, "COMPR_M": 298.49, "CLASSE": "02 - Curta", "CD_FAZ": " 400024", "TALHOES": "1", "FAZ_tAL": "400561001, 400024001", "ID_LINHA": 175623 }, "geometry": { "type": "MultiLineString", "coordinates": [ [ [ 416952.781311546859797, 7640506.75964093580842 ], [ 417246.854814559279475, 7640456.170944273471832 ] ] ] } },
{ "type": "Feature", "properties": { "fid": 544.0, "COMPR_M": 298.3, "CLASSE": "02 - Curta", "CD_FAZ": " 400024", "TALHOES": "1", "FAZ_tAL": "400561001, 400024001", "ID_LINHA": 175624 }, "geometry": { "type": "MultiLineString", "coordinates": [ [ [ 416953.997705178859178, 7640508.985641106963158 ], [ 417247.8843110591406, 7640458.42909587547183 ] ] ] } },
{ "type": "Feature", "properties": { "fid": 545.0, "COMPR_M": 298.11, "CLASSE": "02 - Curta", "CD_FAZ": " 400024", "TALHOES": "1", "FAZ_tAL": "400561001, 400024001", "ID_LINHA": 175625 }, "geometry": { "type": "MultiLineString", "coordinates": [ [ [ 416955.21409881132422, 7640511.21164127998054 ], [ 417248.913807558186818, 7640460.687247470021248 ] ] ] } },
{ "type": "Feature", "properties": { "fid": 546.0, "COMPR_M": 297.92, "CLASSE": "02 - Curta", "CD_FAZ": " 400024", "TALHOES": "1", "FAZ_tAL": "400561001, 400024001", "ID_LINHA": 175626 }, "geometry": { "type": "MultiLineString", "coordinates": [ [ [ 416956.430492444196716, 7640513.437641452997923 ], [ 417249.943304057815112, 7640462.945399070158601 ] ] ] } },
{ "type": "Feature", "properties": { "fid": 547.0, "COMPR_M": 297.73, "CLASSE": "02 - Curta", "CD_FAZ": " 400024", "TALHOES": "1", "FAZ_tAL": "400561001, 400024001", "ID_LINHA": 175627 }, "geometry": { "type": "MultiLineString", "coordinates": [ [ [ 416957.646886077476665, 7640515.663641626015306 ], [ 417250.972800557268783, 7640465.203550669364631 ] ] ] } },
{ "type": "Feature", "properties": { "fid": 548.0, "COMPR_M": 297.54, "CLASSE": "02 - Curta", "CD_FAZ": " 400024", "TALHOES": "1", "FAZ_tAL": "400561001, 400024001", "ID_LINHA": 175628 }, "geometry": { "type": "MultiLineString", "coordinates": [ [ [ 416958.8632797098835, 7640517.889641799964011 ], [ 417252.002297056664247, 7640467.461702268570662 ] ] ] } },
{ "type": "Feature", "properties": { "fid": 549.0, "COMPR_M": 297.35, "CLASSE": "02 - Curta", "CD_FAZ": " 400024", "TALHOES": "1", "FAZ_tAL": "400561001, 400024001", "ID_LINHA": 175629 }, "geometry": { "type": "MultiLineString", "coordinates": [ [ [ 416960.079673342697788, 7640520.115641972050071 ], [ 417253.031793555943295, 7640469.719853864051402 ] ] ] } },
{ "type": "Feature", "properties": { "fid": 550.0, "COMPR_M": 297.16, "CLASSE": "02 - Curta", "CD_FAZ": " 400024", "TALHOES": "1", "FAZ_tAL": "400561001, 400024001", "ID_LINHA": 175630 }, "geometry": { "type": "MultiLineString", "coordinates": [ [ [ 416961.296066976618022, 7640522.341642146930099 ], [ 417254.061290055746213, 7640471.978005464188755 ] ] ] } },
{ "type": "Feature", "properties": { "fid": 551.0, "COMPR_M": 296.97, "CLASSE": "02 - Curta", "CD_FAZ": " 400024", "TALHOES": "1", "FAZ_tAL": "400561001, 400024001", "ID_LINHA": 175631 }, "geometry": { "type": "MultiLineString", "coordinates": [ [ [ 416962.512460608384572, 7640524.567642317153513 ], [ 417255.090786554734223, 7640474.23615706525743 ] ] ] } },
{ "type": "Feature", "properties": { "fid": 552.0, "COMPR_M": 296.78, "CLASSE": "02 - Curta", "CD_FAZ": " 400024", "TALHOES": "1", "FAZ_tAL": "400561001, 400024001", "ID_LINHA": 175632 }, "geometry": { "type": "MultiLineString", "coordinates": [ [ [ 416963.728854240500368, 7640526.793642492033541 ], [ 417256.120283053664025, 7640476.494308663532138 ] ] ] } },
{ "type": "Feature", "properties": { "fid": 553.0, "COMPR_M": 296.59, "CLASSE": "02 - Curta", "CD_FAZ": " 400024", "TALHOES": "1", "FAZ_tAL": "400561001, 400024001", "ID_LINHA": 175633 }, "geometry": { "type": "MultiLineString", "coordinates": [ [ [ 416964.945247873081826, 7640529.019642664119601 ], [ 417257.149779553059489, 7640478.752460262738168 ] ] ] } },
{ "type": "Feature", "properties": { "fid": 554.0, "COMPR_M": 296.4, "CLASSE": "02 - Curta", "CD_FAZ": " 400024", "TALHOES": "1", "FAZ_tAL": "400561001, 400024001", "ID_LINHA": 175634 }, "geometry": { "type": "MultiLineString", "coordinates": [ [ [ 416966.161641508049797, 7640531.245642838999629 ], [ 417258.179276052396744, 7640481.010611860081553 ] ] ] } },
{ "type": "Feature", "properties": { "fid": 555.0, "COMPR_M": 296.21, "CLASSE": "02 - Curta", "CD_FAZ": " 400024", "TALHOES": "1", "FAZ_tAL": "400561001, 400024001", "ID_LINHA": 175635 }, "geometry": { "type": "MultiLineString", "coordinates": [ [ [ 416967.378035140165593, 7640533.471643011085689 ], [ 417259.208772551617585, 7640483.268763458356261 ] ] ] } },
{ "type": "Feature", "properties": { "fid": 556.0, "COMPR_M": 296.02, "CLASSE": "02 - Curta", "CD_FAZ": " 400024", "TALHOES": "1", "FAZ_tAL": "400561001, 400024001", "ID_LINHA": 175636 }, "geometry": { "type": "MultiLineString", "coordinates": [ [ [ 416968.594428772688843, 7640535.697643183171749 ], [ 417260.238269051362295, 7640485.526915058493614 ] ] ] } },
{ "type": "Feature", "properties": { "fid": 557.0, "COMPR_M": 295.83, "CLASSE": "02 - Curta", "CD_FAZ": " 400024", "TALHOES": "1", "FAZ_tAL": "400561001, 400024001", "ID_LINHA": 175637 }, "geometry": { "type": "MultiLineString", "coordinates": [ [ [ 416969.810822407016531, 7640537.923643356189132 ], [ 417261.267765549651813, 7640487.785066656768322 ] ] ] } },
{ "type": "Feature", "properties": { "fid": 558.0, "COMPR_M": 295.64, "CLASSE": "02 - Curta", "CD_FAZ": " 400024", "TALHOES": "1", "FAZ_tAL": "400561001, 400024001", "ID_LINHA": 175638 }, "geometry": { "type": "MultiLineString", "coordinates": [ [ [ 416971.027216039074119, 7640540.149643529206514 ], [ 417262.297262049163692, 7640490.043218253180385 ] ] ] } },
{ "type": "Feature", "properties": { "fid": 559.0, "COMPR_M": 295.45, "CLASSE": "02 - Curta", "CD_FAZ": " 400024", "TALHOES": "1", "FAZ_tAL": "400561001, 400024001", "ID_LINHA": 175639 }, "geometry": { "type": "MultiLineString", "coordinates": [ [ [ 416972.243609672877938, 7640542.375643705949187 ], [ 417263.326758548559155, 7640492.301369853317738 ] ] ] } },
{ "type": "Feature", "properties": { "fid": 560.0, "COMPR_M": 295.26, "CLASSE": "02 - Curta", "CD_FAZ": " 400024", "TALHOES": "1", "FAZ_tAL": "400561001, 400024001", "ID_LINHA": 175640 }, "geometry": { "type": "MultiLineString", "coordinates": [ [ [ 416973.460003305168357, 7640544.601643874309957 ], [ 417264.356255047139712, 7640494.559521453455091 ] ] ] } },
{ "type": "Feature", "properties": { "fid": 561.0, "COMPR_M": 295.07, "CLASSE": "02 - Curta", "CD_FAZ": " 400024", "TALHOES": "1", "FAZ_tAL": "400561001, 400024001", "ID_LINHA": 175641 }, "geometry": { "type": "MultiLineString", "coordinates": [ [ [ 416974.676396937225945, 7640546.827644048258662 ], [ 417265.385751547641121, 7640496.817673048004508 ] ] ] } },
{ "type": "Feature", "properties": { "fid": 562.0, "COMPR_M": 294.88, "CLASSE": "02 - Curta", "CD_FAZ": " 400024", "TALHOES": "1", "FAZ_tAL": "400561001, 400024001", "ID_LINHA": 175642 }, "geometry": { "type": "MultiLineString", "coordinates": [ [ [ 416975.89279057161184, 7640549.05364422313869 ], [ 417266.415248045348562, 7640499.075824650935829 ] ] ] } },
{ "type": "Feature", "properties": { "fid": 563.0, "COMPR_M": 294.69, "CLASSE": "02 - Curta", "CD_FAZ": " 400024", "TALHOES": "1", "FAZ_tAL": "400561001, 400024001", "ID_LINHA": 175643 }, "geometry": { "type": "MultiLineString", "coordinates": [ [ [ 416977.109184203844052, 7640551.279644394293427 ], [ 417267.444744545500726, 7640501.333976248279214 ] ] ] } },
{ "type": "Feature", "properties": { "fid": 564.0, "COMPR_M": 294.5, "CLASSE": "02 - Curta", "CD_FAZ": " 400024", "TALHOES": "1", "FAZ_tAL": "400561001, 400024001", "ID_LINHA": 175644 }, "geometry": { "type": "MultiLineString", "coordinates": [ [ [ 416978.325577837822493, 7640553.50564456731081 ], [ 417268.474241044255905, 7640503.592127848416567 ] ] ] } },
{ "type": "Feature", "properties": { "fid": 565.0, "COMPR_M": 294.31, "CLASSE": "02 - Curta", "CD_FAZ": " 400024", "TALHOES": "1", "FAZ_tAL": "400561001, 400024001", "ID_LINHA": 175645 }, "geometry": { "type": "MultiLineString", "coordinates": [ [ [ 416979.541971468250267, 7640555.731644740328193 ], [ 417269.503737544233445, 7640505.850279446691275 ] ] ] } },
{ "type": "Feature", "properties": { "fid": 566.0, "COMPR_M": 294.12, "CLASSE": "02 - Curta", "CD_FAZ": " 400024", "TALHOES": "1", "FAZ_tAL": "400561001, 400024001", "ID_LINHA": 175646 }, "geometry": { "type": "MultiLineString", "coordinates": [ [ [ 416980.758365103043616, 7640557.957644913345575 ], [ 417270.533234042057302, 7640508.108431044965982 ] ] ] } },
{ "type": "Feature", "properties": { "fid": 567.0, "COMPR_M": 293.93, "CLASSE": "02 - Curta", "CD_FAZ": " 400024", "TALHOES": "1", "FAZ_tAL": "400561001, 400024001", "ID_LINHA": 175647 }, "geometry": { "type": "MultiLineString", "coordinates": [ [ [ 416981.974758734984789, 7640560.183645086362958 ], [ 417271.56273054308258, 7640510.366582644172013 ] ] ] } },
{ "type": "Feature", "properties": { "fid": 568.0, "COMPR_M": 293.74, "CLASSE": "02 - Curta", "CD_FAZ": " 400024", "TALHOES": "1", "FAZ_tAL": "400561001, 400024001", "ID_LINHA": 175648 }, "geometry": { "type": "MultiLineString", "coordinates": [ [ [ 416983.191152367333416, 7640562.409645259380341 ], [ 417272.592227040673606, 7640512.624734243378043 ] ] ] } },
{ "type": "Feature", "properties": { "fid": 569.0, "COMPR_M": 293.55, "CLASSE": "02 - Curta", "CD_FAZ": " 400024", "TALHOES": "1", "FAZ_tAL": "400561001, 400024001", "ID_LINHA": 175649 }, "geometry": { "type": "MultiLineString", "coordinates": [ [ [ 416984.407545999449212, 7640564.635645432397723 ], [ 417273.621723542106338, 7640514.882885839790106 ] ] ] } },
{ "type": "Feature", "properties": { "fid": 570.0, "COMPR_M": 293.37, "CLASSE": "02 - Curta", "CD_FAZ": " 400024", "TALHOES": "1", "FAZ_tAL": "400561001, 400024001", "ID_LINHA": 175650 }, "geometry": { "type": "MultiLineString", "coordinates": [ [ [ 416985.623939633311238, 7640566.861645605415106 ], [ 417274.65122004080331, 7640517.141037439927459 ] ] ] } },
{ "type": "Feature", "properties": { "fid": 571.0, "COMPR_M": 293.18, "CLASSE": "02 - Curta", "CD_FAZ": " 400024", "TALHOES": "1", "FAZ_tAL": "400561001, 400024001", "ID_LINHA": 175651 }, "geometry": { "type": "MultiLineString", "coordinates": [ [ [ 416986.840333266241942, 7640569.087645776569843 ], [ 417275.68071654002415, 7640519.399189038202167 ] ] ] } },
{ "type": "Feature", "properties": { "fid": 572.0, "COMPR_M": 292.99, "CLASSE": "02 - Curta", "CD_FAZ": " 400024", "TALHOES": "1", "FAZ_tAL": "400561001, 400024001", "ID_LINHA": 175652 }, "geometry": { "type": "MultiLineString", "coordinates": [ [ [ 416988.056726898939814, 7640571.313645951449871 ], [ 417276.710213039070368, 7640521.65734063833952 ] ] ] } },
{ "type": "Feature", "properties": { "fid": 573.0, "COMPR_M": 292.8, "CLASSE": "02 - Curta", "CD_FAZ": " 400024", "TALHOES": "1", "FAZ_tAL": "400561001, 400024001", "ID_LINHA": 175653 }, "geometry": { "type": "MultiLineString", "coordinates": [ [ [ 416989.273120533442125, 7640573.539646124467254 ], [ 417277.739709538640454, 7640523.91549223382026 ] ] ] } },
{ "type": "Feature", "properties": { "fid": 574.0, "COMPR_M": 292.61, "CLASSE": "02 - Curta", "CD_FAZ": " 400024", "TALHOES": "1", "FAZ_tAL": "400561001, 400024001", "ID_LINHA": 175654 }, "geometry": { "type": "MultiLineString", "coordinates": [ [ [ 416990.489514165616129, 7640575.765646297484636 ], [ 417278.769206037453841, 7640526.17364383675158 ] ] ] } },
{ "type": "Feature", "properties": { "fid": 575.0, "COMPR_M": 292.42, "CLASSE": "02 - Curta", "CD_FAZ": " 400024", "TALHOES": "1", "FAZ_tAL": "400561001, 400024001", "ID_LINHA": 175655 }, "geometry": { "type": "MultiLineString", "coordinates": [ [ [ 416991.705907798255794, 7640577.991646470502019 ], [ 417279.798702537431382, 7640528.431795433163643 ] ] ] } },
{ "type": "Feature", "properties": { "fid": 576.0, "COMPR_M": 292.23, "CLASSE": "02 - Curta", "CD_FAZ": " 400024", "TALHOES": "1", "FAZ_tAL": "400561001, 400024001", "ID_LINHA": 175656 }, "geometry": { "type": "MultiLineString", "coordinates": [ [ [ 416992.922301430022344, 7640580.217646642588079 ], [ 417280.828199036011938, 7640530.689947032369673 ] ] ] } },
{ "type": "Feature", "properties": { "fid": 577.0, "COMPR_M": 292.04, "CLASSE": "02 - Curta", "CD_FAZ": " 400024", "TALHOES": "1", "FAZ_tAL": "400561001, 400024001", "ID_LINHA": 175657 }, "geometry": { "type": "MultiLineString", "coordinates": [ [ [ 416994.138695064117201, 7640582.443646814674139 ], [ 417281.857695535756648, 7640532.948098630644381 ] ] ] } },
{ "type": "Feature", "properties": { "fid": 578.0, "COMPR_M": 291.85, "CLASSE": "02 - Curta", "CD_FAZ": " 400024", "TALHOES": "1", "FAZ_tAL": "400561001, 400024001", "ID_LINHA": 175658 }, "geometry": { "type": "MultiLineString", "coordinates": [ [ [ 416995.355088696698658, 7640584.669646987691522 ], [ 417282.887192034744658, 7640535.206250229850411 ] ] ] } }
]
}
