{
"type": "FeatureCollection",
"name": " 400504",
"crs": { "type": "name", "properties": { "name": "urn:ogc:def:crs:EPSG::32722" } },
"xy_coordinate_resolution": 1e-15,
"features": [
{ "type": "Feature", "properties": { "fid": 349.0, "COMPR_M": 536.77, "CLASSE": "03 - Média", "CD_FAZ": " 400504", "TALHOES": "5", "FAZ_tAL": "400542005, 400504005", "ID_LINHA": 26562 }, "geometry": { "type": "MultiLineString", "coordinates": [ [ [ 419229.849263663636521, 7645055.870877120643854 ], [ 419160.70705079799518, 7644932.367866134271026 ], [ 419131.467971152393147, 7644877.822702143341303 ], [ 419116.500395762093831, 7644847.547089686617255 ], [ 419101.869991823739838, 7644815.365430789068341 ], [ 419088.229349497472867, 7644782.100432021543384 ], [ 419075.884023681574035, 7644748.489652620628476 ], [ 419064.828000856679864, 7644714.663928890600801 ], [ 419055.023763476056047, 7644680.670606771484017 ], [ 419046.435215675912332, 7644646.553319595754147 ], [ 419039.027997872966807, 7644612.352488418109715 ], [ 419032.769708863866981, 7644578.105782140046358 ], [ 419030.347290552221239, 7644561.959674252197146 ] ] ] } }
]
}
