{
"type": "FeatureCollection",
"name": " 400025",
"crs": { "type": "name", "properties": { "name": "urn:ogc:def:crs:EPSG::32722" } },
"xy_coordinate_resolution": 1e-15,
"features": [
{ "type": "Feature", "properties": { "fid": 2.0, "COMPR_M": 55.04, "CLASSE": "01 - Muito curta", "CD_FAZ": " 400025", "TALHOES": "2, 1", "FAZ_tAL": "400158002, 400025002, 400025001", "ID_LINHA": 169557 }, "geometry": { "type": "MultiLineString", "coordinates": [ [ [ 419311.062940065399744, 7649029.541590321809053 ], [ 419325.999559583608061, 7649005.271260092034936 ], [ 419338.970162826473825, 7648982.136294076219201 ] ] ] } },
{ "type": "Feature", "properties": { "fid": 3.0, "COMPR_M": 12.07, "CLASSE": "01 - Muito curta", "CD_FAZ": " 400025", "TALHOES": "2", "FAZ_tAL": "400158002, 400025002", "ID_LINHA": 169558 }, "geometry": { "type": "MultiLineString", "coordinates": [ [ [ 419343.708040667930618, 7649016.586564984172583 ], [ 419349.735847163479775, 7649006.134528238326311 ] ] ] } },
{ "type": "Feature", "properties": { "fid": 4.0, "COMPR_M": 18.1, "CLASSE": "01 - Muito curta", "CD_FAZ": " 400025", "TALHOES": "2", "FAZ_tAL": "400158002, 400025002", "ID_LINHA": 169559 }, "geometry": { "type": "MultiLineString", "coordinates": [ [ [ 419339.15040054207202, 7649018.395238943397999 ], [ 419348.209330066805705, 7649002.731705565936863 ] ] ] } },
{ "type": "Feature", "properties": { "fid": 5.0, "COMPR_M": 24.17, "CLASSE": "01 - Muito curta", "CD_FAZ": " 400025", "TALHOES": "2, 1", "FAZ_tAL": "400158002, 400025002, 400025001", "ID_LINHA": 169560 }, "geometry": { "type": "MultiLineString", "coordinates": [ [ [ 419334.559745373437181, 7649020.21701473928988 ], [ 419346.679154194076546, 7648999.320726964622736 ] ] ] } },
{ "type": "Feature", "properties": { "fid": 6.0, "COMPR_M": 30.26, "CLASSE": "01 - Muito curta", "CD_FAZ": " 400025", "TALHOES": "2, 1", "FAZ_tAL": "400158002, 400025002, 400025001", "ID_LINHA": 169561 }, "geometry": { "type": "MultiLineString", "coordinates": [ [ [ 419329.934580985049251, 7649022.052485318854451 ], [ 419345.145014540525153, 7648995.900912532582879 ] ] ] } },
{ "type": "Feature", "properties": { "fid": 7.0, "COMPR_M": 36.4, "CLASSE": "01 - Muito curta", "CD_FAZ": " 400025", "TALHOES": "2, 1", "FAZ_tAL": "400158002, 400025002, 400025001", "ID_LINHA": 169562 }, "geometry": { "type": "MultiLineString", "coordinates": [ [ [ 419325.273982821730897, 7649023.902017597109079 ], [ 419343.607313310611062, 7648992.47315884847194 ] ] ] } },
{ "type": "Feature", "properties": { "fid": 8.0, "COMPR_M": 42.57, "CLASSE": "01 - Muito curta", "CD_FAZ": " 400025", "TALHOES": "2, 1", "FAZ_tAL": "400158002, 400025002, 400025001", "ID_LINHA": 169563 }, "geometry": { "type": "MultiLineString", "coordinates": [ [ [ 419320.575825589010492, 7649025.766454981639981 ], [ 419332.520285803941078, 7649006.005276579409838 ], [ 419342.065765669802204, 7648989.036830965429544 ] ] ] } },
{ "type": "Feature", "properties": { "fid": 9.0, "COMPR_M": 48.79, "CLASSE": "01 - Muito curta", "CD_FAZ": " 400025", "TALHOES": "2, 1", "FAZ_tAL": "400158002, 400025002, 400025001", "ID_LINHA": 169564 }, "geometry": { "type": "MultiLineString", "coordinates": [ [ [ 419315.839261207147501, 7649027.646134031936526 ], [ 419329.010601669375319, 7649006.066642140038311 ], [ 419340.519863598630764, 7648985.590796439908445 ] ] ] } },
{ "type": "Feature", "properties": { "fid": 10.0, "COMPR_M": 61.34, "CLASSE": "01 - Muito curta", "CD_FAZ": " 400025", "TALHOES": "2, 1", "FAZ_tAL": "400158002, 400025002, 400025001", "ID_LINHA": 169565 }, "geometry": { "type": "MultiLineString", "coordinates": [ [ [ 419306.245138411351945, 7649031.453507930040359 ], [ 419322.977401062322315, 7649004.492567379958928 ], [ 419337.416363889642525, 7648978.67265631724149 ] ] ] } },
{ "type": "Feature", "properties": { "fid": 11.0, "COMPR_M": 67.68, "CLASSE": "01 - Muito curta", "CD_FAZ": " 400025", "TALHOES": "2, 1", "FAZ_tAL": "400158002, 400025002, 400025001", "ID_LINHA": 169566 }, "geometry": { "type": "MultiLineString", "coordinates": [ [ [ 419301.384326969448011, 7649033.382493725046515 ], [ 419319.944382800720632, 7649003.730680257081985 ], [ 419335.858202956966124, 7648975.199295056983829 ] ] ] } },
{ "type": "Feature", "properties": { "fid": 12.0, "COMPR_M": 74.06, "CLASSE": "01 - Muito curta", "CD_FAZ": " 400025", "TALHOES": "2, 1", "FAZ_tAL": "400158002, 400025002, 400025001", "ID_LINHA": 169567 }, "geometry": { "type": "MultiLineString", "coordinates": [ [ [ 419296.478589232778177, 7649035.329308274202049 ], [ 419316.617336144961882, 7649003.461892906576395 ], [ 419334.295876736287028, 7648971.716648782603443 ] ] ] } },
{ "type": "Feature", "properties": { "fid": 13.0, "COMPR_M": 80.5, "CLASSE": "01 - Muito curta", "CD_FAZ": " 400025", "TALHOES": "2, 1", "FAZ_tAL": "400158002, 400025002, 400025001", "ID_LINHA": 169568 }, "geometry": { "type": "MultiLineString", "coordinates": [ [ [ 419291.526298091514036, 7649037.294597273692489 ], [ 419302.736734660400543, 7649020.29568381421268 ], [ 419313.534699454205111, 7649002.77725619263947 ], [ 419332.729033402283676, 7648968.223933219909668 ] ] ] } },
{ "type": "Feature", "properties": { "fid": 14.0, "COMPR_M": 86.98, "CLASSE": "01 - Muito curta", "CD_FAZ": " 400025", "TALHOES": "2, 1", "FAZ_tAL": "400158002, 400025002, 400025001", "ID_LINHA": 169569 }, "geometry": { "type": "MultiLineString", "coordinates": [ [ [ 419286.525322269182652, 7649039.279206518083811 ], [ 419298.637956626014784, 7649021.131157223135233 ], [ 419310.27544884593226, 7649002.384526821784675 ], [ 419321.412868953193538, 7648983.022862273268402 ], [ 419331.157707068836316, 7648964.721224415116012 ] ] ] } },
{ "type": "Feature", "properties": { "fid": 15.0, "COMPR_M": 93.52, "CLASSE": "01 - Muito curta", "CD_FAZ": " 400025", "TALHOES": "2, 1", "FAZ_tAL": "400158002, 400025002, 400025001", "ID_LINHA": 169570 }, "geometry": { "type": "MultiLineString", "coordinates": [ [ [ 419281.473658701230306, 7649041.283930914476514 ], [ 419294.58774505124893, 7649021.868360750377178 ], [ 419307.152544963988476, 7649001.759997081011534 ], [ 419319.136821037624031, 7648980.93828652985394 ], [ 419329.581803050416056, 7648961.208311304450035 ] ] ] } },
{ "type": "Feature", "properties": { "fid": 16.0, "COMPR_M": 100.11, "CLASSE": "02 - Curta", "CD_FAZ": " 400025", "TALHOES": "2, 1", "FAZ_tAL": "400158002, 400025002, 400025001", "ID_LINHA": 169571 }, "geometry": { "type": "MultiLineString", "coordinates": [ [ [ 419276.369081384676974, 7649043.309653835371137 ], [ 419290.506763270881493, 7649022.630518425256014 ], [ 419304.014626262476668, 7649001.15660001616925 ], [ 419316.855656105617527, 7648978.862109320238233 ], [ 419328.001079233945347, 7648957.684654179960489 ] ] ] } },
{ "type": "Feature", "properties": { "fid": 17.0, "COMPR_M": 106.76, "CLASSE": "02 - Curta", "CD_FAZ": " 400025", "TALHOES": "2, 1", "FAZ_tAL": "400158002, 400025002, 400025001", "ID_LINHA": 169572 }, "geometry": { "type": "MultiLineString", "coordinates": [ [ [ 419271.209067321731709, 7649045.357376517727971 ], [ 419286.394099139550235, 7649023.41790412273258 ], [ 419300.861837397678755, 7649000.574666962958872 ], [ 419314.56821592443157, 7648976.795177605003119 ], [ 419326.415485876961611, 7648954.150142164900899 ] ] ] } },
{ "type": "Feature", "properties": { "fid": 18.0, "COMPR_M": 113.47, "CLASSE": "02 - Curta", "CD_FAZ": " 400025", "TALHOES": "2, 1", "FAZ_tAL": "400158002, 400025002, 400025001", "ID_LINHA": 169573 }, "geometry": { "type": "MultiLineString", "coordinates": [ [ [ 419265.991051745600998, 7649047.428116774186492 ], [ 419282.138502027664799, 7649024.395198008976877 ], [ 419297.48252528544981, 7649000.361384212970734 ], [ 419311.976760189747438, 7648975.281727563589811 ], [ 419324.824914314667694, 7648950.604533023200929 ] ] ] } },
{ "type": "Feature", "properties": { "fid": 19.0, "COMPR_M": 120.25, "CLASSE": "02 - Curta", "CD_FAZ": " 400025", "TALHOES": "2, 1", "FAZ_tAL": "400158002, 400025002, 400025001", "ID_LINHA": 169574 }, "geometry": { "type": "MultiLineString", "coordinates": [ [ [ 419260.712359491735697, 7649049.522936230525374 ], [ 419277.955554812564515, 7649025.237666228786111 ], [ 419294.286912228097208, 7648999.840365601703525 ], [ 419309.660820259072352, 7648973.265062994323671 ], [ 419323.229308103502262, 7648947.047700935974717 ] ] ] } },
{ "type": "Feature", "properties": { "fid": 20.0, "COMPR_M": 127.09, "CLASSE": "02 - Curta", "CD_FAZ": " 400025", "TALHOES": "2, 1", "FAZ_tAL": "400158002, 400025002, 400025001", "ID_LINHA": 169575 }, "geometry": { "type": "MultiLineString", "coordinates": [ [ [ 419255.369604425912257, 7649051.643178654834628 ], [ 419273.789282241486944, 7649026.030670886859298 ], [ 419291.170307237538509, 7648999.186058007180691 ], [ 419307.472014283121098, 7648971.01397324539721 ], [ 419321.628454559890088, 7648943.479171806015074 ] ] ] } },
{ "type": "Feature", "properties": { "fid": 21.0, "COMPR_M": 134.0, "CLASSE": "02 - Curta", "CD_FAZ": " 400025", "TALHOES": "2, 1", "FAZ_tAL": "400158002, 400025002, 400025001", "ID_LINHA": 169576 }, "geometry": { "type": "MultiLineString", "coordinates": [ [ [ 419249.959784484351985, 7649053.790035400539637 ], [ 419269.486935305350926, 7649026.996305454522371 ], [ 419287.846934012195561, 7648998.864234698936343 ], [ 419305.011052790097892, 7648969.260426926426589 ], [ 419320.0222450067522, 7648939.898703364655375 ] ] ] } },
{ "type": "Feature", "properties": { "fid": 22.0, "COMPR_M": 140.98, "CLASSE": "02 - Curta", "CD_FAZ": " 400025", "TALHOES": "2, 1", "FAZ_tAL": "400158002, 400025001", "ID_LINHA": 169577 }, "geometry": { "type": "MultiLineString", "coordinates": [ [ [ 419244.479609667905606, 7649055.964812085032463 ], [ 419265.196971641853452, 7649027.915859201923013 ], [ 419284.600881500460673, 7648998.411256797611713 ], [ 419302.676161275594495, 7648967.273845628835261 ], [ 419318.410549059743062, 7648936.306004980579019 ] ] ] } },
{ "type": "Feature", "properties": { "fid": 23.0, "COMPR_M": 148.04, "CLASSE": "02 - Curta", "CD_FAZ": " 400025", "TALHOES": "2, 1", "FAZ_tAL": "400158002, 400025001", "ID_LINHA": 169578 }, "geometry": { "type": "MultiLineString", "coordinates": [ [ [ 419238.924565603199881, 7649058.169300208799541 ], [ 419260.867607525724452, 7649028.863630062900484 ], [ 419281.335717344656587, 7648997.983661876991391 ], [ 419300.334799671138171, 7648965.298505960032344 ], [ 419316.793195474136155, 7648932.700694916769862 ] ] ] } },
{ "type": "Feature", "properties": { "fid": 24.0, "COMPR_M": 155.19, "CLASSE": "02 - Curta", "CD_FAZ": " 400025", "TALHOES": "2, 1", "FAZ_tAL": "400158002, 400025001", "ID_LINHA": 169579 }, "geometry": { "type": "MultiLineString", "coordinates": [ [ [ 419233.29049386177212, 7649060.405150024220347 ], [ 419256.559469296305906, 7649029.75327720399946 ], [ 419278.167505266261287, 7648997.395310863852501 ], [ 419289.036692815483548, 7648979.325724666938186 ], [ 419298.147694854880683, 7648963.036699369549751 ], [ 419315.170178575208411, 7648929.082760527729988 ] ] ] } },
{ "type": "Feature", "properties": { "fid": 25.0, "COMPR_M": 162.42, "CLASSE": "02 - Curta", "CD_FAZ": " 400025", "TALHOES": "2, 1", "FAZ_tAL": "400158002, 400025001", "ID_LINHA": 169580 }, "geometry": { "type": "MultiLineString", "coordinates": [ [ [ 419227.573001990676858, 7649062.67410465143621 ], [ 419240.073575813090429, 7649046.960972799919546 ], [ 419252.079833389027044, 7649030.852438622154295 ], [ 419263.623613972798921, 7649014.297207160852849 ], [ 419274.743444765510503, 7648997.210620667785406 ], [ 419285.42010825057514, 7648979.577942779287696 ], [ 419295.629989659879357, 7648961.38548419624567 ], [ 419305.34504480677424, 7648942.620846297591925 ], [ 419313.54108890122734, 7648925.451289057731628 ] ] ] } },
{ "type": "Feature", "properties": { "fid": 1301.0, "COMPR_M": 17.21, "CLASSE": "01 - Muito curta", "CD_FAZ": " 400025", "TALHOES": "2", "FAZ_tAL": "400158002, 400025002", "ID_LINHA": 170820 }, "geometry": { "type": "MultiLineString", "coordinates": [ [ [ 419356.601732641342096, 7649021.439558764919639 ], [ 419341.531562971591484, 7649013.141867507249117 ] ] ] } },
{ "type": "Feature", "properties": { "fid": 1302.0, "COMPR_M": 23.8, "CLASSE": "01 - Muito curta", "CD_FAZ": " 400025", "TALHOES": "2", "FAZ_tAL": "400158002, 400025002", "ID_LINHA": 170821 }, "geometry": { "type": "MultiLineString", "coordinates": [ [ [ 419358.686342786473688, 7649026.086449835449457 ], [ 419337.854881450766698, 7649014.59783224388957 ] ] ] } },
{ "type": "Feature", "properties": { "fid": 1303.0, "COMPR_M": 30.39, "CLASSE": "01 - Muito curta", "CD_FAZ": " 400025", "TALHOES": "2", "FAZ_tAL": "400158002, 400025002", "ID_LINHA": 170822 }, "geometry": { "type": "MultiLineString", "coordinates": [ [ [ 419360.770952930790372, 7649030.733340906910598 ], [ 419334.178199931920972, 7649016.053796976804733 ] ] ] } },
{ "type": "Feature", "properties": { "fid": 1304.0, "COMPR_M": 36.98, "CLASSE": "01 - Muito curta", "CD_FAZ": " 400025", "TALHOES": "2", "FAZ_tAL": "400158002, 400025002", "ID_LINHA": 170823 }, "geometry": { "type": "MultiLineString", "coordinates": [ [ [ 419362.855563076911494, 7649035.380231974646449 ], [ 419344.119517379498575, 7649024.671655178070068 ], [ 419330.501518412434962, 7649017.509761711582541 ] ] ] } },
{ "type": "Feature", "properties": { "fid": 1305.0, "COMPR_M": 43.57, "CLASSE": "01 - Muito curta", "CD_FAZ": " 400025", "TALHOES": "2", "FAZ_tAL": "400158002, 400025002", "ID_LINHA": 170824 }, "geometry": { "type": "MultiLineString", "coordinates": [ [ [ 419364.940173222799785, 7649040.027123045176268 ], [ 419342.676544864021707, 7649027.302358282729983 ], [ 419326.824836893007159, 7649018.96572644636035 ] ] ] } },
{ "type": "Feature", "properties": { "fid": 1306.0, "COMPR_M": 50.16, "CLASSE": "01 - Muito curta", "CD_FAZ": " 400025", "TALHOES": "2", "FAZ_tAL": "400158002, 400025002", "ID_LINHA": 170825 }, "geometry": { "type": "MultiLineString", "coordinates": [ [ [ 419367.024783367873169, 7649044.674014114774764 ], [ 419341.23357234953437, 7649029.933061387389898 ], [ 419323.148155373637564, 7649020.421691181138158 ] ] ] } },
{ "type": "Feature", "properties": { "fid": 1307.0, "COMPR_M": 56.75, "CLASSE": "01 - Muito curta", "CD_FAZ": " 400025", "TALHOES": "2", "FAZ_tAL": "400158002, 400025002", "ID_LINHA": 170826 }, "geometry": { "type": "MultiLineString", "coordinates": [ [ [ 419369.109393513994291, 7649049.320905186235905 ], [ 419339.790599833475426, 7649032.563764493912458 ], [ 419319.471473852987401, 7649021.877655914053321 ] ] ] } },
{ "type": "Feature", "properties": { "fid": 1308.0, "COMPR_M": 63.33, "CLASSE": "01 - Muito curta", "CD_FAZ": " 400025", "TALHOES": "2", "FAZ_tAL": "400158002, 400025002", "ID_LINHA": 170827 }, "geometry": { "type": "MultiLineString", "coordinates": [ [ [ 419371.194003658019938, 7649053.967796253971756 ], [ 419338.347627319162712, 7649035.194467600435019 ], [ 419315.794792333617806, 7649023.333620648831129 ] ] ] } },
{ "type": "Feature", "properties": { "fid": 1309.0, "COMPR_M": 70.03, "CLASSE": "01 - Muito curta", "CD_FAZ": " 400025", "TALHOES": "2", "FAZ_tAL": "400158002, 400025002", "ID_LINHA": 170828 }, "geometry": { "type": "MultiLineString", "coordinates": [ [ [ 419373.33291774825193, 7649058.735738502815366 ], [ 419336.904654803918675, 7649037.825170706957579 ], [ 419312.118110814306419, 7649024.789585383608937 ] ] ] } },
{ "type": "Feature", "properties": { "fid": 1310.0, "COMPR_M": 76.81, "CLASSE": "01 - Muito curta", "CD_FAZ": " 400025", "TALHOES": "2", "FAZ_tAL": "400158002, 400025002", "ID_LINHA": 170829 }, "geometry": { "type": "MultiLineString", "coordinates": [ [ [ 419375.513910122390371, 7649063.597479201853275 ], [ 419335.461682289023884, 7649040.455873812548816 ], [ 419308.441429294354748, 7649026.245550121180713 ] ] ] } },
{ "type": "Feature", "properties": { "fid": 1311.0, "COMPR_M": 83.6, "CLASSE": "01 - Muito curta", "CD_FAZ": " 400025", "TALHOES": "2", "FAZ_tAL": "400158002, 400025002", "ID_LINHA": 170830 }, "geometry": { "type": "MultiLineString", "coordinates": [ [ [ 419377.69490249408409, 7649068.45921989902854 ], [ 419334.018709773896262, 7649043.086576919071376 ], [ 419304.764747774403077, 7649027.701514854095876 ] ] ] } },
{ "type": "Feature", "properties": { "fid": 1312.0, "COMPR_M": 90.38, "CLASSE": "01 - Muito curta", "CD_FAZ": " 400025", "TALHOES": "2", "FAZ_tAL": "400158002, 400025002", "ID_LINHA": 170831 }, "geometry": { "type": "MultiLineString", "coordinates": [ [ [ 419379.875894867465831, 7649073.320960596203804 ], [ 419366.651586456457153, 7649065.193313226103783 ], [ 419332.575737258477602, 7649045.717280023731291 ], [ 419301.088066255208105, 7649029.157479587942362 ] ] ] } },
{ "type": "Feature", "properties": { "fid": 1313.0, "COMPR_M": 97.16, "CLASSE": "01 - Muito curta", "CD_FAZ": " 400025", "TALHOES": "2", "FAZ_tAL": "400158002, 400025002", "ID_LINHA": 170832 }, "geometry": { "type": "MultiLineString", "coordinates": [ [ [ 419382.056887240381911, 7649078.182701295241714 ], [ 419365.121453549771104, 7649067.774199860170484 ], [ 419331.132764743466396, 7649048.347983129322529 ], [ 419297.411384735372849, 7649030.61344432272017 ] ] ] } },
{ "type": "Feature", "properties": { "fid": 1314.0, "COMPR_M": 103.94, "CLASSE": "02 - Curta", "CD_FAZ": " 400025", "TALHOES": "2", "FAZ_tAL": "400158002, 400025002", "ID_LINHA": 170833 }, "geometry": { "type": "MultiLineString", "coordinates": [ [ [ 419384.237879613530822, 7649083.044441992416978 ], [ 419363.591320647276007, 7649070.355086489580572 ], [ 419329.689792227465659, 7649050.978686235845089 ], [ 419293.734703214839101, 7649032.069409057497978 ] ] ] } },
{ "type": "Feature", "properties": { "fid": 1315.0, "COMPR_M": 110.79, "CLASSE": "02 - Curta", "CD_FAZ": " 400025", "TALHOES": "2", "FAZ_tAL": "400158002, 400025002", "ID_LINHA": 170834 }, "geometry": { "type": "MultiLineString", "coordinates": [ [ [ 419386.418871987727471, 7649087.906182687729597 ], [ 419362.061187740298919, 7649072.93597312271595 ], [ 419328.246819713967852, 7649053.609389341436327 ], [ 419289.964852579054423, 7649033.562268733046949 ] ] ] } },
{ "type": "Feature", "properties": { "fid": 1316.0, "COMPR_M": 117.66, "CLASSE": "02 - Curta", "CD_FAZ": " 400025", "TALHOES": "2", "FAZ_tAL": "400158002, 400025002", "ID_LINHA": 170835 }, "geometry": { "type": "MultiLineString", "coordinates": [ [ [ 419388.59986436140025, 7649092.767923388630152 ], [ 419360.531054836814292, 7649075.516859754920006 ], [ 419326.803847198141739, 7649056.240092448890209 ], [ 419286.159974890062585, 7649035.068999112583697 ] ] ] } },
{ "type": "Feature", "properties": { "fid": 1317.0, "COMPR_M": 124.57, "CLASSE": "02 - Curta", "CD_FAZ": " 400025", "TALHOES": "2", "FAZ_tAL": "400158002, 400025002", "ID_LINHA": 170836 }, "geometry": { "type": "MultiLineString", "coordinates": [ [ [ 419390.797548439528327, 7649097.666872260160744 ], [ 419359.000921931583434, 7649078.097746388986707 ], [ 419325.360874682082795, 7649058.870795553550124 ], [ 419282.355097202816978, 7649036.575729487463832 ] ] ] } },
{ "type": "Feature", "properties": { "fid": 1318.0, "COMPR_M": 131.64, "CLASSE": "02 - Curta", "CD_FAZ": " 400025", "TALHOES": "2", "FAZ_tAL": "400158002, 400025002", "ID_LINHA": 170837 }, "geometry": { "type": "MultiLineString", "coordinates": [ [ [ 419393.075493651733268, 7649102.74473455734551 ], [ 419357.470789027167484, 7649080.678633019328117 ], [ 419323.917902167129796, 7649061.501498660072684 ], [ 419287.715982805122621, 7649042.462409995496273 ], [ 419278.550219514116179, 7649038.082459864206612 ] ] ] } },
{ "type": "Feature", "properties": { "fid": 1319.0, "COMPR_M": 138.71, "CLASSE": "02 - Curta", "CD_FAZ": " 400025", "TALHOES": "2", "FAZ_tAL": "400158002, 400025002", "ID_LINHA": 170838 }, "geometry": { "type": "MultiLineString", "coordinates": [ [ [ 419395.353438864112832, 7649107.822596855461597 ], [ 419355.940656121005304, 7649083.259519651532173 ], [ 419322.474929652526043, 7649064.132201764732599 ], [ 419286.37054412328871, 7649045.144407488405704 ], [ 419274.745341825764626, 7649039.589190240949392 ] ] ] } },
{ "type": "Feature", "properties": { "fid": 1320.0, "COMPR_M": 145.78, "CLASSE": "02 - Curta", "CD_FAZ": " 400025", "TALHOES": "2", "FAZ_tAL": "400158002, 400025002", "ID_LINHA": 170839 }, "geometry": { "type": "MultiLineString", "coordinates": [ [ [ 419397.631384075211827, 7649112.900459152646363 ], [ 419385.305999899632297, 7649104.828736864030361 ], [ 419354.410523217578884, 7649085.840406283736229 ], [ 419321.03195713768946, 7649066.762904870323837 ], [ 419285.025105441629421, 7649047.826404984109104 ], [ 419270.940464137936942, 7649041.09592062048614 ] ] ] } },
{ "type": "Feature", "properties": { "fid": 1321.0, "COMPR_M": 152.85, "CLASSE": "02 - Curta", "CD_FAZ": " 400025", "TALHOES": "2", "FAZ_tAL": "400158002, 400025002", "ID_LINHA": 170840 }, "geometry": { "type": "MultiLineString", "coordinates": [ [ [ 419399.909329287125729, 7649117.978321451693773 ], [ 419383.698462676955387, 7649107.36205087415874 ], [ 419352.88039031176595, 7649088.421292915940285 ], [ 419319.588984621921554, 7649069.393607977777719 ], [ 419283.67966675828211, 7649050.508402476087213 ], [ 419267.135586451855488, 7649042.602650995366275 ] ] ] } },
{ "type": "Feature", "properties": { "fid": 1322.0, "COMPR_M": 159.92, "CLASSE": "02 - Curta", "CD_FAZ": " 400025", "TALHOES": "2", "FAZ_tAL": "400158002, 400025002", "ID_LINHA": 170841 }, "geometry": { "type": "MultiLineString", "coordinates": [ [ [ 419402.187274499097839, 7649123.056183748878539 ], [ 419382.090925456723198, 7649109.895364888943732 ], [ 419351.350257406826131, 7649091.002179548144341 ], [ 419318.146012107259594, 7649072.024311081506312 ], [ 419282.334228074585553, 7649053.190399968996644 ], [ 419263.330708764202427, 7649044.109381372109056 ] ] ] } },
{ "type": "Feature", "properties": { "fid": 1323.0, "COMPR_M": 167.0, "CLASSE": "02 - Curta", "CD_FAZ": " 400025", "TALHOES": "2", "FAZ_tAL": "400158002, 400025002", "ID_LINHA": 170842 }, "geometry": { "type": "MultiLineString", "coordinates": [ [ [ 419404.465219710487872, 7649128.134046046063304 ], [ 419380.483388235559687, 7649112.428678901866078 ], [ 419349.820124502643012, 7649093.583066178485751 ], [ 419316.703039591608103, 7649074.655014189891517 ], [ 419280.988789393741172, 7649055.872397463768721 ], [ 419259.525831075035967, 7649045.616111749783158 ] ] ] } },
{ "type": "Feature", "properties": { "fid": 1324.0, "COMPR_M": 174.07, "CLASSE": "02 - Curta", "CD_FAZ": " 400025", "TALHOES": "2", "FAZ_tAL": "400158002, 400025002", "ID_LINHA": 170843 }, "geometry": { "type": "MultiLineString", "coordinates": [ [ [ 419406.743164921994321, 7649133.211908344179392 ], [ 419378.875851014745422, 7649114.961992913857102 ], [ 419348.289991598110646, 7649096.163952813483775 ], [ 419315.260067077062558, 7649077.28571729362011 ], [ 419279.643350711208768, 7649058.554394958540797 ], [ 419255.720953388896305, 7649047.122842130251229 ] ] ] } },
{ "type": "Feature", "properties": { "fid": 1325.0, "COMPR_M": 181.32, "CLASSE": "02 - Curta", "CD_FAZ": " 400025", "TALHOES": "2", "FAZ_tAL": "400158002, 400025002", "ID_LINHA": 170844 }, "geometry": { "type": "MultiLineString", "coordinates": [ [ [ 419409.106988279498182, 7649138.481205182150006 ], [ 419377.268313793058041, 7649117.495306926779449 ], [ 419346.759858693054412, 7649098.744839442893863 ], [ 419313.817094561643898, 7649079.916420398280025 ], [ 419278.297912028967403, 7649061.236392449587584 ], [ 419251.916075701301452, 7649048.629572504200041 ] ] ] } },
{ "type": "Feature", "properties": { "fid": 1326.0, "COMPR_M": 188.59, "CLASSE": "02 - Curta", "CD_FAZ": " 400025", "TALHOES": "2", "FAZ_tAL": "400158002, 400025002", "ID_LINHA": 170845 }, "geometry": { "type": "MultiLineString", "coordinates": [ [ [ 419411.480988605646417, 7649143.7731879260391 ], [ 419375.660776571079623, 7649120.028620941564441 ], [ 419345.2297257881728, 7649101.325726075097919 ], [ 419312.374122047214769, 7649082.54712350666523 ], [ 419276.952473346376792, 7649063.918389943428338 ], [ 419248.111198012717068, 7649050.136302881874144 ] ] ] } },
{ "type": "Feature", "properties": { "fid": 1327.0, "COMPR_M": 195.86, "CLASSE": "02 - Curta", "CD_FAZ": " 400025", "TALHOES": "2", "FAZ_tAL": "400158002, 400025002", "ID_LINHA": 170846 }, "geometry": { "type": "MultiLineString", "coordinates": [ [ [ 419413.85498893057229, 7649149.065170666202903 ], [ 419374.05323935020715, 7649122.561934953555465 ], [ 419343.699592883524019, 7649103.906612708233297 ], [ 419310.93114953127224, 7649085.177826611325145 ], [ 419275.607034663378727, 7649066.600387437269092 ], [ 419244.306320326635614, 7649051.643033258616924 ] ] ] } },
{ "type": "Feature", "properties": { "fid": 1328.0, "COMPR_M": 203.13, "CLASSE": "02 - Curta", "CD_FAZ": " 400025", "TALHOES": "2", "FAZ_tAL": "400158002, 400025002", "ID_LINHA": 170847 }, "geometry": { "type": "MultiLineString", "coordinates": [ [ [ 419416.228989256895147, 7649154.357153408229351 ], [ 419400.458821152104065, 7649143.440650130622089 ], [ 419372.445702129683923, 7649125.095248967409134 ], [ 419342.169459978409577, 7649106.487499341368675 ], [ 419309.488177015678957, 7649087.808529717847705 ], [ 419274.261595981311984, 7649069.282384932041168 ], [ 419240.501442638284061, 7649053.149763636291027 ] ] ] } },
{ "type": "Feature", "properties": { "fid": 1329.0, "COMPR_M": 210.4, "CLASSE": "02 - Curta", "CD_FAZ": " 400025", "TALHOES": "2", "FAZ_tAL": "400158002, 400025002", "ID_LINHA": 170848 }, "geometry": { "type": "MultiLineString", "coordinates": [ [ [ 419418.60298958257772, 7649159.649136153049767 ], [ 419398.783010838436894, 7649145.929253049194813 ], [ 419370.838164908229373, 7649127.628562978468835 ], [ 419340.639327072189189, 7649109.068385973572731 ], [ 419308.04520450119162, 7649090.439232824370265 ], [ 419272.91615729953628, 7649071.9643824249506 ], [ 419236.696564950398169, 7649054.656494014896452 ] ] ] } },
{ "type": "Feature", "properties": { "fid": 1330.0, "COMPR_M": 217.71, "CLASSE": "02 - Curta", "CD_FAZ": " 400025", "TALHOES": "2", "FAZ_tAL": "400158002, 400025002", "ID_LINHA": 170849 }, "geometry": { "type": "MultiLineString", "coordinates": [ [ [ 419420.976989907037932, 7649164.941118892282248 ], [ 419397.107200524711516, 7649148.417855964042246 ], [ 419369.230627687298693, 7649130.161876990459859 ], [ 419339.109194168122485, 7649111.649272604845464 ], [ 419306.602231985831168, 7649093.069935927167535 ], [ 419271.570718616712838, 7649074.646379916928709 ], [ 419232.830882134381682, 7649056.187303202226758 ] ] ] } },
{ "type": "Feature", "properties": { "fid": 1331.0, "COMPR_M": 225.21, "CLASSE": "02 - Curta", "CD_FAZ": " 400025", "TALHOES": "2, 1", "FAZ_tAL": "400158002, 400025002, 400025001", "ID_LINHA": 170850 }, "geometry": { "type": "MultiLineString", "coordinates": [ [ [ 419423.400962096173316, 7649170.344495989382267 ], [ 419395.431390212092083, 7649150.90645888261497 ], [ 419367.62309046467999, 7649132.695191003382206 ], [ 419337.57906126359012, 7649114.230159236118197 ], [ 419305.159259470819961, 7649095.70063903555274 ], [ 419270.225279933481943, 7649077.328377410769463 ], [ 419228.869123454904184, 7649057.756158404052258 ] ] ] } },
{ "type": "Feature", "properties": { "fid": 1332.0, "COMPR_M": 232.79, "CLASSE": "02 - Curta", "CD_FAZ": " 400025", "TALHOES": "2, 1", "FAZ_tAL": "400158002, 400025002, 400025001", "ID_LINHA": 170851 }, "geometry": { "type": "MultiLineString", "coordinates": [ [ [ 419425.868897468200885, 7649175.845873245969415 ], [ 419393.755579898017459, 7649153.395061798393726 ], [ 419366.015553244389594, 7649135.228505020961165 ], [ 419336.048928359232377, 7649116.811045869253576 ], [ 419303.716286955634132, 7649098.331342140212655 ], [ 419268.879841251240578, 7649080.010374906472862 ], [ 419224.907364775601309, 7649059.325013604946434 ] ] ] } },
{ "type": "Feature", "properties": { "fid": 1333.0, "COMPR_M": 240.38, "CLASSE": "02 - Curta", "CD_FAZ": " 400025", "TALHOES": "2, 1", "FAZ_tAL": "400158002, 400025002, 400025001", "ID_LINHA": 170852 }, "geometry": { "type": "MultiLineString", "coordinates": [ [ [ 419428.336832839821, 7649181.347250502556562 ], [ 419392.079769584350288, 7649155.883664715103805 ], [ 419364.40801602328429, 7649137.761819030158222 ], [ 419334.518795453768689, 7649119.391932501457632 ], [ 419302.273314440157264, 7649100.962045246735215 ], [ 419267.534402569232043, 7649082.692372398450971 ], [ 419230.176081312121823, 7649064.840331180021167 ], [ 419220.945606095367111, 7649060.893868804909289 ] ] ] } },
{ "type": "Feature", "properties": { "fid": 1334.0, "COMPR_M": 247.97, "CLASSE": "02 - Curta", "CD_FAZ": " 400025", "TALHOES": "2, 1", "FAZ_tAL": "400158002, 400025002, 400025001", "ID_LINHA": 170853 }, "geometry": { "type": "MultiLineString", "coordinates": [ [ [ 419430.804768211848568, 7649186.848627757281065 ], [ 419390.40395927184727, 7649158.372267630882561 ], [ 419362.800478801247664, 7649140.295133044943213 ], [ 419332.988662549178116, 7649121.972819132730365 ], [ 419300.830341925728135, 7649103.592748354189098 ], [ 419266.188963886874262, 7649085.374369895085692 ], [ 419228.939115698507521, 7649067.574163595214486 ], [ 419216.983847414026968, 7649062.462724007666111 ] ] ] } },
{ "type": "Feature", "properties": { "fid": 1335.0, "COMPR_M": 255.55, "CLASSE": "02 - Curta", "CD_FAZ": " 400025", "TALHOES": "2, 1", "FAZ_tAL": "400158002, 400025002, 400025001", "ID_LINHA": 170854 }, "geometry": { "type": "MultiLineString", "coordinates": [ [ [ 419433.272703583410475, 7649192.350005012005568 ], [ 419414.222027605981566, 7649178.508368529379368 ], [ 419388.728148957248777, 7649160.860870549455285 ], [ 419361.192941581597552, 7649142.828447056002915 ], [ 419331.458529644820374, 7649124.553705764003098 ], [ 419299.38736941042589, 7649106.223451458849013 ], [ 419264.84352520480752, 7649088.056367385201156 ], [ 419227.702150087163318, 7649070.307996014133096 ], [ 419213.022088734374847, 7649064.031579209491611 ] ] ] } },
{ "type": "Feature", "properties": { "fid": 1336.0, "COMPR_M": 263.14, "CLASSE": "02 - Curta", "CD_FAZ": " 400025", "TALHOES": "2, 1", "FAZ_tAL": "400158002, 400025002, 400025001", "ID_LINHA": 170855 }, "geometry": { "type": "MultiLineString", "coordinates": [ [ [ 419435.740638955961913, 7649197.85138227045536 ], [ 419412.486356007750146, 7649180.955533973872662 ], [ 419387.052338645095006, 7649163.349473463371396 ], [ 419359.585404359735548, 7649145.361761070787907 ], [ 419329.928396739938762, 7649127.134592399001122 ], [ 419297.944396894890815, 7649108.85415456444025 ], [ 419263.498086521751247, 7649090.73836487904191 ], [ 419226.465184474305715, 7649073.04182843118906 ], [ 419209.060330055712257, 7649065.60043441131711 ] ] ] } },
{ "type": "Feature", "properties": { "fid": 1337.0, "COMPR_M": 270.9, "CLASSE": "02 - Curta", "CD_FAZ": " 400025", "TALHOES": "2, 1", "FAZ_tAL": "400158002, 400025002, 400025001", "ID_LINHA": 170856 }, "geometry": { "type": "MultiLineString", "coordinates": [ [ [ 419438.292053169221617, 7649203.538845676928759 ], [ 419410.750684410100803, 7649183.402699418365955 ], [ 419385.376528330787551, 7649165.838076380081475 ], [ 419357.977867138222791, 7649147.895075082778931 ], [ 419328.398263834649697, 7649129.715479029342532 ], [ 419296.501424379763193, 7649111.484857669100165 ], [ 419262.152647840208374, 7649093.420362371951342 ], [ 419225.228218861739151, 7649075.775660848245025 ], [ 419205.09857137594372, 7649067.169289610348642 ] ] ] } },
{ "type": "Feature", "properties": { "fid": 1338.0, "COMPR_M": 278.68, "CLASSE": "02 - Curta", "CD_FAZ": " 400025", "TALHOES": "2", "FAZ_tAL": "400158002, 400025002", "ID_LINHA": 170857 }, "geometry": { "type": "MultiLineString", "coordinates": [ [ [ 419440.851584199815989, 7649209.244402620941401 ], [ 419409.015012811112683, 7649185.849864860996604 ], [ 419383.700718018924817, 7649168.326679298654199 ], [ 419356.370329916477203, 7649150.428389094769955 ], [ 419326.868130930932239, 7649132.296365662477911 ], [ 419295.058451865043025, 7649114.115560777485371 ], [ 419260.807209155755118, 7649096.102359864860773 ], [ 419223.991253248881549, 7649078.509493263438344 ], [ 419201.136812696466222, 7649068.738144813105464 ] ] ] } },
{ "type": "Feature", "properties": { "fid": 1339.0, "COMPR_M": 286.46, "CLASSE": "02 - Curta", "CD_FAZ": " 400025", "TALHOES": "2", "FAZ_tAL": "400158002, 400025002", "ID_LINHA": 170858 }, "geometry": { "type": "MultiLineString", "coordinates": [ [ [ 419443.411115230526775, 7649214.949959564954042 ], [ 419407.279341213987209, 7649188.297030307352543 ], [ 419382.02490770368604, 7649170.815282215364277 ], [ 419354.762792696477845, 7649152.961703108623624 ], [ 419325.337998025352135, 7649134.877252293750644 ], [ 419293.615479350090027, 7649116.74626388028264 ], [ 419259.461770474736113, 7649098.784357360564172 ], [ 419222.7542876364314, 7649081.243325680494308 ], [ 419197.17505401535891, 7649070.307000012136996 ] ] ] } },
{ "type": "Feature", "properties": { "fid": 1340.0, "COMPR_M": 294.24, "CLASSE": "02 - Curta", "CD_FAZ": " 400025", "TALHOES": "2", "FAZ_tAL": "400158002, 400025002", "ID_LINHA": 170859 }, "geometry": { "type": "MultiLineString", "coordinates": [ [ [ 419445.970646259491332, 7649220.655516505241394 ], [ 419405.54366961622145, 7649190.744195748120546 ], [ 419380.349097391532268, 7649173.303885130211711 ], [ 419353.15525547490688, 7649155.495017120614648 ], [ 419323.807865120004863, 7649137.4581389259547 ], [ 419292.172506834263913, 7649119.376966985873878 ], [ 419258.116331792785786, 7649101.466354853473604 ], [ 419221.517322024330497, 7649083.977158097550273 ], [ 419193.213295336463489, 7649071.875855213031173 ] ] ] } },
{ "type": "Feature", "properties": { "fid": 1341.0, "COMPR_M": 302.02, "CLASSE": "03 - Média", "CD_FAZ": " 400025", "TALHOES": "2", "FAZ_tAL": "400158002, 400025002", "ID_LINHA": 170860 }, "geometry": { "type": "MultiLineString", "coordinates": [ [ [ 419448.530177289852872, 7649226.361073449254036 ], [ 419403.807998018397484, 7649193.19136119633913 ], [ 419378.673287077166606, 7649175.79248805064708 ], [ 419351.547718253743369, 7649158.028331134468317 ], [ 419322.277732215588912, 7649140.0390255600214 ], [ 419290.729534320125822, 7649122.007670093327761 ], [ 419256.770893110428005, 7649104.148352347314358 ], [ 419220.280356411240064, 7649086.710990514606237 ], [ 419189.251536655938253, 7649073.444710414856672 ] ] ] } },
{ "type": "Feature", "properties": { "fid": 1342.0, "COMPR_M": 309.97, "CLASSE": "03 - Média", "CD_FAZ": " 400025", "TALHOES": "2", "FAZ_tAL": "400158002, 400025002", "ID_LINHA": 170861 }, "geometry": { "type": "MultiLineString", "coordinates": [ [ [ 419451.168593974085525, 7649232.242477677762508 ], [ 419425.388807611830998, 7649212.579566270112991 ], [ 419402.072326419176534, 7649195.638526638969779 ], [ 419376.997476764721796, 7649178.281090964563191 ], [ 419349.940181031706743, 7649160.561645147390664 ], [ 419320.747599310649093, 7649142.619912190362811 ], [ 419289.286561803135555, 7649124.638373198918998 ], [ 419255.425454427779187, 7649106.830349838361144 ], [ 419219.0433907979168, 7649089.444822929799557 ], [ 419185.289777976984624, 7649075.013565615750849 ] ] ] } },
{ "type": "Feature", "properties": { "fid": 1343.0, "COMPR_M": 317.95, "CLASSE": "03 - Média", "CD_FAZ": " 400025", "TALHOES": "2", "FAZ_tAL": "400158002, 400025002", "ID_LINHA": 170862 }, "geometry": { "type": "MultiLineString", "coordinates": [ [ [ 419453.815807747538202, 7649238.143491869792342 ], [ 419423.60064281290397, 7649214.988591764122248 ], [ 419400.336654822516721, 7649198.085692080669105 ], [ 419375.321666452102363, 7649180.769693879410625 ], [ 419348.332643810659647, 7649163.09495916031301 ], [ 419319.217466405243613, 7649145.200798822566867 ], [ 419287.843589287949726, 7649127.269076303578913 ], [ 419254.080015745363198, 7649109.512347334995866 ], [ 419217.80642518622335, 7649092.178655346855521 ], [ 419181.328019295702688, 7649076.582420816645026 ] ] ] } },
{ "type": "Feature", "properties": { "fid": 1344.0, "COMPR_M": 325.92, "CLASSE": "03 - Média", "CD_FAZ": " 400025", "TALHOES": "2", "FAZ_tAL": "400158002, 400025002", "ID_LINHA": 170863 }, "geometry": { "type": "MultiLineString", "coordinates": [ [ [ 419456.450797709228937, 7649244.034885853528976 ], [ 419421.81247801677091, 7649217.397617261856794 ], [ 419398.600983224459924, 7649200.532857525162399 ], [ 419373.645856137271039, 7649183.258296797052026 ], [ 419346.725106588797644, 7649165.628273174166679 ], [ 419317.687333500827663, 7649147.781685454770923 ], [ 419286.400616774393711, 7649129.899779410101473 ], [ 419252.734577063238248, 7649112.194344826042652 ], [ 419216.569459573656786, 7649094.912487763911486 ], [ 419177.336247663246468, 7649078.16316113807261 ] ] ] } },
{ "type": "Feature", "properties": { "fid": 1345.0, "COMPR_M": 334.03, "CLASSE": "03 - Média", "CD_FAZ": " 400025", "TALHOES": "2", "FAZ_tAL": "400158002, 400025002", "ID_LINHA": 170864 }, "geometry": { "type": "MultiLineString", "coordinates": [ [ [ 419459.084098840947263, 7649249.9249507188797 ], [ 419420.024313220230397, 7649219.806642757728696 ], [ 419396.865311626403127, 7649202.980022969655693 ], [ 419371.970045824942645, 7649185.746899712830782 ], [ 419345.117569369263947, 7649168.161587186157703 ], [ 419316.157200595829636, 7649150.362572086974978 ], [ 419284.957644257345237, 7649132.530482517555356 ], [ 419251.389138380123768, 7649114.876342321746051 ], [ 419215.332493961439468, 7649097.646320180036128 ], [ 419173.181112575577572, 7649079.808593336492777 ] ] ] } },
{ "type": "Feature", "properties": { "fid": 1346.0, "COMPR_M": 342.2, "CLASSE": "03 - Média", "CD_FAZ": " 400025", "TALHOES": "2", "FAZ_tAL": "400158002, 400025002", "ID_LINHA": 170865 }, "geometry": { "type": "MultiLineString", "coordinates": [ [ [ 419461.750039460603148, 7649255.888022314757109 ], [ 419418.236148422583938, 7649222.215668253600597 ], [ 419395.129640028229915, 7649205.427188414148986 ], [ 419370.294235511799343, 7649188.235502627678216 ], [ 419343.510032146936283, 7649170.69490119908005 ], [ 419314.627067691762932, 7649152.943458720110357 ], [ 419283.514671743381768, 7649135.161185622215271 ], [ 419250.04369969794061, 7649117.558339815586805 ], [ 419214.095528348872904, 7649100.380152598023415 ], [ 419169.025977487384807, 7649081.454025533050299 ] ] ] } },
{ "type": "Feature", "properties": { "fid": 1347.0, "COMPR_M": 350.48, "CLASSE": "03 - Média", "CD_FAZ": " 400025", "TALHOES": "2", "FAZ_tAL": "400158002, 400025002", "ID_LINHA": 170866 }, "geometry": { "type": "MultiLineString", "coordinates": [ [ [ 419464.46434326650342, 7649261.959270790219307 ], [ 419437.966376318363473, 7649240.940475946292281 ], [ 419393.393968430755194, 7649207.874353855848312 ], [ 419368.618425197899342, 7649190.724105547182262 ], [ 419341.902494926238433, 7649173.228215210139751 ], [ 419313.096934786590282, 7649155.524345349520445 ], [ 419282.071699229185469, 7649137.791888728737831 ], [ 419248.698261014069431, 7649120.240337308496237 ], [ 419212.858562735375017, 7649103.113985015079379 ], [ 419174.45647942868527, 7649086.695287893526256 ], [ 419164.870842400181573, 7649083.099457731470466 ] ] ] } },
{ "type": "Feature", "properties": { "fid": 1348.0, "COMPR_M": 358.76, "CLASSE": "03 - Média", "CD_FAZ": " 400025", "TALHOES": "2", "FAZ_tAL": "400158002, 400025002", "ID_LINHA": 170867 }, "geometry": { "type": "MultiLineString", "coordinates": [ [ [ 419467.178647073335014, 7649268.03051926754415 ], [ 419436.132274957548361, 7649243.314671194180846 ], [ 419391.658296833164059, 7649210.321519302204251 ], [ 419366.942614884406794, 7649193.212708463892341 ], [ 419340.294957704725675, 7649175.761529223993421 ], [ 419311.566801881650463, 7649158.105231983587146 ], [ 419280.628726714057848, 7649140.422591834329069 ], [ 419247.352822332468349, 7649122.922334801405668 ], [ 419211.621597123565152, 7649105.847817433997989 ], [ 419173.339383876416832, 7649089.480370400473475 ], [ 419160.715707313211169, 7649084.744889929890633 ] ] ] } },
{ "type": "Feature", "properties": { "fid": 1349.0, "COMPR_M": 367.04, "CLASSE": "03 - Média", "CD_FAZ": " 400025", "TALHOES": "2", "FAZ_tAL": "400158002, 400025002", "ID_LINHA": 170868 }, "geometry": { "type": "MultiLineString", "coordinates": [ [ [ 419469.892950879060663, 7649274.101767744868994 ], [ 419434.298173596384004, 7649245.688866443932056 ], [ 419389.922625234234147, 7649212.768684746697545 ], [ 419365.266804571438115, 7649195.701311377808452 ], [ 419338.687420483562164, 7649178.294843238778412 ], [ 419310.036668976885267, 7649160.686118615791202 ], [ 419279.185754198697396, 7649143.053294938057661 ], [ 419246.007383651216514, 7649125.604332293383777 ], [ 419210.384631511522457, 7649108.581649847328663 ], [ 419172.222288323391695, 7649092.265452904626727 ], [ 419156.56057222513482, 7649086.390322130173445 ] ] ] } },
{ "type": "Feature", "properties": { "fid": 1350.0, "COMPR_M": 375.38, "CLASSE": "03 - Média", "CD_FAZ": " 400025", "TALHOES": "2", "FAZ_tAL": "400158002, 400025002", "ID_LINHA": 170869 }, "geometry": { "type": "MultiLineString", "coordinates": [ [ [ 419472.633131265873089, 7649280.230895942077041 ], [ 419432.464072234812193, 7649248.063061688095331 ], [ 419388.186953637225088, 7649215.215850189328194 ], [ 419363.590994257654529, 7649198.189914297312498 ], [ 419337.079883262864314, 7649180.828157249838114 ], [ 419308.506536071654409, 7649163.267005249857903 ], [ 419277.74278168316232, 7649145.683998044580221 ], [ 419244.661944968160242, 7649128.286329789087176 ], [ 419209.147665897908155, 7649111.315482264384627 ], [ 419171.105192770191934, 7649095.050535414367914 ], [ 419152.405437135952525, 7649088.035754326730967 ] ] ] } },
{ "type": "Feature", "properties": { "fid": 1351.0, "COMPR_M": 383.82, "CLASSE": "03 - Média", "CD_FAZ": " 400025", "TALHOES": "2", "FAZ_tAL": "400158002, 400025002", "ID_LINHA": 170870 }, "geometry": { "type": "MultiLineString", "coordinates": [ [ [ 419475.420361638243776, 7649286.465263707563281 ], [ 419430.629970874811988, 7649250.437256937846541 ], [ 419386.451282039517537, 7649217.663015633821487 ], [ 419361.915183944394812, 7649200.678517213091254 ], [ 419335.472346040594857, 7649183.361471265554428 ], [ 419306.97640316671459, 7649165.847891878336668 ], [ 419276.299809168034699, 7649148.314701151102781 ], [ 419243.316506286151707, 7649130.96832728292793 ], [ 419207.910700285923667, 7649114.049314681440592 ], [ 419169.98809721681755, 7649097.835617918521166 ], [ 419148.250302051019389, 7649089.681186525151134 ] ] ] } },
{ "type": "Feature", "properties": { "fid": 1352.0, "COMPR_M": 392.26, "CLASSE": "03 - Média", "CD_FAZ": " 400025", "TALHOES": "2", "FAZ_tAL": "400158002, 400025002", "ID_LINHA": 170871 }, "geometry": { "type": "MultiLineString", "coordinates": [ [ [ 419478.207592012127861, 7649292.699631474912167 ], [ 419448.658833916066214, 7649268.443711243569851 ], [ 419428.795869512367062, 7649252.811452186666429 ], [ 419384.71561044169357, 7649220.110181077383459 ], [ 419360.239373631658964, 7649203.16712012887001 ], [ 419333.86480882007163, 7649185.894785273820162 ], [ 419305.446270261891186, 7649168.428778512403369 ], [ 419274.856836652674247, 7649150.945404258556664 ], [ 419241.971067603793927, 7649133.650324777700007 ], [ 419206.673734672367573, 7649116.783147099427879 ], [ 419168.871001664025243, 7649100.620700426399708 ], [ 419144.095166961022187, 7649091.326618724502623 ] ] ] } },
{ "type": "Feature", "properties": { "fid": 1353.0, "COMPR_M": 400.7, "CLASSE": "03 - Média", "CD_FAZ": " 400025", "TALHOES": "2", "FAZ_tAL": "400158002, 400025002", "ID_LINHA": 170872 }, "geometry": { "type": "MultiLineString", "coordinates": [ [ [ 419480.994822384382132, 7649298.933999238535762 ], [ 419446.785087060765363, 7649270.786705274134874 ], [ 419426.961768152948935, 7649255.185647435486317 ], [ 419382.979938843869604, 7649222.557346522808075 ], [ 419358.563563316769432, 7649205.655723046511412 ], [ 419332.257271597278304, 7649188.428099289536476 ], [ 419303.916137356718536, 7649171.009665143676102 ], [ 419273.413864137080964, 7649153.576107362285256 ], [ 419240.6256289210869, 7649136.332322269678116 ], [ 419205.436769061139785, 7649119.516979516483843 ], [ 419167.753906111058313, 7649103.405782932415605 ], [ 419139.940031873935368, 7649092.972050921991467 ] ] ] } },
{ "type": "Feature", "properties": { "fid": 1354.0, "COMPR_M": 409.23, "CLASSE": "03 - Média", "CD_FAZ": " 400025", "TALHOES": "2", "FAZ_tAL": "400158002, 400025002", "ID_LINHA": 170873 }, "geometry": { "type": "MultiLineString", "coordinates": [ [ [ 419483.826153966598213, 7649305.267010860145092 ], [ 419463.33832332433667, 7649288.103483770042658 ], [ 419425.127666791726369, 7649257.559842682443559 ], [ 419381.244267244648654, 7649225.004511966370046 ], [ 419356.887753005663399, 7649208.144325962290168 ], [ 419330.649734377628192, 7649190.961413302458823 ], [ 419302.386004453059286, 7649173.590551776811481 ], [ 419271.97089162125485, 7649156.206810468807817 ], [ 419239.280190237332135, 7649139.014319762587547 ], [ 419204.199803448282182, 7649122.25081193074584 ], [ 419166.636810556636192, 7649106.190865436568856 ], [ 419135.784896787023172, 7649094.617483120411634 ] ] ] } },
{ "type": "Feature", "properties": { "fid": 1355.0, "COMPR_M": 417.81, "CLASSE": "03 - Média", "CD_FAZ": " 400025", "TALHOES": "2", "FAZ_tAL": "400158002, 400025002", "ID_LINHA": 170874 }, "geometry": { "type": "MultiLineString", "coordinates": [ [ [ 419486.676158838206902, 7649311.641790166497231 ], [ 419443.037593351444229, 7649275.472693340852857 ], [ 419402.142665249295533, 7649243.896897721104324 ], [ 419379.508595647406764, 7649227.451677409932017 ], [ 419355.211942691763397, 7649210.632928879000247 ], [ 419329.042197155707981, 7649193.494727313518524 ], [ 419300.855871547653805, 7649176.171438408084214 ], [ 419270.527919107815251, 7649158.837513574399054 ], [ 419237.934751556487754, 7649141.696317255496979 ], [ 419202.962837835890241, 7649124.98464434966445 ], [ 419165.519715005299076, 7649108.975947946310043 ], [ 419131.629761699063238, 7649096.262915318831801 ] ] ] } },
{ "type": "Feature", "properties": { "fid": 1356.0, "COMPR_M": 426.39, "CLASSE": "03 - Média", "CD_FAZ": " 400025", "TALHOES": "2", "FAZ_tAL": "400158002, 400025002", "ID_LINHA": 170875 }, "geometry": { "type": "MultiLineString", "coordinates": [ [ [ 419489.526163711154368, 7649318.016569475643337 ], [ 419441.163846496143378, 7649277.815687372349203 ], [ 419400.354500452522188, 7649246.305923217907548 ], [ 419377.772924049466383, 7649229.898842854425311 ], [ 419353.536132379085757, 7649213.121531796641648 ], [ 419327.434659934893716, 7649196.028041329234838 ], [ 419299.325738641782664, 7649178.75232504028827 ], [ 419269.08494659292046, 7649161.468216679990292 ], [ 419236.58931287395535, 7649144.378314752131701 ], [ 419201.725872223149054, 7649127.718476764857769 ], [ 419164.402619451866485, 7649111.76103045232594 ], [ 419127.474626612034626, 7649097.908347517251968 ] ] ] } },
{ "type": "Feature", "properties": { "fid": 1357.0, "COMPR_M": 435.04, "CLASSE": "03 - Média", "CD_FAZ": " 400025", "TALHOES": "2", "FAZ_tAL": "400158002, 400025002", "ID_LINHA": 170876 }, "geometry": { "type": "MultiLineString", "coordinates": [ [ [ 419492.396232064231299, 7649324.436225991696119 ], [ 419439.290099641249981, 7649280.158681405708194 ], [ 419398.566335654060822, 7649248.714948716573417 ], [ 419376.037252452748362, 7649232.34600829705596 ], [ 419351.860322064894717, 7649215.610134711489081 ], [ 419325.827122713206336, 7649198.561355341225863 ], [ 419297.795605738763697, 7649181.333211673423648 ], [ 419267.641974077734631, 7649164.098919786512852 ], [ 419235.243874190491624, 7649147.060312243178487 ], [ 419200.48890661081532, 7649130.452309180982411 ], [ 419163.285523899015971, 7649114.546112955547869 ], [ 419123.292174005298875, 7649099.564597444608808 ] ] ] } },
{ "type": "Feature", "properties": { "fid": 1358.0, "COMPR_M": 443.92, "CLASSE": "03 - Média", "CD_FAZ": " 400025", "TALHOES": "2", "FAZ_tAL": "400158002, 400025002", "ID_LINHA": 170877 }, "geometry": { "type": "MultiLineString", "coordinates": [ [ [ 419495.296941988170147, 7649330.924420373514295 ], [ 419472.725397637928836, 7649311.570297706872225 ], [ 419437.416352785483468, 7649282.501675436273217 ], [ 419396.778170857811347, 7649251.123974211513996 ], [ 419374.301580854051281, 7649234.793173741549253 ], [ 419350.184511752508115, 7649218.098737630061805 ], [ 419324.219585492508486, 7649201.094669354148209 ], [ 419296.265472832019441, 7649183.914098303765059 ], [ 419266.199001562956255, 7649166.729622893035412 ], [ 419233.898435509181581, 7649149.742309737950563 ], [ 419199.251940998190548, 7649133.186141598969698 ], [ 419162.168428345292341, 7649117.331195462495089 ], [ 419118.898641017847694, 7649101.304435135796666 ] ] ] } },
{ "type": "Feature", "properties": { "fid": 1359.0, "COMPR_M": 452.81, "CLASSE": "03 - Média", "CD_FAZ": " 400025", "TALHOES": "2", "FAZ_tAL": "400158002, 400025002", "ID_LINHA": 170878 }, "geometry": { "type": "MultiLineString", "coordinates": [ [ [ 419498.197651909547858, 7649337.41261475160718 ], [ 419453.802001599397045, 7649299.682272205129266 ], [ 419415.957159986428451, 7649269.430818920023739 ], [ 419394.990006061794702, 7649253.532999710179865 ], [ 419372.565909255936276, 7649237.240339184179902 ], [ 419348.508701437385753, 7649220.587340544909239 ], [ 419322.612048270995729, 7649203.627983367070556 ], [ 419294.735339928185567, 7649186.494984935969114 ], [ 419264.756029046024196, 7649169.360325998626649 ], [ 419232.552996825659648, 7649152.42430723272264 ], [ 419198.014975384692661, 7649135.919974016025662 ], [ 419161.051332793431357, 7649120.11627796664834 ], [ 419121.710427939658985, 7649105.35844686627388 ], [ 419114.505108032084536, 7649103.044272827915847 ] ] ] } },
{ "type": "Feature", "properties": { "fid": 1360.0, "COMPR_M": 461.72, "CLASSE": "03 - Média", "CD_FAZ": " 400025", "TALHOES": "2", "FAZ_tAL": "400158002, 400025002", "ID_LINHA": 170879 }, "geometry": { "type": "MultiLineString", "coordinates": [ [ [ 419501.112849877681583, 7649343.933215424418449 ], [ 419451.894737253373023, 7649301.99802989512682 ], [ 419414.123058625496924, 7649271.805014167912304 ], [ 419393.201841264031827, 7649255.942025205120444 ], [ 419370.830237658461556, 7649239.687504628673196 ], [ 419346.83289112476632, 7649223.07594346255064 ], [ 419321.004511048609857, 7649206.161297379992902 ], [ 419293.205207021906972, 7649189.075871570967138 ], [ 419263.313056531478651, 7649171.991029104217887 ], [ 419231.207558144349605, 7649155.106304723769426 ], [ 419196.778009772824589, 7649138.653806433081627 ], [ 419159.934237240115181, 7649122.901360476389527 ], [ 419120.72432948811911, 7649108.192669907584786 ], [ 419110.111575045972131, 7649104.784110520035028 ] ] ] } },
{ "type": "Feature", "properties": { "fid": 1361.0, "COMPR_M": 470.69, "CLASSE": "03 - Média", "CD_FAZ": " 400025", "TALHOES": "2", "FAZ_tAL": "400158002, 400025002", "ID_LINHA": 170880 }, "geometry": { "type": "MultiLineString", "coordinates": [ [ [ 419504.050557422218844, 7649350.504164634272456 ], [ 419449.987472908571362, 7649304.313787580467761 ], [ 419412.288957264856435, 7649274.179209414869547 ], [ 419391.413676466501784, 7649258.351050700061023 ], [ 419369.094566060346551, 7649242.134670071303844 ], [ 419345.157080809934996, 7649225.564546379260719 ], [ 419319.396973829250783, 7649208.694611393846571 ], [ 419291.675074118422344, 7649191.656758201308548 ], [ 419261.870084016059991, 7649174.621732210740447 ], [ 419229.862119461409748, 7649157.788302218541503 ], [ 419195.541044160723686, 7649141.387638850137591 ], [ 419158.817141686682589, 7649125.686442980542779 ], [ 419119.738231036928482, 7649111.026892949827015 ], [ 419105.718042058753781, 7649106.523948211222887 ] ] ] } },
{ "type": "Feature", "properties": { "fid": 1362.0, "COMPR_M": 479.66, "CLASSE": "03 - Média", "CD_FAZ": " 400025", "TALHOES": "2", "FAZ_tAL": "400158002, 400025002", "ID_LINHA": 170881 }, "geometry": { "type": "MultiLineString", "coordinates": [ [ [ 419506.98826496663969, 7649357.075113842263818 ], [ 419480.691533843171783, 7649334.139905236661434 ], [ 419448.080208563595079, 7649306.629545267671347 ], [ 419410.454855902527925, 7649276.553404662758112 ], [ 419389.62551166920457, 7649260.760076200589538 ], [ 419367.358894462697208, 7649244.581835519522429 ], [ 419343.481270497664809, 7649228.053149294108152 ], [ 419317.789436607738025, 7649211.227925404906273 ], [ 419290.144941213948186, 7649194.237644834443927 ], [ 419260.427111501747277, 7649177.252435313537717 ], [ 419228.516680779401213, 7649160.470299711450934 ], [ 419194.304078548972029, 7649144.121471267193556 ], [ 419157.700046134414151, 7649128.471525486558676 ], [ 419118.752132584690116, 7649113.861115988343954 ], [ 419101.324509073863737, 7649108.263785903342068 ] ] ] } },
{ "type": "Feature", "properties": { "fid": 1363.0, "COMPR_M": 488.66, "CLASSE": "03 - Média", "CD_FAZ": " 400025", "TALHOES": "2", "FAZ_tAL": "400158002, 400025002", "ID_LINHA": 170882 }, "geometry": { "type": "MultiLineString", "coordinates": [ [ [ 419509.940463262144476, 7649363.678475398570299 ], [ 419478.734987732721493, 7649336.414126490242779 ], [ 419446.172944218444172, 7649308.94530295394361 ], [ 419408.620754541771021, 7649278.927599908784032 ], [ 419387.83734687283868, 7649263.169101693667471 ], [ 419365.623222863185219, 7649247.029000961221755 ], [ 419341.805460184579715, 7649230.541752211749554 ], [ 419316.18189938593423, 7649213.761239418759942 ], [ 419288.614808309008367, 7649196.818531464785337 ], [ 419258.984138986561447, 7649179.883138420060277 ], [ 419227.17124209710164, 7649163.152297206223011 ], [ 419193.067112935008481, 7649146.85530368424952 ], [ 419156.582950580632314, 7649131.256607992574573 ], [ 419117.766034132684581, 7649116.69533902965486 ], [ 419096.930976086645387, 7649110.003623594529927 ] ] ] } },
{ "type": "Feature", "properties": { "fid": 1364.0, "COMPR_M": 497.68, "CLASSE": "03 - Média", "CD_FAZ": " 400025", "TALHOES": "2", "FAZ_tAL": "400158002, 400025002", "ID_LINHA": 170883 }, "geometry": { "type": "MultiLineString", "coordinates": [ [ [ 419512.900317119376268, 7649370.298960614949465 ], [ 419461.116509496350773, 7649325.326862129382789 ], [ 419426.173871656181291, 7649296.559639628976583 ], [ 419406.786653180606663, 7649281.301795158535242 ], [ 419363.887551267514937, 7649249.476166404783726 ], [ 419340.129649871319998, 7649233.030355129390955 ], [ 419314.57436216523638, 7649216.294553434476256 ], [ 419287.084675403544679, 7649199.399418100714684 ], [ 419257.541166470502503, 7649182.513841526582837 ], [ 419225.825803414452821, 7649165.834294697269797 ], [ 419191.830147321394179, 7649149.589136098511517 ], [ 419155.465855028713122, 7649134.041690498590469 ], [ 419116.779935680970084, 7649119.529562070034444 ], [ 419092.537443098379299, 7649111.743461286649108 ] ] ] } },
{ "type": "Feature", "properties": { "fid": 1365.0, "COMPR_M": 506.69, "CLASSE": "03 - Média", "CD_FAZ": " 400025", "TALHOES": "2", "FAZ_tAL": "400158002, 400025002", "ID_LINHA": 170884 }, "geometry": { "type": "MultiLineString", "coordinates": [ [ [ 419515.860875180864241, 7649376.921020967885852 ], [ 419459.181694806029554, 7649327.619622863829136 ], [ 419424.300124802219216, 7649298.902633661404252 ], [ 419404.952551819675136, 7649283.675990403629839 ], [ 419362.151879667886533, 7649251.92333184927702 ], [ 419338.453839557943866, 7649235.518958045169711 ], [ 419312.966824944363907, 7649218.827867444604635 ], [ 419285.554542499128729, 7649201.980304731056094 ], [ 419256.098193954851013, 7649185.14454463031143 ], [ 419224.480364732036833, 7649168.516292192041874 ], [ 419190.593181710108183, 7649152.322968517430127 ], [ 419154.348759475338738, 7649136.826773005537689 ], [ 419115.793837228906341, 7649122.363785112276673 ], [ 419088.143910113023594, 7649113.483298977836967 ] ] ] } },
{ "type": "Feature", "properties": { "fid": 1366.0, "COMPR_M": 515.72, "CLASSE": "03 - Média", "CD_FAZ": " 400025", "TALHOES": "2", "FAZ_tAL": "400158002, 400025002", "ID_LINHA": 170885 }, "geometry": { "type": "MultiLineString", "coordinates": [ [ [ 419518.826958607474808, 7649383.555440239608288 ], [ 419457.246880115824752, 7649329.912383602932096 ], [ 419422.426377947325818, 7649301.245627695694566 ], [ 419403.118450458394364, 7649286.050185652449727 ], [ 419360.41620806948049, 7649254.370497293770313 ], [ 419336.778029245091602, 7649238.00756096187979 ], [ 419311.359287721221335, 7649221.361181457526982 ], [ 419284.02440959418891, 7649204.56119136326015 ], [ 419254.655221440305468, 7649187.775247737765312 ], [ 419223.13492604997009, 7649171.198289684951305 ], [ 419189.356216097366996, 7649155.056800933554769 ], [ 419153.231663922488224, 7649139.611855512484908 ], [ 419114.80773877777392, 7649125.198008151724935 ], [ 419083.750377127376851, 7649115.223136669024825 ] ] ] } },
{ "type": "Feature", "properties": { "fid": 1367.0, "COMPR_M": 524.76, "CLASSE": "03 - Média", "CD_FAZ": " 400025", "TALHOES": "2", "FAZ_tAL": "400158002, 400025002", "ID_LINHA": 170886 }, "geometry": { "type": "MultiLineString", "coordinates": [ [ [ 419521.793042031931691, 7649390.189859510399401 ], [ 419455.312065425969195, 7649332.205144339241087 ], [ 419420.552631090919022, 7649303.588621726259589 ], [ 419401.284349097404629, 7649288.42438089940697 ], [ 419358.680536473053508, 7649256.817662736400962 ], [ 419335.102218931424432, 7649240.496163880452514 ], [ 419309.751750499883201, 7649223.894495469518006 ], [ 419282.494276689481921, 7649207.142077993601561 ], [ 419253.212248926225584, 7649190.405950845219195 ], [ 419221.789487368194386, 7649173.880287177860737 ], [ 419188.119250486197416, 7649157.790633348748088 ], [ 419152.114568369579501, 7649142.396938018500805 ], [ 419113.821640325593762, 7649128.032231194898486 ], [ 419079.35684413992567, 7649116.962974365800619 ] ] ] } },
{ "type": "Feature", "properties": { "fid": 1368.0, "COMPR_M": 533.77, "CLASSE": "03 - Média", "CD_FAZ": " 400025", "TALHOES": "2", "FAZ_tAL": "400158002, 400025002", "ID_LINHA": 170887 }, "geometry": { "type": "MultiLineString", "coordinates": [ [ [ 419524.750814059167169, 7649396.805688168853521 ], [ 419453.377250734949484, 7649334.497905077412724 ], [ 419418.678884236956947, 7649305.931615758687258 ], [ 419399.450247736065648, 7649290.798576146364212 ], [ 419356.944864875287749, 7649259.264828179962933 ], [ 419333.426408618222922, 7649242.984766794368625 ], [ 419308.144213280233089, 7649226.427809482440352 ], [ 419280.964143784367479, 7649209.722964626736939 ], [ 419251.769276409992017, 7649193.036653948947787 ], [ 419220.444048684788868, 7649176.562284674495459 ], [ 419186.882284872874152, 7649160.524465767666698 ], [ 419150.997472816437948, 7649145.182020526379347 ], [ 419112.835541873704642, 7649130.86645423527807 ], [ 419074.963311153522227, 7649118.702812053263187 ] ] ] } },
{ "type": "Feature", "properties": { "fid": 1369.0, "COMPR_M": 542.91, "CLASSE": "03 - Média", "CD_FAZ": " 400025", "TALHOES": "2", "FAZ_tAL": "400158002, 400025002", "ID_LINHA": 170888 }, "geometry": { "type": "MultiLineString", "coordinates": [ [ [ 419527.707297047367319, 7649403.418633557856083 ], [ 419466.995711064897478, 7649350.059454035945237 ], [ 419416.805137382121757, 7649308.274609791114926 ], [ 419377.108358089462854, 7649277.623254673555493 ], [ 419355.209193276765291, 7649261.711993624456227 ], [ 419331.750598304963205, 7649245.473369712010026 ], [ 419306.536676059709862, 7649228.961123497225344 ], [ 419279.434010879485868, 7649212.303851259872317 ], [ 419250.326303896086756, 7649195.667357057332993 ], [ 419219.098610002314672, 7649179.24428216740489 ], [ 419185.645319259900134, 7649163.258298182860017 ], [ 419149.88037726317998, 7649147.967103032395244 ], [ 419111.84944342286326, 7649133.700677272863686 ], [ 419070.40937599062454, 7649120.506168958730996 ] ] ] } },
{ "type": "Feature", "properties": { "fid": 1370.0, "COMPR_M": 552.11, "CLASSE": "03 - Média", "CD_FAZ": " 400025", "TALHOES": "2", "FAZ_tAL": "400158002, 400025002", "ID_LINHA": 170889 }, "geometry": { "type": "MultiLineString", "coordinates": [ [ [ 419530.644378628698178, 7649409.988182639703155 ], [ 419465.039164954097942, 7649352.333675296977162 ], [ 419414.931390527053736, 7649310.617603823542595 ], [ 419375.320193293446209, 7649280.032280168496072 ], [ 419353.473521679581609, 7649264.159159069880843 ], [ 419330.074787990888581, 7649247.961972627788782 ], [ 419304.929138837032951, 7649231.494437510147691 ], [ 419277.903877974138595, 7649214.884737890213728 ], [ 419248.883331380726304, 7649198.298060161061585 ], [ 419217.753171320189722, 7649181.926279660314322 ], [ 419184.408353648614138, 7649165.992130599915981 ], [ 419148.763281710445881, 7649150.752185536548495 ], [ 419110.863344970857725, 7649136.534900314174592 ], [ 419065.74315688025672, 7649122.35399026889354 ] ] ] } }
]
}
