{
"type": "FeatureCollection",
"name": " 400554",
"crs": { "type": "name", "properties": { "name": "urn:ogc:def:crs:EPSG::32722" } },
"xy_coordinate_resolution": 1e-15,
"features": [
{ "type": "Feature", "properties": { "fid": 347.0, "COMPR_M": 304.91, "CLASSE": "03 - Média", "CD_FAZ": " 400554", "TALHOES": "7, 1", "FAZ_tAL": "404071007, 400554001", "ID_LINHA": 16683 }, "geometry": { "type": "MultiLineString", "coordinates": [ [ [ 433588.015139413881116, 7613912.67306668870151 ], [ 433625.534485669224523, 7613932.596046951599419 ], [ 433651.664742093242239, 7613944.831016277894378 ], [ 433682.178675895382185, 7613957.039045244455338 ], [ 433713.333092963090166, 7613967.554383051581681 ], [ 433745.019049166527111, 7613976.339040788821876 ], [ 433785.939900751458481, 7613985.382262324914336 ], [ 433816.400688356021419, 7613990.763158178888261 ], [ 433841.26583433727501, 7613994.4620589800179 ], [ 433877.835273607110139, 7613998.918386057019234 ] ] ] } },
{ "type": "Feature", "properties": { "fid": 348.0, "COMPR_M": 302.84, "CLASSE": "03 - Média", "CD_FAZ": " 400554", "TALHOES": "7, 1", "FAZ_tAL": "404071007, 400554001", "ID_LINHA": 16684 }, "geometry": { "type": "MultiLineString", "coordinates": [ [ [ 433590.214013750315644, 7613910.464417696930468 ], [ 433626.861438505235128, 7613929.905300046317279 ], [ 433652.869934490357991, 7613942.08340222761035 ], [ 433673.017192001163494, 7613950.359126594848931 ], [ 433693.484038864262402, 7613957.900943415239453 ], [ 433724.668757585983258, 7613967.792727075517178 ], [ 433756.366931588388979, 7613975.956984765827656 ], [ 433801.667006030504126, 7613985.258729112334549 ], [ 433841.677510990120936, 7613991.490287378430367 ], [ 433878.138106723432429, 7613995.933646709658206 ] ] ] } },
{ "type": "Feature", "properties": { "fid": 349.0, "COMPR_M": 300.77, "CLASSE": "03 - Média", "CD_FAZ": " 400554", "TALHOES": "7, 1", "FAZ_tAL": "404071007, 400554001", "ID_LINHA": 16685 }, "geometry": { "type": "MultiLineString", "coordinates": [ [ [ 433592.412888085353188, 7613908.255768704228103 ], [ 433628.188391338509973, 7613927.214553141966462 ], [ 433654.075126887881197, 7613939.335788177326322 ], [ 433674.10601717827376, 7613947.56355547439307 ], [ 433694.469522675732151, 7613955.067292092368007 ], [ 433725.496783268346917, 7613964.909130081534386 ], [ 433757.043130073929206, 7613973.034122650511563 ], [ 433802.188898683700245, 7613982.304343622177839 ], [ 433842.089187641569879, 7613988.518515774980187 ], [ 433878.440939838183112, 7613992.948907364159822 ] ] ] } },
{ "type": "Feature", "properties": { "fid": 350.0, "COMPR_M": 298.7, "CLASSE": "02 - Curta", "CD_FAZ": " 400554", "TALHOES": "7, 1", "FAZ_tAL": "404071007, 400554001", "ID_LINHA": 16686 }, "geometry": { "type": "MultiLineString", "coordinates": [ [ [ 433594.611762419692241, 7613906.047119712457061 ], [ 433629.515344174928032, 7613924.523806238546968 ], [ 433655.280319285055157, 7613936.588174126110971 ], [ 433675.194842359109316, 7613944.767984354868531 ], [ 433695.455006489995867, 7613952.23364076949656 ], [ 433726.32480894960463, 7613962.025533084757626 ], [ 433757.71932855900377, 7613970.11126053519547 ], [ 433802.710791337711271, 7613979.349958131089807 ], [ 433842.500864295579959, 7613985.546744171530008 ], [ 433878.74377295258455, 7613989.964168018661439 ] ] ] } },
{ "type": "Feature", "properties": { "fid": 351.0, "COMPR_M": 296.63, "CLASSE": "02 - Curta", "CD_FAZ": " 400554", "TALHOES": "7, 1", "FAZ_tAL": "404071007, 400554001", "ID_LINHA": 16687 }, "geometry": { "type": "MultiLineString", "coordinates": [ [ [ 433596.81063675659243, 7613903.838470721617341 ], [ 433630.842297009250615, 7613921.833059333264828 ], [ 433656.485511681356002, 7613933.840560076758265 ], [ 433676.283667537732981, 7613941.97241323441267 ], [ 433696.440490302571561, 7613949.399989449419081 ], [ 433727.15283463319065, 7613959.141936091706157 ], [ 433758.395527043030597, 7613967.188398420810699 ], [ 433803.232683992595412, 7613976.395572641864419 ], [ 433842.912540948949754, 7613982.574972569942474 ], [ 433879.046606068033725, 7613986.979428673163056 ] ] ] } },
{ "type": "Feature", "properties": { "fid": 352.0, "COMPR_M": 294.57, "CLASSE": "02 - Curta", "CD_FAZ": " 400554", "TALHOES": "7, 1", "FAZ_tAL": "404071007, 400554001", "ID_LINHA": 16688 }, "geometry": { "type": "MultiLineString", "coordinates": [ [ [ 433599.009511090815067, 7613901.629821727983654 ], [ 433632.169249844679143, 7613919.142312427982688 ], [ 433657.690704079926945, 7613931.092946025542915 ], [ 433677.372492716822308, 7613939.176842113025486 ], [ 433697.425974115380086, 7613946.566338126547635 ], [ 433727.980860314390156, 7613956.25833909586072 ], [ 433759.071725527872331, 7613964.265536306425929 ], [ 433803.754576645733323, 7613973.441187152639031 ], [ 433843.324217601504643, 7613979.60320096835494 ], [ 433879.349439182551578, 7613983.994689326733351 ] ] ] } },
{ "type": "Feature", "properties": { "fid": 353.0, "COMPR_M": 292.5, "CLASSE": "02 - Curta", "CD_FAZ": " 400554", "TALHOES": "7, 1", "FAZ_tAL": "404071007, 400554001", "ID_LINHA": 16689 }, "geometry": { "type": "MultiLineString", "coordinates": [ [ [ 433601.208385427598841, 7613899.421172736212611 ], [ 433633.49620267865248, 7613916.451565525494516 ], [ 433658.895896476285998, 7613928.345331974327564 ], [ 433678.461317896959372, 7613936.381270994432271 ], [ 433698.411457928421441, 7613943.732686804607511 ], [ 433728.808885997161269, 7613953.374742100015283 ], [ 433759.747924013645388, 7613961.342674192972481 ], [ 433804.276469299045857, 7613970.486801661550999 ], [ 433843.735894254059531, 7613976.631429364904761 ], [ 433879.652272297360469, 7613981.009949981234968 ] ] ] } },
{ "type": "Feature", "properties": { "fid": 354.0, "COMPR_M": 290.43, "CLASSE": "02 - Curta", "CD_FAZ": " 400554", "TALHOES": "7, 1", "FAZ_tAL": "404071007, 400554001", "ID_LINHA": 16690 }, "geometry": { "type": "MultiLineString", "coordinates": [ [ [ 433603.407259762403555, 7613897.212523741647601 ], [ 433634.82315551378997, 7613913.760818619281054 ], [ 433660.101088873692788, 7613925.597717922180891 ], [ 433679.550143076863606, 7613933.585699873045087 ], [ 433699.396941741055343, 7613940.899035482667387 ], [ 433729.63691167824436, 7613950.491145106032491 ], [ 433760.424122498254292, 7613958.419812078587711 ], [ 433804.798361952591222, 7613967.532416171394289 ], [ 433844.147570907138288, 7613973.659657762385905 ], [ 433879.955105412576813, 7613978.02521063387394 ] ] ] } },
{ "type": "Feature", "properties": { "fid": 355.0, "COMPR_M": 288.36, "CLASSE": "02 - Curta", "CD_FAZ": " 400554", "TALHOES": "7, 1", "FAZ_tAL": "404071007, 400554001", "ID_LINHA": 16691 }, "geometry": { "type": "MultiLineString", "coordinates": [ [ [ 433605.606134098372422, 7613895.003874751739204 ], [ 433636.150108348752838, 7613911.070071713998914 ], [ 433670.870715470169671, 7613926.881942052394152 ], [ 433700.3824255525833, 7613938.065384160727262 ], [ 433730.464937359618489, 7613947.607548110187054 ], [ 433761.10032098373631, 7613955.49694996420294 ], [ 433805.320254605030641, 7613964.578030682168901 ], [ 433844.559247558237985, 7613970.687886159867048 ], [ 433880.25793852750212, 7613975.040471287444234 ] ] ] } },
{ "type": "Feature", "properties": { "fid": 356.0, "COMPR_M": 286.29, "CLASSE": "02 - Curta", "CD_FAZ": " 400554", "TALHOES": "7, 1", "FAZ_tAL": "404071007, 400554001", "ID_LINHA": 16692 }, "geometry": { "type": "MultiLineString", "coordinates": [ [ [ 433607.805008433701005, 7613892.795225759968162 ], [ 433637.477061182260513, 7613908.379324812442064 ], [ 433672.010669717099518, 7613924.10682719387114 ], [ 433701.367909366963431, 7613935.231732838787138 ], [ 433731.292963041225448, 7613944.723951114341617 ], [ 433761.776519466773607, 7613952.574087848886847 ], [ 433805.84214726020582, 7613961.623645192012191 ], [ 433844.970924212597311, 7613967.716114559210837 ], [ 433880.56077164207818, 7613972.055731942877173 ] ] ] } },
{ "type": "Feature", "properties": { "fid": 357.0, "COMPR_M": 284.22, "CLASSE": "02 - Curta", "CD_FAZ": " 400554", "TALHOES": "7, 1", "FAZ_tAL": "404071007, 400554001", "ID_LINHA": 16693 }, "geometry": { "type": "MultiLineString", "coordinates": [ [ [ 433610.003882769611664, 7613890.586576767265797 ], [ 433638.804014018271118, 7613905.688577905297279 ], [ 433673.150623966939747, 7613921.331712337210774 ], [ 433702.353393179655541, 7613932.398081516847014 ], [ 433732.120988724462222, 7613941.84035411849618 ], [ 433762.452717953361571, 7613949.651225736364722 ], [ 433806.364039912354201, 7613958.669259700924158 ], [ 433845.382600864861161, 7613964.744342955760658 ], [ 433880.863604756363202, 7613969.070992596447468 ] ] ] } },
{ "type": "Feature", "properties": { "fid": 358.0, "COMPR_M": 282.16, "CLASSE": "02 - Curta", "CD_FAZ": " 400554", "TALHOES": "7, 1", "FAZ_tAL": "404071007, 400554001", "ID_LINHA": 16694 }, "geometry": { "type": "MultiLineString", "coordinates": [ [ [ 433612.202757104823831, 7613888.377927774563432 ], [ 433640.130966852768324, 7613902.997831001877785 ], [ 433674.290578215674032, 7613918.556597480550408 ], [ 433703.338876992580481, 7613929.564430193975568 ], [ 433732.949014406651258, 7613938.956757126376033 ], [ 433763.128916438785382, 7613946.728363621979952 ], [ 433806.885932566714473, 7613955.714874211698771 ], [ 433845.794277517707087, 7613961.772571354173124 ], [ 433881.166437871637754, 7613966.086253250017762 ] ] ] } },
{ "type": "Feature", "properties": { "fid": 359.0, "COMPR_M": 280.09, "CLASSE": "02 - Curta", "CD_FAZ": " 400554", "TALHOES": "7, 1", "FAZ_tAL": "404071007, 400554001", "ID_LINHA": 16695 }, "geometry": { "type": "MultiLineString", "coordinates": [ [ [ 433614.401631440618075, 7613886.169278783723712 ], [ 433641.457919687149115, 7613900.307084095664322 ], [ 433675.430532465281431, 7613915.781482622027397 ], [ 433704.324360805680044, 7613926.730778871104121 ], [ 433733.777040087152272, 7613936.073160130530596 ], [ 433763.805114923103247, 7613943.805501505732536 ], [ 433807.407825219910592, 7613952.760488722473383 ], [ 433846.205954169854522, 7613958.800799751654267 ], [ 433881.469270985398907, 7613963.101513903588057 ] ] ] } },
{ "type": "Feature", "properties": { "fid": 360.0, "COMPR_M": 278.02, "CLASSE": "02 - Curta", "CD_FAZ": " 400554", "TALHOES": "7, 1", "FAZ_tAL": "404071007, 400554001", "ID_LINHA": 16696 }, "geometry": { "type": "MultiLineString", "coordinates": [ [ [ 433616.60050577565562, 7613883.96062979195267 ], [ 433642.784872522053774, 7613897.616337191313505 ], [ 433676.570486713200808, 7613913.006367763504386 ], [ 433705.309844617731869, 7613923.89712755009532 ], [ 433734.605065769865178, 7613933.189563134685159 ], [ 433764.481313407653943, 7613940.882639391347766 ], [ 433807.929717873979826, 7613949.80610323138535 ], [ 433846.617630823282525, 7613955.829028148204088 ], [ 433881.772104100731667, 7613960.116774557158351 ] ] ] } },
{ "type": "Feature", "properties": { "fid": 361.0, "COMPR_M": 275.95, "CLASSE": "02 - Curta", "CD_FAZ": " 400554", "TALHOES": "7, 1", "FAZ_tAL": "404071007, 400554001", "ID_LINHA": 16697 }, "geometry": { "type": "MultiLineString", "coordinates": [ [ [ 433618.799380111973733, 7613881.751980799250305 ], [ 433644.111825356725603, 7613894.925590287894011 ], [ 433677.710440961411223, 7613910.23125290684402 ], [ 433706.295328431355301, 7613921.063476228155196 ], [ 433735.433091452927329, 7613930.305966138839722 ], [ 433765.15751189168077, 7613937.959777277894318 ], [ 433808.451610526884906, 7613946.851717740297318 ], [ 433847.029307474615052, 7613952.857256546616554 ], [ 433882.074937215773389, 7613957.13203521259129 ] ] ] } },
{ "type": "Feature", "properties": { "fid": 362.0, "COMPR_M": 273.88, "CLASSE": "02 - Curta", "CD_FAZ": " 400554", "TALHOES": "7, 1", "FAZ_tAL": "404071007, 400554001", "ID_LINHA": 16698 }, "geometry": { "type": "MultiLineString", "coordinates": [ [ [ 433620.998254446894862, 7613879.543331807479262 ], [ 433645.438778192619793, 7613892.234843383543193 ], [ 433678.850395209854469, 7613907.456138050183654 ], [ 433707.280812243232504, 7613918.229824906215072 ], [ 433736.261117135523818, 7613927.422369143925607 ], [ 433765.833710377279203, 7613935.036915162578225 ], [ 433808.973503181361593, 7613943.897332252003253 ], [ 433847.440984129905701, 7613949.88548494502902 ], [ 433882.377770330524072, 7613954.147295866161585 ] ] ] } },
{ "type": "Feature", "properties": { "fid": 363.0, "COMPR_M": 271.81, "CLASSE": "02 - Curta", "CD_FAZ": " 400554", "TALHOES": "7, 1", "FAZ_tAL": "404071007, 400554001", "ID_LINHA": 16699 }, "geometry": { "type": "MultiLineString", "coordinates": [ [ [ 433623.202780334453564, 7613877.32900614105165 ], [ 433646.765731027000584, 7613889.544096479192376 ], [ 433679.99034945917083, 7613904.681023192591965 ], [ 433708.266296057263389, 7613915.396173583343625 ], [ 433737.08914281707257, 7613924.538772150874138 ], [ 433766.509908862411976, 7613932.114053048193455 ], [ 433809.495395834674127, 7613940.942946761846542 ], [ 433847.852660781121813, 7613946.913713341578841 ], [ 433882.680603446322493, 7613951.162556521594524 ] ] ] } },
{ "type": "Feature", "properties": { "fid": 364.0, "COMPR_M": 269.74, "CLASSE": "02 - Curta", "CD_FAZ": " 400554", "TALHOES": "7, 1", "FAZ_tAL": "404071007, 400554001", "ID_LINHA": 16700 }, "geometry": { "type": "MultiLineString", "coordinates": [ [ [ 433625.414716352534015, 7613875.107237403281033 ], [ 433648.092683861847036, 7613886.853349574841559 ], [ 433681.130303706158884, 7613901.905908335000277 ], [ 433709.251779869548045, 7613912.562522263266146 ], [ 433737.917168498912361, 7613921.655175155028701 ], [ 433767.186107347079087, 7613929.191190933808684 ], [ 433810.017288488219492, 7613937.988561268895864 ], [ 433848.264337433618493, 7613943.941941739991307 ], [ 433882.983436559152324, 7613948.177817174233496 ] ] ] } },
{ "type": "Feature", "properties": { "fid": 365.0, "COMPR_M": 267.67, "CLASSE": "02 - Curta", "CD_FAZ": " 400554", "TALHOES": "7, 1", "FAZ_tAL": "404071007, 400554001", "ID_LINHA": 16701 }, "geometry": { "type": "MultiLineString", "coordinates": [ [ [ 433627.626652370614465, 7613872.885468665510416 ], [ 433661.443036591517739, 7613889.941392691805959 ], [ 433682.270257955999114, 7613899.130793477408588 ], [ 433710.237263681483455, 7613909.7288709403947 ], [ 433738.745194180402905, 7613918.771578161045909 ], [ 433767.862305831979029, 7613926.268328821286559 ], [ 433810.53918114193948, 7613935.034175780601799 ], [ 433848.676014087395743, 7613940.970170136541128 ], [ 433883.286269675008953, 7613945.193077827803791 ] ] ] } },
{ "type": "Feature", "properties": { "fid": 366.0, "COMPR_M": 265.59, "CLASSE": "02 - Curta", "CD_FAZ": " 400554", "TALHOES": "7, 1", "FAZ_tAL": "404071007, 400554001", "ID_LINHA": 16702 }, "geometry": { "type": "MultiLineString", "coordinates": [ [ [ 433629.838588388054632, 7613870.663699928671122 ], [ 433662.715232684626244, 7613887.224328130483627 ], [ 433683.41021220467519, 7613896.355678619816899 ], [ 433711.222747495514341, 7613906.89521961659193 ], [ 433739.573219862766564, 7613915.887981165200472 ], [ 433768.538504316995386, 7613923.345466705039144 ], [ 433811.061073795834091, 7613932.079790290445089 ], [ 433849.087690740416292, 7613937.998398536816239 ], [ 433883.589102788537275, 7613942.208338480442762 ] ] ] } },
{ "type": "Feature", "properties": { "fid": 367.0, "COMPR_M": 263.52, "CLASSE": "02 - Curta", "CD_FAZ": " 400554", "TALHOES": "7, 1", "FAZ_tAL": "404071007, 400554001", "ID_LINHA": 16703 }, "geometry": { "type": "MultiLineString", "coordinates": [ [ [ 433632.050524406135082, 7613868.441931189969182 ], [ 433663.987428777152672, 7613884.507263569161296 ], [ 433684.550166451721452, 7613893.580563763156533 ], [ 433712.208231308555696, 7613904.061568296514452 ], [ 433740.401245543383993, 7613913.004384170286357 ], [ 433769.21470280160429, 7613920.422604590654373 ], [ 433811.582966449321248, 7613929.125404799357057 ], [ 433849.499367392039858, 7613935.026626932434738 ], [ 433883.891935905092396, 7613939.223599135875702 ] ] ] } },
{ "type": "Feature", "properties": { "fid": 368.0, "COMPR_M": 261.45, "CLASSE": "02 - Curta", "CD_FAZ": " 400554", "TALHOES": "7, 1", "FAZ_tAL": "404071007, 400554001", "ID_LINHA": 16704 }, "geometry": { "type": "MultiLineString", "coordinates": [ [ [ 433634.262460422934964, 7613866.220162453129888 ], [ 433665.259624871076085, 7613881.790199006907642 ], [ 433685.690120700979605, 7613890.805448905564845 ], [ 433713.193715119850822, 7613901.227916973643005 ], [ 433741.229271227028221, 7613910.12078717444092 ], [ 433769.890901287086308, 7613917.499742476269603 ], [ 433812.104859102284536, 7613926.171019310131669 ], [ 433849.911044045584276, 7613932.054855330847204 ], [ 433884.194769018678926, 7613936.238859790377319 ] ] ] } },
{ "type": "Feature", "properties": { "fid": 369.0, "COMPR_M": 259.37, "CLASSE": "02 - Curta", "CD_FAZ": " 400554", "TALHOES": "7, 1", "FAZ_tAL": "404071007, 400554001", "ID_LINHA": 16705 }, "geometry": { "type": "MultiLineString", "coordinates": [ [ [ 433636.474396442994475, 7613863.998393713496625 ], [ 433666.531820963020436, 7613879.073134444653988 ], [ 433686.830074949830305, 7613888.030334047973156 ], [ 433714.179198933241423, 7613898.394265651702881 ], [ 433742.057296908868011, 7613907.237190179526806 ], [ 433770.567099771462381, 7613914.576880361884832 ], [ 433812.626751756120939, 7613923.216633819974959 ], [ 433850.322720698371995, 7613929.083083728328347 ], [ 433884.497602133895271, 7613933.254120444878936 ] ] ] } },
{ "type": "Feature", "properties": { "fid": 370.0, "COMPR_M": 257.3, "CLASSE": "02 - Curta", "CD_FAZ": " 400554", "TALHOES": "7, 1", "FAZ_tAL": "404071007, 400554001", "ID_LINHA": 16706 }, "geometry": { "type": "MultiLineString", "coordinates": [ [ [ 433638.686332460434642, 7613861.776624977588654 ], [ 433667.804017055081204, 7613876.356069883331656 ], [ 433687.970029197575059, 7613885.25521919131279 ], [ 433715.164682746923063, 7613895.560614329762757 ], [ 433742.88532259099884, 7613904.353593184612691 ], [ 433771.243298256653361, 7613911.654018247500062 ], [ 433813.148644410830457, 7613920.262248329818249 ], [ 433850.734397350461222, 7613926.111312124878168 ], [ 433884.800435248878784, 7613930.26938109844923 ] ] ] } },
{ "type": "Feature", "properties": { "fid": 371.0, "COMPR_M": 255.23, "CLASSE": "02 - Curta", "CD_FAZ": " 400554", "TALHOES": "7, 1", "FAZ_tAL": "404071007, 400554001", "ID_LINHA": 16707 }, "geometry": { "type": "MultiLineString", "coordinates": [ [ [ 433640.898268477874808, 7613859.554856239818037 ], [ 433669.076213147840463, 7613873.63900532387197 ], [ 433689.109983446251135, 7613882.480104333721101 ], [ 433716.150166559498757, 7613892.726963007822633 ], [ 433743.713348274002783, 7613901.469996189698577 ], [ 433771.91949674137868, 7613908.731156133115292 ], [ 433813.670537063735537, 7613917.307862838730216 ], [ 433851.146074003132526, 7613923.139540523290634 ], [ 433885.10326836357126, 7613927.284641752019525 ] ] ] } },
{ "type": "Feature", "properties": { "fid": 372.0, "COMPR_M": 253.15, "CLASSE": "02 - Curta", "CD_FAZ": " 400554", "TALHOES": "7, 1", "FAZ_tAL": "404071007, 400554001", "ID_LINHA": 16708 }, "geometry": { "type": "MultiLineString", "coordinates": [ [ [ 433643.11020449467469, 7613857.33308750204742 ], [ 433670.348409240716137, 7613870.921940759755671 ], [ 433699.148996304895263, 7613883.265419706702232 ], [ 433726.217185552697629, 7613892.958540285006166 ], [ 433753.77785318007227, 7613901.147133300080895 ], [ 433786.552048182755243, 7613908.943273820914328 ], [ 433814.192429716815241, 7613914.353477349504828 ], [ 433851.557750655745622, 7613920.167768919840455 ], [ 433885.40610147791449, 7613924.299902405589819 ] ] ] } },
{ "type": "Feature", "properties": { "fid": 373.0, "COMPR_M": 251.08, "CLASSE": "02 - Curta", "CD_FAZ": " 400554", "TALHOES": "7, 1", "FAZ_tAL": "404071007, 400554001", "ID_LINHA": 16709 }, "geometry": { "type": "MultiLineString", "coordinates": [ [ [ 433645.322140512813348, 7613855.111318765208125 ], [ 433671.620605333650019, 7613868.204876199364662 ], [ 433700.237821484799497, 7613880.469848588109016 ], [ 433727.1504918866558, 7613890.107277855277061 ], [ 433754.552811161091086, 7613898.248823742382228 ], [ 433787.182550593686756, 7613906.010147114284337 ], [ 433814.714322369429283, 7613911.399091859348118 ], [ 433851.969427308999002, 7613917.195997318252921 ], [ 433885.70893459324725, 7613921.315163060091436 ] ] ] } },
{ "type": "Feature", "properties": { "fid": 374.0, "COMPR_M": 249.0, "CLASSE": "02 - Curta", "CD_FAZ": " 400554", "TALHOES": "7, 1", "FAZ_tAL": "404071007, 400554001", "ID_LINHA": 16710 }, "geometry": { "type": "MultiLineString", "coordinates": [ [ [ 433647.534076531592291, 7613852.889550027437508 ], [ 433672.892801426001824, 7613865.487811636179686 ], [ 433701.326646664529108, 7613877.674277466721833 ], [ 433728.083798220963217, 7613887.256015424616635 ], [ 433755.327769141818862, 7613895.350514184683561 ], [ 433787.813053003628738, 7613903.077020408585668 ], [ 433815.236215024255216, 7613908.444706369191408 ], [ 433852.381103960797191, 7613914.224225716665387 ], [ 433886.011767708347179, 7613918.330423714593053 ] ] ] } },
{ "type": "Feature", "properties": { "fid": 375.0, "COMPR_M": 246.93, "CLASSE": "02 - Curta", "CD_FAZ": " 400554", "TALHOES": "7, 1", "FAZ_tAL": "404071007, 400554001", "ID_LINHA": 16711 }, "geometry": { "type": "MultiLineString", "coordinates": [ [ [ 433649.746012550371233, 7613850.667781289666891 ], [ 433674.164997519110329, 7613862.770747076719999 ], [ 433702.415471844666172, 7613874.878706345334649 ], [ 433729.017104555794504, 7613884.404752994887531 ], [ 433756.102727122954093, 7613892.452204627916217 ], [ 433788.44355541409459, 7613900.143893702886999 ], [ 433815.758107677916996, 7613905.490320879966021 ], [ 433852.792780615796801, 7613911.252454115077853 ], [ 433886.314600823097862, 7613915.345684368163347 ] ] ] } },
{ "type": "Feature", "properties": { "fid": 376.0, "COMPR_M": 244.86, "CLASSE": "02 - Curta", "CD_FAZ": " 400554", "TALHOES": "7, 1", "FAZ_tAL": "404071007, 400554001", "ID_LINHA": 16712 }, "geometry": { "type": "MultiLineString", "coordinates": [ [ [ 433651.957948568451684, 7613848.446012550964952 ], [ 433675.437193612218834, 7613860.053682515397668 ], [ 433703.504297023173422, 7613872.083135225810111 ], [ 433729.950410888472106, 7613881.553490564227104 ], [ 433756.877685103158001, 7613889.553895073011518 ], [ 433789.074057826132048, 7613897.210766995325685 ], [ 433816.280000330531038, 7613902.535935388877988 ], [ 433853.204457267478574, 7613908.280682511627674 ], [ 433886.617433938197792, 7613912.360945021733642 ] ] ] } },
{ "type": "Feature", "properties": { "fid": 377.0, "COMPR_M": 242.78, "CLASSE": "02 - Curta", "CD_FAZ": " 400554", "TALHOES": "7, 1", "FAZ_tAL": "404071007, 400554001", "ID_LINHA": 16713 }, "geometry": { "type": "MultiLineString", "coordinates": [ [ [ 433654.171248949540313, 7613846.222873385064304 ], [ 433676.709389702766202, 7613857.336617954075336 ], [ 433704.59312220220454, 7613869.287564106285572 ], [ 433730.883717224234715, 7613878.702228134498 ], [ 433757.652643084409647, 7613886.655585514381528 ], [ 433789.704560237354599, 7613894.277640288695693 ], [ 433816.801892985240556, 7613899.5815498996526 ], [ 433853.616133919800632, 7613905.308910909108818 ], [ 433886.920267053006683, 7613909.376205677166581 ] ] ] } },
{ "type": "Feature", "properties": { "fid": 378.0, "COMPR_M": 240.7, "CLASSE": "02 - Curta", "CD_FAZ": " 400554", "TALHOES": "7, 1", "FAZ_tAL": "404071007, 400554001", "ID_LINHA": 16714 }, "geometry": { "type": "MultiLineString", "coordinates": [ [ [ 433656.397321033582557, 7613843.98690574336797 ], [ 433677.98158579604933, 7613854.61955339089036 ], [ 433705.681947382166982, 7613866.491992985829711 ], [ 433731.817023559240624, 7613875.850965704768896 ], [ 433758.427601063507609, 7613883.757275957614183 ], [ 433790.335062648286112, 7613891.344513582065701 ], [ 433817.323785639484413, 7613896.62716440949589 ], [ 433854.027810573286843, 7613902.337139306589961 ], [ 433887.223100166826043, 7613906.391466329805553 ] ] ] } },
{ "type": "Feature", "properties": { "fid": 379.0, "COMPR_M": 238.63, "CLASSE": "02 - Curta", "CD_FAZ": " 400554", "TALHOES": "7, 1", "FAZ_tAL": "404071007, 400554001", "ID_LINHA": 16715 }, "geometry": { "type": "MultiLineString", "coordinates": [ [ [ 433658.623393116984516, 7613841.750938100740314 ], [ 433690.2308987993747, 7613856.907366663217545 ], [ 433706.7707725619548, 7613863.696421864442527 ], [ 433732.750329892674927, 7613872.999703274108469 ], [ 433759.202559044933878, 7613880.858966400846839 ], [ 433790.965565058984794, 7613888.411386876367033 ], [ 433817.84567829198204, 7613893.67277891933918 ], [ 433854.439487226074561, 7613899.365367705002427 ], [ 433887.525933281693142, 7613903.40672698430717 ] ] ] } },
{ "type": "Feature", "properties": { "fid": 380.0, "COMPR_M": 236.55, "CLASSE": "02 - Curta", "CD_FAZ": " 400554", "TALHOES": "7, 1", "FAZ_tAL": "404071007, 400554001", "ID_LINHA": 16716 }, "geometry": { "type": "MultiLineString", "coordinates": [ [ [ 433660.849465198582038, 7613839.51497045904398 ], [ 433691.436091197363567, 7613854.159752612933517 ], [ 433707.859597740171012, 7613860.900850744917989 ], [ 433733.683636227273382, 7613870.148440841585398 ], [ 433759.977517026709393, 7613877.960656844079494 ], [ 433791.596067470032722, 7613885.478260169737041 ], [ 433818.367570944596082, 7613890.71839342918247 ], [ 433854.851163878745865, 7613896.393596099689603 ], [ 433887.828766396851279, 7613900.421987637877464 ] ] ] } },
{ "type": "Feature", "properties": { "fid": 381.0, "COMPR_M": 234.47, "CLASSE": "02 - Curta", "CD_FAZ": " 400554", "TALHOES": "7, 1", "FAZ_tAL": "404071007, 400554001", "ID_LINHA": 16717 }, "geometry": { "type": "MultiLineString", "coordinates": [ [ [ 433663.075537282857113, 7613837.279002817347646 ], [ 433692.641283594421111, 7613851.412138562649488 ], [ 433708.948422920773737, 7613858.105279624462128 ], [ 433734.616942562279291, 7613867.297178413718939 ], [ 433760.75247500569094, 7613875.062347288243473 ], [ 433792.226569881429896, 7613882.545133463107049 ], [ 433818.889463599422015, 7613887.764007938094437 ], [ 433855.262840531417169, 7613893.421824499964714 ], [ 433888.131599511776585, 7613897.437248292379081 ] ] ] } },
{ "type": "Feature", "properties": { "fid": 382.0, "COMPR_M": 232.39, "CLASSE": "02 - Curta", "CD_FAZ": " 400554", "TALHOES": "7, 1", "FAZ_tAL": "404071007, 400554001", "ID_LINHA": 16718 }, "geometry": { "type": "MultiLineString", "coordinates": [ [ [ 433665.30160936655011, 7613835.043035175651312 ], [ 433693.846475991769694, 7613848.66452451236546 ], [ 433710.037248099804856, 7613855.309708504937589 ], [ 433735.550248895888217, 7613864.445915983989835 ], [ 433761.527432987641077, 7613872.164037729613483 ], [ 433792.857072291371878, 7613879.612006755545735 ], [ 433819.411356253083795, 7613884.80962244886905 ], [ 433855.674517183972057, 7613890.450052897445858 ], [ 433888.434432627691422, 7613894.452508946880698 ] ] ] } },
{ "type": "Feature", "properties": { "fid": 383.0, "COMPR_M": 230.31, "CLASSE": "02 - Curta", "CD_FAZ": " 400554", "TALHOES": "7, 1", "FAZ_tAL": "404071007, 400554001", "ID_LINHA": 16719 }, "geometry": { "type": "MultiLineString", "coordinates": [ [ [ 433667.527681449020747, 7613832.807067533954978 ], [ 433695.051668388769031, 7613845.916910462081432 ], [ 433711.126073278544936, 7613852.514137383550406 ], [ 433736.483555229264311, 7613861.594653552398086 ], [ 433762.302390968659893, 7613869.265728171914816 ], [ 433793.487574701604899, 7613876.678880048915744 ], [ 433819.933248906338122, 7613881.855236958712339 ], [ 433856.086193837807514, 7613887.478281294927001 ], [ 433888.737265741277952, 7613891.46776959951967 ] ] ] } },
{ "type": "Feature", "properties": { "fid": 384.0, "COMPR_M": 228.23, "CLASSE": "02 - Curta", "CD_FAZ": " 400554", "TALHOES": "7, 1", "FAZ_tAL": "404071007, 400554001", "ID_LINHA": 16720 }, "geometry": { "type": "MultiLineString", "coordinates": [ [ [ 433669.753753530909307, 7613830.571099892258644 ], [ 433696.256860785535537, 7613843.169296409934759 ], [ 433712.214898458332755, 7613849.718566263094544 ], [ 433737.416861564386636, 7613858.743391120806336 ], [ 433763.077348949445877, 7613866.367418615147471 ], [ 433794.118077114224434, 7613873.74575334507972 ], [ 433820.455141560407355, 7613878.900851466692984 ], [ 433856.497870488907211, 7613884.506509693339467 ], [ 433889.040098856552504, 7613888.483030254021287 ] ] ] } },
{ "type": "Feature", "properties": { "fid": 385.0, "COMPR_M": 226.15, "CLASSE": "02 - Curta", "CD_FAZ": " 400554", "TALHOES": "7, 1", "FAZ_tAL": "404071007, 400554001", "ID_LINHA": 16721 }, "geometry": { "type": "MultiLineString", "coordinates": [ [ [ 433671.979825614835136, 7613828.33513225056231 ], [ 433697.462053183291573, 7613840.421682361513376 ], [ 433713.303723637247458, 7613846.922995142638683 ], [ 433738.350167898694053, 7613855.892128691077232 ], [ 433763.852306929999031, 7613863.469109058380127 ], [ 433794.748579525272362, 7613870.812626637518406 ], [ 433820.97703421395272, 7613875.946465978398919 ], [ 433856.909547142568044, 7613881.534738090820611 ], [ 433889.342931970895734, 7613885.498290907591581 ] ] ] } },
{ "type": "Feature", "properties": { "fid": 386.0, "COMPR_M": 224.07, "CLASSE": "02 - Curta", "CD_FAZ": " 400554", "TALHOES": "7, 1", "FAZ_tAL": "404071007, 400554001", "ID_LINHA": 16722 }, "geometry": { "type": "MultiLineString", "coordinates": [ [ [ 433674.205897698237095, 7613826.099164608865976 ], [ 433698.667245579359587, 7613837.674068311229348 ], [ 433714.392548817908391, 7613844.127424023114145 ], [ 433739.283474232826848, 7613853.040866263210773 ], [ 433764.627264911541715, 7613860.570799501612782 ], [ 433795.379081936087459, 7613867.879499930888414 ], [ 433821.498926867730916, 7613872.992080487310886 ], [ 433857.321223796228878, 7613878.562966487370431 ], [ 433889.645765086228494, 7613882.513551561161876 ] ] ] } },
{ "type": "Feature", "properties": { "fid": 387.0, "COMPR_M": 220.46, "CLASSE": "02 - Curta", "CD_FAZ": " 400554", "TALHOES": "7, 1", "FAZ_tAL": "404071007, 400554001", "ID_LINHA": 16723 }, "geometry": { "type": "MultiLineString", "coordinates": [ [ [ 433676.431969780358486, 7613823.863196967169642 ], [ 433699.872437977115624, 7613834.926454260013998 ], [ 433715.48137399693951, 7613841.331852899864316 ], [ 433740.216780566144735, 7613850.189603831619024 ], [ 433765.402222892211284, 7613857.672489944845438 ], [ 433796.009584345272742, 7613864.946373224258423 ], [ 433822.02081952104345, 7613870.037694998085499 ], [ 433857.732900447736029, 7613875.591194885782897 ], [ 433888.427929232362658, 7613879.364576393738389 ] ] ] } },
{ "type": "Feature", "properties": { "fid": 388.0, "COMPR_M": 216.75, "CLASSE": "02 - Curta", "CD_FAZ": " 400554", "TALHOES": "7, 1", "FAZ_tAL": "404071007, 400554001", "ID_LINHA": 16724 }, "geometry": { "type": "MultiLineString", "coordinates": [ [ [ 433678.658041864575353, 7613821.627229325473309 ], [ 433701.07763037388213, 7613832.17884020972997 ], [ 433724.709175172669347, 7613841.620541101321578 ], [ 433749.446483169624116, 7613849.969955872744322 ], [ 433766.177180871251039, 7613854.774180388078094 ], [ 433796.640086757484823, 7613862.013246517628431 ], [ 433822.542712174530607, 7613867.083309508860111 ], [ 433858.144577100523748, 7613872.619423283264041 ], [ 433887.109579643933102, 7613876.204745506867766 ] ] ] } },
{ "type": "Feature", "properties": { "fid": 389.0, "COMPR_M": 213.11, "CLASSE": "02 - Curta", "CD_FAZ": " 400554", "TALHOES": "7, 1", "FAZ_tAL": "404071007, 400554001", "ID_LINHA": 16725 }, "geometry": { "type": "MultiLineString", "coordinates": [ [ [ 433680.884113947511651, 7613819.391261682845652 ], [ 433702.28282277227845, 7613829.431226158514619 ], [ 433725.746504422510043, 7613838.805455634370446 ], [ 433750.327297565469053, 7613847.102043015882373 ], [ 433766.952138852677308, 7613851.875870829448104 ], [ 433797.27058916882379, 7613859.08011981099844 ], [ 433823.064604828250594, 7613864.128924017772079 ], [ 433858.556253752612974, 7613869.647651679813862 ], [ 433885.859377770510036, 7613873.052274731919169 ] ] ] } },
{ "type": "Feature", "properties": { "fid": 390.0, "COMPR_M": 209.52, "CLASSE": "02 - Curta", "CD_FAZ": " 400554", "TALHOES": "7, 1", "FAZ_tAL": "404071007, 400554001", "ID_LINHA": 16726 }, "geometry": { "type": "MultiLineString", "coordinates": [ [ [ 433683.118946199363563, 7613817.146494930610061 ], [ 433703.488015168404672, 7613826.683612108230591 ], [ 433726.78383367479546, 7613835.990370168350637 ], [ 433743.016699570056517, 7613841.635816540569067 ], [ 433767.727096834569238, 7613848.977561274543405 ], [ 433797.901091579871718, 7613856.146993104368448 ], [ 433823.586497481388506, 7613861.174538527615368 ], [ 433858.967930405866355, 7613866.675880078226328 ], [ 433884.671480204619002, 7613869.906532969325781 ] ] ] } },
{ "type": "Feature", "properties": { "fid": 391.0, "COMPR_M": 205.99, "CLASSE": "02 - Curta", "CD_FAZ": " 400554", "TALHOES": "7, 1", "FAZ_tAL": "404071007, 400554001", "ID_LINHA": 16727 }, "geometry": { "type": "MultiLineString", "coordinates": [ [ [ 433685.360261178575456, 7613814.895216634497046 ], [ 433704.69320756488014, 7613823.935998057946563 ], [ 433727.821162925451063, 7613833.175284700468183 ], [ 433743.950005903257988, 7613838.784554110839963 ], [ 433768.502054815471638, 7613846.079251716844738 ], [ 433798.531593990628608, 7613853.213866398669779 ], [ 433824.108390136098024, 7613858.220153037458658 ], [ 433859.379607058479451, 7613863.704108476638794 ], [ 433883.537713787460234, 7613866.766637496650219 ] ] ] } },
{ "type": "Feature", "properties": { "fid": 392.0, "COMPR_M": 202.52, "CLASSE": "02 - Curta", "CD_FAZ": " 400554", "TALHOES": "7, 1", "FAZ_tAL": "404071007, 400554001", "ID_LINHA": 16728 }, "geometry": { "type": "MultiLineString", "coordinates": [ [ [ 433687.601576156564988, 7613812.643938338384032 ], [ 433705.898399962286931, 7613821.188384007662535 ], [ 433728.858492175117135, 7613830.360199234448373 ], [ 433752.969740749918856, 7613838.498304439708591 ], [ 433769.277012795384508, 7613843.180942161008716 ], [ 433799.162096401152667, 7613850.280739692039788 ], [ 433824.630282787722535, 7613855.265767546370625 ], [ 433859.791283711616416, 7613860.732336873188615 ], [ 433882.463788605993614, 7613863.633205020800233 ] ] ] } },
{ "type": "Feature", "properties": { "fid": 393.0, "COMPR_M": 199.09, "CLASSE": "02 - Curta", "CD_FAZ": " 400554", "TALHOES": "7, 1", "FAZ_tAL": "404071007, 400554001", "ID_LINHA": 16729 }, "geometry": { "type": "MultiLineString", "coordinates": [ [ [ 433689.84289113280829, 7613810.392660044133663 ], [ 433707.103592359402683, 7613818.440769957378507 ], [ 433729.895821426645853, 7613827.545113766565919 ], [ 433753.850555146345869, 7613835.630391583777964 ], [ 433770.05197077646153, 7613840.282632603310049 ], [ 433799.792598812666256, 7613847.347612986341119 ], [ 433825.152175442141015, 7613852.311382057145238 ], [ 433860.202960364695173, 7613857.760565270669758 ], [ 433881.433318273804616, 7613860.485014175996184 ] ] ] } },
{ "type": "Feature", "properties": { "fid": 488.0, "COMPR_M": 306.98, "CLASSE": "03 - Média", "CD_FAZ": " 400554", "TALHOES": "7, 1", "FAZ_tAL": "404071007, 400554001", "ID_LINHA": 16819 }, "geometry": { "type": "MultiLineString", "coordinates": [ [ [ 433585.816265078785364, 7613914.881715681403875 ], [ 433624.207532834378071, 7613935.286793855950236 ], [ 433650.459549696475733, 7613947.578630328178406 ], [ 433681.141346644551959, 7613959.854130711406469 ], [ 433712.452278566779569, 7613970.422295909374952 ], [ 433744.297419995011296, 7613979.251086375676095 ], [ 433785.363605184946209, 7613988.326519274152815 ], [ 433815.93264044704847, 7613993.726544080302119 ], [ 433840.854157684370875, 7613997.433830580674112 ], [ 433877.532440493814647, 7614001.903125403448939 ] ] ] } },
{ "type": "Feature", "properties": { "fid": 489.0, "COMPR_M": 309.04, "CLASSE": "03 - Média", "CD_FAZ": " 400554", "TALHOES": "7, 1", "FAZ_tAL": "404071007, 400554001", "ID_LINHA": 16820 }, "geometry": { "type": "MultiLineString", "coordinates": [ [ [ 433583.623888439615257, 7613917.083838092163205 ], [ 433609.465314757952001, 7613931.186191620305181 ], [ 433622.597199418232776, 7613937.837525943294168 ], [ 433649.255775138153695, 7613950.326562330126762 ], [ 433680.092293123481795, 7613962.664761105552316 ], [ 433711.561193438945338, 7613973.286922061815858 ], [ 433743.56706160295289, 7613982.160838540643454 ], [ 433784.790516823879443, 7613991.271273968741298 ], [ 433815.463425675872713, 7613996.689623773097992 ], [ 433840.44292031013174, 7614000.405510915443301 ], [ 433877.229621941514779, 7614004.887721220031381 ] ] ] } }
]
}
