{
"type": "FeatureCollection",
"name": " 400096",
"crs": { "type": "name", "properties": { "name": "urn:ogc:def:crs:EPSG::32722" } },
"xy_coordinate_resolution": 1e-15,
"features": [
{ "type": "Feature", "properties": { "fid": 134.0, "COMPR_M": 201.62, "CLASSE": "02 - Curta", "CD_FAZ": " 400096", "TALHOES": "5, 3", "FAZ_tAL": "400551005, 400096003", "ID_LINHA": 28450 }, "geometry": { "type": "MultiLineString", "coordinates": [ [ [ 422088.798047498741653, 7647583.822619861923158 ], [ 422251.553604015382007, 7647464.929403400048614 ] ] ] } },
{ "type": "Feature", "properties": { "fid": 135.0, "COMPR_M": 201.66, "CLASSE": "02 - Curta", "CD_FAZ": " 400096", "TALHOES": "5, 3", "FAZ_tAL": "400551005, 400096003", "ID_LINHA": 28451 }, "geometry": { "type": "MultiLineString", "coordinates": [ [ [ 422096.194515846844297, 7647599.224594859406352 ], [ 422258.978459079167806, 7647480.310641854070127 ] ] ] } },
{ "type": "Feature", "properties": { "fid": 136.0, "COMPR_M": 201.68, "CLASSE": "02 - Curta", "CD_FAZ": " 400096", "TALHOES": "5, 3", "FAZ_tAL": "400551005, 400096003", "ID_LINHA": 28452 }, "geometry": { "type": "MultiLineString", "coordinates": [ [ [ 422103.601666559232399, 7647614.618766374886036 ], [ 422266.40331414481625, 7647495.69188030436635 ] ] ] } },
{ "type": "Feature", "properties": { "fid": 137.0, "COMPR_M": 201.7, "CLASSE": "02 - Curta", "CD_FAZ": " 400096", "TALHOES": "5, 3", "FAZ_tAL": "400551005, 400096003", "ID_LINHA": 28453 }, "geometry": { "type": "MultiLineString", "coordinates": [ [ [ 422111.008817272086162, 7647630.012937889434397 ], [ 422273.828169208369218, 7647511.073118759319186 ] ] ] } },
{ "type": "Feature", "properties": { "fid": 155.0, "COMPR_M": 200.79, "CLASSE": "02 - Curta", "CD_FAZ": " 400096", "TALHOES": "4, 2", "FAZ_tAL": "400551004, 400096002", "ID_LINHA": 28467 }, "geometry": { "type": "MultiLineString", "coordinates": [ [ [ 421899.078983297047671, 7647191.451020197942853 ], [ 422076.882464517490007, 7647098.304088447242975 ] ] ] } },
{ "type": "Feature", "properties": { "fid": 156.0, "COMPR_M": 200.85, "CLASSE": "02 - Curta", "CD_FAZ": " 400096", "TALHOES": "4, 2", "FAZ_tAL": "400551004, 400096002", "ID_LINHA": 28468 }, "geometry": { "type": "MultiLineString", "coordinates": [ [ [ 421900.064532428048551, 7647193.644107425585389 ], [ 422077.924869381648023, 7647100.467390337027609 ] ] ] } },
{ "type": "Feature", "properties": { "fid": 157.0, "COMPR_M": 200.92, "CLASSE": "02 - Curta", "CD_FAZ": " 400096", "TALHOES": "4, 2", "FAZ_tAL": "400551004, 400096002", "ID_LINHA": 28469 }, "geometry": { "type": "MultiLineString", "coordinates": [ [ [ 421901.050081559980754, 7647195.837194653227925 ], [ 422078.967274245689623, 7647102.630692222155631 ] ] ] } },
{ "type": "Feature", "properties": { "fid": 158.0, "COMPR_M": 200.98, "CLASSE": "02 - Curta", "CD_FAZ": " 400096", "TALHOES": "4, 2", "FAZ_tAL": "400551004, 400096002", "ID_LINHA": 28470 }, "geometry": { "type": "MultiLineString", "coordinates": [ [ [ 421902.035630691563711, 7647198.030281879939139 ], [ 422080.0096791095566, 7647104.793994111940265 ] ] ] } },
{ "type": "Feature", "properties": { "fid": 159.0, "COMPR_M": 201.05, "CLASSE": "02 - Curta", "CD_FAZ": " 400096", "TALHOES": "4, 2", "FAZ_tAL": "400551004, 400096002", "ID_LINHA": 28471 }, "geometry": { "type": "MultiLineString", "coordinates": [ [ [ 421903.02117982134223, 7647200.223369106650352 ], [ 422081.052083974645939, 7647106.957296000793576 ] ] ] } },
{ "type": "Feature", "properties": { "fid": 259.0, "COMPR_M": 196.84, "CLASSE": "02 - Curta", "CD_FAZ": " 400096", "TALHOES": "1", "FAZ_tAL": "400551001, 400096001", "ID_LINHA": 28571 }, "geometry": { "type": "MultiLineString", "coordinates": [ [ [ 421399.792862039641477, 7646128.861316532827914 ], [ 421558.690155326272361, 7646012.78656804934144 ] ] ] } },
{ "type": "Feature", "properties": { "fid": 263.0, "COMPR_M": 196.92, "CLASSE": "02 - Curta", "CD_FAZ": " 400096", "TALHOES": "1", "FAZ_tAL": "400551001, 400096001", "ID_LINHA": 28575 }, "geometry": { "type": "MultiLineString", "coordinates": [ [ [ 421407.121938723546918, 7646144.312521261163056 ], [ 421566.078213703003712, 7646028.19468654692173 ] ] ] } },
{ "type": "Feature", "properties": { "fid": 267.0, "COMPR_M": 196.94, "CLASSE": "02 - Curta", "CD_FAZ": " 400096", "TALHOES": "1", "FAZ_tAL": "400551001, 400096001", "ID_LINHA": 28579 }, "geometry": { "type": "MultiLineString", "coordinates": [ [ [ 421414.486427547817584, 7646159.737857356667519 ], [ 421573.466272077523172, 7646043.60280504450202 ] ] ] } },
{ "type": "Feature", "properties": { "fid": 274.0, "COMPR_M": 196.43, "CLASSE": "02 - Curta", "CD_FAZ": " 400096", "TALHOES": "1", "FAZ_tAL": "400551001, 400096001", "ID_LINHA": 28586 }, "geometry": { "type": "MultiLineString", "coordinates": [ [ [ 421427.900317908788566, 7646187.834005245007575 ], [ 421586.467598655610345, 7646072.000331495888531 ] ] ] } },
{ "type": "Feature", "properties": { "fid": 275.0, "COMPR_M": 197.0, "CLASSE": "02 - Curta", "CD_FAZ": " 400096", "TALHOES": "1", "FAZ_tAL": "400551001, 400096001", "ID_LINHA": 28587 }, "geometry": { "type": "MultiLineString", "coordinates": [ [ [ 421429.215405197697692, 7646190.588529547676444 ], [ 421588.23722597619053, 7646074.422813516110182 ] ] ] } },
{ "type": "Feature", "properties": { "fid": 283.0, "COMPR_M": 195.63, "CLASSE": "02 - Curta", "CD_FAZ": " 400096", "TALHOES": "1", "FAZ_tAL": "400551001, 400096001", "ID_LINHA": 28595 }, "geometry": { "type": "MultiLineString", "coordinates": [ [ [ 421319.504785775090568, 7645958.655707985162735 ], [ 421477.421513190725818, 7645843.297264570370317 ] ] ] } },
{ "type": "Feature", "properties": { "fid": 287.0, "COMPR_M": 195.75, "CLASSE": "02 - Curta", "CD_FAZ": " 400096", "TALHOES": "1", "FAZ_tAL": "400551001, 400096001", "ID_LINHA": 28599 }, "geometry": { "type": "MultiLineString", "coordinates": [ [ [ 421326.795581994345412, 7645974.134876657277346 ], [ 421484.809571568213869, 7645858.705383067950606 ] ] ] } },
{ "type": "Feature", "properties": { "fid": 291.0, "COMPR_M": 195.87, "CLASSE": "02 - Curta", "CD_FAZ": " 400096", "TALHOES": "1", "FAZ_tAL": "400551001, 400096001", "ID_LINHA": 28603 }, "geometry": { "type": "MultiLineString", "coordinates": [ [ [ 421334.088465669134166, 7645989.612520439550281 ], [ 421492.19762994319899, 7645874.113501565530896 ] ] ] } },
{ "type": "Feature", "properties": { "fid": 295.0, "COMPR_M": 195.99, "CLASSE": "02 - Curta", "CD_FAZ": " 400096", "TALHOES": "1", "FAZ_tAL": "400551001, 400096001", "ID_LINHA": 28607 }, "geometry": { "type": "MultiLineString", "coordinates": [ [ [ 421341.374446143803652, 7646005.095207020640373 ], [ 421499.585688320221379, 7645889.521620063111186 ] ] ] } },
{ "type": "Feature", "properties": { "fid": 299.0, "COMPR_M": 196.14, "CLASSE": "02 - Curta", "CD_FAZ": " 400096", "TALHOES": "1", "FAZ_tAL": "400551001, 400096001", "ID_LINHA": 28611 }, "geometry": { "type": "MultiLineString", "coordinates": [ [ [ 421348.646604952635244, 7646020.587990352883935 ], [ 421506.973746693809517, 7645904.929738562554121 ] ] ] } },
{ "type": "Feature", "properties": { "fid": 303.0, "COMPR_M": 196.28, "CLASSE": "02 - Curta", "CD_FAZ": " 400096", "TALHOES": "1", "FAZ_tAL": "400551001, 400096001", "ID_LINHA": 28615 }, "geometry": { "type": "MultiLineString", "coordinates": [ [ [ 421355.918763762456365, 7646036.080773686058819 ], [ 421514.361805070424452, 7645920.337857059203088 ] ] ] } },
{ "type": "Feature", "properties": { "fid": 307.0, "COMPR_M": 196.37, "CLASSE": "02 - Curta", "CD_FAZ": " 400096", "TALHOES": "1", "FAZ_tAL": "400551001, 400096001", "ID_LINHA": 28619 }, "geometry": { "type": "MultiLineString", "coordinates": [ [ [ 421363.231860333064105, 7646051.543651912361383 ], [ 421521.749863447214011, 7645935.745975559577346 ] ] ] } },
{ "type": "Feature", "properties": { "fid": 311.0, "COMPR_M": 196.43, "CLASSE": "02 - Curta", "CD_FAZ": " 400096", "TALHOES": "1", "FAZ_tAL": "400551001, 400096001", "ID_LINHA": 28623 }, "geometry": { "type": "MultiLineString", "coordinates": [ [ [ 421370.575223773077596, 7646066.984420137479901 ], [ 421529.137921823421493, 7645951.154094057157636 ] ] ] } },
{ "type": "Feature", "properties": { "fid": 315.0, "COMPR_M": 196.48, "CLASSE": "02 - Curta", "CD_FAZ": " 400096", "TALHOES": "1", "FAZ_tAL": "400551001, 400096001", "ID_LINHA": 28627 }, "geometry": { "type": "MultiLineString", "coordinates": [ [ [ 421377.918587211868726, 7646082.425188365392387 ], [ 421536.525980198814068, 7645966.562212556600571 ] ] ] } },
{ "type": "Feature", "properties": { "fid": 319.0, "COMPR_M": 196.58, "CLASSE": "02 - Curta", "CD_FAZ": " 400096", "TALHOES": "1", "FAZ_tAL": "400551001, 400096001", "ID_LINHA": 28631 }, "geometry": { "type": "MultiLineString", "coordinates": [ [ [ 421385.2275822761585, 7646097.891062751412392 ], [ 421543.914038574672304, 7645981.970331054180861 ] ] ] } },
{ "type": "Feature", "properties": { "fid": 323.0, "COMPR_M": 196.71, "CLASSE": "02 - Curta", "CD_FAZ": " 400096", "TALHOES": "1", "FAZ_tAL": "400551001, 400096001", "ID_LINHA": 28635 }, "geometry": { "type": "MultiLineString", "coordinates": [ [ [ 421392.510222157405224, 7646113.376189643517137 ], [ 421551.302096950123087, 7645997.37844955176115 ] ] ] } },
{ "type": "Feature", "properties": { "fid": 338.0, "COMPR_M": 193.52, "CLASSE": "02 - Curta", "CD_FAZ": " 400096", "TALHOES": "1", "FAZ_tAL": "400551001, 400096001", "ID_LINHA": 28650 }, "geometry": { "type": "MultiLineString", "coordinates": [ [ [ 421223.131988212582655, 7645754.874602480791509 ], [ 421379.348028203006834, 7645640.758514180779457 ] ] ] } },
{ "type": "Feature", "properties": { "fid": 339.0, "COMPR_M": 194.09, "CLASSE": "02 - Curta", "CD_FAZ": " 400096", "TALHOES": "1", "FAZ_tAL": "400551001, 400096001", "ID_LINHA": 28651 }, "geometry": { "type": "MultiLineString", "coordinates": [ [ [ 421224.443837756291032, 7645757.631491961888969 ], [ 421381.117655523063149, 7645643.180996202863753 ] ] ] } },
{ "type": "Feature", "properties": { "fid": 343.0, "COMPR_M": 194.24, "CLASSE": "02 - Curta", "CD_FAZ": " 400096", "TALHOES": "1", "FAZ_tAL": "400551001, 400096001", "ID_LINHA": 28655 }, "geometry": { "type": "MultiLineString", "coordinates": [ [ [ 421231.774422306800261, 7645773.081595189869404 ], [ 421388.575195088516921, 7645658.538358572870493 ] ] ] } },
{ "type": "Feature", "properties": { "fid": 347.0, "COMPR_M": 194.42, "CLASSE": "02 - Curta", "CD_FAZ": " 400096", "TALHOES": "1", "FAZ_tAL": "400551001, 400096001", "ID_LINHA": 28659 }, "geometry": { "type": "MultiLineString", "coordinates": [ [ [ 421239.093441684613936, 7645788.540146794170141 ], [ 421396.032734652922954, 7645673.89572094194591 ] ] ] } },
{ "type": "Feature", "properties": { "fid": 351.0, "COMPR_M": 194.62, "CLASSE": "02 - Curta", "CD_FAZ": " 400096", "TALHOES": "1", "FAZ_tAL": "400551001, 400096001", "ID_LINHA": 28663 }, "geometry": { "type": "MultiLineString", "coordinates": [ [ [ 421246.388859518512618, 7645804.015939369797707 ], [ 421403.490274218202103, 7645689.253083311021328 ] ] ] } },
{ "type": "Feature", "properties": { "fid": 354.0, "COMPR_M": 194.28, "CLASSE": "02 - Curta", "CD_FAZ": " 400096", "TALHOES": "1", "FAZ_tAL": "400551001, 400096001", "ID_LINHA": 28666 }, "geometry": { "type": "MultiLineString", "coordinates": [ [ [ 421252.352211902092677, 7645816.749610218219459 ], [ 421409.17818645958323, 7645702.187963658943772 ] ] ] } },
{ "type": "Feature", "properties": { "fid": 355.0, "COMPR_M": 194.86, "CLASSE": "02 - Curta", "CD_FAZ": " 400096", "TALHOES": "1", "FAZ_tAL": "400551001, 400096001", "ID_LINHA": 28667 }, "geometry": { "type": "MultiLineString", "coordinates": [ [ [ 421253.648592854849994, 7645819.517799532040954 ], [ 421410.947813780978322, 7645704.610445680096745 ] ] ] } },
{ "type": "Feature", "properties": { "fid": 358.0, "COMPR_M": 194.46, "CLASSE": "02 - Curta", "CD_FAZ": " 400096", "TALHOES": "1", "FAZ_tAL": "400551001, 400096001", "ID_LINHA": 28670 }, "geometry": { "type": "MultiLineString", "coordinates": [ [ [ 421259.611945236159954, 7645832.251470383256674 ], [ 421416.584216289920732, 7645717.582953980192542 ] ] ] } },
{ "type": "Feature", "properties": { "fid": 359.0, "COMPR_M": 195.04, "CLASSE": "02 - Curta", "CD_FAZ": " 400096", "TALHOES": "1", "FAZ_tAL": "400551001, 400096001", "ID_LINHA": 28671 }, "geometry": { "type": "MultiLineString", "coordinates": [ [ [ 421260.91167447186308, 7645835.017213771119714 ], [ 421418.35384360968601, 7645720.005436001345515 ] ] ] } },
{ "type": "Feature", "properties": { "fid": 362.0, "COMPR_M": 194.57, "CLASSE": "02 - Curta", "CD_FAZ": " 400096", "TALHOES": "1", "FAZ_tAL": "400551001, 400096001", "ID_LINHA": 28674 }, "geometry": { "type": "MultiLineString", "coordinates": [ [ [ 421266.907319711404853, 7645847.727294631302357 ], [ 421423.967383143957704, 7645732.994645742699504 ] ] ] } },
{ "type": "Feature", "properties": { "fid": 363.0, "COMPR_M": 195.14, "CLASSE": "02 - Curta", "CD_FAZ": " 400096", "TALHOES": "1", "FAZ_tAL": "400551001, 400096001", "ID_LINHA": 28675 }, "geometry": { "type": "MultiLineString", "coordinates": [ [ [ 421268.210720852017403, 7645850.490355686284602 ], [ 421425.737010465411004, 7645735.417127763852477 ] ] ] } },
{ "type": "Feature", "properties": { "fid": 366.0, "COMPR_M": 194.67, "CLASSE": "02 - Curta", "CD_FAZ": " 400096", "TALHOES": "1", "FAZ_tAL": "400551001, 400096001", "ID_LINHA": 28678 }, "geometry": { "type": "MultiLineString", "coordinates": [ [ [ 421274.206366091908421, 7645863.200436546467245 ], [ 421431.350549998576753, 7645748.406337505206466 ] ] ] } },
{ "type": "Feature", "properties": { "fid": 367.0, "COMPR_M": 195.25, "CLASSE": "02 - Curta", "CD_FAZ": " 400096", "TALHOES": "1", "FAZ_tAL": "400551001, 400096001", "ID_LINHA": 28679 }, "geometry": { "type": "MultiLineString", "coordinates": [ [ [ 421275.509767228853889, 7645865.96349760144949 ], [ 421433.120177320379298, 7645750.828819526359439 ] ] ] } },
{ "type": "Feature", "properties": { "fid": 370.0, "COMPR_M": 194.77, "CLASSE": "02 - Curta", "CD_FAZ": " 400096", "TALHOES": "1", "FAZ_tAL": "400551001, 400096001", "ID_LINHA": 28682 }, "geometry": { "type": "MultiLineString", "coordinates": [ [ [ 421281.505412469501607, 7645878.673578461632133 ], [ 421438.733716854942031, 7645763.818029267713428 ] ] ] } },
{ "type": "Feature", "properties": { "fid": 371.0, "COMPR_M": 195.35, "CLASSE": "02 - Curta", "CD_FAZ": " 400096", "TALHOES": "1", "FAZ_tAL": "400551001, 400096001", "ID_LINHA": 28683 }, "geometry": { "type": "MultiLineString", "coordinates": [ [ [ 421282.808813608833589, 7645881.436639520339668 ], [ 421440.503344174358062, 7645766.240511288866401 ] ] ] } },
{ "type": "Feature", "properties": { "fid": 374.0, "COMPR_M": 194.83, "CLASSE": "02 - Curta", "CD_FAZ": " 400096", "TALHOES": "1", "FAZ_tAL": "400551001, 400096001", "ID_LINHA": 28686 }, "geometry": { "type": "MultiLineString", "coordinates": [ [ [ 421288.847732577589341, 7645894.115108843892813 ], [ 421446.116883709502872, 7645779.229721029289067 ] ] ] } },
{ "type": "Feature", "properties": { "fid": 375.0, "COMPR_M": 195.38, "CLASSE": "02 - Curta", "CD_FAZ": " 400096", "TALHOES": "1", "FAZ_tAL": "400551001, 400096001", "ID_LINHA": 28687 }, "geometry": { "type": "MultiLineString", "coordinates": [ [ [ 421290.168306973180734, 7645896.865624807775021 ], [ 421447.886511030548718, 7645781.652203055098653 ] ] ] } },
{ "type": "Feature", "properties": { "fid": 378.0, "COMPR_M": 194.81, "CLASSE": "02 - Curta", "CD_FAZ": " 400096", "TALHOES": "1", "FAZ_tAL": "400551001, 400096001", "ID_LINHA": 28690 }, "geometry": { "type": "MultiLineString", "coordinates": [ [ [ 421296.242949186009355, 7645909.517998241819441 ], [ 421453.500050563481636, 7645794.641412794589996 ] ] ] } },
{ "type": "Feature", "properties": { "fid": 379.0, "COMPR_M": 195.37, "CLASSE": "02 - Curta", "CD_FAZ": " 400096", "TALHOES": "1", "FAZ_tAL": "400551001, 400096001", "ID_LINHA": 28691 }, "geometry": { "type": "MultiLineString", "coordinates": [ [ [ 421297.563523580902256, 7645912.268514203839004 ], [ 421455.269677883537952, 7645797.06389481574297 ] ] ] } },
{ "type": "Feature", "properties": { "fid": 382.0, "COMPR_M": 194.8, "CLASSE": "02 - Curta", "CD_FAZ": " 400096", "TALHOES": "1", "FAZ_tAL": "400551001, 400096001", "ID_LINHA": 28694 }, "geometry": { "type": "MultiLineString", "coordinates": [ [ [ 421303.633088134578429, 7645924.924596877768636 ], [ 421460.883217417460401, 7645810.053104557096958 ] ] ] } },
{ "type": "Feature", "properties": { "fid": 383.0, "COMPR_M": 195.38, "CLASSE": "02 - Curta", "CD_FAZ": " 400096", "TALHOES": "1", "FAZ_tAL": "400551001, 400096001", "ID_LINHA": 28695 }, "geometry": { "type": "MultiLineString", "coordinates": [ [ [ 421304.934046956943348, 7645927.689442049711943 ], [ 421462.652844738331623, 7645812.475586578249931 ] ] ] } },
{ "type": "Feature", "properties": { "fid": 386.0, "COMPR_M": 194.92, "CLASSE": "02 - Curta", "CD_FAZ": " 400096", "TALHOES": "1", "FAZ_tAL": "400551001, 400096001", "ID_LINHA": 28698 }, "geometry": { "type": "MultiLineString", "coordinates": [ [ [ 421310.918457543710247, 7645940.407729843631387 ], [ 421468.266384273185395, 7645825.46479631960392 ] ] ] } },
{ "type": "Feature", "properties": { "fid": 387.0, "COMPR_M": 195.5, "CLASSE": "02 - Curta", "CD_FAZ": " 400096", "TALHOES": "1", "FAZ_tAL": "400551001, 400096001", "ID_LINHA": 28699 }, "geometry": { "type": "MultiLineString", "coordinates": [ [ [ 421312.219416366075166, 7645943.172575015574694 ], [ 421470.036011593590956, 7645827.887278342619538 ] ] ] } },
{ "type": "Feature", "properties": { "fid": 399.0, "COMPR_M": 199.28, "CLASSE": "02 - Curta", "CD_FAZ": " 400096", "TALHOES": "2, 1", "FAZ_tAL": "400551002, 400096001", "ID_LINHA": 28711 }, "geometry": { "type": "MultiLineString", "coordinates": [ [ [ 421626.404122380306944, 7646608.279744440689683 ], [ 421787.271625927533023, 7646490.765753949061036 ] ] ] } },
{ "type": "Feature", "properties": { "fid": 403.0, "COMPR_M": 199.43, "CLASSE": "02 - Curta", "CD_FAZ": " 400096", "TALHOES": "2, 1", "FAZ_tAL": "400551002, 400096001", "ID_LINHA": 28715 }, "geometry": { "type": "MultiLineString", "coordinates": [ [ [ 421633.616689266054891, 7646623.816059777513146 ], [ 421794.605492201750167, 7646506.213459873571992 ] ] ] } },
{ "type": "Feature", "properties": { "fid": 407.0, "COMPR_M": 199.58, "CLASSE": "02 - Curta", "CD_FAZ": " 400096", "TALHOES": "2, 1", "FAZ_tAL": "400551002, 400096001", "ID_LINHA": 28719 }, "geometry": { "type": "MultiLineString", "coordinates": [ [ [ 421640.829256151802838, 7646639.35237511433661 ], [ 421801.939358484640252, 7646521.661165788769722 ] ] ] } },
{ "type": "Feature", "properties": { "fid": 411.0, "COMPR_M": 199.66, "CLASSE": "02 - Curta", "CD_FAZ": " 400096", "TALHOES": "2, 1", "FAZ_tAL": "400551002, 400096001", "ID_LINHA": 28723 }, "geometry": { "type": "MultiLineString", "coordinates": [ [ [ 421648.104807715571951, 7646654.842680031433702 ], [ 421809.2732247642125, 7646537.108871705830097 ] ] ] } },
{ "type": "Feature", "properties": { "fid": 418.0, "COMPR_M": 198.41, "CLASSE": "02 - Curta", "CD_FAZ": " 400096", "TALHOES": "2, 1", "FAZ_tAL": "400551002, 400096001", "ID_LINHA": 28730 }, "geometry": { "type": "MultiLineString", "coordinates": [ [ [ 421529.602836371632293, 7646404.811650490388274 ], [ 421689.764840364921838, 7646287.813028644770384 ] ] ] } },
{ "type": "Feature", "properties": { "fid": 419.0, "COMPR_M": 198.98, "CLASSE": "02 - Curta", "CD_FAZ": " 400096", "TALHOES": "2, 1", "FAZ_tAL": "400551002, 400096001", "ID_LINHA": 28731 }, "geometry": { "type": "MultiLineString", "coordinates": [ [ [ 421530.915382173960097, 7646407.568031357601285 ], [ 421691.534467686084099, 7646290.23551066685468 ] ] ] } },
{ "type": "Feature", "properties": { "fid": 423.0, "COMPR_M": 199.01, "CLASSE": "02 - Curta", "CD_FAZ": " 400096", "TALHOES": "2, 1", "FAZ_tAL": "400551002, 400096001", "ID_LINHA": 28735 }, "geometry": { "type": "MultiLineString", "coordinates": [ [ [ 421538.265638655226212, 7646423.00376420468092 ], [ 421698.912842094316147, 7646305.650703318417072 ] ] ] } },
{ "type": "Feature", "properties": { "fid": 427.0, "COMPR_M": 199.04, "CLASSE": "02 - Curta", "CD_FAZ": " 400096", "TALHOES": "2, 1", "FAZ_tAL": "400551002, 400096001", "ID_LINHA": 28739 }, "geometry": { "type": "MultiLineString", "coordinates": [ [ [ 421545.615895138878841, 7646438.439497049897909 ], [ 421706.291216502955649, 7646321.065895973704755 ] ] ] } },
{ "type": "Feature", "properties": { "fid": 431.0, "COMPR_M": 199.04, "CLASSE": "02 - Curta", "CD_FAZ": " 400096", "TALHOES": "2, 1", "FAZ_tAL": "400551002, 400096001", "ID_LINHA": 28743 }, "geometry": { "type": "MultiLineString", "coordinates": [ [ [ 421552.999331005557906, 7646453.850992298685014 ], [ 421713.669590910722036, 7646336.481088627129793 ] ] ] } },
{ "type": "Feature", "properties": { "fid": 435.0, "COMPR_M": 199.0, "CLASSE": "02 - Curta", "CD_FAZ": " 400096", "TALHOES": "2, 1", "FAZ_tAL": "400551002, 400096001", "ID_LINHA": 28747 }, "geometry": { "type": "MultiLineString", "coordinates": [ [ [ 421560.411023235472385, 7646469.241846224293113 ], [ 421721.049833147553727, 7646351.894916828721762 ] ] ] } },
{ "type": "Feature", "properties": { "fid": 462.0, "COMPR_M": 196.96, "CLASSE": "02 - Curta", "CD_FAZ": " 400096", "TALHOES": "2, 1", "FAZ_tAL": "400551002, 400096001", "ID_LINHA": 28774 }, "geometry": { "type": "MultiLineString", "coordinates": [ [ [ 421456.988705572788604, 7646249.805319426581264 ], [ 421615.981096288305707, 7646133.661102106794715 ] ] ] } },
{ "type": "Feature", "properties": { "fid": 463.0, "COMPR_M": 197.56, "CLASSE": "02 - Curta", "CD_FAZ": " 400096", "TALHOES": "2, 1", "FAZ_tAL": "400551002, 400096001", "ID_LINHA": 28775 }, "geometry": { "type": "MultiLineString", "coordinates": [ [ [ 421458.275746089871973, 7646252.580331947654486 ], [ 421617.75072360842023, 7646136.083584128879011 ] ] ] } },
{ "type": "Feature", "properties": { "fid": 466.0, "COMPR_M": 197.17, "CLASSE": "02 - Curta", "CD_FAZ": " 400096", "TALHOES": "2, 1", "FAZ_tAL": "400551002, 400096001", "ID_LINHA": 28778 }, "geometry": { "type": "MultiLineString", "coordinates": [ [ [ 421464.195378903066739, 7646265.345940017141402 ], [ 421623.359470695140772, 7646149.076294763013721 ] ] ] } },
{ "type": "Feature", "properties": { "fid": 467.0, "COMPR_M": 197.77, "CLASSE": "02 - Curta", "CD_FAZ": " 400096", "TALHOES": "2, 1", "FAZ_tAL": "400551002, 400096001", "ID_LINHA": 28779 }, "geometry": { "type": "MultiLineString", "coordinates": [ [ [ 421465.481628577865195, 7646268.121530245989561 ], [ 421625.129098015895579, 7646151.498776784166694 ] ] ] } },
{ "type": "Feature", "properties": { "fid": 469.0, "COMPR_M": 196.79, "CLASSE": "02 - Curta", "CD_FAZ": " 400096", "TALHOES": "2, 1", "FAZ_tAL": "400551002, 400096001", "ID_LINHA": 28781 }, "geometry": { "type": "MultiLineString", "coordinates": [ [ [ 421470.11212741129566, 7646278.113655073568225 ], [ 421628.968217782734428, 7646162.069005392491817 ] ] ] } },
{ "type": "Feature", "properties": { "fid": 470.0, "COMPR_M": 197.39, "CLASSE": "02 - Curta", "CD_FAZ": " 400096", "TALHOES": "2, 1", "FAZ_tAL": "400551002, 400096001", "ID_LINHA": 28782 }, "geometry": { "type": "MultiLineString", "coordinates": [ [ [ 421471.398377087782137, 7646280.889245301485062 ], [ 421630.737845104187727, 7646164.491487415507436 ] ] ] } },
{ "type": "Feature", "properties": { "fid": 471.0, "COMPR_M": 197.99, "CLASSE": "02 - Curta", "CD_FAZ": " 400096", "TALHOES": "2, 1", "FAZ_tAL": "400551002, 400096001", "ID_LINHA": 28783 }, "geometry": { "type": "MultiLineString", "coordinates": [ [ [ 421472.68462676287163, 7646283.664835533127189 ], [ 421632.507472424185835, 7646166.913969437591732 ] ] ] } },
{ "type": "Feature", "properties": { "fid": 473.0, "COMPR_M": 197.01, "CLASSE": "02 - Curta", "CD_FAZ": " 400096", "TALHOES": "2, 1", "FAZ_tAL": "400551002, 400096001", "ID_LINHA": 28785 }, "geometry": { "type": "MultiLineString", "coordinates": [ [ [ 421477.315125596825965, 7646293.65696036349982 ], [ 421636.346592191141099, 7646177.4841980477795 ] ] ] } },
{ "type": "Feature", "properties": { "fid": 474.0, "COMPR_M": 197.61, "CLASSE": "02 - Curta", "CD_FAZ": " 400096", "TALHOES": "2, 1", "FAZ_tAL": "400551002, 400096001", "ID_LINHA": 28786 }, "geometry": { "type": "MultiLineString", "coordinates": [ [ [ 421478.601375272264704, 7646296.432550591416657 ], [ 421638.116219511139207, 7646179.906680070795119 ] ] ] } },
{ "type": "Feature", "properties": { "fid": 475.0, "COMPR_M": 198.21, "CLASSE": "02 - Curta", "CD_FAZ": " 400096", "TALHOES": "2, 1", "FAZ_tAL": "400551002, 400096001", "ID_LINHA": 28787 }, "geometry": { "type": "MultiLineString", "coordinates": [ [ [ 421479.88762494828552, 7646299.208140822127461 ], [ 421639.885846832359675, 7646182.329162091016769 ] ] ] } },
{ "type": "Feature", "properties": { "fid": 477.0, "COMPR_M": 197.23, "CLASSE": "02 - Curta", "CD_FAZ": " 400096", "TALHOES": "2, 1", "FAZ_tAL": "400551002, 400096001", "ID_LINHA": 28789 }, "geometry": { "type": "MultiLineString", "coordinates": [ [ [ 421484.518123781192116, 7646309.20026565156877 ], [ 421643.724966598674655, 7646192.899390701204538 ] ] ] } },
{ "type": "Feature", "properties": { "fid": 478.0, "COMPR_M": 197.82, "CLASSE": "02 - Curta", "CD_FAZ": " 400096", "TALHOES": "2, 1", "FAZ_tAL": "400551002, 400096001", "ID_LINHA": 28790 }, "geometry": { "type": "MultiLineString", "coordinates": [ [ [ 421485.804373458202463, 7646311.97585588041693 ], [ 421645.494593919953331, 7646195.321872722357512 ] ] ] } },
{ "type": "Feature", "properties": { "fid": 479.0, "COMPR_M": 198.41, "CLASSE": "02 - Curta", "CD_FAZ": " 400096", "TALHOES": "2, 1", "FAZ_tAL": "400551002, 400096001", "ID_LINHA": 28791 }, "geometry": { "type": "MultiLineString", "coordinates": [ [ [ 421487.097273109073285, 7646314.746588293462992 ], [ 421647.264221241115592, 7646197.74435474164784 ] ] ] } },
{ "type": "Feature", "properties": { "fid": 481.0, "COMPR_M": 197.36, "CLASSE": "02 - Curta", "CD_FAZ": " 400096", "TALHOES": "2, 1", "FAZ_tAL": "400551002, 400096001", "ID_LINHA": 28793 }, "geometry": { "type": "MultiLineString", "coordinates": [ [ [ 421491.785223551443778, 7646324.696744620800018 ], [ 421651.103341006615665, 7646208.314583357423544 ] ] ] } },
{ "type": "Feature", "properties": { "fid": 482.0, "COMPR_M": 197.94, "CLASSE": "02 - Curta", "CD_FAZ": " 400096", "TALHOES": "2, 1", "FAZ_tAL": "400551002, 400096001", "ID_LINHA": 28794 }, "geometry": { "type": "MultiLineString", "coordinates": [ [ [ 421493.087432008760516, 7646327.460676929913461 ], [ 421652.872968327079434, 7646210.737065377645195 ] ] ] } },
{ "type": "Feature", "properties": { "fid": 483.0, "COMPR_M": 198.52, "CLASSE": "02 - Curta", "CD_FAZ": " 400096", "TALHOES": "2, 1", "FAZ_tAL": "400551002, 400096001", "ID_LINHA": 28795 }, "geometry": { "type": "MultiLineString", "coordinates": [ [ [ 421494.389640465378761, 7646330.224609246477485 ], [ 421654.642595649347641, 7646213.159547398798168 ] ] ] } },
{ "type": "Feature", "properties": { "fid": 485.0, "COMPR_M": 197.47, "CLASSE": "02 - Curta", "CD_FAZ": " 400096", "TALHOES": "2, 1", "FAZ_tAL": "400551002, 400096001", "ID_LINHA": 28797 }, "geometry": { "type": "MultiLineString", "coordinates": [ [ [ 421499.077590908156708, 7646340.174765575677156 ], [ 421658.481715413450729, 7646223.729776008054614 ] ] ] } },
{ "type": "Feature", "properties": { "fid": 486.0, "COMPR_M": 198.05, "CLASSE": "02 - Curta", "CD_FAZ": " 400096", "TALHOES": "2, 1", "FAZ_tAL": "400551002, 400096001", "ID_LINHA": 28798 }, "geometry": { "type": "MultiLineString", "coordinates": [ [ [ 421500.379799364309292, 7646342.938697887584567 ], [ 421660.251342734438367, 7646226.152258031070232 ] ] ] } },
{ "type": "Feature", "properties": { "fid": 487.0, "COMPR_M": 198.63, "CLASSE": "02 - Curta", "CD_FAZ": " 400096", "TALHOES": "2, 1", "FAZ_tAL": "400551002, 400096001", "ID_LINHA": 28799 }, "geometry": { "type": "MultiLineString", "coordinates": [ [ [ 421501.682007820345461, 7646345.702630197629333 ], [ 421662.020970055891667, 7646228.574740051291883 ] ] ] } },
{ "type": "Feature", "properties": { "fid": 490.0, "COMPR_M": 198.16, "CLASSE": "02 - Curta", "CD_FAZ": " 400096", "TALHOES": "2, 1", "FAZ_tAL": "400551002, 400096001", "ID_LINHA": 28802 }, "geometry": { "type": "MultiLineString", "coordinates": [ [ [ 421507.672166721022222, 7646358.416718842461705 ], [ 421667.629717143077869, 7646241.567450681701303 ] ] ] } },
{ "type": "Feature", "properties": { "fid": 491.0, "COMPR_M": 198.73, "CLASSE": "02 - Curta", "CD_FAZ": " 400096", "TALHOES": "2, 1", "FAZ_tAL": "400551002, 400096001", "ID_LINHA": 28803 }, "geometry": { "type": "MultiLineString", "coordinates": [ [ [ 421508.974375177756883, 7646361.180651154369116 ], [ 421669.399344463017769, 7646243.989932706579566 ] ] ] } },
{ "type": "Feature", "properties": { "fid": 494.0, "COMPR_M": 198.26, "CLASSE": "02 - Curta", "CD_FAZ": " 400096", "TALHOES": "2, 1", "FAZ_tAL": "400551002, 400096001", "ID_LINHA": 28806 }, "geometry": { "type": "MultiLineString", "coordinates": [ [ [ 421514.964534077444114, 7646373.894739795476198 ], [ 421675.008091549621895, 7646256.982643336988986 ] ] ] } },
{ "type": "Feature", "properties": { "fid": 495.0, "COMPR_M": 198.84, "CLASSE": "02 - Curta", "CD_FAZ": " 400096", "TALHOES": "2, 1", "FAZ_tAL": "400551002, 400096001", "ID_LINHA": 28807 }, "geometry": { "type": "MultiLineString", "coordinates": [ [ [ 421516.266742533538491, 7646376.658672107383609 ], [ 421676.777718871308025, 7646259.405125360935926 ] ] ] } },
{ "type": "Feature", "properties": { "fid": 498.0, "COMPR_M": 198.37, "CLASSE": "02 - Curta", "CD_FAZ": " 400096", "TALHOES": "2, 1", "FAZ_tAL": "400551002, 400096001", "ID_LINHA": 28810 }, "geometry": { "type": "MultiLineString", "coordinates": [ [ [ 421522.256901434157044, 7646389.372760750353336 ], [ 421682.386465937946923, 7646272.39783600717783 ] ] ] } },
{ "type": "Feature", "properties": { "fid": 499.0, "COMPR_M": 198.94, "CLASSE": "02 - Curta", "CD_FAZ": " 400096", "TALHOES": "2, 1", "FAZ_tAL": "400551002, 400096001", "ID_LINHA": 28811 }, "geometry": { "type": "MultiLineString", "coordinates": [ [ [ 421523.56512569001643, 7646392.13229851052165 ], [ 421684.156093250785489, 7646274.820318034850061 ] ] ] } },
{ "type": "Feature", "properties": { "fid": 503.0, "COMPR_M": 197.35, "CLASSE": "02 - Curta", "CD_FAZ": " 400096", "TALHOES": "2, 1", "FAZ_tAL": "400551002, 400096001", "ID_LINHA": 28815 }, "geometry": { "type": "MultiLineString", "coordinates": [ [ [ 421451.068319190875627, 7646237.040261841379106 ], [ 421610.37234920123592, 7646120.668391475453973 ] ] ] } },
{ "type": "Feature", "properties": { "fid": 553.0, "COMPR_M": 200.71, "CLASSE": "02 - Curta", "CD_FAZ": " 400096", "TALHOES": "3, 2", "FAZ_tAL": "400551003, 400096002", "ID_LINHA": 28864 }, "geometry": { "type": "MultiLineString", "coordinates": [ [ [ 421721.234239940764382, 7646809.472582513466477 ], [ 421883.254269425466191, 7646691.1166698243469 ] ] ] } },
{ "type": "Feature", "properties": { "fid": 557.0, "COMPR_M": 200.73, "CLASSE": "02 - Curta", "CD_FAZ": " 400096", "TALHOES": "3, 2", "FAZ_tAL": "400551003, 400096002", "ID_LINHA": 28868 }, "geometry": { "type": "MultiLineString", "coordinates": [ [ [ 421728.538132037618198, 7646824.942184623330832 ], [ 421890.577615549031179, 7646706.572060733102262 ] ] ] } },
{ "type": "Feature", "properties": { "fid": 625.0, "COMPR_M": 200.45, "CLASSE": "02 - Curta", "CD_FAZ": " 400096", "TALHOES": "3, 2", "FAZ_tAL": "400551003, 400096002", "ID_LINHA": 28936 }, "geometry": { "type": "MultiLineString", "coordinates": [ [ [ 421699.284390283806715, 7646763.091661892831326 ], [ 421861.095341610605828, 7646644.88848115876317 ] ] ] } },
{ "type": "Feature", "properties": { "fid": 629.0, "COMPR_M": 200.51, "CLASSE": "02 - Curta", "CD_FAZ": " 400096", "TALHOES": "3, 2", "FAZ_tAL": "400551003, 400096002", "ID_LINHA": 28940 }, "geometry": { "type": "MultiLineString", "coordinates": [ [ [ 421706.626455748570152, 7646778.533378290012479 ], [ 421868.481650882808026, 7646660.297877378761768 ] ] ] } },
{ "type": "Feature", "properties": { "fid": 633.0, "COMPR_M": 200.61, "CLASSE": "02 - Curta", "CD_FAZ": " 400096", "TALHOES": "3, 2", "FAZ_tAL": "400551003, 400096002", "ID_LINHA": 28944 }, "geometry": { "type": "MultiLineString", "coordinates": [ [ [ 421713.930347845773213, 7646794.002980401739478 ], [ 421875.867960154253524, 7646675.707273600623012 ] ] ] } },
{ "type": "Feature", "properties": { "fid": 668.0, "COMPR_M": 202.2, "CLASSE": "02 - Curta", "CD_FAZ": " 400096", "TALHOES": "5, 3", "FAZ_tAL": "400551005, 400096003", "ID_LINHA": 28979 }, "geometry": { "type": "MultiLineString", "coordinates": [ [ [ 422112.199252207065001, 7647632.487001167610288 ], [ 422275.420833798823878, 7647513.253352577798069 ] ] ] } },
{ "type": "Feature", "properties": { "fid": 669.0, "COMPR_M": 202.18, "CLASSE": "02 - Curta", "CD_FAZ": " 400096", "TALHOES": "5, 3", "FAZ_tAL": "400551005, 400096003", "ID_LINHA": 28980 }, "geometry": { "type": "MultiLineString", "coordinates": [ [ [ 422104.792101495550014, 7647617.092829653061926 ], [ 422267.995978733699303, 7647497.8721141256392 ] ] ] } },
{ "type": "Feature", "properties": { "fid": 670.0, "COMPR_M": 202.16, "CLASSE": "02 - Curta", "CD_FAZ": " 400096", "TALHOES": "5, 3", "FAZ_tAL": "400551005, 400096003", "ID_LINHA": 28981 }, "geometry": { "type": "MultiLineString", "coordinates": [ [ [ 422097.38495078246342, 7647601.69865814037621 ], [ 422260.571123668458313, 7647482.490875672549009 ] ] ] } },
{ "type": "Feature", "properties": { "fid": 671.0, "COMPR_M": 202.13, "CLASSE": "02 - Curta", "CD_FAZ": " 400096", "TALHOES": "5, 3", "FAZ_tAL": "400551005, 400096003", "ID_LINHA": 28982 }, "geometry": { "type": "MultiLineString", "coordinates": [ [ [ 422089.977800071297679, 7647586.304486626759171 ], [ 422253.14626860251883, 7647467.109637217596173 ] ] ] } },
{ "type": "Feature", "properties": { "fid": 672.0, "COMPR_M": 200.49, "CLASSE": "02 - Curta", "CD_FAZ": " 400096", "TALHOES": "5, 3", "FAZ_tAL": "400551005, 400096003", "ID_LINHA": 28983 }, "geometry": { "type": "MultiLineString", "coordinates": [ [ [ 422082.637598670378793, 7647570.861408524215221 ], [ 422244.47992720559705, 7647452.635306688025594 ] ] ] } },
{ "type": "Feature", "properties": { "fid": 673.0, "COMPR_M": 201.53, "CLASSE": "02 - Curta", "CD_FAZ": " 400096", "TALHOES": "5, 3", "FAZ_tAL": "400551005, 400096003", "ID_LINHA": 28984 }, "geometry": { "type": "MultiLineString", "coordinates": [ [ [ 422083.948332463798579, 7647573.619113063439727 ], [ 422246.630987082491629, 7647454.779151564463973 ] ] ] } },
{ "type": "Feature", "properties": { "fid": 674.0, "COMPR_M": 201.57, "CLASSE": "02 - Curta", "CD_FAZ": " 400096", "TALHOES": "5, 3", "FAZ_tAL": "400551005, 400096003", "ID_LINHA": 28985 }, "geometry": { "type": "MultiLineString", "coordinates": [ [ [ 422085.259066257043742, 7647576.376817604526877 ], [ 422247.973763180198148, 7647457.51344914548099 ] ] ] } },
{ "type": "Feature", "properties": { "fid": 675.0, "COMPR_M": 201.77, "CLASSE": "02 - Curta", "CD_FAZ": " 400096", "TALHOES": "5, 3", "FAZ_tAL": "400551005, 400096003", "ID_LINHA": 28986 }, "geometry": { "type": "MultiLineString", "coordinates": [ [ [ 422086.569800050230697, 7647579.134522145614028 ], [ 422249.445519867411349, 7647460.153526181355119 ] ] ] } },
{ "type": "Feature", "properties": { "fid": 676.0, "COMPR_M": 202.34, "CLASSE": "02 - Curta", "CD_FAZ": " 400096", "TALHOES": "5, 3", "FAZ_tAL": "400551005, 400096003", "ID_LINHA": 28987 }, "geometry": { "type": "MultiLineString", "coordinates": [ [ [ 422087.880533842544537, 7647581.892226684838533 ], [ 422251.215147187642287, 7647462.576008204370737 ] ] ] } },
{ "type": "Feature", "properties": { "fid": 677.0, "COMPR_M": 202.69, "CLASSE": "02 - Curta", "CD_FAZ": " 400096", "TALHOES": "5, 3", "FAZ_tAL": "400551005, 400096003", "ID_LINHA": 28988 }, "geometry": { "type": "MultiLineString", "coordinates": [ [ [ 422091.300505555176642, 7647589.053445826284587 ], [ 422254.915895924903452, 7647469.532119240611792 ] ] ] } },
{ "type": "Feature", "properties": { "fid": 678.0, "COMPR_M": 203.24, "CLASSE": "02 - Curta", "CD_FAZ": " 400096", "TALHOES": "5, 3", "FAZ_tAL": "400551005, 400096003", "ID_LINHA": 28989 }, "geometry": { "type": "MultiLineString", "coordinates": [ [ [ 422092.623211039288435, 7647591.802405023947358 ], [ 422256.685523244785145, 7647471.954601261764765 ] ] ] } },
{ "type": "Feature", "properties": { "fid": 679.0, "COMPR_M": 203.79, "CLASSE": "02 - Curta", "CD_FAZ": " 400096", "TALHOES": "5, 3", "FAZ_tAL": "400551005, 400096003", "ID_LINHA": 28990 }, "geometry": { "type": "MultiLineString", "coordinates": [ [ [ 422093.945916523749474, 7647594.551364224404097 ], [ 422258.455150565481745, 7647474.377083284780383 ] ] ] } },
{ "type": "Feature", "properties": { "fid": 680.0, "COMPR_M": 204.35, "CLASSE": "02 - Curta", "CD_FAZ": " 400096", "TALHOES": "5, 3", "FAZ_tAL": "400551005, 400096003", "ID_LINHA": 28991 }, "geometry": { "type": "MultiLineString", "coordinates": [ [ [ 422095.26862200780306, 7647597.30032342299819 ], [ 422260.224777886236552, 7647476.799565307796001 ] ] ] } },
{ "type": "Feature", "properties": { "fid": 681.0, "COMPR_M": 202.71, "CLASSE": "02 - Curta", "CD_FAZ": " 400096", "TALHOES": "5, 3", "FAZ_tAL": "400551005, 400096003", "ID_LINHA": 28992 }, "geometry": { "type": "MultiLineString", "coordinates": [ [ [ 422098.707656266924459, 7647604.447617338970304 ], [ 422262.34075098921312, 7647484.91335769277066 ] ] ] } },
{ "type": "Feature", "properties": { "fid": 682.0, "COMPR_M": 203.26, "CLASSE": "02 - Curta", "CD_FAZ": " 400096", "TALHOES": "5, 3", "FAZ_tAL": "400551005, 400096003", "ID_LINHA": 28993 }, "geometry": { "type": "MultiLineString", "coordinates": [ [ [ 422100.030361750395969, 7647607.196576535701752 ], [ 422264.110378308105282, 7647487.335839714854956 ] ] ] } },
{ "type": "Feature", "properties": { "fid": 683.0, "COMPR_M": 203.82, "CLASSE": "02 - Curta", "CD_FAZ": " 400096", "TALHOES": "5, 3", "FAZ_tAL": "400551005, 400096003", "ID_LINHA": 28994 }, "geometry": { "type": "MultiLineString", "coordinates": [ [ [ 422101.353067236719653, 7647609.945535735227168 ], [ 422265.880005629733205, 7647489.758321736007929 ] ] ] } },
{ "type": "Feature", "properties": { "fid": 684.0, "COMPR_M": 204.37, "CLASSE": "02 - Curta", "CD_FAZ": " 400096", "TALHOES": "5, 3", "FAZ_tAL": "400551005, 400096003", "ID_LINHA": 28995 }, "geometry": { "type": "MultiLineString", "coordinates": [ [ [ 422102.675772720074747, 7647612.694494934752584 ], [ 422267.649632950196974, 7647492.180803759023547 ] ] ] } },
{ "type": "Feature", "properties": { "fid": 685.0, "COMPR_M": 202.73, "CLASSE": "02 - Curta", "CD_FAZ": " 400096", "TALHOES": "5, 3", "FAZ_tAL": "400551005, 400096003", "ID_LINHA": 28996 }, "geometry": { "type": "MultiLineString", "coordinates": [ [ [ 422106.114806979894638, 7647619.841788852587342 ], [ 422269.765606052824296, 7647500.294596146792173 ] ] ] } },
{ "type": "Feature", "properties": { "fid": 686.0, "COMPR_M": 203.28, "CLASSE": "02 - Curta", "CD_FAZ": " 400096", "TALHOES": "5, 3", "FAZ_tAL": "400551005, 400096003", "ID_LINHA": 28997 }, "geometry": { "type": "MultiLineString", "coordinates": [ [ [ 422107.437512463948224, 7647622.59074804931879 ], [ 422271.535233375267126, 7647502.717078167945147 ] ] ] } },
{ "type": "Feature", "properties": { "fid": 687.0, "COMPR_M": 203.84, "CLASSE": "02 - Curta", "CD_FAZ": " 400096", "TALHOES": "5, 3", "FAZ_tAL": "400551005, 400096003", "ID_LINHA": 28998 }, "geometry": { "type": "MultiLineString", "coordinates": [ [ [ 422108.760217948176432, 7647625.339707251638174 ], [ 422273.304860694566742, 7647505.139560190960765 ] ] ] } },
{ "type": "Feature", "properties": { "fid": 688.0, "COMPR_M": 204.39, "CLASSE": "02 - Curta", "CD_FAZ": " 400096", "TALHOES": "5, 3", "FAZ_tAL": "400551005, 400096003", "ID_LINHA": 28999 }, "geometry": { "type": "MultiLineString", "coordinates": [ [ [ 422110.082923431415111, 7647628.088666450232267 ], [ 422275.074488014623057, 7647507.562042212113738 ] ] ] } },
{ "type": "Feature", "properties": { "fid": 689.0, "COMPR_M": 202.75, "CLASSE": "02 - Curta", "CD_FAZ": " 400096", "TALHOES": "5, 3", "FAZ_tAL": "400551005, 400096003", "ID_LINHA": 29000 }, "geometry": { "type": "MultiLineString", "coordinates": [ [ [ 422113.521957692631986, 7647635.235960364341736 ], [ 422277.190461118123494, 7647515.675834598951042 ] ] ] } },
{ "type": "Feature", "properties": { "fid": 690.0, "COMPR_M": 203.31, "CLASSE": "02 - Curta", "CD_FAZ": " 400096", "TALHOES": "5, 3", "FAZ_tAL": "400551005, 400096003", "ID_LINHA": 29001 }, "geometry": { "type": "MultiLineString", "coordinates": [ [ [ 422114.844663176510949, 7647637.984919562935829 ], [ 422278.960088437597733, 7647518.098316622897983 ] ] ] } },
{ "type": "Feature", "properties": { "fid": 691.0, "COMPR_M": 203.86, "CLASSE": "02 - Curta", "CD_FAZ": " 400096", "TALHOES": "5, 3", "FAZ_tAL": "400551005, 400096003", "ID_LINHA": 29002 }, "geometry": { "type": "MultiLineString", "coordinates": [ [ [ 422116.16736866068095, 7647640.733878761529922 ], [ 422280.72971575910924, 7647520.520798644982278 ] ] ] } },
{ "type": "Feature", "properties": { "fid": 692.0, "COMPR_M": 204.41, "CLASSE": "02 - Curta", "CD_FAZ": " 400096", "TALHOES": "5, 3", "FAZ_tAL": "400551005, 400096003", "ID_LINHA": 29003 }, "geometry": { "type": "MultiLineString", "coordinates": [ [ [ 422117.490074145141989, 7647643.482837960124016 ], [ 422282.499343078758102, 7647522.943280666135252 ] ] ] } },
{ "type": "Feature", "properties": { "fid": 693.0, "COMPR_M": 202.78, "CLASSE": "02 - Curta", "CD_FAZ": " 400096", "TALHOES": "5, 3", "FAZ_tAL": "400551005, 400096003", "ID_LINHA": 29004 }, "geometry": { "type": "MultiLineString", "coordinates": [ [ [ 422120.921604455797933, 7647650.635613526217639 ], [ 422284.615316181792878, 7647531.057073052972555 ] ] ] } }
]
}
