{
"type": "FeatureCollection",
"name": " 400220",
"crs": { "type": "name", "properties": { "name": "urn:ogc:def:crs:EPSG::32722" } },
"xy_coordinate_resolution": 1e-15,
"features": [
{ "type": "Feature", "properties": { "fid": 458.0, "COMPR_M": 34.72, "CLASSE": "01 - Muito curta", "CD_FAZ": " 400220", "TALHOES": "1, 2", "FAZ_tAL": "400477001, 400220002", "ID_LINHA": 74730 }, "geometry": { "type": "MultiLineString", "coordinates": [ [ [ 424275.889021112641785, 7638969.051530273631215 ], [ 424285.023377663921565, 7638977.117611625231802 ], [ 424301.245964087895118, 7638992.743252366781235 ] ] ] } },
{ "type": "Feature", "properties": { "fid": 463.0, "COMPR_M": 52.52, "CLASSE": "01 - Muito curta", "CD_FAZ": " 400220", "TALHOES": "1, 2", "FAZ_tAL": "400477001, 400220002", "ID_LINHA": 74735 }, "geometry": { "type": "MultiLineString", "coordinates": [ [ [ 424269.672080113436095, 7638971.566161189228296 ], [ 424292.663425013422966, 7638992.615180918946862 ], [ 424307.556203254614957, 7639007.871500569395721 ] ] ] } },
{ "type": "Feature", "properties": { "fid": 464.0, "COMPR_M": 61.8, "CLASSE": "01 - Muito curta", "CD_FAZ": " 400220", "TALHOES": "1, 2", "FAZ_tAL": "400477001, 400220002", "ID_LINHA": 74736 }, "geometry": { "type": "MultiLineString", "coordinates": [ [ [ 424266.563609614502639, 7638972.823476646095514 ], [ 424290.567160812264774, 7638994.761762348935008 ], [ 424310.871043030463625, 7639015.818539906293154 ] ] ] } },
{ "type": "Feature", "properties": { "fid": 465.0, "COMPR_M": 71.6, "CLASSE": "01 - Muito curta", "CD_FAZ": " 400220", "TALHOES": "1, 2", "FAZ_tAL": "400477001, 400220002", "ID_LINHA": 74737 }, "geometry": { "type": "MultiLineString", "coordinates": [ [ [ 424263.431549494969659, 7638974.090333644300699 ], [ 424276.924022106220946, 7638985.974471241235733 ], [ 424288.470896613725927, 7638996.908343778923154 ], [ 424298.660718497878406, 7639007.170640032738447 ], [ 424314.394416419148911, 7639024.265520388260484 ] ] ] } },
{ "type": "Feature", "properties": { "fid": 466.0, "COMPR_M": 81.84, "CLASSE": "01 - Muito curta", "CD_FAZ": " 400220", "TALHOES": "1, 2", "FAZ_tAL": "400477001, 400220002", "ID_LINHA": 74738 }, "geometry": { "type": "MultiLineString", "coordinates": [ [ [ 424260.259480169101153, 7638975.37337358482182 ], [ 424274.899183217552491, 7638988.188686146400869 ], [ 424286.374632413149811, 7638999.0549252089113 ], [ 424305.678525327704847, 7639019.012163557112217 ], [ 424318.087848197319545, 7639033.120201039128006 ] ] ] } },
{ "type": "Feature", "properties": { "fid": 467.0, "COMPR_M": 92.56, "CLASSE": "01 - Muito curta", "CD_FAZ": " 400220", "TALHOES": "1, 2", "FAZ_tAL": "400477001, 400220002", "ID_LINHA": 74739 }, "geometry": { "type": "MultiLineString", "coordinates": [ [ [ 424257.087410843814723, 7638976.656413522548974 ], [ 424272.87434432702139, 7638990.40290104970336 ], [ 424294.345673543808516, 7639011.340414948761463 ], [ 424312.050086103845388, 7639030.647336276248097 ], [ 424321.969098852481693, 7639042.425161071121693 ] ] ] } },
{ "type": "Feature", "properties": { "fid": 469.0, "COMPR_M": 103.89, "CLASSE": "02 - Curta", "CD_FAZ": " 400220", "TALHOES": "1, 2", "FAZ_tAL": "400477001, 400220002", "ID_LINHA": 74741 }, "geometry": { "type": "MultiLineString", "coordinates": [ [ [ 424253.915341517713387, 7638977.939453458413482 ], [ 424270.849505437887274, 7638992.617115952074528 ], [ 424292.188151067006402, 7639013.425302404910326 ], [ 424309.788007704133634, 7639032.618221636861563 ], [ 424326.10154383641202, 7639052.332337604835629 ] ] ] } },
{ "type": "Feature", "properties": { "fid": 470.0, "COMPR_M": 116.06, "CLASSE": "02 - Curta", "CD_FAZ": " 400220", "TALHOES": "1, 2", "FAZ_tAL": "400477001, 400220002", "ID_LINHA": 74742 }, "geometry": { "type": "MultiLineString", "coordinates": [ [ [ 424250.743272190797143, 7638979.222493398934603 ], [ 424268.824666548753157, 7638994.831330856308341 ], [ 424290.030628590437118, 7639015.510189864784479 ], [ 424307.525929303257726, 7639034.589106997475028 ], [ 424330.566805264970753, 7639063.037412539124489 ] ] ] } },
{ "type": "Feature", "properties": { "fid": 471.0, "COMPR_M": 129.33, "CLASSE": "02 - Curta", "CD_FAZ": " 400220", "TALHOES": "1, 2", "FAZ_tAL": "400477001, 400220002", "ID_LINHA": 74743 }, "geometry": { "type": "MultiLineString", "coordinates": [ [ [ 424247.571202866383828, 7638980.505533337593079 ], [ 424266.799827659735456, 7638997.045545760542154 ], [ 424277.989575616433285, 7639007.641250928863883 ], [ 424296.83170887111919, 7639027.121256038546562 ], [ 424313.286755052627996, 7639046.002462705597281 ], [ 424335.472054091165774, 7639074.79731890372932 ] ] ] } },
{ "type": "Feature", "properties": { "fid": 473.0, "COMPR_M": 160.83, "CLASSE": "02 - Curta", "CD_FAZ": " 400220", "TALHOES": "1, 2", "FAZ_tAL": "400477001, 400220002", "ID_LINHA": 74745 }, "geometry": { "type": "MultiLineString", "coordinates": [ [ [ 424241.22706421255134, 7638983.07161321491003 ], [ 424262.750149880535901, 7639001.473975570872426 ], [ 424273.797047217609361, 7639011.934413787908852 ], [ 424283.558061161602382, 7639021.764852237887681 ], [ 424300.739694103598595, 7639040.501763078384101 ], [ 424323.363474690704606, 7639068.433540752157569 ], [ 424336.604342365229968, 7639086.84878246486187 ], [ 424347.23232317349175, 7639102.991538625210524 ] ] ] } },
{ "type": "Feature", "properties": { "fid": 474.0, "COMPR_M": 181.16, "CLASSE": "02 - Curta", "CD_FAZ": " 400220", "TALHOES": "1, 2", "FAZ_tAL": "400477001, 400220002", "ID_LINHA": 74746 }, "geometry": { "type": "MultiLineString", "coordinates": [ [ [ 424238.05499488703208, 7638984.354653153568506 ], [ 424260.725310992333107, 7639003.688190473243594 ], [ 424271.700783017789945, 7639014.080995220690966 ], [ 424281.400538683636114, 7639023.849739696830511 ], [ 424298.477615703362972, 7639042.472648438066244 ], [ 424313.850020582496654, 7639061.008313842117786 ], [ 424327.722566485055722, 7639079.422581218183041 ], [ 424340.207030988298357, 7639097.599944850429893 ], [ 424354.903299958561547, 7639121.374272625893354 ] ] ] } },
{ "type": "Feature", "properties": { "fid": 475.0, "COMPR_M": 199.86, "CLASSE": "02 - Curta", "CD_FAZ": " 400220", "TALHOES": "1, 2", "FAZ_tAL": "400477001, 400220002", "ID_LINHA": 74747 }, "geometry": { "type": "MultiLineString", "coordinates": [ [ [ 424234.882925561454613, 7638985.637693090364337 ], [ 424246.407366683648434, 7638995.046995058655739 ], [ 424269.604518819134682, 7639016.227576650679111 ], [ 424287.984892413835041, 7639035.23034852091223 ], [ 424304.048333202546928, 7639053.662258295342326 ], [ 424318.570454076980241, 7639072.043466424569488 ], [ 424331.657825795118697, 7639090.245253657922149 ], [ 424348.848210070340429, 7639116.997051328420639 ], [ 424361.187265198561363, 7639138.688046474009752 ] ] ] } },
{ "type": "Feature", "properties": { "fid": 476.0, "COMPR_M": 199.36, "CLASSE": "02 - Curta", "CD_FAZ": " 400220", "TALHOES": "1, 2", "FAZ_tAL": "400477001, 400220002", "ID_LINHA": 74748 }, "geometry": { "type": "MultiLineString", "coordinates": [ [ [ 424231.71085623500403, 7638986.920733029022813 ], [ 424244.465107235941105, 7638997.334131628274918 ], [ 424267.508254619082436, 7639018.374158079735935 ], [ 424285.773188300605398, 7639037.257621640339494 ], [ 424301.738727741758339, 7639055.577207194641232 ], [ 424316.173943768721074, 7639073.848429256118834 ], [ 424329.184567510208581, 7639091.943489253520966 ], [ 424346.276897423376795, 7639118.542746771126986 ], [ 424358.084383708541282, 7639139.256321862339973 ] ] ] } },
{ "type": "Feature", "properties": { "fid": 477.0, "COMPR_M": 198.87, "CLASSE": "02 - Curta", "CD_FAZ": " 400220", "TALHOES": "1, 2", "FAZ_tAL": "400477001, 400220002", "ID_LINHA": 74749 }, "geometry": { "type": "MultiLineString", "coordinates": [ [ [ 424228.511822718079202, 7638988.214679457247257 ], [ 424242.522847786429338, 7638999.621268196031451 ], [ 424265.411990418971982, 7639020.520739509724081 ], [ 424283.561484185629524, 7639039.28489476442337 ], [ 424299.429122279165313, 7639057.492156092077494 ], [ 424313.777433461975306, 7639075.653392094187438 ], [ 424326.711309223843273, 7639093.641724850051105 ], [ 424343.705584775889292, 7639120.088442211039364 ], [ 424354.981502217880916, 7639139.824597248807549 ] ] ] } },
{ "type": "Feature", "properties": { "fid": 478.0, "COMPR_M": 198.43, "CLASSE": "02 - Curta", "CD_FAZ": " 400220", "TALHOES": "1, 2", "FAZ_tAL": "400477001, 400220002", "ID_LINHA": 74750 }, "geometry": { "type": "MultiLineString", "coordinates": [ [ [ 424225.261697089124937, 7638989.529291640967131 ], [ 424240.580588336975779, 7639001.908404764719307 ], [ 424263.315726219501812, 7639022.667320939712226 ], [ 424281.349780070013367, 7639041.312167881056666 ], [ 424297.119516816048417, 7639059.407104989513755 ], [ 424311.380923156044446, 7639077.458354928530753 ], [ 424324.238050939398818, 7639095.33996044844389 ], [ 424341.134272129100282, 7639121.634137654677033 ], [ 424351.887871525075752, 7639140.409992918372154 ] ] ] } },
{ "type": "Feature", "properties": { "fid": 479.0, "COMPR_M": 198.65, "CLASSE": "02 - Curta", "CD_FAZ": " 400220", "TALHOES": "1, 2", "FAZ_tAL": "400477001, 400220002", "ID_LINHA": 74751 }, "geometry": { "type": "MultiLineString", "coordinates": [ [ [ 424222.011571461916901, 7638990.843903823755682 ], [ 424238.638328887638636, 7639004.195541329681873 ], [ 424261.219462021195795, 7639024.81390236876905 ], [ 424279.1380759566091, 7639043.339440999552608 ], [ 424294.809911353106145, 7639061.322053885087371 ], [ 424308.984412847668864, 7639079.263317763805389 ], [ 424321.76479265477974, 7639097.038196044042706 ], [ 424338.562959482427686, 7639123.17983309365809 ], [ 424349.106483235605992, 7639141.573249913752079 ] ] ] } },
{ "type": "Feature", "properties": { "fid": 480.0, "COMPR_M": 198.86, "CLASSE": "02 - Curta", "CD_FAZ": " 400220", "TALHOES": "1, 2", "FAZ_tAL": "400477001, 400220002", "ID_LINHA": 74752 }, "geometry": { "type": "MultiLineString", "coordinates": [ [ [ 424218.761445833137259, 7638992.158516011200845 ], [ 424236.696069437079132, 7639006.482677899301052 ], [ 424259.123197820270434, 7639026.960483798757195 ], [ 424276.926371842622757, 7639045.366714119911194 ], [ 424292.500305890338495, 7639063.237002783454955 ], [ 424306.587902542145457, 7639081.068280600011349 ], [ 424319.291534368123394, 7639098.736431641504169 ], [ 424330.7204966644058, 7639116.143743388354778 ], [ 424346.325094945088495, 7639142.736506910994649 ] ] ] } },
{ "type": "Feature", "properties": { "fid": 481.0, "COMPR_M": 199.08, "CLASSE": "02 - Curta", "CD_FAZ": " 400220", "TALHOES": "1, 2", "FAZ_tAL": "400477001, 400220002", "ID_LINHA": 74753 }, "geometry": { "type": "MultiLineString", "coordinates": [ [ [ 424215.511320205288939, 7638993.473128193989396 ], [ 424234.753809988673311, 7639008.769814468920231 ], [ 424246.551438765774947, 7639019.187694802880287 ], [ 424266.297881347476505, 7639038.443951901048422 ], [ 424282.643066903227009, 7639056.268845960497856 ], [ 424297.369346393155865, 7639074.025516191497445 ], [ 424316.818276083969977, 7639100.434667237102985 ], [ 424328.179745818953961, 7639117.739195488393307 ], [ 424343.543706656841096, 7639143.899763906374574 ] ] ] } },
{ "type": "Feature", "properties": { "fid": 495.0, "COMPR_M": 203.23, "CLASSE": "02 - Curta", "CD_FAZ": " 400220", "TALHOES": "1, 2", "FAZ_tAL": "400477001, 400220002", "ID_LINHA": 74767 }, "geometry": { "type": "MultiLineString", "coordinates": [ [ [ 424162.33427160338033, 7639014.982203237712383 ], [ 424179.204519290069584, 7639026.254468536935747 ], [ 424192.029790812986903, 7639035.853923892602324 ], [ 424203.677658799104393, 7639045.363999560475349 ], [ 424223.486706428811885, 7639063.452368112280965 ], [ 424239.327401899499819, 7639079.830357166007161 ], [ 424253.237013026024215, 7639095.791134043596685 ], [ 424271.692303413758054, 7639119.698888347484171 ], [ 424287.527732295915484, 7639143.266429086215794 ], [ 424298.971100595837925, 7639162.541316423565149 ] ] ] } },
{ "type": "Feature", "properties": { "fid": 510.0, "COMPR_M": 209.44, "CLASSE": "02 - Curta", "CD_FAZ": " 400220", "TALHOES": "1, 2", "FAZ_tAL": "400477001, 400220002", "ID_LINHA": 74782 }, "geometry": { "type": "MultiLineString", "coordinates": [ [ [ 424108.833289555390365, 7639036.622303018346429 ], [ 424127.303370905574411, 7639046.322623653337359 ], [ 424140.75450599542819, 7639054.530406383797526 ], [ 424153.059978704084642, 7639062.894789185374975 ], [ 424174.543767057184596, 7639079.671048087067902 ], [ 424192.042743437050376, 7639095.65108956489712 ], [ 424206.151840184931643, 7639110.239453971385956 ], [ 424224.383503562537953, 7639131.67312659882009 ], [ 424240.147269242908806, 7639153.079970730468631 ], [ 424249.416469618736301, 7639167.198210583999753 ], [ 424257.147748034680262, 7639180.033051639795303 ] ] ] } },
{ "type": "Feature", "properties": { "fid": 511.0, "COMPR_M": 210.01, "CLASSE": "02 - Curta", "CD_FAZ": " 400220", "TALHOES": "1, 2", "FAZ_tAL": "400477001, 400220002", "ID_LINHA": 74783 }, "geometry": { "type": "MultiLineString", "coordinates": [ [ [ 424105.038871690980159, 7639038.157070754095912 ], [ 424125.808450290234759, 7639048.924835253506899 ], [ 424139.128972682286985, 7639057.052919085137546 ], [ 424151.317009331134614, 7639065.33747722953558 ], [ 424172.601507609128021, 7639081.958184653893113 ], [ 424189.946479237289168, 7639097.797670993953943 ], [ 424203.9401360709453, 7639112.266727093607187 ], [ 424222.029121534782462, 7639133.532726936042309 ], [ 424237.674010958580766, 7639154.778206329792738 ], [ 424254.354426056786906, 7639181.201299650594592 ] ] ] } },
{ "type": "Feature", "properties": { "fid": 512.0, "COMPR_M": 210.59, "CLASSE": "02 - Curta", "CD_FAZ": " 400220", "TALHOES": "1, 2", "FAZ_tAL": "400477001, 400220002", "ID_LINHA": 74784 }, "geometry": { "type": "MultiLineString", "coordinates": [ [ [ 424101.244453826220706, 7639039.691838493570685 ], [ 424109.934898268606048, 7639043.764918451197445 ], [ 424124.313529676990584, 7639051.527046855539083 ], [ 424137.50343936868012, 7639059.575431784614921 ], [ 424149.574039958126377, 7639067.780165274627507 ], [ 424170.659248158626724, 7639084.245321223512292 ], [ 424187.850215037353337, 7639099.944252423942089 ], [ 424201.72843195637688, 7639114.294000213965774 ], [ 424219.674739507725462, 7639135.392327269539237 ], [ 424235.200752672855742, 7639156.476441926322877 ], [ 424251.561104080989026, 7639182.369547661393881 ] ] ] } },
{ "type": "Feature", "properties": { "fid": 515.0, "COMPR_M": 212.38, "CLASSE": "02 - Curta", "CD_FAZ": " 400220", "TALHOES": "1, 2", "FAZ_tAL": "400477001, 400220002", "ID_LINHA": 74787 }, "geometry": { "type": "MultiLineString", "coordinates": [ [ [ 424089.7627423213562, 7639044.335966004058719 ], [ 424105.88423305581091, 7639051.805895015597343 ], [ 424119.828767833299935, 7639059.333681656047702 ], [ 424132.626839425298385, 7639067.142969891428947 ], [ 424144.345131841721013, 7639075.10822940338403 ], [ 424155.063509523286484, 7639083.130717490799725 ], [ 424173.657238752173726, 7639098.899431354366243 ], [ 424181.561422439466696, 7639106.383996713906527 ], [ 424195.093319614359643, 7639120.375819575041533 ], [ 424212.611593429173809, 7639140.971128275617957 ], [ 424227.780977815564256, 7639161.571148714981973 ], [ 424243.181138152896892, 7639185.874291690066457 ] ] ] } },
{ "type": "Feature", "properties": { "fid": 516.0, "COMPR_M": 213.12, "CLASSE": "02 - Curta", "CD_FAZ": " 400220", "TALHOES": "1, 2", "FAZ_tAL": "400477001, 400220002", "ID_LINHA": 74788 }, "geometry": { "type": "MultiLineString", "coordinates": [ [ [ 424085.745210845663678, 7639045.960978828370571 ], [ 424104.534011318115517, 7639054.486220533959568 ], [ 424118.333847219881136, 7639061.935893259942532 ], [ 424131.001306112564635, 7639069.665482591837645 ], [ 424142.602162468654569, 7639077.550917444750667 ], [ 424153.215195458964445, 7639085.494557172060013 ], [ 424171.632399862923194, 7639101.113646259531379 ], [ 424179.465158239356242, 7639108.530578145757318 ], [ 424192.881615498452447, 7639122.403092694468796 ], [ 424210.257211401476525, 7639142.830728611908853 ], [ 424225.30771953065414, 7639163.269384313374758 ], [ 424240.387816175119951, 7639187.042539700865746 ] ] ] } },
{ "type": "Feature", "properties": { "fid": 517.0, "COMPR_M": 213.86, "CLASSE": "02 - Curta", "CD_FAZ": " 400220", "TALHOES": "1, 2", "FAZ_tAL": "400477001, 400220002", "ID_LINHA": 74789 }, "geometry": { "type": "MultiLineString", "coordinates": [ [ [ 424081.727679368748795, 7639047.585991654545069 ], [ 424103.183789580245502, 7639057.166546054184437 ], [ 424116.838926604599692, 7639064.538104860112071 ], [ 424129.375772798550315, 7639072.187995292246342 ], [ 424140.859193097567186, 7639079.993605488911271 ], [ 424151.366881394234952, 7639087.858396850526333 ], [ 424169.607560972392093, 7639103.327861161902547 ], [ 424177.368894039886072, 7639110.677159575745463 ], [ 424190.669911385281011, 7639124.43036581389606 ], [ 424207.902829374419525, 7639144.690328949131072 ], [ 424222.834461246384308, 7639164.967619909904897 ], [ 424237.594494199322071, 7639188.210787709802389 ] ] ] } },
{ "type": "Feature", "properties": { "fid": 518.0, "COMPR_M": 214.6, "CLASSE": "02 - Curta", "CD_FAZ": " 400220", "TALHOES": "1, 2", "FAZ_tAL": "400477001, 400220002", "ID_LINHA": 74790 }, "geometry": { "type": "MultiLineString", "coordinates": [ [ [ 424077.710147892590612, 7639049.211004478856921 ], [ 424087.425751948147081, 7639053.094146028161049 ], [ 424101.83356784330681, 7639059.846871573477983 ], [ 424115.344005991471931, 7639067.140316458418965 ], [ 424127.750239484594204, 7639074.710507992655039 ], [ 424139.116223724500742, 7639082.436293533071876 ], [ 424149.518567329156213, 7639090.222236530855298 ], [ 424167.582722084014677, 7639105.54207606613636 ], [ 424188.458207271061838, 7639126.457638936117291 ], [ 424205.548447348061018, 7639146.549929284490645 ], [ 424220.361202961939853, 7639166.665855506435037 ], [ 424234.80117222352419, 7639189.379035718739033 ] ] ] } },
{ "type": "Feature", "properties": { "fid": 519.0, "COMPR_M": 215.34, "CLASSE": "02 - Curta", "CD_FAZ": " 400220", "TALHOES": "1, 2", "FAZ_tAL": "400477001, 400220002", "ID_LINHA": 74791 }, "geometry": { "type": "MultiLineString", "coordinates": [ [ [ 424073.69261641590856, 7639050.836017306894064 ], [ 424086.231464875454549, 7639055.84755576774478 ], [ 424100.48334610555321, 7639062.52719709277153 ], [ 424113.849085375841241, 7639069.742528058588505 ], [ 424126.124706170056015, 7639077.233020694926381 ], [ 424137.373254352714866, 7639084.878981576301157 ], [ 424157.063432013615966, 7639100.255277199670672 ], [ 424165.557883194996975, 7639107.756290971301496 ], [ 424179.996982283308171, 7639121.839450216852129 ], [ 424197.806481921346858, 7639141.749907586723566 ], [ 424208.330979956081137, 7639155.071756850928068 ], [ 424217.887944676098414, 7639168.364091104827821 ], [ 424232.007850247144233, 7639190.547283729538321 ] ] ] } },
{ "type": "Feature", "properties": { "fid": 521.0, "COMPR_M": 216.15, "CLASSE": "02 - Curta", "CD_FAZ": " 400220", "TALHOES": "1, 2", "FAZ_tAL": "400477001, 400220002", "ID_LINHA": 74792 }, "geometry": { "type": "MultiLineString", "coordinates": [ [ [ 424069.587517260864843, 7639052.496449545025826 ], [ 424085.037177802762017, 7639058.600965509191155 ], [ 424099.13312436878914, 7639065.207522613927722 ], [ 424112.354164762946311, 7639072.344739657826722 ], [ 424124.499172856216319, 7639079.755533394403756 ], [ 424135.630284980987199, 7639087.321669618599117 ], [ 424155.12117256433703, 7639102.542413769289851 ], [ 424163.533044305513613, 7639109.970505874603987 ], [ 424177.839459806855302, 7639123.924337678588927 ], [ 424195.496876459394116, 7639143.664856484159827 ], [ 424205.934469648753293, 7639156.876719686202705 ], [ 424215.414686390780844, 7639170.062326701357961 ], [ 424229.214528270706069, 7639191.715531738474965 ] ] ] } },
{ "type": "Feature", "properties": { "fid": 523.0, "COMPR_M": 217.1, "CLASSE": "02 - Curta", "CD_FAZ": " 400220", "TALHOES": "1, 2", "FAZ_tAL": "400477001, 400220002", "ID_LINHA": 74794 }, "geometry": { "type": "MultiLineString", "coordinates": [ [ [ 424065.316746543045156, 7639054.22389268502593 ], [ 424083.8428907294292, 7639061.354375250637531 ], [ 424097.782902631151956, 7639067.887848135083914 ], [ 424110.859244148829021, 7639074.946951259858906 ], [ 424122.873639543075114, 7639082.278046092949808 ], [ 424133.887315607862547, 7639089.764357664622366 ], [ 424153.178913114476018, 7639104.829550336115062 ], [ 424161.50820541603025, 7639112.184720780700445 ], [ 424175.681937329878565, 7639126.009225135669112 ], [ 424193.187270996277221, 7639145.579805384390056 ], [ 424208.3537451607408, 7639165.228626842610538 ], [ 424217.309927615220658, 7639178.269458251073956 ], [ 424226.421206294326112, 7639192.883779749274254 ] ] ] } },
{ "type": "Feature", "properties": { "fid": 525.0, "COMPR_M": 218.04, "CLASSE": "02 - Curta", "CD_FAZ": " 400220", "TALHOES": "1, 2", "FAZ_tAL": "400477001, 400220002", "ID_LINHA": 74796 }, "geometry": { "type": "MultiLineString", "coordinates": [ [ [ 424061.045975823886693, 7639055.95133582688868 ], [ 424082.648603656678461, 7639064.107784992083907 ], [ 424096.432680893864017, 7639070.568173655308783 ], [ 424109.364323532907292, 7639077.549162859097123 ], [ 424121.248106229468249, 7639084.800558799877763 ], [ 424132.144346236018464, 7639092.207045707851648 ], [ 424151.23665366548812, 7639107.116686904802918 ], [ 424159.483366526721511, 7639114.398935683071613 ], [ 424173.524414853774942, 7639128.09411259368062 ], [ 424190.877665533975232, 7639147.494754281826317 ], [ 424205.917646766640246, 7639166.979770634323359 ], [ 424214.801823464105837, 7639179.91577484831214 ], [ 424223.627884316607378, 7639194.052027760073543 ] ] ] } },
{ "type": "Feature", "properties": { "fid": 527.0, "COMPR_M": 218.99, "CLASSE": "02 - Curta", "CD_FAZ": " 400220", "TALHOES": "1, 2", "FAZ_tAL": "400477001, 400220002", "ID_LINHA": 74798 }, "geometry": { "type": "MultiLineString", "coordinates": [ [ [ 424056.775205105252098, 7639057.678778966888785 ], [ 424067.597486786777154, 7639061.32288427837193 ], [ 424081.454316584626213, 7639066.861194729804993 ], [ 424095.082459156401455, 7639073.248499173671007 ], [ 424107.869402919779532, 7639080.151374459266663 ], [ 424119.622572915162891, 7639087.323071498423815 ], [ 424130.401376862893812, 7639094.649733749218285 ], [ 424149.294394215918146, 7639109.403823473490775 ], [ 424157.458527637470979, 7639116.613150585442781 ], [ 424171.366892376565374, 7639130.179000049829483 ], [ 424188.568060071207583, 7639149.409703176468611 ], [ 424203.481548371259123, 7639168.730914419516921 ], [ 424212.293719314795453, 7639181.562091447412968 ], [ 424220.834562340867706, 7639195.220275767147541 ] ] ] } },
{ "type": "Feature", "properties": { "fid": 529.0, "COMPR_M": 219.97, "CLASSE": "02 - Curta", "CD_FAZ": " 400220", "TALHOES": "1, 2", "FAZ_tAL": "400477001, 400220002", "ID_LINHA": 74800 }, "geometry": { "type": "MultiLineString", "coordinates": [ [ [ 424052.455182017059997, 7639059.426143730059266 ], [ 424066.56131257454399, 7639064.139488710090518 ], [ 424080.260029510594904, 7639069.614604471251369 ], [ 424093.73223741928814, 7639075.928824694827199 ], [ 424106.374482305371203, 7639082.753586059436202 ], [ 424117.997039601556025, 7639089.845584199763834 ], [ 424128.658407490467653, 7639097.092421792447567 ], [ 424147.352134766522795, 7639111.690960042178631 ], [ 424155.433688747696579, 7639118.82736549153924 ], [ 424169.209369900869206, 7639132.263887507840991 ], [ 424186.258454607916065, 7639151.324652077630162 ], [ 424201.045449979079422, 7639170.482058208435774 ], [ 424209.785615164029878, 7639183.208408048376441 ], [ 424218.041240365128033, 7639196.388523776084185 ] ] ] } },
{ "type": "Feature", "properties": { "fid": 531.0, "COMPR_M": 221.16, "CLASSE": "02 - Curta", "CD_FAZ": " 400220", "TALHOES": "1, 2", "FAZ_tAL": "400477001, 400220002", "ID_LINHA": 74802 }, "geometry": { "type": "MultiLineString", "coordinates": [ [ [ 424047.898965758795384, 7639061.269044000655413 ], [ 424065.525138361146674, 7639066.956093143671751 ], [ 424079.065742438542657, 7639072.368014210835099 ], [ 424092.382015681301709, 7639078.609150214120746 ], [ 424104.879561691894196, 7639085.355797657743096 ], [ 424116.371506286785007, 7639092.368096899241209 ], [ 424136.580368876631837, 7639106.769114288501441 ], [ 424145.409875317360274, 7639113.978096608072519 ], [ 424160.598780444357544, 7639127.849811013787985 ], [ 424178.587460500537418, 7639146.929572539404035 ], [ 424189.067773159767967, 7639159.567131633870304 ], [ 424198.609351583698299, 7639172.233201995491982 ], [ 424207.277511013729963, 7639184.854724647477269 ], [ 424215.247918388748076, 7639197.556771786883473 ] ] ] } },
{ "type": "Feature", "properties": { "fid": 533.0, "COMPR_M": 222.34, "CLASSE": "02 - Curta", "CD_FAZ": " 400220", "TALHOES": "1, 2", "FAZ_tAL": "400477001, 400220002", "ID_LINHA": 74804 }, "geometry": { "type": "MultiLineString", "coordinates": [ [ [ 424043.342749505711254, 7639063.111944271251559 ], [ 424064.48896414792398, 7639069.772697579115629 ], [ 424077.871455365151633, 7639075.12142395414412 ], [ 424091.031793943664525, 7639081.289475735276937 ], [ 424103.384641077136621, 7639087.958009260706604 ], [ 424114.745972974051256, 7639094.890609599649906 ], [ 424134.732054813299328, 7639109.132953969761729 ], [ 424143.467615867673885, 7639116.265233177691698 ], [ 424158.502516244479921, 7639129.996392445638776 ], [ 424176.325382100825664, 7639148.900457900948822 ], [ 424186.713391132827383, 7639161.426731968298554 ], [ 424196.173253189539537, 7639173.984345784410834 ], [ 424204.769406863953918, 7639186.501041248440742 ], [ 424212.450579538301099, 7639198.726699769496918 ] ] ] } },
{ "type": "Feature", "properties": { "fid": 535.0, "COMPR_M": 223.52, "CLASSE": "02 - Curta", "CD_FAZ": " 400220", "TALHOES": "1, 2", "FAZ_tAL": "400477001, 400220002", "ID_LINHA": 74806 }, "geometry": { "type": "MultiLineString", "coordinates": [ [ [ 424038.78653325047344, 7639064.954844543710351 ], [ 424050.441357747709844, 7639068.208060559816658 ], [ 424063.452789936913177, 7639072.58930201549083 ], [ 424076.677168292400893, 7639077.874833693727851 ], [ 424089.681572206493001, 7639083.969801253639162 ], [ 424101.889720462495461, 7639090.560220860876143 ], [ 424113.120439659396652, 7639097.413122303783894 ], [ 424132.883740748919081, 7639111.496793651022017 ], [ 424141.525356418103911, 7639118.552369747310877 ], [ 424156.406252045184374, 7639132.142973873764277 ], [ 424174.063303700648248, 7639150.87134325876832 ], [ 424184.359009105886798, 7639163.28633230458945 ], [ 424193.737154795322567, 7639175.735489573329687 ], [ 424209.649437876592856, 7639199.898218196816742 ] ] ] } },
{ "type": "Feature", "properties": { "fid": 537.0, "COMPR_M": 224.9, "CLASSE": "02 - Curta", "CD_FAZ": " 400220", "TALHOES": "1, 2", "FAZ_tAL": "400477001, 400220002", "ID_LINHA": 74808 }, "geometry": { "type": "MultiLineString", "coordinates": [ [ [ 424033.99859058362199, 7639066.891473615542054 ], [ 424049.558792238123715, 7639071.076388494111598 ], [ 424062.416615724854637, 7639075.405906447209418 ], [ 424075.482881218951661, 7639080.628243433311582 ], [ 424088.331350468972232, 7639086.650126779451966 ], [ 424100.394799849367701, 7639093.162432461977005 ], [ 424111.494906345498748, 7639099.935635006055236 ], [ 424131.035426682210527, 7639113.860633328557014 ], [ 424139.583096969348844, 7639120.83950631506741 ], [ 424154.309987844550051, 7639134.289555305615067 ], [ 424171.801225300587248, 7639152.842228622175753 ], [ 424182.004627078946214, 7639165.145932639017701 ], [ 424191.301056399883237, 7639177.486633360385895 ], [ 424206.848296215233859, 7639201.069736625999212 ] ] ] } },
{ "type": "Feature", "properties": { "fid": 539.0, "COMPR_M": 226.37, "CLASSE": "02 - Curta", "CD_FAZ": " 400220", "TALHOES": "1, 2", "FAZ_tAL": "400477001, 400220002", "ID_LINHA": 74810 }, "geometry": { "type": "MultiLineString", "coordinates": [ [ [ 424029.120343380491249, 7639068.864629099145532 ], [ 424048.676226728071924, 7639073.944716428406537 ], [ 424061.380441512272228, 7639078.222510879859328 ], [ 424074.288594146200921, 7639083.381653176620603 ], [ 424086.98112873127684, 7639089.330452298745513 ], [ 424098.899879233096726, 7639095.764644062146544 ], [ 424109.86937303096056, 7639102.458147703669965 ], [ 424129.187112618412357, 7639116.22447300888598 ], [ 424137.640837520128116, 7639123.126642883755267 ], [ 424152.213723645196296, 7639136.436136735603213 ], [ 424169.539146900118794, 7639154.813113983720541 ], [ 424179.650245050725061, 7639167.00553297623992 ], [ 424188.864958006306551, 7639179.237777148373425 ], [ 424204.047154552768916, 7639202.24125505425036 ] ] ] } },
{ "type": "Feature", "properties": { "fid": 541.0, "COMPR_M": 227.83, "CLASSE": "02 - Curta", "CD_FAZ": " 400220", "TALHOES": "1, 2", "FAZ_tAL": "400477001, 400220002", "ID_LINHA": 74812 }, "geometry": { "type": "MultiLineString", "coordinates": [ [ [ 424024.242096179455984, 7639070.837784584611654 ], [ 424035.511598797980696, 7639073.384747164323926 ], [ 424047.793661218311172, 7639076.813044361770153 ], [ 424060.344267300562933, 7639081.039115315303206 ], [ 424073.094307072809897, 7639086.135062918066978 ], [ 424085.630906993406825, 7639092.010777814313769 ], [ 424097.404958620201796, 7639098.366855663247406 ], [ 424108.243839717877563, 7639104.98066040687263 ], [ 424127.338798553682864, 7639118.588312690146267 ], [ 424135.698578069685027, 7639125.413779448717833 ], [ 424150.117459446482826, 7639138.582718169316649 ], [ 424167.277068499824964, 7639156.783999341540039 ], [ 424177.295863025821745, 7639168.865133313462138 ], [ 424186.428859612147789, 7639180.9889209382236 ], [ 424201.246012890711427, 7639203.412773482501507 ] ] ] } },
{ "type": "Feature", "properties": { "fid": 543.0, "COMPR_M": 229.57, "CLASSE": "02 - Curta", "CD_FAZ": " 400220", "TALHOES": "1, 2", "FAZ_tAL": "400477001, 400220002", "ID_LINHA": 74814 }, "geometry": { "type": "MultiLineString", "coordinates": [ [ [ 424019.060732957790606, 7639072.933544565923512 ], [ 424034.777193867426831, 7639076.29443122446537 ], [ 424046.911095710820518, 7639079.681372296996415 ], [ 424059.308093087747693, 7639083.855719750747085 ], [ 424071.900020000059158, 7639088.888472657650709 ], [ 424084.280685255827848, 7639094.691103333607316 ], [ 424095.910038006142713, 7639100.969067263416946 ], [ 424116.45762188435765, 7639114.191238095983863 ], [ 424125.490484488545917, 7639120.95215236954391 ], [ 424141.259816522651818, 7639134.326869821175933 ], [ 424159.706053784699179, 7639152.812189499847591 ], [ 424170.091216370579787, 7639164.729294361546636 ], [ 424179.572856271523051, 7639176.731310875155032 ], [ 424188.208845254441258, 7639188.742918264120817 ], [ 424198.444871228944976, 7639204.584291910752654 ] ] ] } },
{ "type": "Feature", "properties": { "fid": 545.0, "COMPR_M": 231.36, "CLASSE": "02 - Curta", "CD_FAZ": " 400220", "TALHOES": "1, 2", "FAZ_tAL": "400477001, 400220002", "ID_LINHA": 74816 }, "geometry": { "type": "MultiLineString", "coordinates": [ [ [ 424013.818016483506653, 7639075.054120734333992 ], [ 424034.042788937920704, 7639079.204115281812847 ], [ 424046.028530201583635, 7639082.549700231291354 ], [ 424058.271918875165284, 7639086.672324183396995 ], [ 424070.70573292725021, 7639091.641882396303117 ], [ 424082.930463518714532, 7639097.371428854763508 ], [ 424094.415117390279192, 7639103.571278864517808 ], [ 424114.714652512513567, 7639116.633926140144467 ], [ 424123.642170425737277, 7639123.315992049872875 ], [ 424139.234977632353548, 7639136.541084725409746 ], [ 424157.494349671294913, 7639154.839462618343532 ], [ 424167.781610907521099, 7639166.644243257120252 ], [ 424177.176345964719076, 7639178.536273710429668 ], [ 424185.735586969240103, 7639190.441153858788311 ], [ 424195.643729566829279, 7639205.755810339935124 ] ] ] } },
{ "type": "Feature", "properties": { "fid": 547.0, "COMPR_M": 233.3, "CLASSE": "02 - Curta", "CD_FAZ": " 400220", "TALHOES": "1, 2", "FAZ_tAL": "400477001, 400220002", "ID_LINHA": 74818 }, "geometry": { "type": "MultiLineString", "coordinates": [ [ [ 424008.411655522766523, 7639077.240887895226479 ], [ 424021.744966276339255, 7639079.500410512089729 ], [ 424033.308384008007124, 7639082.113799341022968 ], [ 424045.14596469263779, 7639085.41802816465497 ], [ 424057.235744662815705, 7639089.488928619772196 ], [ 424069.511445853160694, 7639094.395292138680816 ], [ 424081.580241781310178, 7639100.051754377782345 ], [ 424092.920196777849924, 7639106.173490464687347 ], [ 424112.971683140029199, 7639119.076614182442427 ], [ 424121.793856360542122, 7639125.679831728339195 ], [ 424137.210138744150754, 7639138.755299629643559 ], [ 424155.282645556668285, 7639156.866735739633441 ], [ 424165.472005444695242, 7639168.559192152693868 ], [ 424174.779835658147931, 7639180.341236542910337 ], [ 424183.262328683282249, 7639192.139389455318451 ], [ 424192.842587904364336, 7639206.927328767254949 ] ] ] } },
{ "type": "Feature", "properties": { "fid": 549.0, "COMPR_M": 235.47, "CLASSE": "02 - Curta", "CD_FAZ": " 400220", "TALHOES": "1, 2", "FAZ_tAL": "400477001, 400220002", "ID_LINHA": 74820 }, "geometry": { "type": "MultiLineString", "coordinates": [ [ [ 424002.754166409897152, 7639079.529231479391456 ], [ 424021.153107281716075, 7639082.442310646176338 ], [ 424032.573979077744298, 7639085.023483398370445 ], [ 424044.263399183284491, 7639088.286356100812554 ], [ 424056.199570450640749, 7639092.305533048696816 ], [ 424068.317158781690523, 7639097.148701880127192 ], [ 424080.230020044371486, 7639102.732079897075891 ], [ 424091.42527616355801, 7639108.775702065788209 ], [ 424111.228713767486624, 7639121.519302226603031 ], [ 424119.945542296336498, 7639128.04367140866816 ], [ 424135.185299854783807, 7639140.969514535740018 ], [ 424153.070941441575997, 7639158.894008859992027 ], [ 424163.162399983266369, 7639170.474141051992774 ], [ 424172.383325351052918, 7639182.146199380978942 ], [ 424180.78907039918704, 7639193.837625050917268 ], [ 424190.041446242888924, 7639208.098847194574773 ] ] ] } },
{ "type": "Feature", "properties": { "fid": 551.0, "COMPR_M": 237.8, "CLASSE": "02 - Curta", "CD_FAZ": " 400220", "TALHOES": "1, 2", "FAZ_tAL": "400477001, 400220002", "ID_LINHA": 74822 }, "geometry": { "type": "MultiLineString", "coordinates": [ [ [ 423996.942346157622524, 7639081.879998983815312 ], [ 424009.554582871962339, 7639083.440475004725158 ], [ 424031.839574147830717, 7639087.933167458511889 ], [ 424043.380833674804308, 7639091.154684035107493 ], [ 424055.16339623805834, 7639095.122137485072017 ], [ 424067.122871708241291, 7639099.902111619710922 ], [ 424078.879798305162694, 7639105.412405417300761 ], [ 424089.930355549440719, 7639111.377913663163781 ], [ 424100.116173148911912, 7639117.593223911710083 ], [ 424109.485744395002257, 7639123.961990270763636 ], [ 424125.987280821485911, 7639136.849462294951081 ], [ 424133.160460965475067, 7639143.183729436248541 ], [ 424145.476622657733969, 7639155.197649544104934 ], [ 424155.966676500043832, 7639166.63842614274472 ], [ 424165.523952891526278, 7639178.16313498839736 ], [ 424178.315812113694847, 7639195.535860650241375 ], [ 424187.240304581006058, 7639209.270365621894598 ] ] ] } },
{ "type": "Feature", "properties": { "fid": 553.0, "COMPR_M": 240.42, "CLASSE": "02 - Curta", "CD_FAZ": " 400220", "TALHOES": "1, 2", "FAZ_tAL": "400477001, 400220002", "ID_LINHA": 74824 }, "geometry": { "type": "MultiLineString", "coordinates": [ [ [ 423990.811790302046575, 7639084.359688802622259 ], [ 424009.099723260849714, 7639086.40656871534884 ], [ 424019.969389288045932, 7639088.326110918074846 ], [ 424042.498268164694309, 7639094.023011965677142 ], [ 424054.127222025650553, 7639097.938741919584572 ], [ 424065.928584635548759, 7639102.655521359294653 ], [ 424077.529576568398625, 7639108.092730938456953 ], [ 424088.435434934799559, 7639113.980125263333321 ], [ 424098.4906398349558, 7639120.115736613050103 ], [ 424107.74277502251789, 7639126.404678313061595 ], [ 424124.045021372789051, 7639139.13659886084497 ], [ 424131.135622075642459, 7639145.397944341413677 ], [ 424143.319100180466194, 7639157.282537002116442 ], [ 424153.704598099575378, 7639168.609311506152153 ], [ 424163.169570864702109, 7639180.022735323756933 ], [ 424175.842553828086238, 7639197.234096245840192 ], [ 424184.439162918191869, 7639210.44188405200839 ] ] ] } },
{ "type": "Feature", "properties": { "fid": 555.0, "COMPR_M": 243.34, "CLASSE": "02 - Curta", "CD_FAZ": " 400220", "TALHOES": "1, 2", "FAZ_tAL": "400477001, 400220002", "ID_LINHA": 74826 }, "geometry": { "type": "MultiLineString", "coordinates": [ [ [ 423984.375409426516853, 7639086.963078854605556 ], [ 423998.189827544207219, 7639088.010677671991289 ], [ 424008.644863648572937, 7639089.372662426903844 ], [ 424030.37076428765431, 7639093.752535574138165 ], [ 424041.615702655515634, 7639096.891339900903404 ], [ 424053.091047814115882, 7639100.75534635130316 ], [ 424064.734297562739812, 7639105.408931103534997 ], [ 424076.179354831343517, 7639110.773056454956532 ], [ 424086.940514320915099, 7639116.58233686350286 ], [ 424096.865106520417612, 7639122.638249315321445 ], [ 424105.999805650673807, 7639128.847366355359554 ], [ 424122.1027619241504, 7639141.423735428601503 ], [ 424141.161577704071533, 7639159.367424461990595 ], [ 424151.442519700038247, 7639170.580196864902973 ], [ 424160.815188836539164, 7639181.882335660979152 ], [ 424173.369295543699991, 7639198.932331843301654 ], [ 424181.638021255668718, 7639211.613402478396893 ] ] ] } },
{ "type": "Feature", "properties": { "fid": 557.0, "COMPR_M": 246.54, "CLASSE": "02 - Curta", "CD_FAZ": " 400220", "TALHOES": "1, 2", "FAZ_tAL": "400477001, 400220002", "ID_LINHA": 74828 }, "geometry": { "type": "MultiLineString", "coordinates": [ [ [ 423977.659821740817279, 7639089.679402592591941 ], [ 423997.866333531797864, 7639090.99388446751982 ], [ 424008.190004036470782, 7639092.338756140321493 ], [ 424029.636359357391484, 7639096.662219632416964 ], [ 424040.733137145871297, 7639099.759667836129665 ], [ 424052.054873602173757, 7639103.571950787678361 ], [ 424063.540010489989072, 7639108.162340841256082 ], [ 424074.829133094055578, 7639113.453381979838014 ], [ 424085.445593706564978, 7639119.184548468329012 ], [ 424095.239573205937631, 7639125.160762015730143 ], [ 424104.256836278247647, 7639131.290054399520159 ], [ 424120.160502475104295, 7639143.710871996358037 ], [ 424139.004055227909703, 7639161.45231191907078 ], [ 424149.180441299336962, 7639172.551082223653793 ], [ 424158.460806810471695, 7639183.741935996338725 ], [ 424170.896037257276475, 7639200.630567440763116 ], [ 424178.83687959407689, 7639212.784920909442008 ] ] ] } },
{ "type": "Feature", "properties": { "fid": 559.0, "COMPR_M": 250.29, "CLASSE": "02 - Curta", "CD_FAZ": " 400220", "TALHOES": "1, 2", "FAZ_tAL": "400477001, 400220002", "ID_LINHA": 74830 }, "geometry": { "type": "MultiLineString", "coordinates": [ [ [ 423970.386827138019726, 7639092.621186517179012 ], [ 423987.667878599488176, 7639093.120856110006571 ], [ 423997.542839519039262, 7639093.977091269567609 ], [ 424018.19381230144063, 7639097.151811321265996 ], [ 424028.901954427361488, 7639099.571903690695763 ], [ 424039.850571637158282, 7639102.62799577228725 ], [ 424051.01869938976597, 7639106.388555221259594 ], [ 424062.345723417238332, 7639110.915750581771135 ], [ 424073.478911357233301, 7639116.13370749913156 ], [ 424083.950673092331272, 7639121.786760067567229 ], [ 424093.61403989221435, 7639127.683274718001485 ], [ 424110.703971972689033, 7639139.862869809381664 ], [ 424118.218243025534321, 7639145.998008564114571 ], [ 424131.251081650087144, 7639157.901951036415994 ], [ 424142.01242087117862, 7639169.030374463647604 ], [ 424156.106424783007242, 7639185.601536333560944 ], [ 424164.503974062332418, 7639196.749215031042695 ], [ 424176.035737932834309, 7639213.956439334899187 ] ] ] } },
{ "type": "Feature", "properties": { "fid": 561.0, "COMPR_M": 254.59, "CLASSE": "02 - Curta", "CD_FAZ": " 400220", "TALHOES": "1, 2", "FAZ_tAL": "400477001, 400220002", "ID_LINHA": 74832 }, "geometry": { "type": "MultiLineString", "coordinates": [ [ [ 423962.55571402591886, 7639095.788718450814486 ], [ 423978.077965451346245, 7639095.682947980239987 ], [ 423997.21934550779406, 7639096.96029806882143 ], [ 424017.601953303790651, 7639100.093711456283927 ], [ 424028.167549497098662, 7639102.481587750837207 ], [ 424038.968006128096022, 7639105.496323704719543 ], [ 424049.982525176892523, 7639109.205159654840827 ], [ 424061.151436343789101, 7639113.669160323217511 ], [ 424072.128689618781209, 7639118.814033020287752 ], [ 424082.455752478330396, 7639124.388971665874124 ], [ 424091.988506579305977, 7639130.205787414684892 ], [ 424108.855657909065485, 7639142.226709488779306 ], [ 424116.27598357613897, 7639148.285145133733749 ], [ 424129.154817451606505, 7639160.048532467335463 ], [ 424139.800716757017653, 7639171.057647584937513 ], [ 424153.752042756939773, 7639187.461136668920517 ], [ 424162.067875668639317, 7639198.500358821824193 ], [ 424173.234596270602196, 7639215.12795776501298 ] ] ] } },
{ "type": "Feature", "properties": { "fid": 563.0, "COMPR_M": 259.61, "CLASSE": "02 - Curta", "CD_FAZ": " 400220", "TALHOES": "1, 2", "FAZ_tAL": "400477001, 400220002", "ID_LINHA": 74834 }, "geometry": { "type": "MultiLineString", "coordinates": [ [ [ 423954.027568011719268, 7639099.238186546601355 ], [ 423969.093903796514496, 7639098.61101312469691 ], [ 423987.270728123665322, 7639099.108932550065219 ], [ 424006.82542519737035, 7639101.237037276849151 ], [ 424017.010094309051055, 7639103.035611592233181 ], [ 424038.085440618626308, 7639108.364651639945805 ], [ 424048.946350964251906, 7639112.02176408842206 ], [ 424059.957149271038361, 7639116.422570062801242 ], [ 424070.77846788149327, 7639121.494358537718654 ], [ 424080.960831863747444, 7639126.991183266043663 ], [ 424090.362973264418542, 7639132.728300119750202 ], [ 424107.007343843695708, 7639144.590549167245626 ], [ 424114.333724126918241, 7639150.572281702421606 ], [ 424127.058553251787089, 7639162.195113896392286 ], [ 424137.589012642391026, 7639173.084920702502131 ], [ 424151.397660730173811, 7639189.320737006142735 ], [ 424159.631777272967156, 7639200.251502608880401 ], [ 424170.425667150761001, 7639216.302733134478331 ] ] ] } },
{ "type": "Feature", "properties": { "fid": 565.0, "COMPR_M": 256.97, "CLASSE": "02 - Curta", "CD_FAZ": " 400220", "TALHOES": "1, 2", "FAZ_tAL": "400477001, 400220002", "ID_LINHA": 74836 }, "geometry": { "type": "MultiLineString", "coordinates": [ [ [ 423953.137670800148044, 7639102.29721631295979 ], [ 423969.122898178116884, 7639101.611342016607523 ], [ 423987.07215288747102, 7639102.102970769628882 ], [ 424006.370565585384611, 7639104.203130985610187 ], [ 424016.418235313205514, 7639105.977511727251112 ], [ 424037.202875109389424, 7639111.232979572378099 ], [ 424047.910176752484404, 7639114.838368520140648 ], [ 424058.762862198287621, 7639119.175979806110263 ], [ 424069.428246144554578, 7639124.174684058874846 ], [ 424079.465911249280907, 7639129.593394868075848 ], [ 424097.28495878900867, 7639141.060806572437286 ], [ 424112.391464677173644, 7639152.859418270178139 ], [ 424124.96228905254975, 7639164.341695327311754 ], [ 424135.377308527298737, 7639175.11219382379204 ], [ 424149.043278703466058, 7639191.180337339639664 ], [ 424157.195678880496416, 7639202.002646398730576 ], [ 424167.615297339740209, 7639217.478111038915813 ] ] ] } },
{ "type": "Feature", "properties": { "fid": 567.0, "COMPR_M": 252.3, "CLASSE": "02 - Curta", "CD_FAZ": " 400220", "TALHOES": "1, 2", "FAZ_tAL": "400477001, 400220002", "ID_LINHA": 74838 }, "geometry": { "type": "MultiLineString", "coordinates": [ [ [ 423954.268515560135711, 7639105.234546788968146 ], [ 423969.151892557449173, 7639104.611670904792845 ], [ 423986.873577649705112, 7639105.097008985467255 ], [ 424005.915705972234719, 7639107.169224698096514 ], [ 424015.826376317010727, 7639108.919411861337721 ], [ 424036.320309600443579, 7639114.101307507604361 ], [ 424046.874002539669164, 7639117.654972959309816 ], [ 424057.568575125536881, 7639121.929389544762671 ], [ 424068.078024406684563, 7639126.855009580031037 ], [ 424077.970990635047201, 7639132.195606466382742 ], [ 424095.541989417164586, 7639143.503494617529213 ], [ 424110.449205228302162, 7639155.146554838865995 ], [ 424122.866024853370618, 7639166.4882767572999 ], [ 424133.165604414301924, 7639177.139466946013272 ], [ 424146.688896676758304, 7639193.039937674999237 ], [ 424154.759580484824255, 7639203.753790184855461 ], [ 424164.804927528952248, 7639218.653488948009908 ] ] ] } },
{ "type": "Feature", "properties": { "fid": 569.0, "COMPR_M": 247.64, "CLASSE": "02 - Curta", "CD_FAZ": " 400220", "TALHOES": "1, 2", "FAZ_tAL": "400477001, 400220002", "ID_LINHA": 74840 }, "geometry": { "type": "MultiLineString", "coordinates": [ [ [ 423955.399360320414416, 7639108.171877264976501 ], [ 423969.1808869385859, 7639107.611999796703458 ], [ 423986.675002412463073, 7639108.091047206893563 ], [ 424005.460846360656433, 7639110.135318409651518 ], [ 424015.234517320408486, 7639111.861311997286975 ], [ 424035.437744091148488, 7639116.9696354418993 ], [ 424045.837828328367323, 7639120.471577391028404 ], [ 424056.374288052204065, 7639124.682799283415079 ], [ 424066.727802669338416, 7639129.535335097461939 ], [ 424076.476070021570195, 7639134.797818067483604 ], [ 424085.486373323714361, 7639140.295838221907616 ], [ 424101.462401650263928, 7639151.682068210095167 ], [ 424108.506945779547095, 7639157.433691406622529 ], [ 424120.769760653434787, 7639168.634858187288046 ], [ 424130.953900300199166, 7639179.16674006357789 ], [ 424144.334514648769982, 7639194.899538013152778 ], [ 424152.323482091072947, 7639205.504933973774314 ], [ 424161.994557717000134, 7639219.828866854310036 ] ] ] } },
{ "type": "Feature", "properties": { "fid": 571.0, "COMPR_M": 242.97, "CLASSE": "02 - Curta", "CD_FAZ": " 400220", "TALHOES": "1, 2", "FAZ_tAL": "400477001, 400220002", "ID_LINHA": 74842 }, "geometry": { "type": "MultiLineString", "coordinates": [ [ [ 423956.530205079470761, 7639111.109207743778825 ], [ 423969.209881320013665, 7639110.612328689545393 ], [ 423986.476427175628487, 7639111.085085423663259 ], [ 424005.005986747913994, 7639113.101412121206522 ], [ 424014.642658325377852, 7639114.803212132304907 ], [ 424034.555178581445944, 7639119.837963378056884 ], [ 424044.801654115901329, 7639123.288181824609637 ], [ 424055.180000979453325, 7639127.43620902299881 ], [ 424065.377580931643024, 7639132.215660620480776 ], [ 424074.981149405590259, 7639137.400029668584466 ], [ 424083.860840009874664, 7639142.818350923247635 ], [ 424099.61408758489415, 7639154.04590788949281 ], [ 424106.564686327707022, 7639159.720827978104353 ], [ 424118.673496452800464, 7639170.781439617276192 ], [ 424128.742196185514331, 7639181.194013185799122 ], [ 424141.980132622760721, 7639196.759138349443674 ], [ 424149.887383696681354, 7639207.256077761761844 ], [ 424159.184187905862927, 7639221.004244759678841 ] ] ] } },
{ "type": "Feature", "properties": { "fid": 573.0, "COMPR_M": 238.31, "CLASSE": "02 - Curta", "CD_FAZ": " 400220", "TALHOES": "1, 2", "FAZ_tAL": "400477001, 400220002", "ID_LINHA": 74844 }, "geometry": { "type": "MultiLineString", "coordinates": [ [ [ 423957.661049838876352, 7639114.046538220718503 ], [ 423969.238875701848883, 7639113.612657578662038 ], [ 423986.277851938037202, 7639114.079123643226922 ], [ 424004.551127135986462, 7639116.067505832761526 ], [ 424014.05079932929948, 7639117.745112266391516 ], [ 424033.672613073315006, 7639122.706291312351823 ], [ 424043.765479903726373, 7639126.104786260053515 ], [ 424053.985713906760793, 7639130.189618766307831 ], [ 424064.027359194529708, 7639134.895986139774323 ], [ 424073.486228793102782, 7639140.002241268754005 ], [ 424082.23530669673346, 7639145.340863624587655 ], [ 424097.765773521154188, 7639156.409747568890452 ], [ 424104.622426879359409, 7639162.007964544929564 ], [ 424116.577232254145201, 7639172.928021047264338 ], [ 424126.530492071062326, 7639183.221286306157708 ], [ 424139.625750596169382, 7639198.618738681077957 ], [ 424147.451285302231554, 7639209.007221549749374 ], [ 424156.373818096297327, 7639222.179622669704258 ] ] ] } },
{ "type": "Feature", "properties": { "fid": 575.0, "COMPR_M": 233.67, "CLASSE": "02 - Curta", "CD_FAZ": " 400220", "TALHOES": "1, 2", "FAZ_tAL": "400477001, 400220002", "ID_LINHA": 74846 }, "geometry": { "type": "MultiLineString", "coordinates": [ [ [ 423958.766900789923966, 7639116.985373950563371 ], [ 423977.511150303063914, 7639116.679078403860331 ], [ 423994.95488742296584, 7639117.84274565987289 ], [ 424013.458940333453938, 7639120.687012404203415 ], [ 424023.026714986073785, 7639122.8493761587888 ], [ 424042.729305691085756, 7639128.921390689909458 ], [ 424052.791426832089201, 7639132.943028506822884 ], [ 424062.677137455670163, 7639137.576311659999192 ], [ 424071.991308178752661, 7639142.604452868923545 ], [ 424080.609773381147534, 7639147.863376324996352 ], [ 424095.917459456424695, 7639158.77358725015074 ], [ 424102.680167429149151, 7639164.29510111361742 ], [ 424114.480968054151163, 7639175.074602476321161 ], [ 424124.318787956843153, 7639185.248559424653649 ], [ 424133.137528967636172, 7639195.36847672238946 ], [ 424145.015186908480246, 7639210.758365337736905 ], [ 424153.563448284287006, 7639223.355000574141741 ] ] ] } },
{ "type": "Feature", "properties": { "fid": 577.0, "COMPR_M": 229.04, "CLASSE": "02 - Curta", "CD_FAZ": " 400220", "TALHOES": "1, 2", "FAZ_tAL": "400477001, 400220002", "ID_LINHA": 74848 }, "geometry": { "type": "MultiLineString", "coordinates": [ [ [ 423959.867185363313183, 7639119.924544918350875 ], [ 423977.430176710593514, 7639119.678525602445006 ], [ 423994.631393409217708, 7639120.825952458195388 ], [ 424012.867081337259151, 7639123.628912537358701 ], [ 424022.292310056393035, 7639125.759060218930244 ], [ 424041.693131478677969, 7639131.737995127215981 ], [ 424051.597139760036953, 7639135.696438247337937 ], [ 424061.326915718032978, 7639140.256637180224061 ], [ 424070.49638756463537, 7639145.206664469093084 ], [ 424078.984240067540668, 7639150.385889027267694 ], [ 424094.069145391345955, 7639161.137426929548383 ], [ 424100.737907981150784, 7639166.582237680442631 ], [ 424112.384703856019769, 7639177.221183909103274 ], [ 424122.107083842682187, 7639187.275832546874881 ], [ 424130.827923505043145, 7639197.283425617963076 ], [ 424142.579088514030445, 7639212.50950912758708 ], [ 424150.753078472393099, 7639224.530378483235836 ] ] ] } },
{ "type": "Feature", "properties": { "fid": 579.0, "COMPR_M": 224.46, "CLASSE": "02 - Curta", "CD_FAZ": " 400220", "TALHOES": "1, 2", "FAZ_tAL": "400477001, 400220002", "ID_LINHA": 74850 }, "geometry": { "type": "MultiLineString", "coordinates": [ [ [ 423960.914336595917121, 7639122.86691583879292 ], [ 423977.349203118239529, 7639122.677972810342908 ], [ 423994.307899399078451, 7639123.809159258380532 ], [ 424012.275222341297194, 7639126.570812672376633 ], [ 424021.557905126363039, 7639128.668744275346398 ], [ 424040.656957265804522, 7639134.554599560797215 ], [ 424050.402852687984705, 7639138.449847988784313 ], [ 424069.001466950634494, 7639147.808876067399979 ], [ 424077.358706754050218, 7639152.908401729539037 ], [ 424092.220831327256747, 7639163.501266608946025 ], [ 424098.795648531289771, 7639168.869374249130487 ], [ 424110.288439655967522, 7639179.36776533909142 ], [ 424119.895379728754051, 7639189.303105667233467 ], [ 424128.518318043323234, 7639199.198374516330659 ], [ 424140.142990120220929, 7639214.260652914643288 ], [ 424147.942708662012592, 7639225.705756389535964 ] ] ] } },
{ "type": "Feature", "properties": { "fid": 581.0, "COMPR_M": 219.82, "CLASSE": "02 - Curta", "CD_FAZ": " 400220", "TALHOES": "1, 2", "FAZ_tAL": "400477001, 400220002", "ID_LINHA": 74852 }, "geometry": { "type": "MultiLineString", "coordinates": [ [ [ 423961.963921076967381, 7639125.816123902797699 ], [ 423977.268229525419883, 7639125.677420008927584 ], [ 423993.98440538655268, 7639126.792366057634354 ], [ 424011.6833633442875, 7639129.512712808325887 ], [ 424020.823500195401721, 7639131.578428332693875 ], [ 424039.620783055201173, 7639137.371203993447125 ], [ 424049.208565613313112, 7639141.203257728368044 ], [ 424067.50654633610975, 7639150.411087669432163 ], [ 424075.733173440676183, 7639155.430914429016411 ], [ 424090.372517262818292, 7639165.865106288343668 ], [ 424096.853389082360081, 7639171.156510815024376 ], [ 424108.19217545655556, 7639181.514346767216921 ], [ 424117.68367561296327, 7639191.330378789454699 ], [ 424126.208712579798885, 7639201.113323414698243 ], [ 424137.706891723792069, 7639216.01179670356214 ], [ 424145.101833436114248, 7639226.833605970256031 ] ] ] } }
]
}
