{
"type": "FeatureCollection",
"name": " 400055",
"crs": { "type": "name", "properties": { "name": "urn:ogc:def:crs:EPSG::32722" } },
"xy_coordinate_resolution": 1e-15,
"features": [
{ "type": "Feature", "properties": { "fid": 537.0, "COMPR_M": 1003.42, "CLASSE": "06 - Acima do limite", "CD_FAZ": " 400055", "TALHOES": "6, 2", "FAZ_tAL": "400180006, 400055002", "ID_LINHA": 44462 }, "geometry": { "type": "MultiLineString", "coordinates": [ [ [ 414737.608302953769453, 7646297.245857658796012 ], [ 414762.827232697047293, 7646289.231879305094481 ], [ 414785.093122568621766, 7646281.416145177558064 ], [ 414806.890083859674633, 7646272.892935729585588 ], [ 414825.787674439721741, 7646264.624971691519022 ], [ 414844.164168293704279, 7646255.619356252253056 ], [ 414862.021591469179839, 7646245.774830682203174 ], [ 414879.37908922706265, 7646235.055492741055787 ], [ 414894.108979678421747, 7646224.980494473129511 ], [ 414910.365853751660325, 7646212.697044871747494 ], [ 414925.950475242745597, 7646199.621093882247806 ], [ 414940.804836129827891, 7646185.781762603670359 ], [ 414954.865867855027318, 7646171.213573763146996 ], [ 414968.061563044437207, 7646155.956058789044619 ], [ 414978.842852531350218, 7646142.069844675250351 ], [ 414990.261659181094728, 7646125.584334388375282 ], [ 415000.818136525515001, 7646108.368142507970333 ], [ 415010.577407202625182, 7646090.473228952847421 ], [ 415020.675594508473296, 7646069.615801382809877 ], [ 415030.8835742729716, 7646045.688844043761492 ], [ 415039.09146989020519, 7646023.755798598751426 ], [ 415046.271589115320239, 7646001.559759787283838 ], [ 415051.723375179746654, 7645981.666896702721715 ], [ 415056.736434973194264, 7645959.168003587983549 ], [ 415060.135472124326043, 7645939.116634406149387 ], [ 415062.250105468730908, 7645921.569407388567924 ], [ 415063.398982297745533, 7645906.532833706587553 ], [ 415063.996810394222848, 7645873.360114545561373 ], [ 415062.6773101175786, 7645839.245273426175117 ], [ 415057.137813398439903, 7645754.19210269767791 ], [ 415056.513964312965982, 7645734.137029424309731 ], [ 415056.632692258688621, 7645713.720212536863983 ], [ 415057.793489394884091, 7645692.969767369329929 ], [ 415060.309087536588777, 7645671.928639545105398 ], [ 415063.785969733435195, 7645653.717964353971183 ], [ 415068.68625459127361, 7645635.487206641584635 ], [ 415076.467499389313161, 7645614.482618371024728 ], [ 415082.038461190415546, 7645602.751316201873124 ], [ 415086.805846747651231, 7645594.147050142288208 ], [ 415097.777308123651892, 7645577.813887406140566 ], [ 415103.85395710542798, 7645570.209316175431013 ], [ 415112.483018061262555, 7645560.640092823654413 ], [ 415128.806236108357552, 7645545.394236578606069 ], [ 415138.707079139654525, 7645537.491489958018064 ], [ 415148.943914373987354, 7645530.141467462293804 ], [ 415170.185355680179782, 7645516.988523395732045 ], [ 415192.370250943233259, 7645505.599391601979733 ] ] ] } },
{ "type": "Feature", "properties": { "fid": 555.0, "COMPR_M": 849.61, "CLASSE": "04 - Longa", "CD_FAZ": " 400055", "TALHOES": "6, 2", "FAZ_tAL": "400180006, 400055002", "ID_LINHA": 44479 }, "geometry": { "type": "MultiLineString", "coordinates": [ [ [ 414873.782391759858001, 7646358.094304893165827 ], [ 414895.407780264562462, 7646347.310888983309269 ], [ 414914.965187067631632, 7646336.450520602986217 ], [ 414936.750544362002984, 7646322.996511899866164 ], [ 414955.273515240929555, 7646310.326897215098143 ], [ 414973.249795635754708, 7646296.833261553198099 ], [ 414990.639522848650813, 7646282.525759362615645 ], [ 415007.399497118662111, 7646267.414792074821889 ], [ 415023.485389568260871, 7646251.509964933618903 ], [ 415038.856771517253947, 7646234.809730313718319 ], [ 415051.421014977386221, 7646219.86648515611887 ], [ 415065.310776092694141, 7646201.707517807371914 ], [ 415076.471952169260476, 7646185.593477742746472 ], [ 415088.492068835475948, 7646166.427929274737835 ], [ 415099.497904618096072, 7646146.964394198730588 ], [ 415109.568417345930357, 7646127.283594399690628 ], [ 415120.038014575082343, 7646104.610866159200668 ], [ 415128.401560133032035, 7646084.615751916542649 ], [ 415135.069813571637496, 7646067.186375537887216 ], [ 415146.909600492450409, 7646031.510878814384341 ], [ 415152.011457688582595, 7646013.288355419412255 ], [ 415156.519843860412948, 7645994.82491123303771 ], [ 415160.396948301349767, 7645976.130814857780933 ], [ 415163.602268804737832, 7645957.223276346921921 ], [ 415166.09502337424783, 7645938.116335193626583 ], [ 415167.832031873404048, 7645918.834171407856047 ], [ 415168.786545745329931, 7645899.700288132764399 ], [ 415169.049270491290372, 7645877.914766093716025 ], [ 415167.667532012215815, 7645836.112772397696972 ], [ 415161.825669699872378, 7645744.527695644646883 ], [ 415161.494935170456301, 7645721.148201 ], [ 415162.413344506989233, 7645701.908975418657064 ], [ 415163.769068454392254, 7645690.019658625125885 ], [ 415165.768558840558399, 7645678.832025891169906 ], [ 415168.413326162903104, 7645668.434331782162189 ], [ 415171.619957088609226, 7645659.110519162379205 ], [ 415175.256259657500777, 7645651.086989127099514 ], [ 415179.2155268243514, 7645644.389332437887788 ], [ 415184.143674149119761, 7645637.880365421995521 ], [ 415190.402878074150067, 7645631.178749948740005 ] ] ] } },
{ "type": "Feature", "properties": { "fid": 557.0, "COMPR_M": 854.3, "CLASSE": "05 - Muito longa", "CD_FAZ": " 400055", "TALHOES": "6, 2", "FAZ_tAL": "400180006, 400055002", "ID_LINHA": 44481 }, "geometry": { "type": "MultiLineString", "coordinates": [ [ [ 414869.859491542680189, 7646356.619086146354675 ], [ 414891.19602929323446, 7646346.129584526643157 ], [ 414910.701823761221021, 7646335.454489736817777 ], [ 414932.43877614219673, 7646322.215636810287833 ], [ 414950.927667957032099, 7646309.738193226978183 ], [ 414968.87804260966368, 7646296.440454658120871 ], [ 414986.249748904258013, 7646282.333376734517515 ], [ 415003.000566710892599, 7646267.427175726741552 ], [ 415019.085525995411444, 7646251.732873014174402 ], [ 415034.465011336142197, 7646235.250220935791731 ], [ 415049.084604725474492, 7646217.984650893136859 ], [ 415062.882523272302933, 7646199.945783214643598 ], [ 415073.969414727529511, 7646183.938963267952204 ], [ 415085.913896047743037, 7646164.893940943293273 ], [ 415096.855319815687835, 7646145.544244457036257 ], [ 415106.871495136350859, 7646125.969563830643892 ], [ 415117.289726172981318, 7646103.407968561165035 ], [ 415125.615331966720987, 7646083.503554549068213 ], [ 415132.252548131160438, 7646066.155322691425681 ], [ 415144.034228738746606, 7646030.655132556334138 ], [ 415149.109583718469366, 7646012.527305140160024 ], [ 415153.593626340967603, 7645994.163603793829679 ], [ 415157.448948030825704, 7645975.574597325176001 ], [ 415160.635545124707278, 7645956.777583869174123 ], [ 415163.113164910580963, 7645937.786760440096259 ], [ 415164.83923589088954, 7645918.626141211017966 ], [ 415165.787991535791662, 7645899.606745375320315 ], [ 415166.049312877526972, 7645877.932206409052014 ], [ 415164.672094054578338, 7645836.278193121775985 ], [ 415158.827811766415834, 7645744.641197294928133 ], [ 415158.495249512547161, 7645721.103658178821206 ], [ 415159.609652735060081, 7645699.592635185457766 ], [ 415161.092351923289243, 7645687.646074693650007 ], [ 415163.240263694082387, 7645676.372716599144042 ], [ 415166.049048874236178, 7645665.900993071496487 ], [ 415169.429328868747689, 7645656.528807536698878 ], [ 415173.253604292753153, 7645648.459374058060348 ], [ 415177.495009870850481, 7645641.594609966501594 ], [ 415182.825389523000922, 7645634.809186989441514 ], [ 415190.315352573117707, 7645627.126855548471212 ] ] ] } },
{ "type": "Feature", "properties": { "fid": 559.0, "COMPR_M": 858.95, "CLASSE": "05 - Muito longa", "CD_FAZ": " 400055", "TALHOES": "6, 2", "FAZ_tAL": "400180006, 400055002", "ID_LINHA": 44483 }, "geometry": { "type": "MultiLineString", "coordinates": [ [ [ 414865.916907207923941, 7646355.13646512851119 ], [ 414887.011944849684369, 7646344.912032062187791 ], [ 414906.461284938734025, 7646334.422689063474536 ], [ 414928.14821506984299, 7646321.397580269724131 ], [ 414946.601540411007591, 7646309.111031115055084 ], [ 414964.524592732486781, 7646296.007778466679156 ], [ 414981.876812355185393, 7646282.099602305330336 ], [ 414998.616835827939212, 7646267.396664125844836 ], [ 415014.699579991516657, 7646251.910771042108536 ], [ 415030.085199961205944, 7646235.64387046918273 ], [ 415044.721915625908878, 7646218.600391382351518 ], [ 415058.548640373570379, 7646200.79051654227078 ], [ 415069.685806137742475, 7646184.957881290465593 ], [ 415081.702745903574396, 7646166.084300449118018 ], [ 415092.716707488463726, 7646146.888109982945025 ], [ 415102.804447100788821, 7646127.448389812372625 ], [ 415113.301376743242145, 7646105.019868963398039 ], [ 415122.82910380064277, 7646082.391357181593776 ], [ 415130.490033480862621, 7646062.22012079693377 ], [ 415137.48301691096276, 7646041.687984626740217 ], [ 415143.754711257177405, 7646020.812283 ], [ 415149.248533079924528, 7645999.61531818844378 ], [ 415153.907199442619458, 7645978.11351023055613 ], [ 415157.668821445375215, 7645956.331891391426325 ], [ 415160.131306445924565, 7645937.45718568470329 ], [ 415162.410913332074415, 7645908.917363053187728 ], [ 415163.049355264462065, 7645877.949646727181971 ], [ 415161.833012460148893, 7645839.337021386250854 ], [ 415156.864422187965829, 7645765.046284506097436 ], [ 415155.598851590184495, 7645737.4462033463642 ], [ 415155.855116293707397, 7645709.941041024401784 ], [ 415158.128138264408335, 7645687.183797188103199 ], [ 415160.315137401339598, 7645675.706400357186794 ], [ 415162.661859394342173, 7645666.724852959625423 ], [ 415165.439765331044327, 7645658.4552117055282 ], [ 415169.253004622878507, 7645649.658939717337489 ], [ 415172.730819778575096, 7645643.374698921106756 ], [ 415177.644004060188308, 7645636.362549962475896 ], [ 415183.806954107480124, 7645629.302418595179915 ], [ 415190.229568451002706, 7645623.155576277524233 ] ] ] } },
{ "type": "Feature", "properties": { "fid": 561.0, "COMPR_M": 863.62, "CLASSE": "05 - Muito longa", "CD_FAZ": " 400055", "TALHOES": "6, 2", "FAZ_tAL": "400180006, 400055002", "ID_LINHA": 44485 }, "geometry": { "type": "MultiLineString", "coordinates": [ [ [ 414861.954241959901992, 7646353.646292624995112 ], [ 414882.857408558425959, 7646343.658030376769602 ], [ 414902.243806671525817, 7646333.355400811880827 ], [ 414923.879100881691556, 7646320.542637256905437 ], [ 414942.29537908686325, 7646308.445714788511395 ], [ 414960.189695831912104, 7646295.535558604635298 ], [ 414977.52097223099554, 7646281.824784263968468 ], [ 414994.248584217217285, 7646267.323615232482553 ], [ 415010.327699350949842, 7646252.044234300032258 ], [ 415025.717648762278259, 7646235.991135381162167 ], [ 415040.369477252475917, 7646219.167722161859274 ], [ 415054.222980241756886, 7646201.584462052211165 ], [ 415065.403905181912705, 7646185.93314397521317 ], [ 415077.491523486096412, 7646167.234314160421491 ], [ 415088.576465584395919, 7646148.195324894040823 ], [ 415098.734703345573507, 7646128.894138615578413 ], [ 415109.309370400384068, 7646106.603021992370486 ], [ 415118.902299970854074, 7646084.116960348561406 ], [ 415126.618017246481031, 7646064.093217000365257 ], [ 415134.626341846422292, 7646040.771759539842606 ], [ 415140.865840746089816, 7646020.003274777904153 ], [ 415146.330167098843958, 7645998.920182039961219 ], [ 415150.962630821042694, 7645977.53940396849066 ], [ 415154.702097768138628, 7645955.886198912747204 ], [ 415157.149447982315905, 7645937.127610930241644 ], [ 415158.623319124628324, 7645921.368120420724154 ], [ 415159.684848252800293, 7645902.525958123616874 ], [ 415159.871365118480753, 7645865.935612557455897 ], [ 415158.35095778683899, 7645830.866703228093684 ], [ 415153.420629516476765, 7645757.467635979875922 ], [ 415152.459132510412019, 7645727.98020619340241 ], [ 415153.118099784478545, 7645705.428533826954663 ], [ 415155.485252646321896, 7645684.731820965185761 ], [ 415157.830233582993969, 7645673.161008163355291 ], [ 415160.321825681487098, 7645664.111946810036898 ], [ 415163.252455417066813, 7645655.795411372557282 ], [ 415167.266162646235898, 7645646.943931450136006 ], [ 415170.947836432722397, 7645640.579607119783759 ], [ 415176.255201931111515, 7645633.295147722586989 ], [ 415182.831714632222429, 7645626.009106690995395 ], [ 415190.180597811064217, 7645619.22489214129746 ] ] ] } },
{ "type": "Feature", "properties": { "fid": 563.0, "COMPR_M": 868.3, "CLASSE": "05 - Muito longa", "CD_FAZ": " 400055", "TALHOES": "6, 2", "FAZ_tAL": "400180006, 400055002", "ID_LINHA": 44487 }, "geometry": { "type": "MultiLineString", "coordinates": [ [ [ 414857.9711244305945, 7646352.148428970947862 ], [ 414878.731954159331508, 7646342.368585061281919 ], [ 414898.049646821687929, 7646332.252892407588661 ], [ 414919.63167408836307, 7646319.651099240407348 ], [ 414938.009489224525169, 7646307.74250447191298 ], [ 414958.381198118207976, 7646293.141936643980443 ], [ 414975.607567715167534, 7646279.514161876402795 ], [ 414992.232528837164864, 7646265.101990502327681 ], [ 415008.211435709148645, 7646249.917845893651247 ], [ 415023.503530610003509, 7646233.966836581006646 ], [ 415038.059863960428629, 7646217.253094889223576 ], [ 415051.820644501131028, 7646199.78754769358784 ], [ 415062.925208300352097, 7646184.243120692670345 ], [ 415074.933762684464455, 7646165.666526081040502 ], [ 415085.951206720957998, 7646146.743395157158375 ], [ 415096.052351055259351, 7646127.550614986568689 ], [ 415106.57293442543596, 7646105.373398769646883 ], [ 415116.121349366439972, 7646082.991632182151079 ], [ 415123.800751806877088, 7646063.062164154835045 ], [ 415131.769666779902764, 7646039.855534454807639 ], [ 415137.97697023418732, 7646019.194266555830836 ], [ 415143.411801116541028, 7645998.225045887753367 ], [ 415148.018062200280838, 7645976.96529770642519 ], [ 415151.73537408770062, 7645955.440506437793374 ], [ 415154.167589521035552, 7645936.798036172986031 ], [ 415155.632013561611529, 7645921.139654703438282 ], [ 415156.686903522175271, 7645902.414560634642839 ], [ 415156.87217364332173, 7645866.005519622936845 ], [ 415155.356278571183793, 7645831.045325176790357 ], [ 415150.425036713364534, 7645757.630237170495093 ], [ 415149.45914090948645, 7645727.991437750868499 ], [ 415150.124953449470922, 7645705.225464409217238 ], [ 415152.526267995708622, 7645684.237164860591292 ], [ 415154.913624610519037, 7645672.458335999399424 ], [ 415157.458214083919302, 7645663.217423681169748 ], [ 415161.115661602641921, 7645653.080883068032563 ], [ 415165.340316856396385, 7645644.171395836398005 ], [ 415170.122045697877184, 7645636.432590143755078 ], [ 415176.042920110514387, 7645628.892782351002097 ], [ 415183.247492893598974, 7645621.411978675052524 ], [ 415190.160836483933963, 7645615.327762775123119 ] ] ] } },
{ "type": "Feature", "properties": { "fid": 565.0, "COMPR_M": 877.62, "CLASSE": "05 - Muito longa", "CD_FAZ": " 400055", "TALHOES": "6, 2", "FAZ_tAL": "400180006, 400055002", "ID_LINHA": 44489 }, "geometry": { "type": "MultiLineString", "coordinates": [ [ [ 414849.942175009753555, 7646349.129117742180824 ], [ 414870.566502043686341, 7646339.687189811840653 ], [ 414892.44720069214236, 7646328.479166882112622 ], [ 414911.202851100766566, 7646317.759386142715812 ], [ 414929.499702647211961, 7646306.223486067727208 ], [ 414949.798437718243804, 7646292.057495623826981 ], [ 414966.977951625478454, 7646278.818452370353043 ], [ 414983.572643650812097, 7646264.803648805245757 ], [ 414999.538737537804991, 7646250.025812260806561 ], [ 415014.834161140723154, 7646234.494082432240248 ], [ 415029.414161023916677, 7646218.212230380624533 ], [ 415043.221406779484823, 7646201.1910111438483 ], [ 415054.395260908699129, 7646186.022122252732515 ], [ 415066.534370796638541, 7646167.808701561763883 ], [ 415077.685783023305703, 7646149.212494437582791 ], [ 415087.921386583358981, 7646130.31002947781235 ], [ 415098.591391363996081, 7646108.423320651054382 ], [ 415108.273203953634948, 7646086.315543416887522 ], [ 415117.118352599150967, 7646063.841578042134643 ], [ 415125.119339686469175, 7646040.91855302080512 ], [ 415131.367390324536245, 7646020.515706188976765 ], [ 415136.856099293800071, 7645999.815189803019166 ], [ 415141.530900395591743, 7645978.835685841739178 ], [ 415145.333377532369923, 7645957.601823643781245 ], [ 415148.203872592304833, 7645936.138886663131416 ], [ 415149.649402435636148, 7645920.682723263278604 ], [ 415150.691014057665598, 7645902.19176565669477 ], [ 415150.873790691548493, 7645866.145333760417998 ], [ 415149.366920141270384, 7645831.402569068595767 ], [ 415144.433851106208749, 7645757.955439554527402 ], [ 415143.459157708799466, 7645728.013900864869356 ], [ 415144.299412942375056, 7645702.590078441426158 ], [ 415146.966646853368729, 7645681.174755871295929 ], [ 415149.567763092345558, 7645669.084558790549636 ], [ 415152.934390012233052, 7645657.759363528341055 ], [ 415157.004655538767111, 7645647.482988834381104 ], [ 415161.686110598791856, 7645638.448822434991598 ], [ 415167.169341390079353, 7645630.295910702086985 ], [ 415173.912194071162958, 7645622.298392243683338 ], [ 415181.936581490735989, 7645614.468518905341625 ], [ 415190.122152383381035, 7645607.698874827474356 ] ] ] } },
{ "type": "Feature", "properties": { "fid": 567.0, "COMPR_M": 882.26, "CLASSE": "05 - Muito longa", "CD_FAZ": " 400055", "TALHOES": "6, 2", "FAZ_tAL": "400180006, 400055002", "ID_LINHA": 44491 }, "geometry": { "type": "MultiLineString", "coordinates": [ [ [ 414845.895729013951495, 7646347.60743922740221 ], [ 414866.525696112541482, 7646338.297050001099706 ], [ 414888.317102798609994, 7646327.298030056990683 ], [ 414907.021967514883727, 7646316.759761746972799 ], [ 414925.276253334712237, 7646305.408308065496385 ], [ 414945.53594846726628, 7646291.457405050285161 ], [ 414962.689879355486482, 7646278.410575138404965 ], [ 414979.267044306616299, 7646264.592299593612552 ], [ 414995.224377351463772, 7646250.015205586329103 ], [ 415010.519148027873598, 7646234.690127179026604 ], [ 415025.108202357543632, 7646218.621195260435343 ], [ 415038.935581946047023, 7646201.81901353597641 ], [ 415051.941401388379745, 7646184.296232836320996 ], [ 415063.997968196461443, 7646166.206588458269835 ], [ 415075.078702768078074, 7646147.728169355541468 ], [ 415085.254352811723948, 7646128.936346700415015 ], [ 415095.867454823863227, 7646107.166249329224229 ], [ 415105.502892308635637, 7646085.164273717440665 ], [ 415114.30618089332711, 7646062.796712437644601 ], [ 415122.267450694984291, 7646039.987537889741361 ], [ 415128.482966384966858, 7646019.69098517857492 ], [ 415133.941760478541255, 7645999.103359447792172 ], [ 415138.589846792106982, 7645978.243837103247643 ], [ 415142.369540444749873, 7645957.137324383482337 ], [ 415145.222014128754381, 7645935.809311907738447 ], [ 415146.658096871979069, 7645920.454257545992732 ], [ 415147.693069326982368, 7645902.080368166789412 ], [ 415147.874599215690978, 7645866.215240826830268 ], [ 415146.372240924974903, 7645831.581191016361117 ], [ 415141.438258300768211, 7645758.11804074421525 ], [ 415140.45916610758286, 7645728.025132420472801 ], [ 415141.308126447780523, 7645702.361217495985329 ], [ 415142.686268056742847, 7645689.153611545450985 ], [ 415144.3994118795963, 7645678.554645858705044 ], [ 415147.179111797362566, 7645666.359177981503308 ], [ 415150.743485895800404, 7645654.95064265280962 ], [ 415155.035188962065149, 7645644.600085498765111 ], [ 415159.970454899244942, 7645635.488363740034401 ], [ 415165.843788493599277, 7645627.101198272779584 ], [ 415173.000297129852697, 7645618.899035902693868 ], [ 415181.429982675763313, 7645610.91850289516151 ], [ 415190.103134837932885, 7645603.948426136747003 ] ] ] } },
{ "type": "Feature", "properties": { "fid": 569.0, "COMPR_M": 886.95, "CLASSE": "05 - Muito longa", "CD_FAZ": " 400055", "TALHOES": "6, 2", "FAZ_tAL": "400180006, 400055002", "ID_LINHA": 44493 }, "geometry": { "type": "MultiLineString", "coordinates": [ [ [ 414841.775300389155746, 7646346.09971303679049 ], [ 414862.512276318273507, 7646336.875126453116536 ], [ 414884.211116236168891, 7646326.082602504640818 ], [ 414902.863793787721079, 7646315.724648622795939 ], [ 414921.07407987077022, 7646304.55642004031688 ], [ 414941.293049969593994, 7646290.819148018956184 ], [ 414958.419968312548008, 7646277.963125038892031 ], [ 414974.978045832074713, 7646264.339936535805464 ], [ 414990.925056333187968, 7646249.96202657930553 ], [ 415006.2176417541923, 7646234.841689909808338 ], [ 415020.813964661385398, 7646218.983675964176655 ], [ 415034.659436199464835, 7646202.398509597405791 ], [ 415047.695533661695663, 7646185.098474444821477 ], [ 415059.811546394834295, 7646167.197108288295567 ], [ 415070.955158145865425, 7646148.888066592626274 ], [ 415081.194394083111547, 7646130.24817468225956 ], [ 415091.879082376544829, 7646108.630800891667604 ], [ 415101.582036792475265, 7646086.76352827809751 ], [ 415110.443194440682419, 7646064.55898299254477 ], [ 415118.473862060753163, 7646041.916094847023487 ], [ 415124.76020547299413, 7646021.76850698236376 ], [ 415130.30003225337714, 7646001.33315066061914 ], [ 415135.040142098499928, 7645980.630249886773527 ], [ 415138.924109269632027, 7645959.683521455153823 ], [ 415141.893965920899063, 7645938.519367928616703 ], [ 415143.422802703513298, 7645923.282445038668811 ], [ 415144.573590292828158, 7645904.993630902841687 ], [ 415144.937792153912596, 7645869.21486749406904 ], [ 415143.543717122927774, 7645834.594232369214296 ], [ 415138.442665497888811, 7645758.280641935765743 ], [ 415137.459174508752767, 7645728.036363977007568 ], [ 415138.31683995318599, 7645702.1323565505445 ], [ 415139.712952538393438, 7645688.75406900793314 ], [ 415141.452339565148577, 7645677.99334030225873 ], [ 415144.281514915579464, 7645665.581798082217574 ], [ 415147.921608655946329, 7645653.932055803015828 ], [ 415152.324802566727158, 7645643.313821757212281 ], [ 415157.418381922412664, 7645633.911096705123782 ], [ 415163.483745379839092, 7645625.248927938751876 ], [ 415170.838965734117664, 7645616.818359365686774 ], [ 415179.464295168581884, 7645608.652113785967231 ], [ 415190.084303126845043, 7645600.234626276418567 ] ] ] } },
{ "type": "Feature", "properties": { "fid": 571.0, "COMPR_M": 891.68, "CLASSE": "05 - Muito longa", "CD_FAZ": " 400055", "TALHOES": "6, 2", "FAZ_tAL": "400180006, 400055002", "ID_LINHA": 44495 }, "geometry": { "type": "MultiLineString", "coordinates": [ [ [ 414837.594275570067111, 7646344.599282305687666 ], [ 414858.525910019408911, 7646335.422234261408448 ], [ 414880.129709057626314, 7646324.833060229197145 ], [ 414898.728572042833548, 7646314.654328097589314 ], [ 414916.893423807341605, 7646303.668115464970469 ], [ 414937.06998954154551, 7646290.143030053935945 ], [ 414954.168470094969962, 7646277.476428606547415 ], [ 414970.705986135872081, 7646264.046840030699968 ], [ 414986.64105668629054, 7646249.866634123027325 ], [ 415001.929989865398966, 7646234.949129823595285 ], [ 415016.531763033242896, 7646219.300129275768995 ], [ 415030.393322712101508, 7646202.929976789280772 ], [ 415043.456500716158189, 7646185.851906488649547 ], [ 415055.627571945951786, 7646168.144543120637536 ], [ 415066.832219897769392, 7646150.008227318525314 ], [ 415077.133500288706273, 7646131.523912939243019 ], [ 415087.888557631406002, 7646110.063264101743698 ], [ 415097.659339174628258, 7646088.331668119877577 ], [ 415106.577525532396976, 7646066.287108381278813 ], [ 415114.675824712321628, 7646043.80908571369946 ], [ 415121.031254709465429, 7646023.809162491932511 ], [ 415127.389785693725571, 7646000.604770885780454 ], [ 415132.102683921693824, 7645980.020807955414057 ], [ 415135.963255641749129, 7645959.200371030718088 ], [ 415138.91435597994132, 7645938.170050589367747 ], [ 415140.433133850456215, 7645923.033474856987596 ], [ 415141.576382619678043, 7645904.863890045322478 ], [ 415141.938337910571136, 7645869.272434334270656 ], [ 415140.548665010603145, 7645834.766493149101734 ], [ 415135.309126077510882, 7645755.838933439925313 ], [ 415134.457120905222837, 7645725.600701502524316 ], [ 415135.511096048750915, 7645699.610321920365095 ], [ 415137.048212927998975, 7645686.144580826163292 ], [ 415138.926731821789872, 7645675.286556402221322 ], [ 415141.946100056869909, 7645662.762554320506752 ], [ 415145.797495964390691, 7645651.025042158551514 ], [ 415150.440126022323966, 7645640.325673060491681 ], [ 415155.821214780851733, 7645630.821771871298552 ], [ 415162.292710135166999, 7645621.934097046032548 ], [ 415170.061822392977774, 7645613.322518149390817 ], [ 415179.087591485818848, 7645605.02706741169095 ], [ 415190.065638514934108, 7645596.55377998854965 ] ] ] } },
{ "type": "Feature", "properties": { "fid": 573.0, "COMPR_M": 896.41, "CLASSE": "05 - Muito longa", "CD_FAZ": " 400055", "TALHOES": "6, 2", "FAZ_tAL": "400180006, 400055002", "ID_LINHA": 44497 }, "geometry": { "type": "MultiLineString", "coordinates": [ [ [ 414833.389329062483739, 7646343.090266877785325 ], [ 414854.566243788634893, 7646333.939185870811343 ], [ 414876.075178355735261, 7646323.548690266907215 ], [ 414897.231915577198379, 7646312.054307892918587 ], [ 414915.28559648245573, 7646301.135334778577089 ], [ 414935.337779739522375, 7646287.693634655326605 ], [ 414952.329773531062528, 7646275.105925349518657 ], [ 414968.76301578944549, 7646261.761022944003344 ], [ 414984.596117931825574, 7646247.671566423028708 ], [ 414999.785547847859561, 7646232.851161925122142 ], [ 415014.290106995205861, 7646217.306367821060121 ], [ 415028.056912460771855, 7646201.048142526298761 ], [ 415041.028247896698304, 7646184.090171894058585 ], [ 415053.113498378661461, 7646166.507612017914653 ], [ 415064.244186940777581, 7646148.490934249013662 ], [ 415074.482564458739944, 7646130.119414152577519 ], [ 415085.177783860592172, 7646108.778052970767021 ], [ 415094.899813208612613, 7646087.154780247248709 ], [ 415103.775639589061029, 7646065.214966807514429 ], [ 415111.833633575937711, 7646042.848873298615217 ], [ 415118.155882956751157, 7646022.953416235744953 ], [ 415124.479539136285894, 7645999.876391109079123 ], [ 415129.165225743607152, 7645979.411366026848555 ], [ 415133.002402012818493, 7645958.717220605351031 ], [ 415135.934746039973106, 7645937.820733246393502 ], [ 415137.443464998737909, 7645922.784504676237702 ], [ 415138.579174945072737, 7645904.734149189665914 ], [ 415138.938883665192407, 7645869.33000117726624 ], [ 415137.553612899850123, 7645834.938753928989172 ], [ 415132.313097595295403, 7645755.993309421464801 ], [ 415131.457114306627773, 7645725.594135910272598 ], [ 415132.521957332734019, 7645699.354915976524353 ], [ 415134.079228980932385, 7645685.714016627520323 ], [ 415135.986402172362432, 7645674.690927105024457 ], [ 415139.655992315383628, 7645659.886937664821744 ], [ 415143.728284845710732, 7645648.060159869492054 ], [ 415148.622602953459136, 7645637.276796863414347 ], [ 415154.319763994484674, 7645627.647713892161846 ], [ 415161.20375499362126, 7645618.545779924839735 ], [ 415169.385369329887908, 7645609.769291477277875 ], [ 415178.806650585029274, 7645601.359138743951917 ], [ 415190.047123993048444, 7645592.902533223852515 ] ] ] } },
{ "type": "Feature", "properties": { "fid": 575.0, "COMPR_M": 901.15, "CLASSE": "05 - Muito longa", "CD_FAZ": " 400055", "TALHOES": "6, 2", "FAZ_tAL": "400180006, 400055002", "ID_LINHA": 44499 }, "geometry": { "type": "MultiLineString", "coordinates": [ [ [ 414829.16027452016715, 7646341.572599879465997 ], [ 414850.632825414300896, 7646332.426818948239088 ], [ 414872.048665420152247, 7646322.229634514078498 ], [ 414893.13595070206793, 7646310.939878427423537 ], [ 414911.142445523524657, 7646300.200976859778166 ], [ 414931.150198650138918, 7646286.969143334776163 ], [ 414948.112015733029693, 7646274.568687098100781 ], [ 414964.522920190240256, 7646261.415067818015814 ], [ 414980.342136605933774, 7646247.520971382968128 ], [ 414995.526201486471109, 7646232.900519553571939 ], [ 415010.033995993901044, 7646217.561896597035229 ], [ 415023.814546739449725, 7646201.515573401004076 ], [ 415036.81069823395228, 7646184.77578785084188 ], [ 415048.94404031324666, 7646167.393818536773324 ], [ 415060.132168176758569, 7646149.554057589732111 ], [ 415070.429471773793921, 7646131.342747053131461 ], [ 415081.192246758320834, 7646110.163435803726315 ], [ 415090.980398159124888, 7646088.680137891322374 ], [ 415099.91272111289436, 7646066.895759386941791 ], [ 415108.036325043882243, 7646044.69221106916666 ], [ 415115.280511202814523, 7646022.097669979557395 ], [ 415121.569292577856686, 7645999.148011334240437 ], [ 415126.22776756627718, 7645978.801924096420407 ], [ 415130.041548385459464, 7645958.234070181846619 ], [ 415132.955136098898947, 7645937.471415907144547 ], [ 415134.453796147019602, 7645922.535534495487809 ], [ 415135.581967271689791, 7645904.604408333078027 ], [ 415135.939429420977831, 7645869.387568016536534 ], [ 415134.558560788165778, 7645835.11101470887661 ], [ 415129.317069113953039, 7645756.147685404866934 ], [ 415128.457107709662523, 7645725.58757031802088 ], [ 415128.777023163624108, 7645710.951902243308723 ], [ 415129.742836930323392, 7645696.765505852177739 ], [ 415131.450215338962153, 7645683.023299651220441 ], [ 415133.505298822594341, 7645671.895053538493812 ], [ 415136.780258930637501, 7645659.032198250293732 ], [ 415140.939117621106561, 7645646.955123942345381 ], [ 415145.959237282979302, 7645635.895777637138963 ], [ 415151.830187712563202, 7645625.973552036099136 ], [ 415158.90976307715755, 7645616.612321374937892 ], [ 415168.808786295063328, 7645606.162436730228364 ], [ 415178.619087102590129, 7645597.652343591675162 ], [ 415190.028744137554895, 7645589.277843419462442 ] ] ] } },
{ "type": "Feature", "properties": { "fid": 593.0, "COMPR_M": 953.47, "CLASSE": "05 - Muito longa", "CD_FAZ": " 400055", "TALHOES": "6, 2", "FAZ_tAL": "400180006, 400055002", "ID_LINHA": 44517 }, "geometry": { "type": "MultiLineString", "coordinates": [ [ [ 414780.952534898300655, 7646324.27244571596384 ], [ 414803.793495208839886, 7646316.059791669249535 ], [ 414824.375194756197743, 7646307.856614010408521 ], [ 414844.676443136355374, 7646298.850182309746742 ], [ 414864.616954187280498, 7646288.933101169764996 ], [ 414884.092271720001008, 7646278.039632898755372 ], [ 414903.022953109582886, 7646266.185952519997954 ], [ 414921.348542400344741, 7646253.397097869776189 ], [ 414936.839441710035317, 7646241.459467701613903 ], [ 414953.868395367520861, 7646226.983562185429037 ], [ 414968.132143246883061, 7646213.606841137632728 ], [ 414983.649403848219663, 7646197.529458170756698 ], [ 414996.486824721388984, 7646182.789804017171264 ], [ 415010.242102286720183, 7646165.202230560593307 ], [ 415021.416128459561151, 7646149.194159328937531 ], [ 415031.772267520544119, 7646132.680185903795063 ], [ 415042.671334488899447, 7646113.265428712591529 ], [ 415052.648498625319917, 7646093.35551935993135 ], [ 415062.872742269479204, 7646070.46629149839282 ], [ 415072.123605320870411, 7646047.123728357255459 ], [ 415079.489115830976516, 7646026.022310947999358 ], [ 415085.977301022270694, 7646004.632118567824364 ], [ 415091.520051820203662, 7645982.995983960106969 ], [ 415096.049264585017227, 7645961.154087414965034 ], [ 415099.495293563290033, 7645939.15023010596633 ], [ 415101.327224090287928, 7645922.566433953121305 ], [ 415102.484233029303141, 7645905.945921676233411 ], [ 415103.005896255839616, 7645889.346673008985817 ], [ 415102.945432737702504, 7645870.020803265273571 ], [ 415101.612987564411014, 7645837.005883285775781 ], [ 415096.225071179447696, 7645755.136753840371966 ], [ 415095.501850668922998, 7645720.16825888119638 ], [ 415096.24831939896103, 7645701.570214935578406 ], [ 415097.748545162146911, 7645685.777935781516135 ], [ 415100.193327162240166, 7645670.13506249524653 ], [ 415103.048684225301258, 7645657.249425433576107 ], [ 415108.41532728401944, 7645639.671839969232678 ], [ 415114.37939304637257, 7645625.306129418313503 ], [ 415121.689360260614194, 7645611.829358196817338 ], [ 415132.040644577005878, 7645597.318487239070237 ], [ 415144.240333307301626, 7645584.00491876527667 ], [ 415158.036135754082352, 7645571.85718996450305 ], [ 415173.152057559753302, 7645560.857520425692201 ], [ 415189.429511649650522, 7645550.911588350310922 ] ] ] } },
{ "type": "Feature", "properties": { "fid": 595.0, "COMPR_M": 958.3, "CLASSE": "05 - Muito longa", "CD_FAZ": " 400055", "TALHOES": "6, 2", "FAZ_tAL": "400180006, 400055002", "ID_LINHA": 44519 }, "geometry": { "type": "MultiLineString", "coordinates": [ [ [ 414776.415912496857345, 7646322.644402842968702 ], [ 414800.15397310355911, 7646314.224173171445727 ], [ 414820.668009002751205, 7646306.152158916927874 ], [ 414840.897629321319982, 7646297.300631339661777 ], [ 414860.763648647814989, 7646287.564142703078687 ], [ 414880.173681389540434, 7646276.863638658076525 ], [ 414899.049302415805869, 7646265.206699308007956 ], [ 414917.330172542482615, 7646252.618545286357403 ], [ 414932.790436152834445, 7646240.859986416995525 ], [ 414949.794131136033684, 7646226.593185572884977 ], [ 414966.030042699421756, 7646211.466450478881598 ], [ 414981.435285695130005, 7646195.505159370601177 ], [ 414994.177211431262549, 7646180.875176746398211 ], [ 415007.826775382389314, 7646163.422816263511777 ], [ 415018.91359101771377, 7646147.539644859731197 ], [ 415029.194094733684324, 7646131.146197569556534 ], [ 415040.020398660039064, 7646111.860929924994707 ], [ 415049.937724854215048, 7646092.07030822429806 ], [ 415060.107792660244741, 7646069.302203156985343 ], [ 415069.311433616152499, 7646046.07886275369674 ], [ 415076.63722683978267, 7646025.091295817866921 ], [ 415083.088430512172636, 7646003.823110345751047 ], [ 415088.597725629108027, 7645982.317688291892409 ], [ 415093.097917828243226, 7645960.615908000618219 ], [ 415096.520517640048638, 7645938.761895921081305 ], [ 415098.339326428249478, 7645922.297042697668076 ], [ 415099.487899013794959, 7645905.797349607571959 ], [ 415100.006193313980475, 7645889.303695301525295 ], [ 415099.945978493313305, 7645870.07837010640651 ], [ 415098.617935452668462, 7645837.178144065663218 ], [ 415093.228590772370808, 7645755.282106690108776 ], [ 415092.502165009616874, 7645720.123716057278216 ], [ 415093.255173062672839, 7645701.367145521566272 ], [ 415094.771315428602975, 7645685.40870569832623 ], [ 415097.246254848490935, 7645669.573756936937571 ], [ 415100.817561701638624, 7645653.921099639497697 ], [ 415106.51295722957002, 7645636.16470305621624 ], [ 415112.814368822786491, 7645621.659139750525355 ], [ 415120.525764260732103, 7645608.053489619866014 ], [ 415131.381860092573334, 7645593.41081877425313 ], [ 415142.144913639407605, 7645581.857887704856694 ], [ 415156.164958358742297, 7645569.512175995856524 ], [ 415171.490241026680451, 7645558.359789380803704 ], [ 415189.365234194439836, 7645547.514792723581195 ] ] ] } },
{ "type": "Feature", "properties": { "fid": 597.0, "COMPR_M": 963.14, "CLASSE": "05 - Muito longa", "CD_FAZ": " 400055", "TALHOES": "6, 2", "FAZ_tAL": "400180006, 400055002", "ID_LINHA": 44521 }, "geometry": { "type": "MultiLineString", "coordinates": [ [ [ 414771.852942355559207, 7646321.006904643028975 ], [ 414796.533679094573017, 7646312.369623510167003 ], [ 414816.982379733584821, 7646304.424750545993447 ], [ 414837.142602245963644, 7646295.7236238559708 ], [ 414856.935836992226541, 7646286.162842119112611 ], [ 414876.278725069365464, 7646275.654025028459728 ], [ 414895.097631248412654, 7646264.192495994269848 ], [ 414913.332119428028818, 7646251.803649621084332 ], [ 414928.760313665028661, 7646240.222852008417249 ], [ 414945.737049614079297, 7646226.16357665322721 ], [ 414961.956785364658572, 7646211.249160489067435 ], [ 414977.357133507844992, 7646195.505765261128545 ], [ 414990.105066506483126, 7646181.071547580882907 ], [ 415003.77392971504014, 7646163.849260559305549 ], [ 415014.889358671265654, 7646148.169232627376914 ], [ 415025.204913635272533, 7646131.966239085420966 ], [ 415036.075869319145568, 7646112.880800427868962 ], [ 415046.04107978742104, 7646093.269464702345431 ], [ 415056.266449685906991, 7646070.678350053727627 ], [ 415065.53048003197182, 7646047.621991509571671 ], [ 415072.920892155147158, 7646026.785262860357761 ], [ 415079.447759444650728, 7646005.670728004537523 ], [ 415085.044481486140285, 7645984.322322867810726 ], [ 415089.644941821694374, 7645962.781594099476933 ], [ 415093.181749685085379, 7645941.092924062162638 ], [ 415095.096154971979558, 7645924.755221392959356 ], [ 415096.347436384821776, 7645908.379724361002445 ], [ 415096.960021530161612, 7645891.992288306355476 ], [ 415096.993225010228343, 7645872.868349883705378 ], [ 415095.622883341333363, 7645837.350404846481979 ], [ 415090.232110364246182, 7645755.427459543570876 ], [ 415089.502479351882357, 7645720.079173235222697 ], [ 415090.262026727432385, 7645701.164076106622815 ], [ 415091.794085693953093, 7645685.039475614205003 ], [ 415094.299182534450665, 7645669.012451379559934 ], [ 415097.919964821136091, 7645653.143719742074609 ], [ 415103.706918749783654, 7645635.103250264190137 ], [ 415110.126814735936932, 7645620.325815944001079 ], [ 415118.004660651320592, 7645606.427183743566275 ], [ 415129.087868176749907, 7645591.477360225282609 ], [ 415141.994045467115939, 7645577.841858834028244 ], [ 415156.440603713155724, 7645565.477294714190066 ], [ 415172.137030610116199, 7645554.345054260455072 ], [ 415189.301077824668027, 7645544.124395731836557 ] ] ] } },
{ "type": "Feature", "properties": { "fid": 599.0, "COMPR_M": 968.0, "CLASSE": "05 - Muito longa", "CD_FAZ": " 400055", "TALHOES": "6, 2", "FAZ_tAL": "400180006, 400055002", "ID_LINHA": 44523 }, "geometry": { "type": "MultiLineString", "coordinates": [ [ [ 414767.266932968690526, 7646319.361138423904777 ], [ 414790.36714308563387, 7646311.427966160699725 ], [ 414813.317820675554685, 7646302.675062734633684 ], [ 414833.410887747537345, 7646294.119940829463303 ], [ 414853.133364931854885, 7646284.729941751807928 ], [ 414872.407653001195285, 7646274.411061884835362 ], [ 414891.168186629307456, 7646263.143624486401677 ], [ 414909.35463270987384, 7646250.952703703194857 ], [ 414924.749325068667531, 7646239.548376500606537 ], [ 414941.697407166706398, 7646225.695063022896647 ], [ 414957.899199419072829, 7646210.991331273689866 ], [ 414973.292801619390957, 7646195.463931178674102 ], [ 414986.044985789398197, 7646181.223663404583931 ], [ 414999.730991048039868, 7646164.229212469421327 ], [ 415010.872573747066781, 7646148.752631718292832 ], [ 415021.220785837969743, 7646132.742976417765021 ], [ 415032.134083240409382, 7646113.861015721224248 ], [ 415042.145362080191262, 7646094.43283018283546 ], [ 415052.424649561115075, 7646072.022884735837579 ], [ 415061.747350424469914, 7646049.132843191735446 ], [ 415069.200766522670165, 7646028.445687068626285 ], [ 415076.563335506303702, 7646004.846006996929646 ], [ 415082.126115504303016, 7645983.627186719328165 ], [ 415086.696941552800126, 7645962.225376565009356 ], [ 415090.209553795342799, 7645940.685314603149891 ], [ 415092.110150471678935, 7645924.465601939707994 ], [ 415093.352122375974432, 7645908.211825210601091 ], [ 415093.960596767952666, 7645891.932958425022662 ], [ 415093.993550954561215, 7645872.913055764511228 ], [ 415092.627831230289303, 7645837.522665625438094 ], [ 415087.235629955655895, 7645755.572812391445041 ], [ 415086.502793693216518, 7645720.034630411304533 ], [ 415087.268880391260609, 7645700.961006689816713 ], [ 415088.816855961456895, 7645684.670245531946421 ], [ 415091.352110219420865, 7645668.451145820319653 ], [ 415095.022367941041011, 7645652.366339847445488 ], [ 415100.900880268891342, 7645634.04179747030139 ], [ 415107.439260650251526, 7645618.992492133751512 ], [ 415115.483557042258326, 7645604.800877869129181 ], [ 415126.793876259354874, 7645589.543901676312089 ], [ 415139.931373095372692, 7645575.663352839648724 ], [ 415154.600364831276238, 7645563.107927558943629 ], [ 415170.503590022912249, 7645551.828677145764232 ], [ 415189.237128353212029, 7645540.744932638481259 ] ] ] } },
{ "type": "Feature", "properties": { "fid": 601.0, "COMPR_M": 977.93, "CLASSE": "05 - Muito longa", "CD_FAZ": " 400055", "TALHOES": "6, 2", "FAZ_tAL": "400180006, 400055002", "ID_LINHA": 44525 }, "geometry": { "type": "MultiLineString", "coordinates": [ [ [ 414758.017008534283377, 7646316.041648233309388 ], [ 414783.231969973130617, 7646307.603229271247983 ], [ 414806.049987500708085, 7646299.111477817408741 ], [ 414826.015458336740267, 7646290.835591742768884 ], [ 414845.602474714396521, 7646281.772905047051609 ], [ 414864.738225600332953, 7646271.826123615726829 ], [ 414883.376971000921912, 7646260.942989202216268 ], [ 414901.462359121534973, 7646249.143815711140633 ], [ 414916.78575071983505, 7646238.088631547056139 ], [ 414933.671556342975236, 7646224.642562066204846 ], [ 414949.832159125420731, 7646210.355415511876345 ], [ 414965.206740696739871, 7646195.254536734893918 ], [ 414977.962298379046842, 7646181.396796878427267 ], [ 414991.676209830853622, 7646164.85149035975337 ], [ 415002.864210949453991, 7646149.778444566763937 ], [ 415014.695062156359199, 7646131.890967649407685 ], [ 415025.570252838893794, 7646113.349011162295938 ], [ 415035.561224084114656, 7646094.231056571006775 ], [ 415045.834227734128945, 7646072.132630980573595 ], [ 415055.165577260078862, 7646049.526062926277518 ], [ 415063.516384247806855, 7646026.525262238457799 ], [ 415070.794487629493233, 7646003.19656497426331 ], [ 415076.289383541035932, 7645982.236914414912462 ], [ 415080.800941012450494, 7645961.11294150352478 ], [ 415084.265162017778493, 7645939.870095688849688 ], [ 415086.138141471252311, 7645923.886363027617335 ], [ 415087.361494360957295, 7645907.876026907935739 ], [ 415087.961747242254205, 7645891.814298652112484 ], [ 415087.994202842353843, 7645873.00246751960367 ], [ 415086.63772700849222, 7645837.867187187075615 ], [ 415081.24266913899919, 7645755.863518092781305 ], [ 415080.559679289232008, 7645736.545597307384014 ], [ 415080.55368942534551, 7645717.176293074153364 ], [ 415081.482396536972374, 7645697.783998589962721 ], [ 415083.219957679277286, 7645681.16276079043746 ], [ 415086.000798123772256, 7645664.565229030326009 ], [ 415089.979350126930512, 7645648.07965190988034 ], [ 415096.31244202889502, 7645629.274549071677029 ], [ 415103.345386553497519, 7645613.799470013938844 ], [ 415111.996967188082635, 7645599.186962360516191 ], [ 415116.919937989441678, 7645592.291686934418976 ], [ 415124.043987926386762, 7645583.53368010930717 ], [ 415137.879693634225987, 7645569.372205099090934 ], [ 415153.183960127877071, 7645556.634197685867548 ], [ 415169.648803638061509, 7645545.249293943867087 ], [ 415189.239321254426613, 7645533.943195943720639 ] ] ] } },
{ "type": "Feature", "properties": { "fid": 603.0, "COMPR_M": 982.93, "CLASSE": "06 - Acima do limite", "CD_FAZ": " 400055", "TALHOES": "6, 2", "FAZ_tAL": "400180006, 400055002", "ID_LINHA": 44527 }, "geometry": { "type": "MultiLineString", "coordinates": [ [ [ 414753.35476910462603, 7646314.368525590747595 ], [ 414779.689869754540268, 7646305.666349187493324 ], [ 414802.445673430687748, 7646297.298893070779741 ], [ 414824.813500786607619, 7646288.086891065351665 ], [ 414844.282809239462949, 7646279.078733989968896 ], [ 414863.289902938646264, 7646269.198872799053788 ], [ 414881.800679561274592, 7646258.390462677925825 ], [ 414899.760983290732838, 7646246.672903248108923 ], [ 414914.977253006072715, 7646235.695009585469961 ], [ 414931.743346103350632, 7646222.344280458055437 ], [ 414947.787220373924356, 7646208.160347811877728 ], [ 414963.048272220999934, 7646193.171002354472876 ], [ 414975.70694752340205, 7646179.418540084734559 ], [ 414989.313241224328522, 7646163.003114201128483 ], [ 415000.410351429018192, 7646148.052555152215064 ], [ 415012.147860436874907, 7646130.306081045418978 ], [ 415022.944993974175304, 7646111.897081423550844 ], [ 415032.871495163009968, 7646092.902363242581487 ], [ 415043.085939332144335, 7646070.929733381606638 ], [ 415052.368880769412499, 7646048.44045689702034 ], [ 415060.674193110433407, 7646025.565049821510911 ], [ 415067.910063691728283, 7646002.371843963861465 ], [ 415073.37101755826734, 7645981.541778266429901 ], [ 415077.85294074297417, 7645960.556723969988525 ], [ 415081.292966129258275, 7645939.462486232630908 ], [ 415083.152136971184518, 7645923.596743573434651 ], [ 415084.366180354147218, 7645907.70812775939703 ], [ 415084.962322479463182, 7645891.754968769848347 ], [ 415084.994528786512092, 7645873.047173398546875 ], [ 415083.642674895760138, 7645838.039447964169085 ], [ 415078.246188730350696, 7645756.008870942518115 ], [ 415077.560267686378211, 7645736.605484498664737 ], [ 415077.554370829893742, 7645717.111528435721993 ], [ 415078.491110042785294, 7645697.555137645453215 ], [ 415080.246642159530893, 7645680.763218253850937 ], [ 415083.060468474403024, 7645663.969599733129144 ], [ 415087.092308464052621, 7645647.263935109600425 ], [ 415093.52327480626991, 7645628.169513143599033 ], [ 415100.682020883134101, 7645612.418450789526105 ], [ 415109.507390903891064, 7645597.512800509110093 ], [ 415114.527109258226119, 7645590.481961994431913 ], [ 415121.783164787921123, 7645581.561545229516923 ], [ 415135.849582511233166, 7645567.163328789174557 ], [ 415151.374350002617575, 7645554.241359220817685 ], [ 415170.500364885432646, 7645541.177322892472148 ], [ 415189.254983314196579, 7645530.551826780661941 ] ] ] } },
{ "type": "Feature", "properties": { "fid": 604.0, "COMPR_M": 987.95, "CLASSE": "06 - Acima do limite", "CD_FAZ": " 400055", "TALHOES": "6, 2", "FAZ_tAL": "400180006, 400055002", "ID_LINHA": 44528 }, "geometry": { "type": "MultiLineString", "coordinates": [ [ [ 414748.667566507472657, 7646312.68644448928535 ], [ 414773.622601307579316, 7646304.585653832182288 ], [ 414796.356065667176154, 7646296.420889535918832 ], [ 414818.707407899899408, 7646287.453505516983569 ], [ 414838.167333759483881, 7646278.699757744558156 ], [ 414857.168052869034, 7646269.11059252358973 ], [ 414875.677657391002867, 7646258.606988624669611 ], [ 414893.655412550084293, 7646247.194127289578319 ], [ 414908.901713200029917, 7646236.483173849061131 ], [ 414925.718652130686678, 7646223.438256949186325 ], [ 414941.831144321186002, 7646209.561372266151011 ], [ 414957.179444478708319, 7646194.880016574636102 ], [ 414971.698642275994644, 7646179.424900125712156 ], [ 414985.315318718319759, 7646163.229537637904286 ], [ 414996.432051015202887, 7646148.477317897602916 ], [ 415008.197110999724828, 7646130.960100198164582 ], [ 415019.028093920904212, 7646112.763828799128532 ], [ 415028.993543806136586, 7646093.962524231523275 ], [ 415039.255468702409416, 7646072.183266801759601 ], [ 415048.592519852449186, 7646049.8608019053936 ], [ 415056.965254706563428, 7646027.148995308205485 ], [ 415064.281804264464881, 7646004.122210623696446 ], [ 415069.826306543371174, 7645983.443091567605734 ], [ 415074.403846694913227, 7645962.612641161307693 ], [ 415077.952537226316053, 7645941.677009737119079 ], [ 415080.166132470068987, 7645923.307124117389321 ], [ 415081.370866344659589, 7645907.540228607133031 ], [ 415081.962897716381121, 7645891.695638885721564 ], [ 415081.994854731310625, 7645873.091879276558757 ], [ 415080.647622785996646, 7645838.211708744987845 ], [ 415075.249708323099185, 7645756.154223795048892 ], [ 415074.560856083175167, 7645736.665371689014137 ], [ 415074.555052232928574, 7645717.046763796359301 ], [ 415075.499823546502739, 7645697.326276699081063 ], [ 415077.668533979915082, 7645677.533296834677458 ], [ 415080.710873340372927, 7645660.543644234538078 ], [ 415085.017058004508726, 7645643.646888835355639 ], [ 415091.835101060685702, 7645624.348179187625647 ], [ 415099.39625487907324, 7645608.438243981450796 ], [ 415108.680677593161818, 7645593.415758276358247 ], [ 415113.922839999664575, 7645586.351250846870244 ], [ 415121.463356906257104, 7645577.401698521338403 ], [ 415135.98783869529143, 7645562.990760223008692 ], [ 415151.913059108483139, 7645550.095965306274593 ], [ 415168.922554400516674, 7645538.625700915232301 ], [ 415189.270630977291148, 7645527.163575602695346 ] ] ] } },
{ "type": "Feature", "properties": { "fid": 605.0, "COMPR_M": 992.98, "CLASSE": "06 - Acima do limite", "CD_FAZ": " 400055", "TALHOES": "6, 2", "FAZ_tAL": "400180006, 400055002", "ID_LINHA": 44529 }, "geometry": { "type": "MultiLineString", "coordinates": [ [ [ 414743.954201852087863, 7646310.994974702596664 ], [ 414770.118349311233032, 7646302.606763248331845 ], [ 414792.795875817129854, 7646294.555412098765373 ], [ 414815.084898942266591, 7646285.727590084075928 ], [ 414834.484538462013006, 7646277.121642797254026 ], [ 414853.420290156966075, 7646267.704814691096544 ], [ 414871.863100628426764, 7646257.388897510245442 ], [ 414889.784578339953441, 7646246.167185748927295 ], [ 414904.990145574789494, 7646235.626544137485325 ], [ 414921.770186752430163, 7646222.779975367709994 ], [ 414937.856086707906798, 7646209.105864658951759 ], [ 414953.188580994086806, 7646194.631747361272573 ], [ 414967.703676508797798, 7646179.388840636238456 ], [ 414981.3287074258551, 7646163.41145726852119 ], [ 414992.463191504473798, 7646148.855480078607798 ], [ 415004.25360865087714, 7646131.568926913663745 ], [ 415015.115856920718215, 7646113.588692519813776 ], [ 415025.118081768159755, 7646094.984604493714869 ], [ 415035.425599096983206, 7646073.403194973245263 ], [ 415044.814715110696852, 7646051.249830881133676 ], [ 415053.253136695129797, 7646028.700352421030402 ], [ 415060.648447882849723, 7646005.838491074740887 ], [ 415066.274607971310616, 7645985.308795585297048 ], [ 415071.459278073802125, 7645962.0385348983109 ], [ 415074.983026375528425, 7645941.250280516222119 ], [ 415077.180127971281763, 7645923.017504662275314 ], [ 415078.375552338548005, 7645907.372329458594322 ], [ 415078.963472954521421, 7645891.636308997869492 ], [ 415078.995180674712174, 7645873.136585155501962 ], [ 415077.652570673904847, 7645838.383969525806606 ], [ 415072.253227914101444, 7645756.299576645717025 ], [ 415071.561444480379578, 7645736.725258875638247 ], [ 415071.55573363910662, 7645716.981999156996608 ], [ 415072.508537052781321, 7645697.097415754571557 ], [ 415074.699550033255946, 7645677.102732635103166 ], [ 415077.777849701349624, 7645659.913010384887457 ], [ 415082.141324620693922, 7645642.79214942548424 ], [ 415089.063878639019094, 7645623.198871029540896 ], [ 415096.758492400404066, 7645607.008917907252908 ], [ 415106.223022868740372, 7645591.695085003972054 ], [ 415111.562796887825243, 7645584.498980509117246 ], [ 415119.235731320339255, 7645575.392146786674857 ], [ 415133.990067269885913, 7645560.752596801146865 ], [ 415150.133746224048082, 7645547.680515948683023 ], [ 415169.872410116018727, 7645534.52982291765511 ], [ 415189.286205986281857, 7645523.791056619957089 ] ] ] } },
{ "type": "Feature", "properties": { "fid": 606.0, "COMPR_M": 998.04, "CLASSE": "06 - Acima do limite", "CD_FAZ": " 400055", "TALHOES": "6, 2", "FAZ_tAL": "400180006, 400055002", "ID_LINHA": 44530 }, "geometry": { "type": "MultiLineString", "coordinates": [ [ [ 414739.214439873234369, 7646309.294031793251634 ], [ 414764.095373206306249, 7646301.455639601685107 ], [ 414789.253324942372274, 7646292.671955481171608 ], [ 414811.482725573237985, 7646283.979343459941447 ], [ 414830.824326067231596, 7646275.516858239658177 ], [ 414849.697328411391936, 7646266.267618402838707 ], [ 414868.072288108873181, 7646256.137766674160957 ], [ 414885.935826957575046, 7646245.105894928798079 ], [ 414903.22728458000347, 7646233.199115404859185 ], [ 414919.886529882729519, 7646220.445038825273514 ], [ 414935.854548124596477, 7646206.871152468025684 ], [ 414951.072317351936363, 7646192.505358958616853 ], [ 414965.475764957780484, 7646177.379732428118587 ], [ 414978.992297173012048, 7646161.529623008333147 ], [ 414990.034938685013913, 7646147.093745486810803 ], [ 415001.728247843799181, 7646129.949464121833444 ], [ 415012.508776667236816, 7646112.104367440566421 ], [ 415022.443293250107672, 7646093.626084016636014 ], [ 415032.689163123141043, 7646072.173571752384305 ], [ 415042.028486943047028, 7646050.137633513659239 ], [ 415050.42080333433114, 7646027.711441656574607 ], [ 415057.773076128389221, 7646004.982744818553329 ], [ 415063.364361412473954, 7645984.580415807664394 ], [ 415068.514709452865645, 7645961.464428635314107 ], [ 415072.013515524566174, 7645940.823551292531192 ], [ 415074.194123470166232, 7645922.727885209023952 ], [ 415075.380238329817075, 7645907.204430308192968 ], [ 415075.964048191672191, 7645891.576979115605354 ], [ 415075.995506618695799, 7645873.181291034445167 ], [ 415074.657518563442864, 7645838.556230304762721 ], [ 415069.25674750469625, 7645756.444929495453835 ], [ 415068.562032877176534, 7645736.785146066918969 ], [ 415068.556415041792206, 7645716.91723451949656 ], [ 415069.517250556964427, 7645696.868554810062051 ], [ 415071.730566085258033, 7645676.672168435528874 ], [ 415074.844826064596418, 7645659.282376534305513 ], [ 415079.265591235365719, 7645641.93741001188755 ], [ 415086.292656216130126, 7645622.049562873318791 ], [ 415094.120729921443854, 7645605.579591834917665 ], [ 415103.765368145599496, 7645589.974411728791893 ], [ 415109.202753774123266, 7645582.646710171364248 ], [ 415117.008105733664706, 7645573.382595055736601 ], [ 415131.99229584512068, 7645558.51443338021636 ], [ 415148.35443333798321, 7645545.265066592022777 ], [ 415168.321885666344315, 7645531.961530771106482 ], [ 415189.301774421823211, 7645520.41996087692678 ] ] ] } },
{ "type": "Feature", "properties": { "fid": 607.0, "COMPR_M": 1000.84, "CLASSE": "06 - Acima do limite", "CD_FAZ": " 400055", "TALHOES": "6, 2", "FAZ_tAL": "400180006, 400055002", "ID_LINHA": 44531 }, "geometry": { "type": "MultiLineString", "coordinates": [ [ [ 414736.631034230755176, 7646306.935088349506259 ], [ 414763.15369464160176, 7646298.607260721735656 ], [ 414785.727875705924816, 7646290.771104672923684 ], [ 414807.900377476529684, 7646282.2094338638708 ], [ 414827.186235647648573, 7646273.886159846559167 ], [ 414845.999070498975925, 7646264.799500320106745 ], [ 414864.30547335173469, 7646254.853863390162587 ], [ 414882.109406938194297, 7646244.010533973574638 ], [ 414899.351654155412689, 7646232.295900423079729 ], [ 414915.971999352099374, 7646219.737780259922147 ], [ 414931.911389216256794, 7646206.364116804674268 ], [ 414947.111137770174537, 7646192.202934572473168 ], [ 414961.50822231330676, 7646177.286470165476203 ], [ 414975.030686005600728, 7646161.650998113676906 ], [ 414987.606685865554027, 7646145.332010896876454 ], [ 414999.20288703677943, 7646128.330001335591078 ], [ 415009.901696411892772, 7646110.62004235945642 ], [ 415019.768504729785491, 7646092.267563538625836 ], [ 415029.952727147960104, 7646070.943948529660702 ], [ 415039.242258776444942, 7646049.025436146184802 ], [ 415047.588469972310122, 7646026.722530891187489 ], [ 415054.897704375907779, 7646004.12699856236577 ], [ 415060.4541148552089, 7645983.852036033757031 ], [ 415065.570140832802281, 7645960.890322376042604 ], [ 415069.044004674768075, 7645940.396822069771588 ], [ 415071.208118970680516, 7645922.438265754841268 ], [ 415072.384924321144354, 7645907.036531155928969 ], [ 415072.995832562679425, 7645873.225996911525726 ], [ 415071.662466452049557, 7645838.728491084650159 ], [ 415066.260267097386532, 7645756.590282345190644 ], [ 415065.562621274963021, 7645736.845033258199692 ], [ 415065.557096446922515, 7645716.852469880133867 ], [ 415066.525964060449041, 7645696.639693865552545 ], [ 415068.761582137143705, 7645676.24160423502326 ], [ 415071.911802426795475, 7645658.651742685586214 ], [ 415076.389857850561384, 7645641.082670599222183 ], [ 415083.521433795336634, 7645620.900254719890654 ], [ 415091.482967442192603, 7645604.150265758857131 ], [ 415101.30771342117805, 7645588.253738455474377 ], [ 415106.842710660712328, 7645580.794439832679927 ], [ 415114.780480150133371, 7645571.373043324798346 ], [ 415129.994524418259971, 7645556.276269959285855 ], [ 415146.575120450346731, 7645542.849617237225175 ], [ 415166.771361216437072, 7645529.393238624557853 ], [ 415189.317277044348884, 7645517.063115647993982 ] ] ] } },
{ "type": "Feature", "properties": { "fid": 608.0, "COMPR_M": 1000.35, "CLASSE": "06 - Acima do limite", "CD_FAZ": " 400055", "TALHOES": "6, 2", "FAZ_tAL": "400180006, 400055002", "ID_LINHA": 44532 }, "geometry": { "type": "MultiLineString", "coordinates": [ [ [ 414737.282428558100946, 7646300.476772671565413 ], [ 414763.77767632715404, 7646292.077345662750304 ], [ 414786.133173161768354, 7646284.230097753927112 ], [ 414808.038244288647547, 7646275.664537662640214 ], [ 414827.046837346744724, 7646267.34794332832098 ], [ 414845.5474583239411, 7646258.281421788036823 ], [ 414863.534265629248694, 7646248.365564681589603 ], [ 414881.018273661029525, 7646237.568093286827207 ], [ 414895.856537837767974, 7646227.418963123112917 ], [ 414912.234568951651454, 7646215.043956671841443 ], [ 414927.937446567288134, 7646201.868768188171089 ], [ 414942.906936676008627, 7646187.922153260558844 ], [ 414957.079986007069238, 7646173.237872563302517 ], [ 414970.384604030230548, 7646157.854371895082295 ], [ 414982.75018022680888, 7646141.808541715145111 ], [ 414994.152165425359271, 7646125.09107575379312 ], [ 415004.687535904580727, 7646107.651392200961709 ], [ 415014.418927691935096, 7646089.550522582605481 ], [ 415024.479855200799648, 7646068.484702083282173 ], [ 415033.669802441378124, 7646046.801041411235929 ], [ 415041.923803249956109, 7646024.744709362275898 ], [ 415049.146960868733004, 7646002.415506045334041 ], [ 415054.633621738874353, 7645982.395276480354369 ], [ 415059.681003592035268, 7645959.742109850049019 ], [ 415063.104982973309234, 7645939.543363627046347 ], [ 415065.236109970603138, 7645921.859026842750609 ], [ 415066.394296305079479, 7645906.700732856988907 ], [ 415066.996484452451114, 7645873.315408668480814 ], [ 415065.67236222937936, 7645839.073012644425035 ], [ 415060.134755048493389, 7645754.056578015908599 ], [ 415059.513645214901771, 7645734.092564933933318 ], [ 415059.631484015262686, 7645713.806021325290203 ], [ 415060.782628111192025, 7645693.225173313170671 ], [ 415063.273301194421947, 7645672.390917045995593 ], [ 415066.711096026236191, 7645654.384280595928431 ], [ 415071.549866188375745, 7645636.381729771383107 ], [ 415079.219660223461688, 7645615.676862584426999 ], [ 415087.769138448755257, 7645598.471897582523525 ], [ 415098.259601082187146, 7645582.197714256122708 ], [ 415104.115660983137786, 7645574.596385877579451 ], [ 415112.46769254701212, 7645565.018059542402625 ], [ 415128.356419995310716, 7645549.725996965542436 ], [ 415145.536693958914839, 7645536.186374278739095 ], [ 415166.320257901679724, 7645522.675854099914432 ], [ 415189.348208515148144, 7645510.365400006063282 ] ] ] } },
{ "type": "Feature", "properties": { "fid": 632.0, "COMPR_M": 1000.08, "CLASSE": "06 - Acima do limite", "CD_FAZ": " 400055", "TALHOES": "6, 2", "FAZ_tAL": "400180006, 400055002", "ID_LINHA": 44556 }, "geometry": { "type": "MultiLineString", "coordinates": [ [ [ 414738.090530076820869, 7646278.275198398157954 ], [ 414761.997984381509013, 7646270.514084797352552 ], [ 414783.606186452321708, 7646262.754200164228678 ], [ 414802.310742199129891, 7646255.300182182341814 ], [ 414820.470669535221532, 7646247.244900969788432 ], [ 414838.024877119809389, 7646238.51592078525573 ], [ 414855.047990378632676, 7646228.994136353954673 ], [ 414871.581813033146318, 7646218.641381435096264 ], [ 414885.598674627603032, 7646208.924828050658107 ], [ 414901.04996118490817, 7646197.095673408359289 ], [ 414915.839162301155739, 7646184.52403056062758 ], [ 414929.909680922690313, 7646171.241474905982614 ], [ 414943.196649439400062, 7646157.288650345057249 ], [ 414955.628194656397682, 7646142.711280377581716 ], [ 414965.752410487039015, 7646129.476399576291442 ], [ 414976.474639777443372, 7646113.754836225882173 ], [ 414986.43797412479762, 7646097.26111664250493 ], [ 414995.695408056373708, 7646080.040879234671593 ], [ 415005.32480338140158, 7646059.87733952421695 ], [ 415014.166205268353224, 7646039.015659835189581 ], [ 415022.097469724132679, 7646017.822334013879299 ], [ 415029.019358593970537, 7645996.42528223991394 ], [ 415034.261895831383299, 7645977.296618046239018 ], [ 415039.069023250718601, 7645955.723366018384695 ], [ 415042.318407022801694, 7645936.556259075179696 ], [ 415044.33407846785849, 7645919.831690657883883 ], [ 415045.427098250132985, 7645905.52543880417943 ], [ 415045.99876605841564, 7645873.62834981828928 ], [ 415044.706997449160554, 7645840.278838103637099 ], [ 415039.156163495907094, 7645755.005250779911876 ], [ 415038.479416460846551, 7645731.411445625126362 ], [ 415038.73897079040762, 7645710.129420764744282 ], [ 415040.142389510991052, 7645688.284117857925594 ], [ 415043.043835961725563, 7645665.934888990595937 ], [ 415046.999092647223733, 7645646.45946597866714 ], [ 415052.551084442180581, 7645626.850710153579712 ], [ 415057.26410088740522, 7645613.804046066477895 ], [ 415061.387881770497188, 7645604.086968338117003 ], [ 415067.743105131667107, 7645591.286331091076136 ], [ 415073.199973717797548, 7645581.861284510232508 ], [ 415079.188820903305896, 7645572.767678983509541 ], [ 415085.602322642633226, 7645564.124006794765592 ], [ 415092.392463990079705, 7645555.923791788518429 ], [ 415101.955730449873954, 7645545.660712605342269 ], [ 415109.458137938403524, 7645538.447936731390655 ], [ 415119.83218443102669, 7645529.44664010591805 ], [ 415130.561304478673264, 7645521.110573027282953 ], [ 415141.577543413150124, 7645513.40063055139035 ], [ 415164.225111533480231, 7645499.707253617234528 ], [ 415189.45562092307955, 7645487.10695949010551 ] ] ] } },
{ "type": "Feature", "properties": { "fid": 633.0, "COMPR_M": 1000.01, "CLASSE": "06 - Acima do limite", "CD_FAZ": " 400055", "TALHOES": "6, 2", "FAZ_tAL": "400180006, 400055002", "ID_LINHA": 44557 }, "geometry": { "type": "MultiLineString", "coordinates": [ [ [ 414738.000845646543894, 7646284.581017405726016 ], [ 414761.483251866418868, 7646277.024797352030873 ], [ 414783.335465019568801, 7646269.267005005851388 ], [ 414804.633316150982864, 7646260.832438165321946 ], [ 414823.018645704141818, 7646252.677035847678781 ], [ 414840.824043125670869, 7646243.822992404922843 ], [ 414858.105283151962794, 7646234.156820203177631 ], [ 414874.89140672510257, 7646223.646073129028082 ], [ 414889.124396617407911, 7646213.779685521498322 ], [ 414904.817274925357196, 7646201.765546492300928 ], [ 414919.842239466612227, 7646188.993454940617085 ], [ 414934.142208207806107, 7646175.49425171688199 ], [ 414947.65247254294809, 7646161.306866761296988 ], [ 414960.301015159813687, 7646146.474948903545737 ], [ 414970.608916129218414, 7646132.99986875988543 ], [ 414981.525361389270984, 7646116.993761805817485 ], [ 414991.652134632167872, 7646100.229766800999641 ], [ 415001.044985094747972, 7646082.757920190691948 ], [ 415010.797675330075435, 7646062.336585968732834 ], [ 415019.738661602139473, 7646041.240054570138454 ], [ 415027.762136444449425, 7646019.800155540928245 ], [ 415034.77010210044682, 7645998.136774756014347 ], [ 415040.082388947310392, 7645978.753377597779036 ], [ 415044.958160490787122, 7645956.871578541584313 ], [ 415048.257428722048644, 7645937.40971751883626 ], [ 415050.306087468925398, 7645920.410929569043219 ], [ 415051.41772626596503, 7645905.861237104982138 ], [ 415051.998114172136411, 7645873.538938058540225 ], [ 415050.69710167334415, 7645839.934316543862224 ], [ 415045.150046798225958, 7645754.734201420098543 ], [ 415044.479173562722281, 7645731.354957682080567 ], [ 415044.73514683713438, 7645710.344755670055747 ], [ 415046.115752673824318, 7645688.84954372420907 ], [ 415048.961805259226821, 7645666.924201199784875 ], [ 415052.832310592290014, 7645647.864810302853584 ], [ 415058.252329551964067, 7645628.720914274454117 ], [ 415062.842435336322524, 7645616.014117923565209 ], [ 415066.851697413832881, 7645606.566740935668349 ], [ 415076.477534492092673, 7645588.03646086063236 ], [ 415088.205993190174922, 7645570.574987639673054 ], [ 415094.677989444346167, 7645562.475481975823641 ], [ 415103.837692480883561, 7645552.317386669106781 ], [ 415111.053959895973094, 7645545.164268953725696 ], [ 415121.07064297341276, 7645536.21995490975678 ], [ 415131.468638643913437, 7645527.920136094093323 ], [ 415142.181502625637222, 7645520.228107150644064 ], [ 415164.301901674538385, 7645506.529626432806253 ], [ 415189.425004595483188, 7645493.736435852944851 ] ] ] } },
{ "type": "Feature", "properties": { "fid": 634.0, "COMPR_M": 999.98, "CLASSE": "06 - Acima do limite", "CD_FAZ": " 400055", "TALHOES": "6, 2", "FAZ_tAL": "400180006, 400055002", "ID_LINHA": 44558 }, "geometry": { "type": "MultiLineString", "coordinates": [ [ [ 414737.956017595657613, 7646287.732930909842253 ], [ 414762.442707138543483, 7646279.867238007485867 ], [ 414784.386621773417573, 7646272.076828015968204 ], [ 414805.794603128451854, 7646263.598566154949367 ], [ 414824.292633787437808, 7646255.393103287555277 ], [ 414842.223626129562035, 7646246.476528212428093 ], [ 414859.633929537725635, 7646236.738162125460804 ], [ 414876.546203570615035, 7646226.148418974131346 ], [ 414890.887257611437235, 7646216.207114257849753 ], [ 414906.700931794999633, 7646204.100483033806086 ], [ 414921.843778048467357, 7646191.228167131543159 ], [ 414936.25847185193561, 7646177.620640121400356 ], [ 414949.880384094198234, 7646163.315974971279502 ], [ 414962.637425411783624, 7646148.356783165596426 ], [ 414973.037168947746977, 7646134.761603348888457 ], [ 414984.050722197745927, 7646118.613224596716464 ], [ 414994.259214887220878, 7646101.714091880246997 ], [ 415003.719773615710437, 7646084.116440669633448 ], [ 415013.534111304325052, 7646063.566209191456437 ], [ 415022.524889770778827, 7646042.352251939475536 ], [ 415030.594469806354027, 7646020.789066306315362 ], [ 415037.645473854849115, 7645998.99252101406455 ], [ 415042.992635506670922, 7645979.481757372617722 ], [ 415047.902729111432564, 7645957.445684803649783 ], [ 415051.226939573069103, 7645937.836446739733219 ], [ 415053.292091970215552, 7645920.700549022294581 ], [ 415054.41304027318256, 7645906.029136255383492 ], [ 415054.997788227919955, 7645873.494232182390988 ], [ 415053.692153783980757, 7645839.762055763974786 ], [ 415048.146988447755575, 7645754.598676737397909 ], [ 415047.514921604830306, 7645734.270422885194421 ], [ 415047.636316985357553, 7645713.462786177173257 ], [ 415048.826073242118582, 7645692.203549535945058 ], [ 415051.416446562216152, 7645670.541807032190263 ], [ 415055.748919564299285, 7645648.567482464015484 ], [ 415061.102952106215525, 7645629.656016335822642 ], [ 415065.631602561799809, 7645617.119153851643205 ], [ 415069.583605236257426, 7645607.806627236306667 ], [ 415079.059612554847263, 7645589.564108181744814 ], [ 415090.598821924242657, 7645572.384712582454085 ], [ 415096.971981358597986, 7645564.408940526656806 ], [ 415105.999023876443971, 7645554.398063208907843 ], [ 415123.004541256814264, 7645538.513525327667594 ], [ 415133.278248768125195, 7645530.312974561005831 ], [ 415143.872105562710203, 7645522.706447229720652 ], [ 415165.772765176312532, 7645509.144350674934685 ], [ 415189.409696431772318, 7645497.051174037158489 ] ] ] } },
{ "type": "Feature", "properties": { "fid": 635.0, "COMPR_M": 999.95, "CLASSE": "06 - Acima do limite", "CD_FAZ": " 400055", "TALHOES": "6, 2", "FAZ_tAL": "400180006, 400055002", "ID_LINHA": 44559 }, "geometry": { "type": "MultiLineString", "coordinates": [ [ [ 414737.911214071325958, 7646290.883120032027364 ], [ 414763.402162409736775, 7646282.709678663872182 ], [ 414785.437778531108052, 7646274.886651025153697 ], [ 414806.955890104407445, 7646266.364694147370756 ], [ 414825.566621872188989, 7646258.109170727431774 ], [ 414843.623209131648764, 7646249.130064023658633 ], [ 414861.162575923663098, 7646239.319504048675299 ], [ 414878.201000416709576, 7646228.650764821097255 ], [ 414892.650118606979959, 7646218.634542994201183 ], [ 414908.584588665165938, 7646206.435419574379921 ], [ 414923.845316630846355, 7646193.462879321537912 ], [ 414938.374735493969638, 7646179.747028529644012 ], [ 414952.10829564766027, 7646165.325083181262016 ], [ 414964.973835663578939, 7646150.238617429509759 ], [ 414975.465421767614316, 7646136.523337941616774 ], [ 414986.576083004416432, 7646120.232687387615442 ], [ 414996.8662951416336, 7646103.198416963219643 ], [ 415006.394562134344596, 7646085.474961148574948 ], [ 415016.270547277177684, 7646064.79583241418004 ], [ 415025.31111793697346, 7646043.464449305087328 ], [ 415033.426803166454192, 7646021.77797707170248 ], [ 415040.520845607388765, 7645999.848267271183431 ], [ 415045.90288206434343, 7645980.21013715211302 ], [ 415050.847297732252628, 7645958.019791066646576 ], [ 415054.196450423856732, 7645938.263175960630178 ], [ 415056.278096468537115, 7645920.990168479271233 ], [ 415057.40835428115679, 7645906.1970354039222 ], [ 415057.997462283587083, 7645873.449526304379106 ], [ 415056.687205896188971, 7645839.589794984087348 ], [ 415051.143930098449346, 7645754.46315205655992 ], [ 415050.514602507289965, 7645734.225958398543298 ], [ 415050.63510874309577, 7645713.548594964668155 ], [ 415051.815211958717555, 7645692.4589554797858 ], [ 415054.380660219874699, 7645671.004084534943104 ], [ 415057.93571714614518, 7645652.385331869125366 ], [ 415062.959031398640946, 7645633.698160381056368 ], [ 415067.228418495389633, 7645621.304363956674933 ], [ 415070.963177726021968, 7645612.09412994608283 ], [ 415076.711729847651441, 7645599.989277750253677 ], [ 415081.641690619580913, 7645591.091755501925945 ], [ 415092.991650657262653, 7645574.194437524303794 ], [ 415099.265973276633304, 7645566.342399075627327 ], [ 415108.160355272062588, 7645556.478739745914936 ], [ 415124.938439541729167, 7645540.807095746509731 ], [ 415135.087858891463839, 7645532.705813025124371 ], [ 415145.562708499201108, 7645525.184787306934595 ], [ 415167.24362867634045, 7645511.759074915200472 ], [ 415189.394381614925805, 7645500.367353060282767 ] ] ] } },
{ "type": "Feature", "properties": { "fid": 636.0, "COMPR_M": 999.91, "CLASSE": "06 - Acima do limite", "CD_FAZ": " 400055", "TALHOES": "6, 2", "FAZ_tAL": "400180006, 400055002", "ID_LINHA": 44560 }, "geometry": { "type": "MultiLineString", "coordinates": [ [ [ 414737.866426040010992, 7646294.032219687476754 ], [ 414764.361617681686766, 7646285.552119318395853 ], [ 414786.488935285946354, 7646277.696474036201835 ], [ 414808.11717708199285, 7646269.130822136998177 ], [ 414826.840609958395362, 7646260.825238162651658 ], [ 414845.022792136645876, 7646251.783599833026528 ], [ 414862.691222310939338, 7646241.900845970958471 ], [ 414879.855797262745909, 7646231.153110668063164 ], [ 414894.412979602231644, 7646221.061971727758646 ], [ 414910.468245533760637, 7646208.770356116816401 ], [ 414925.846855213691015, 7646195.697591513395309 ], [ 414940.490999137924518, 7646181.873416932299733 ], [ 414954.336207198211923, 7646167.33419138751924 ], [ 414967.31024591519963, 7646152.12045169249177 ], [ 414977.893674587539863, 7646138.2850725306198 ], [ 414989.101443809864577, 7646121.852150175720453 ], [ 414999.47337539610453, 7646104.682742040604353 ], [ 415009.069350653211586, 7646086.833481624722481 ], [ 415019.006983251369093, 7646066.025455636903644 ], [ 415028.097346104856115, 7646044.57664667442441 ], [ 415036.259136529930402, 7646022.766887836158276 ], [ 415043.396217362605967, 7646000.704013530164957 ], [ 415048.813128622248769, 7645980.938516927883029 ], [ 415053.791866351966746, 7645958.593897327780724 ], [ 415057.165961273829453, 7645938.689905183389783 ], [ 415059.264100970467553, 7645921.279787933453918 ], [ 415060.403668289771304, 7645906.364934553392231 ], [ 415060.997136340592988, 7645873.404820426367223 ], [ 415059.682258007407654, 7645839.41753420419991 ], [ 415054.140871747571509, 7645754.327627377584577 ], [ 415053.514283410448115, 7645734.181493911892176 ], [ 415053.633900500426535, 7645713.634403748437762 ], [ 415054.804350676946342, 7645692.714361425489187 ], [ 415057.344873878872022, 7645671.466362040489912 ], [ 415060.860843439411838, 7645653.051648112013936 ], [ 415065.822642993822228, 7645634.592683514580131 ], [ 415073.715338558366057, 7645613.288374157622457 ], [ 415082.547765819064807, 7645595.515470836311579 ], [ 415093.408829739841167, 7645578.665993561036885 ], [ 415099.461497052572668, 7645570.809368985705078 ], [ 415108.078799580980558, 7645560.926607206463814 ], [ 415124.425044981879182, 7645545.193218747153878 ], [ 415134.3577371124411, 7645537.044888850301504 ], [ 415144.63676502177259, 7645529.470521183684468 ], [ 415165.988417473738082, 7645515.925186026841402 ], [ 415189.37901152856648, 7645503.69549956638366 ] ] ] } },
{ "type": "Feature", "properties": { "fid": 1337.0, "COMPR_M": 872.97, "CLASSE": "05 - Muito longa", "CD_FAZ": " 400055", "TALHOES": "6, 2", "FAZ_tAL": "400180006, 400055002", "ID_LINHA": 45254 }, "geometry": { "type": "MultiLineString", "coordinates": [ [ [ 414853.967208795191254, 7646350.642744130454957 ], [ 414874.635115154320374, 7646341.044668374583125 ], [ 414893.879315743222833, 7646331.115287469699979 ], [ 414915.406176097865682, 7646318.723254300653934 ], [ 414933.74418691219762, 7646307.001657029613853 ], [ 414954.08027021063026, 7646292.619110501371324 ], [ 414971.283932407561224, 7646279.186426169238985 ], [ 414987.894551268836949, 7646264.973669429309666 ], [ 415003.867852552677505, 7646249.993482291698456 ], [ 415019.162387731834315, 7646234.253129898570478 ], [ 415033.731505046715029, 7646217.756335248239338 ], [ 415047.516550295986235, 7646200.514018971472979 ], [ 415058.658360332832672, 7646185.155510630458593 ], [ 415070.733500003872905, 7646166.758472934365273 ], [ 415081.818733920867089, 7646147.997125850990415 ], [ 415091.987794750602916, 7646128.947616448625922 ], [ 415102.583647684776224, 7646106.913549438118935 ], [ 415112.198050046630669, 7646084.67033863440156 ], [ 415119.930524303286802, 7646064.886443649418652 ], [ 415127.97122867743019, 7646041.849568150006235 ], [ 415134.25181426317431, 7646021.340427198447287 ], [ 415139.770438109640963, 7646000.527020163834095 ], [ 415144.471953998203389, 7645979.427534576505423 ], [ 415148.297214619582519, 7645958.06632290687412 ], [ 415151.185731055506039, 7645936.468461418524384 ], [ 415152.640707999060396, 7645920.91118898242712 ], [ 415153.688958790735342, 7645902.303163145668805 ], [ 415153.872982167406008, 7645866.07542669121176 ], [ 415152.361599356227089, 7645831.223947120830417 ], [ 415147.429443910194095, 7645757.792838362976909 ], [ 415146.459149308968335, 7645728.002669308334589 ], [ 415147.290699437493458, 7645702.818939385935664 ], [ 415149.91992643190315, 7645681.702416649088264 ], [ 415152.475205520284362, 7645669.824254626408219 ], [ 415155.173496386851184, 7645660.514384301379323 ], [ 415159.032324354746379, 7645650.309944774955511 ], [ 415163.479041553917341, 7645641.340085387229919 ], [ 415168.595785531972069, 7645633.407664351165295 ], [ 415174.926370946865063, 7645625.630940081551671 ], [ 415182.542138297634665, 7645617.967483969405293 ], [ 415190.141376401763409, 7645611.490041667595506 ] ] ] } },
{ "type": "Feature", "properties": { "fid": 1343.0, "COMPR_M": 972.94, "CLASSE": "05 - Muito longa", "CD_FAZ": " 400055", "TALHOES": "6, 2", "FAZ_tAL": "400180006, 400055002", "ID_LINHA": 45260 }, "geometry": { "type": "MultiLineString", "coordinates": [ [ [ 414762.653508133254945, 7646317.705533711239696 ], [ 414786.790886051370762, 7646309.523955646902323 ], [ 414809.673858950147405, 7646300.903752177022398 ], [ 414829.702002803445794, 7646292.490347336046398 ], [ 414849.355730251409113, 7646283.266345444135368 ], [ 414868.56071711180266, 7646273.135016612708569 ], [ 414887.261216726328712, 7646262.060363613069057 ], [ 414905.397962383402046, 7646250.065997028723359 ], [ 414920.757720733468886, 7646238.836868153885007 ], [ 414937.675490253139287, 7646225.187949536368251 ], [ 414953.857564561301842, 7646210.693304214626551 ], [ 414969.242576212447602, 7646195.380057281814516 ], [ 414981.997293685155455, 7646181.331938571296632 ], [ 414995.698304818535689, 7646164.563136307522655 ], [ 415006.864085336914286, 7646149.289014092646539 ], [ 415018.663025035639293, 7646131.175188340246677 ], [ 415029.500056099204812, 7646112.425055101513863 ], [ 415039.448439867701381, 7646093.118799614720047 ], [ 415049.670667518919799, 7646070.833080936223269 ], [ 415058.945464479678776, 7646048.060701614245772 ], [ 415066.358575386111625, 7646027.485474653542042 ], [ 415073.678911568364128, 7646004.02128598280251 ], [ 415079.207749521941878, 7645982.932050567120314 ], [ 415083.748941282392479, 7645961.669159034267068 ], [ 415087.237357906415127, 7645940.277705147862434 ], [ 415089.124145970970858, 7645924.175982482731342 ], [ 415090.356808369106147, 7645908.04392606113106 ], [ 415090.96117200423032, 7645891.873628538101912 ], [ 415090.993876898835879, 7645872.957761641591787 ], [ 415089.632779118255712, 7645837.694926406256855 ], [ 415084.239149545261171, 7645755.718165243044496 ], [ 415083.559090893773828, 7645736.485710119828582 ], [ 415083.55300802126294, 7645717.241057713516057 ], [ 415084.473683034419082, 7645698.012859534472227 ], [ 415086.193273199023679, 7645681.562303327023983 ], [ 415088.941127774305642, 7645665.160858331248164 ], [ 415092.866391789866611, 7645648.895368711091578 ], [ 415099.101609253732022, 7645630.379585004411638 ], [ 415106.008752224792261, 7645615.180489240214229 ], [ 415114.4865434699459, 7645600.861124217510223 ], [ 415126.30481106438674, 7645585.505814988166094 ], [ 415139.909804754075594, 7645571.581081412732601 ], [ 415154.993570251623169, 7645559.027036150917411 ], [ 415171.25425279547926, 7645547.783619090914726 ], [ 415189.223595754767302, 7645537.348301529884338 ] ] ] } },
{ "type": "Feature", "properties": { "fid": 1345.0, "COMPR_M": 1000.6, "CLASSE": "06 - Acima do limite", "CD_FAZ": " 400055", "TALHOES": "6, 2", "FAZ_tAL": "400180006, 400055002", "ID_LINHA": 45262 }, "geometry": { "type": "MultiLineString", "coordinates": [ [ [ 414736.956554163247347, 7646303.707687683403492 ], [ 414762.212016079109162, 7646295.758881838992238 ], [ 414787.173223756253719, 7646287.044050329364836 ], [ 414809.186404716456309, 7646278.436139594763517 ], [ 414828.306000253593083, 7646270.070914966054261 ], [ 414846.930748352082446, 7646260.943487326614559 ], [ 414865.04693978902651, 7646250.956298679113388 ], [ 414882.657458093774039, 7646240.080693833529949 ], [ 414897.604095998045523, 7646229.857431774958968 ], [ 414914.103284151584376, 7646217.390868466347456 ], [ 414929.924417890491895, 7646204.116442495957017 ], [ 414945.009037224983331, 7646190.062543916516006 ], [ 414959.294104161846917, 7646175.262171366252005 ], [ 414972.707645019050688, 7646159.752685004845262 ], [ 414985.178433044813573, 7646143.57027630507946 ], [ 414996.677526231331285, 7646126.710538543760777 ], [ 415007.294616157887504, 7646109.135717278346419 ], [ 415017.093716211034916, 7646090.909043060615659 ], [ 415027.216291174758226, 7646069.714325306937099 ], [ 415036.456030608154833, 7646047.91323877684772 ], [ 415044.75613661238458, 7646025.733620129525661 ], [ 415052.02233262360096, 7646003.271252303384244 ], [ 415057.543868296255823, 7645983.123656256124377 ], [ 415062.625572213612031, 7645960.316216113045812 ], [ 415066.074493824795354, 7645939.970092849805951 ], [ 415068.222114470147062, 7645922.148646298795938 ], [ 415069.389610313111916, 7645906.868632007390261 ], [ 415069.996158507943619, 7645873.270702788606286 ], [ 415068.667414340889081, 7645838.900751862674952 ], [ 415063.131696698954329, 7645753.921053336933255 ], [ 415062.513326115498785, 7645734.04810044914484 ], [ 415062.630275772709865, 7645713.891830107197165 ], [ 415063.771766828547698, 7645693.480579258874059 ], [ 415066.237514852313325, 7645672.853194555267692 ], [ 415069.636222319153603, 7645655.050596837885678 ], [ 415074.413477783789858, 7645637.276252901181579 ], [ 415081.971821054292377, 7645616.87110679782927 ], [ 415090.37982476077741, 7645599.950110955163836 ], [ 415100.68498675263254, 7645583.963574604131281 ], [ 415106.442742949118838, 7645576.489894324913621 ], [ 415114.662139029474929, 7645567.063785709440708 ], [ 415130.322107504005544, 7645551.992386072874069 ], [ 415147.286061201768462, 7645538.623596010729671 ], [ 415167.843857582542114, 7645525.260207967832685 ], [ 415189.332773654139601, 7645513.707572277635336 ] ] ] } },
{ "type": "Feature", "properties": { "fid": 1367.0, "COMPR_M": 1000.04, "CLASSE": "06 - Acima do limite", "CD_FAZ": " 400055", "TALHOES": "6, 2", "FAZ_tAL": "400180006, 400055002", "ID_LINHA": 45283 }, "geometry": { "type": "MultiLineString", "coordinates": [ [ [ 414738.045673694927245, 7646281.429103902541101 ], [ 414760.523796593828592, 7646274.182356697507203 ], [ 414782.284308265545405, 7646266.457181995734572 ], [ 414803.472029175842181, 7646258.066310172900558 ], [ 414821.744657619623467, 7646249.960968408733606 ], [ 414839.424460122652818, 7646241.169456595554948 ], [ 414856.576636764919385, 7646231.575478278100491 ], [ 414873.236609877552837, 7646221.143727280199528 ], [ 414887.36153562302934, 7646211.352256785146892 ], [ 414902.933618055540137, 7646199.430609947070479 ], [ 414917.840700882603414, 7646186.758742751553655 ], [ 414932.025944565655664, 7646173.367863312363625 ], [ 414945.424560991348699, 7646159.297758552245796 ], [ 414957.96460490883328, 7646144.593114641495049 ], [ 414968.180663308768999, 7646131.238134168088436 ], [ 414979.000000585569069, 7646115.374299018643796 ], [ 414989.045054377813358, 7646098.745441721752286 ], [ 414998.370196577394381, 7646081.39939971268177 ], [ 415008.061239355127327, 7646061.106962747871876 ], [ 415016.952433435129933, 7646040.127857204526663 ], [ 415024.929803083883598, 7646018.811244777403772 ], [ 415031.894730347499717, 7645997.281028498895466 ], [ 415037.172142388881184, 7645978.024997821077704 ], [ 415042.013591872295365, 7645956.297472279518843 ], [ 415045.287917872832622, 7645936.982988297939301 ], [ 415047.320082970545627, 7645920.12131011299789 ], [ 415048.422412256710231, 7645905.693337954580784 ], [ 415048.998440116993152, 7645873.58364393748343 ], [ 415047.702049561135937, 7645840.106577321887016 ], [ 415042.15310514846351, 7645754.869726100005209 ], [ 415041.479295011726208, 7645731.383201655931771 ], [ 415041.737058813916519, 7645710.237088218331337 ], [ 415043.129071094153915, 7645688.566830791532993 ], [ 415046.002820610941853, 7645666.429545093327761 ], [ 415049.915701620397158, 7645647.162138140760362 ], [ 415055.401706997945439, 7645627.78581221587956 ], [ 415060.053268112416845, 7645614.909081995487213 ], [ 415064.119789593038149, 7645605.326854636892676 ], [ 415073.895456427591853, 7645586.508813539519906 ], [ 415079.632475508959033, 7645577.422858249396086 ], [ 415085.813164457678795, 7645568.765262699685991 ], [ 415092.383997529279441, 7645560.542023425921798 ], [ 415101.676361084682867, 7645550.236710132099688 ], [ 415108.991287524986546, 7645542.98576296120882 ], [ 415119.13674469088437, 7645533.926384494639933 ], [ 415129.659028520749416, 7645525.52729762904346 ], [ 415140.490899688040372, 7645517.749767072498798 ], [ 415162.831038173520938, 7645503.914902193471789 ], [ 415177.093009486969095, 7645496.336797213181853 ], [ 415189.440312758611981, 7645490.421697672456503 ] ] ] } }
]
}
