{
"type": "FeatureCollection",
"name": " 400028",
"crs": { "type": "name", "properties": { "name": "urn:ogc:def:crs:EPSG::32722" } },
"xy_coordinate_resolution": 1e-15,
"features": [
{ "type": "Feature", "properties": { "fid": 73.0, "COMPR_M": 188.49, "CLASSE": "02 - Curta", "CD_FAZ": " 400028", "TALHOES": "3, 2", "FAZ_tAL": "400458003, 400530002, 400028003", "ID_LINHA": 29195 }, "geometry": { "type": "MultiLineString", "coordinates": [ [ [ 413191.454388690413907, 7654106.296203060075641 ], [ 413196.057257709500846, 7654068.926090434193611 ], [ 413204.523776388494298, 7654014.581094346009195 ], [ 413215.34238942025695, 7653959.93930334225297 ], [ 413224.478412088647019, 7653920.921128787100315 ] ] ] } },
{ "type": "Feature", "properties": { "fid": 74.0, "COMPR_M": 188.59, "CLASSE": "02 - Curta", "CD_FAZ": " 400028", "TALHOES": "3, 2", "FAZ_tAL": "400458003, 400530002, 400028003", "ID_LINHA": 29196 }, "geometry": { "type": "MultiLineString", "coordinates": [ [ [ 413194.612371832539793, 7654105.044637490063906 ], [ 413199.029665150679648, 7654069.332907835021615 ], [ 413207.478405608970206, 7654015.101795915514231 ], [ 413218.273046133166645, 7653960.58121220767498 ], [ 413227.887140979524702, 7653919.614828074350953 ] ] ] } },
{ "type": "Feature", "properties": { "fid": 75.0, "COMPR_M": 188.69, "CLASSE": "02 - Curta", "CD_FAZ": " 400028", "TALHOES": "3, 2", "FAZ_tAL": "400458003, 400530002, 400028003", "ID_LINHA": 29197 }, "geometry": { "type": "MultiLineString", "coordinates": [ [ [ 413197.770354971464258, 7654103.793071920052171 ], [ 413202.002072589239106, 7654069.73972525075078 ], [ 413210.433034835907165, 7654015.622497482225299 ], [ 413221.203702848870307, 7653961.223121068440378 ], [ 413231.295869868830778, 7653918.308527358807623 ] ] ] } },
{ "type": "Feature", "properties": { "fid": 76.0, "COMPR_M": 188.79, "CLASSE": "02 - Curta", "CD_FAZ": " 400028", "TALHOES": "3, 2", "FAZ_tAL": "400458003, 400530002, 400028003", "ID_LINHA": 29198 }, "geometry": { "type": "MultiLineString", "coordinates": [ [ [ 413200.928338109923061, 7654102.541506350040436 ], [ 413204.974480027274694, 7654070.14654266089201 ], [ 413213.387664057430811, 7654016.143199047073722 ], [ 413224.134359565912746, 7653961.86502993106842 ], [ 413234.70459876244422, 7653917.002226643264294 ] ] ] } },
{ "type": "Feature", "properties": { "fid": 77.0, "COMPR_M": 188.89, "CLASSE": "02 - Curta", "CD_FAZ": " 400028", "TALHOES": "3, 2", "FAZ_tAL": "400458003, 400530002, 400028003", "ID_LINHA": 29199 }, "geometry": { "type": "MultiLineString", "coordinates": [ [ [ 413204.08632124972064, 7654101.289940780028701 ], [ 413207.946887466183398, 7654070.553360067307949 ], [ 413216.342293286754284, 7654016.663900615647435 ], [ 413227.0650162830716, 7653962.506938797421753 ], [ 413238.113327654369641, 7653915.695925930514932 ] ] ] } },
{ "type": "Feature", "properties": { "fid": 78.0, "COMPR_M": 188.99, "CLASSE": "02 - Curta", "CD_FAZ": " 400028", "TALHOES": "3, 2", "FAZ_tAL": "400458003, 400530002, 400028003", "ID_LINHA": 29200 }, "geometry": { "type": "MultiLineString", "coordinates": [ [ [ 413207.244304389692843, 7654100.038375210016966 ], [ 413210.919294903869741, 7654070.960177475586534 ], [ 413219.296922511945013, 7654017.184602180495858 ], [ 413229.995672996388748, 7653963.148847658187151 ], [ 413241.522225292166695, 7653914.388936394825578 ] ] ] } },
{ "type": "Feature", "properties": { "fid": 79.0, "COMPR_M": 189.11, "CLASSE": "02 - Curta", "CD_FAZ": " 400028", "TALHOES": "3, 2", "FAZ_tAL": "400458003, 400530002, 400028003", "ID_LINHA": 29201 }, "geometry": { "type": "MultiLineString", "coordinates": [ [ [ 413210.402287531760521, 7654098.786809640005231 ], [ 413217.787625896977261, 7654044.664451116696 ], [ 413222.25155173370149, 7654017.705303750000894 ], [ 413232.926329714420717, 7653963.790756518952549 ], [ 413244.937413276464213, 7653913.056269891560078 ] ] ] } },
{ "type": "Feature", "properties": { "fid": 80.0, "COMPR_M": 189.25, "CLASSE": "02 - Curta", "CD_FAZ": " 400028", "TALHOES": "3, 2", "FAZ_tAL": "400458003, 400530002, 400028003", "ID_LINHA": 29202 }, "geometry": { "type": "MultiLineString", "coordinates": [ [ [ 413213.571049580583349, 7654097.530972193926573 ], [ 413220.752035205019638, 7654045.126087488606572 ], [ 413230.263431160070468, 7653991.17070534080267 ], [ 413235.856986433209386, 7653964.432665383443236 ], [ 413248.375829947297461, 7653911.714539147913456 ] ] ] } },
{ "type": "Feature", "properties": { "fid": 81.0, "COMPR_M": 189.38, "CLASSE": "02 - Curta", "CD_FAZ": " 400028", "TALHOES": "3, 2", "FAZ_tAL": "400458003, 400530002, 400028003", "ID_LINHA": 29203 }, "geometry": { "type": "MultiLineString", "coordinates": [ [ [ 413216.756893436191604, 7654096.268364920280874 ], [ 413223.716444510500878, 7654045.587723856791854 ], [ 413233.206447918433696, 7653991.753531318157911 ], [ 413238.787643143499736, 7653965.074574247002602 ], [ 413251.81940646469593, 7653910.370794938877225 ] ] ] } },
{ "type": "Feature", "properties": { "fid": 82.0, "COMPR_M": 189.51, "CLASSE": "02 - Curta", "CD_FAZ": " 400028", "TALHOES": "3, 2", "FAZ_tAL": "400458003, 400530002, 400028003", "ID_LINHA": 29204 }, "geometry": { "type": "MultiLineString", "coordinates": [ [ [ 413219.942737296165433, 7654095.00575764477253 ], [ 413226.680853818543255, 7654046.049360224977136 ], [ 413236.149464682035614, 7653992.336357299238443 ], [ 413247.635093559802044, 7653939.868464375846088 ], [ 413255.262982988497242, 7653909.027050729840994 ] ] ] } },
{ "type": "Feature", "properties": { "fid": 83.0, "COMPR_M": 189.63, "CLASSE": "02 - Curta", "CD_FAZ": " 400028", "TALHOES": "3, 2", "FAZ_tAL": "400458003, 400530002, 400028003", "ID_LINHA": 29205 }, "geometry": { "type": "MultiLineString", "coordinates": [ [ [ 413223.128581155906431, 7654093.743150371126831 ], [ 413229.645263125887141, 7654046.510996596887708 ], [ 413239.092481441679411, 7653992.919183276593685 ], [ 413250.554361986753065, 7653940.560123936273158 ], [ 413258.706559510144871, 7653907.683306520804763 ] ] ] } },
{ "type": "Feature", "properties": { "fid": 84.0, "COMPR_M": 189.76, "CLASSE": "02 - Curta", "CD_FAZ": " 400028", "TALHOES": "3, 2", "FAZ_tAL": "400458003, 400530002, 400028003", "ID_LINHA": 29206 }, "geometry": { "type": "MultiLineString", "coordinates": [ [ [ 413226.314425015472807, 7654092.480543093755841 ], [ 413232.609672433231026, 7654046.972632967866957 ], [ 413242.03549820324406, 7653993.50200925488025 ], [ 413253.473630414402578, 7653941.251783503219485 ], [ 413262.150136033131275, 7653906.339562309905887 ] ] ] } },
{ "type": "Feature", "properties": { "fid": 85.0, "COMPR_M": 189.91, "CLASSE": "02 - Curta", "CD_FAZ": " 400028", "TALHOES": "3, 2", "FAZ_tAL": "400458003, 400530002, 400028003", "ID_LINHA": 29207 }, "geometry": { "type": "MultiLineString", "coordinates": [ [ [ 413229.500268869451247, 7654091.21793582290411 ], [ 413235.574081739294343, 7654047.434269336983562 ], [ 413244.978514966089278, 7653994.084835229441524 ], [ 413256.392898846766911, 7653941.943443068303168 ], [ 413265.598097425303422, 7653904.978779958561063 ] ] ] } },
{ "type": "Feature", "properties": { "fid": 86.0, "COMPR_M": 190.08, "CLASSE": "02 - Curta", "CD_FAZ": " 400028", "TALHOES": "3, 2", "FAZ_tAL": "400458003, 400530002, 400028003", "ID_LINHA": 29208 }, "geometry": { "type": "MultiLineString", "coordinates": [ [ [ 413232.686112734489143, 7654089.955328545533121 ], [ 413238.538491045241244, 7654047.895905703306198 ], [ 413247.921531728236005, 7653994.667661212384701 ], [ 413259.312167278607376, 7653942.635102636180818 ], [ 413269.051894874428399, 7653903.595320634543896 ] ] ] } },
{ "type": "Feature", "properties": { "fid": 87.0, "COMPR_M": 190.25, "CLASSE": "02 - Curta", "CD_FAZ": " 400028", "TALHOES": "3, 2", "FAZ_tAL": "400458003, 400530002, 400028003", "ID_LINHA": 29209 }, "geometry": { "type": "MultiLineString", "coordinates": [ [ [ 413235.871956590621267, 7654088.692721272818744 ], [ 413241.502900351246353, 7654048.357542073354125 ], [ 413250.864548486482818, 7653995.250487186014652 ], [ 413262.231435708526988, 7653943.326762201264501 ], [ 413272.505692330829334, 7653902.211861306801438 ] ] ] } },
{ "type": "Feature", "properties": { "fid": 88.0, "COMPR_M": 190.42, "CLASSE": "02 - Curta", "CD_FAZ": " 400028", "TALHOES": "3, 2", "FAZ_tAL": "400458003, 400530002, 400028003", "ID_LINHA": 29210 }, "geometry": { "type": "MultiLineString", "coordinates": [ [ [ 413239.057800446578767, 7654087.430113999173045 ], [ 413244.467309657833539, 7654048.81917844992131 ], [ 413253.807565251889173, 7653995.833313161507249 ], [ 413265.150704138563015, 7653944.018421766348183 ], [ 413275.95948978344677, 7653900.828401982784271 ] ] ] } },
{ "type": "Feature", "properties": { "fid": 89.0, "COMPR_M": 190.59, "CLASSE": "02 - Curta", "CD_FAZ": " 400028", "TALHOES": "3, 2", "FAZ_tAL": "400458003, 400530002, 400028003", "ID_LINHA": 29211 }, "geometry": { "type": "MultiLineString", "coordinates": [ [ [ 413242.243644306901842, 7654086.167506723664701 ], [ 413247.431718965759501, 7654049.280814817175269 ], [ 413256.750582006701734, 7653996.416139142587781 ], [ 413268.069972567376681, 7653944.710081328637898 ], [ 413279.413287239440251, 7653899.444942656904459 ] ] ] } },
{ "type": "Feature", "properties": { "fid": 90.0, "COMPR_M": 190.76, "CLASSE": "02 - Curta", "CD_FAZ": " 400028", "TALHOES": "3, 2", "FAZ_tAL": "400458003, 400530002, 400028003", "ID_LINHA": 29212 }, "geometry": { "type": "MultiLineString", "coordinates": [ [ [ 413245.429488163092174, 7654084.904899450019002 ], [ 413250.396128269087058, 7654049.742451188154519 ], [ 413259.693598770129029, 7653996.998965123668313 ], [ 413270.989240994967986, 7653945.401740894652903 ], [ 413282.867084688972682, 7653898.061483331024647 ] ] ] } },
{ "type": "Feature", "properties": { "fid": 91.0, "COMPR_M": 190.9, "CLASSE": "02 - Curta", "CD_FAZ": " 400028", "TALHOES": "3, 2", "FAZ_tAL": "400458003, 400530002, 400028003", "ID_LINHA": 29213 }, "geometry": { "type": "MultiLineString", "coordinates": [ [ [ 413248.615332023589872, 7654083.642292174510658 ], [ 413253.360537577653304, 7654050.204087555408478 ], [ 413262.636615532857832, 7653997.58179109916091 ], [ 413273.908509422675706, 7653946.093400461599231 ], [ 413286.319734227494337, 7653896.710375294089317 ] ] ] } },
{ "type": "Feature", "properties": { "fid": 92.0, "COMPR_M": 191.02, "CLASSE": "02 - Curta", "CD_FAZ": " 400028", "TALHOES": "3, 2", "FAZ_tAL": "400458003, 400530002, 400028003", "ID_LINHA": 29214 }, "geometry": { "type": "MultiLineString", "coordinates": [ [ [ 413251.801175879314542, 7654082.379684901796281 ], [ 413256.324946882901713, 7654050.665723924525082 ], [ 413265.579632294247858, 7653998.164617075584829 ], [ 413276.827777855098248, 7653946.785060027614236 ], [ 413289.777183178579435, 7653895.382735850289464 ] ] ] } },
{ "type": "Feature", "properties": { "fid": 520.0, "COMPR_M": 228.33, "CLASSE": "02 - Curta", "CD_FAZ": " 400028", "TALHOES": "2, 3", "FAZ_tAL": "400530002, 400028003", "ID_LINHA": 167257 }, "geometry": { "type": "MultiLineString", "coordinates": [ [ [ 413835.291770329989959, 7654050.560778521001339 ], [ 413860.860126903571654, 7653955.314449276775122 ], [ 413874.000862675951794, 7653904.269110365770757 ], [ 413880.571482918807305, 7653876.719123916700482 ], [ 413890.680018032202497, 7653829.180498324334621 ] ] ] } },
{ "type": "Feature", "properties": { "fid": 521.0, "COMPR_M": 228.11, "CLASSE": "02 - Curta", "CD_FAZ": " 400028", "TALHOES": "2, 3", "FAZ_tAL": "400530002, 400028003", "ID_LINHA": 167258 }, "geometry": { "type": "MultiLineString", "coordinates": [ [ [ 413831.915029265277553, 7654051.644822521135211 ], [ 413857.960882533923723, 7653954.543433701619506 ], [ 413871.087286205671262, 7653903.553945075720549 ], [ 413877.647516754514072, 7653876.047521616332233 ], [ 413887.357720271742437, 7653830.497184736654162 ] ] ] } },
{ "type": "Feature", "properties": { "fid": 522.0, "COMPR_M": 227.9, "CLASSE": "02 - Curta", "CD_FAZ": " 400028", "TALHOES": "2, 3", "FAZ_tAL": "400530002, 400028003", "ID_LINHA": 167259 }, "geometry": { "type": "MultiLineString", "coordinates": [ [ [ 413828.538288203650154, 7654052.728866522200406 ], [ 413855.06163817178458, 7653953.772418117150664 ], [ 413868.173709731781855, 7653902.838779788464308 ], [ 413874.723550588823855, 7653875.375919317826629 ], [ 413884.035422515065875, 7653831.813871148042381 ] ] ] } },
{ "type": "Feature", "properties": { "fid": 523.0, "COMPR_M": 227.68, "CLASSE": "02 - Curta", "CD_FAZ": " 400028", "TALHOES": "2, 3", "FAZ_tAL": "400530002, 400028003", "ID_LINHA": 167260 }, "geometry": { "type": "MultiLineString", "coordinates": [ [ [ 413825.161547140276525, 7654053.812910528853536 ], [ 413852.162393800448626, 7653953.001402534544468 ], [ 413865.260133256320842, 7653902.123614501208067 ], [ 413871.799584427848458, 7653874.704317018389702 ], [ 413880.713124755013268, 7653833.130557559430599 ] ] ] } },
{ "type": "Feature", "properties": { "fid": 524.0, "COMPR_M": 227.47, "CLASSE": "02 - Curta", "CD_FAZ": " 400028", "TALHOES": "2, 3", "FAZ_tAL": "400530002, 400028003", "ID_LINHA": 167261 }, "geometry": { "type": "MultiLineString", "coordinates": [ [ [ 413821.784806074691005, 7654054.896954533644021 ], [ 413849.263149435864761, 7653952.23038695845753 ], [ 413862.346556787844747, 7653901.408449215814471 ], [ 413868.87561826343881, 7653874.032714718952775 ], [ 413877.390826996765099, 7653834.447243970818818 ] ] ] } },
{ "type": "Feature", "properties": { "fid": 525.0, "COMPR_M": 227.25, "CLASSE": "02 - Curta", "CD_FAZ": " 400028", "TALHOES": "2, 3", "FAZ_tAL": "400530002, 400028003", "ID_LINHA": 167262 }, "geometry": { "type": "MultiLineString", "coordinates": [ [ [ 413818.408065009512939, 7654055.98099852912128 ], [ 413852.863484433619305, 7653926.716906013898551 ], [ 413865.951652101066429, 7653873.361112417653203 ], [ 413874.068529235082678, 7653835.763930384069681 ] ] ] } },
{ "type": "Feature", "properties": { "fid": 526.0, "COMPR_M": 227.04, "CLASSE": "02 - Curta", "CD_FAZ": " 400028", "TALHOES": "2, 3", "FAZ_tAL": "400530002, 400028003", "ID_LINHA": 167263 }, "geometry": { "type": "MultiLineString", "coordinates": [ [ [ 413815.031323942705058, 7654057.065042538568377 ], [ 413849.95826467621373, 7653925.968637434765697 ], [ 413863.027685935376212, 7653872.689510117284954 ], [ 413870.746231475961395, 7653837.080616794526577 ] ] ] } },
{ "type": "Feature", "properties": { "fid": 527.0, "COMPR_M": 226.8, "CLASSE": "02 - Curta", "CD_FAZ": " 400028", "TALHOES": "2, 3", "FAZ_tAL": "400530002, 400028003", "ID_LINHA": 167264 }, "geometry": { "type": "MultiLineString", "coordinates": [ [ [ 413811.694386726187076, 7654058.136308206245303 ], [ 413847.053044914558996, 7653925.220368850976229 ], [ 413860.103719772887416, 7653872.017907821573317 ], [ 413867.423933714046143, 7653838.397303207777441 ] ] ] } },
{ "type": "Feature", "properties": { "fid": 528.0, "COMPR_M": 226.57, "CLASSE": "02 - Curta", "CD_FAZ": " 400028", "TALHOES": "2, 3", "FAZ_tAL": "400530002, 400028003", "ID_LINHA": 167265 }, "geometry": { "type": "MultiLineString", "coordinates": [ [ [ 413808.342023542558309, 7654059.212526113726199 ], [ 413844.147825155232567, 7653924.472100273706019 ], [ 413857.179753609118052, 7653871.346305515617132 ], [ 413864.101635955274105, 7653839.713989619165659 ] ] ] } },
{ "type": "Feature", "properties": { "fid": 529.0, "COMPR_M": 226.34, "CLASSE": "02 - Curta", "CD_FAZ": " 400028", "TALHOES": "2, 3", "FAZ_tAL": "400530002, 400028003", "ID_LINHA": 167266 }, "geometry": { "type": "MultiLineString", "coordinates": [ [ [ 413804.989660356193781, 7654060.288744022138417 ], [ 413841.242605398292653, 7653923.723831690847874 ], [ 413854.255787445930764, 7653870.67470321804285 ], [ 413860.779338192427531, 7653841.030676033347845 ] ] ] } },
{ "type": "Feature", "properties": { "fid": 530.0, "COMPR_M": 226.1, "CLASSE": "02 - Curta", "CD_FAZ": " 400028", "TALHOES": "2, 3", "FAZ_tAL": "400530002, 400028003", "ID_LINHA": 167267 }, "geometry": { "type": "MultiLineString", "coordinates": [ [ [ 413801.637297167093493, 7654061.36496193241328 ], [ 413808.514139090897515, 7654034.241276344284415 ], [ 413838.337385638500564, 7653922.975563112646341 ], [ 413851.3318212814047, 7653870.003100920468569 ], [ 413857.439832909614779, 7653842.354182096198201 ] ] ] } },
{ "type": "Feature", "properties": { "fid": 531.0, "COMPR_M": 225.85, "CLASSE": "02 - Curta", "CD_FAZ": " 400028", "TALHOES": "2, 3", "FAZ_tAL": "400530002, 400028003", "ID_LINHA": 167268 }, "geometry": { "type": "MultiLineString", "coordinates": [ [ [ 413798.284933981252834, 7654062.441179837100208 ], [ 413805.611830374109559, 7654033.481835106387734 ], [ 413835.432165875739884, 7653922.227294533513486 ], [ 413848.407855121477041, 7653869.331498622894287 ], [ 413854.072702287696302, 7653843.68863657861948 ] ] ] } },
{ "type": "Feature", "properties": { "fid": 532.0, "COMPR_M": 225.59, "CLASSE": "02 - Curta", "CD_FAZ": " 400028", "TALHOES": "2, 3", "FAZ_tAL": "400530002, 400028003", "ID_LINHA": 167269 }, "geometry": { "type": "MultiLineString", "coordinates": [ [ [ 413794.93257078807801, 7654063.517397746443748 ], [ 413802.709521658893209, 7654032.722393872216344 ], [ 413832.526946121302899, 7653921.479025955311954 ], [ 413845.483888957591262, 7653868.65989631600678 ], [ 413850.705571666359901, 7653845.023091061040759 ] ] ] } },
{ "type": "Feature", "properties": { "fid": 533.0, "COMPR_M": 225.34, "CLASSE": "02 - Curta", "CD_FAZ": " 400028", "TALHOES": "2, 3", "FAZ_tAL": "400530002, 400028003", "ID_LINHA": 167270 }, "geometry": { "type": "MultiLineString", "coordinates": [ [ [ 413791.579981875489466, 7654064.594537083059549 ], [ 413799.80721294041723, 7654031.962952639907598 ], [ 413829.621726357378066, 7653920.730757370591164 ], [ 413842.559922793647274, 7653867.988294021226466 ], [ 413847.338441041589249, 7653846.357545543462038 ] ] ] } },
{ "type": "Feature", "properties": { "fid": 534.0, "COMPR_M": 225.17, "CLASSE": "02 - Curta", "CD_FAZ": " 400028", "TALHOES": "2, 3", "FAZ_tAL": "400530002, 400028003", "ID_LINHA": 167271 }, "geometry": { "type": "MultiLineString", "coordinates": [ [ [ 413788.208417188725434, 7654065.749134821817279 ], [ 413796.904904228169471, 7654031.203511405736208 ], [ 413826.71650660096202, 7653919.982488792389631 ], [ 413833.210792063968256, 7653894.256796330213547 ], [ 413843.971310414664913, 7653847.692000028677285 ] ] ] } },
{ "type": "Feature", "properties": { "fid": 535.0, "COMPR_M": 224.99, "CLASSE": "02 - Curta", "CD_FAZ": " 400028", "TALHOES": "2, 3", "FAZ_tAL": "400530002, 400028003", "ID_LINHA": 167272 }, "geometry": { "type": "MultiLineString", "coordinates": [ [ [ 413784.836852504289709, 7654066.903732562437654 ], [ 413794.002595513360575, 7654030.444070171564817 ], [ 413823.811286839074455, 7653919.234220212325454 ], [ 413830.297215590951964, 7653893.541631044819951 ], [ 413840.604179795656819, 7653849.026454510167241 ] ] ] } },
{ "type": "Feature", "properties": { "fid": 536.0, "COMPR_M": 224.82, "CLASSE": "02 - Curta", "CD_FAZ": " 400028", "TALHOES": "2, 3", "FAZ_tAL": "400530002, 400028003", "ID_LINHA": 167273 }, "geometry": { "type": "MultiLineString", "coordinates": [ [ [ 413781.465287816245109, 7654068.058330303058028 ], [ 413791.100286791566759, 7654029.684628936462104 ], [ 413820.906067081610672, 7653918.485951632261276 ], [ 413827.383639120380394, 7653892.826465755701065 ], [ 413837.237049167917576, 7653850.36090899258852 ] ] ] } },
{ "type": "Feature", "properties": { "fid": 537.0, "COMPR_M": 224.61, "CLASSE": "02 - Curta", "CD_FAZ": " 400028", "TALHOES": "2, 3", "FAZ_tAL": "400530002, 400028003", "ID_LINHA": 167274 }, "geometry": { "type": "MultiLineString", "coordinates": [ [ [ 413778.154108311864547, 7654069.192249041981995 ], [ 413788.197978074545972, 7654028.925187699496746 ], [ 413818.000847325776704, 7653917.737683052197099 ], [ 413824.470062646723818, 7653892.111300468444824 ], [ 413833.869918550597504, 7653851.695363475009799 ] ] ] } },
{ "type": "Feature", "properties": { "fid": 538.0, "COMPR_M": 224.42, "CLASSE": "02 - Curta", "CD_FAZ": " 400028", "TALHOES": "2, 3", "FAZ_tAL": "400530002, 400028003", "ID_LINHA": 167275 }, "geometry": { "type": "MultiLineString", "coordinates": [ [ [ 413774.814742643968202, 7654070.335820181295276 ], [ 413785.295669360260945, 7654028.165746469981968 ], [ 413815.095627563074231, 7653916.989414469338953 ], [ 413830.502787925943267, 7653853.029817957431078 ] ] ] } },
{ "type": "Feature", "properties": { "fid": 539.0, "COMPR_M": 224.23, "CLASSE": "02 - Curta", "CD_FAZ": " 400028", "TALHOES": "2, 3", "FAZ_tAL": "400530002, 400028003", "ID_LINHA": 167276 }, "geometry": { "type": "MultiLineString", "coordinates": [ [ [ 413771.475376966875046, 7654071.479391315951943 ], [ 413782.393360640271567, 7654027.40630523301661 ], [ 413812.19040780531941, 7653916.241145892068744 ], [ 413827.135657307109796, 7653854.364272437989712 ] ] ] } },
{ "type": "Feature", "properties": { "fid": 540.0, "COMPR_M": 224.03, "CLASSE": "02 - Curta", "CD_FAZ": " 400028", "TALHOES": "2, 3", "FAZ_tAL": "400530002, 400028003", "ID_LINHA": 167277 }, "geometry": { "type": "MultiLineString", "coordinates": [ [ [ 413768.136011297698133, 7654072.622962454333901 ], [ 413779.491051923716441, 7654026.646864003501832 ], [ 413809.285188042675145, 7653915.492877315729856 ], [ 413823.768526682863012, 7653855.698726922273636 ] ] ] } },
{ "type": "Feature", "properties": { "fid": 541.0, "COMPR_M": 223.84, "CLASSE": "02 - Curta", "CD_FAZ": " 400028", "TALHOES": "2, 3", "FAZ_tAL": "400530002, 400028003", "ID_LINHA": 167278 }, "geometry": { "type": "MultiLineString", "coordinates": [ [ [ 413764.796645621885546, 7654073.766533592715859 ], [ 413776.588743208674714, 7654025.887422767467797 ], [ 413806.379968283115886, 7653914.744608731009066 ], [ 413820.401396059838589, 7653857.033181404694915 ] ] ] } },
{ "type": "Feature", "properties": { "fid": 542.0, "COMPR_M": 223.65, "CLASSE": "02 - Curta", "CD_FAZ": " 400028", "TALHOES": "2, 3", "FAZ_tAL": "400530002, 400028003", "ID_LINHA": 167279 }, "geometry": { "type": "MultiLineString", "coordinates": [ [ [ 413761.457279944734182, 7654074.910104734823108 ], [ 413773.686434494447894, 7654025.127981536090374 ], [ 413803.474748523207381, 7653913.996340153738856 ], [ 413817.034265440655872, 7653858.367635886184871 ] ] ] } },
{ "type": "Feature", "properties": { "fid": 543.0, "COMPR_M": 223.46, "CLASSE": "02 - Curta", "CD_FAZ": " 400028", "TALHOES": "2, 3", "FAZ_tAL": "400530002, 400028003", "ID_LINHA": 167280 }, "geometry": { "type": "MultiLineString", "coordinates": [ [ [ 413758.117914270842448, 7654076.053675872273743 ], [ 413770.784125777776353, 7654024.368540296331048 ], [ 413800.569528765685391, 7653913.248071572743356 ], [ 413813.667134816758335, 7653859.702090369537473 ] ] ] } },
{ "type": "Feature", "properties": { "fid": 544.0, "COMPR_M": 223.26, "CLASSE": "02 - Curta", "CD_FAZ": " 400028", "TALHOES": "2, 3", "FAZ_tAL": "400530002, 400028003", "ID_LINHA": 167281 }, "geometry": { "type": "MultiLineString", "coordinates": [ [ [ 413754.778548599628266, 7654077.197247010655701 ], [ 413762.952605033351574, 7654042.762366426177323 ], [ 413797.66430900915293, 7653912.499802997335792 ], [ 413810.291539233585354, 7653861.039899667724967 ] ] ] } },
{ "type": "Feature", "properties": { "fid": 545.0, "COMPR_M": 223.04, "CLASSE": "02 - Curta", "CD_FAZ": " 400028", "TALHOES": "2, 3", "FAZ_tAL": "400530002, 400028003", "ID_LINHA": 167282 }, "geometry": { "type": "MultiLineString", "coordinates": [ [ [ 413751.439182920497842, 7654078.340818147175014 ], [ 413760.042923504370265, 7654042.031573463231325 ], [ 413794.759089249069802, 7653911.751534415408969 ], [ 413806.885449857451022, 7653862.389794207178056 ] ] ] } },
{ "type": "Feature", "properties": { "fid": 546.0, "COMPR_M": 222.79, "CLASSE": "02 - Curta", "CD_FAZ": " 400028", "TALHOES": "2, 3", "FAZ_tAL": "400530002, 400028003", "ID_LINHA": 167283 }, "geometry": { "type": "MultiLineString", "coordinates": [ [ [ 413748.157512183359358, 7654079.46463156491518 ], [ 413757.133241982955951, 7654041.300780506804585 ], [ 413791.853869489394128, 7653911.003265834413469 ], [ 413803.479360476485454, 7653863.7396887447685 ] ] ] } },
{ "type": "Feature", "properties": { "fid": 547.0, "COMPR_M": 222.56, "CLASSE": "02 - Curta", "CD_FAZ": " 400028", "TALHOES": "2, 3", "FAZ_tAL": "400530002, 400028003", "ID_LINHA": 167284 }, "geometry": { "type": "MultiLineString", "coordinates": [ [ [ 413744.85605142195709, 7654080.595222103409469 ], [ 413754.223560453334358, 7654040.569987541995943 ], [ 413788.948649732046761, 7653910.254997252486646 ], [ 413800.073271100525744, 7653865.089583283290267 ] ] ] } },
{ "type": "Feature", "properties": { "fid": 548.0, "COMPR_M": 222.32, "CLASSE": "02 - Curta", "CD_FAZ": " 400028", "TALHOES": "2, 3", "FAZ_tAL": "400530002, 400028003", "ID_LINHA": 167285 }, "geometry": { "type": "MultiLineString", "coordinates": [ [ [ 413741.554590658459347, 7654081.725812645629048 ], [ 413751.313878925400786, 7654039.8391945771873 ], [ 413786.043429968471173, 7653909.506728677079082 ], [ 413796.6671817189781, 7653866.439477821812034 ] ] ] } },
{ "type": "Feature", "properties": { "fid": 549.0, "COMPR_M": 222.08, "CLASSE": "02 - Curta", "CD_FAZ": " 400028", "TALHOES": "2, 3", "FAZ_tAL": "400530002, 400028003", "ID_LINHA": 167286 }, "geometry": { "type": "MultiLineString", "coordinates": [ [ [ 413738.253129898104817, 7654082.856403182260692 ], [ 413748.404197401192505, 7654039.108401616103947 ], [ 413783.138210207864176, 7653908.758460093289614 ], [ 413793.261092341155745, 7653867.789372363127768 ] ] ] } },
{ "type": "Feature", "properties": { "fid": 550.0, "COMPR_M": 221.85, "CLASSE": "02 - Curta", "CD_FAZ": " 400028", "TALHOES": "2, 3", "FAZ_tAL": "400530002, 400028003", "ID_LINHA": 167287 }, "geometry": { "type": "MultiLineString", "coordinates": [ [ [ 413734.951669140253216, 7654083.986993721686304 ], [ 413745.494515871978365, 7654038.377608655020595 ], [ 413780.23299045371823, 7653908.010191509500146 ], [ 413789.855002961761784, 7653869.139266902580857 ] ] ] } },
{ "type": "Feature", "properties": { "fid": 551.0, "COMPR_M": 221.61, "CLASSE": "02 - Curta", "CD_FAZ": " 400028", "TALHOES": "2, 3", "FAZ_tAL": "400530002, 400028003", "ID_LINHA": 167288 }, "geometry": { "type": "MultiLineString", "coordinates": [ [ [ 413731.650208373728674, 7654085.117584263905883 ], [ 413742.584834347828291, 7654037.646815691143274 ], [ 413777.327770693169441, 7653907.261922936886549 ], [ 413786.448913582134992, 7653870.489161441102624 ] ] ] } },
{ "type": "Feature", "properties": { "fid": 552.0, "COMPR_M": 221.37, "CLASSE": "02 - Curta", "CD_FAZ": " 400028", "TALHOES": "2, 3", "FAZ_tAL": "400530002, 400028003", "ID_LINHA": 167289 }, "geometry": { "type": "MultiLineString", "coordinates": [ [ [ 413728.348747616284527, 7654086.248174801468849 ], [ 413739.675152819370851, 7654036.916022730991244 ], [ 413768.084307160170283, 7653930.641950687393546 ], [ 413783.042824206873775, 7653871.839055977761745 ] ] ] } },
{ "type": "Feature", "properties": { "fid": 553.0, "COMPR_M": 221.14, "CLASSE": "02 - Curta", "CD_FAZ": " 400028", "TALHOES": "2, 3", "FAZ_tAL": "400530002, 400028003", "ID_LINHA": 167290 }, "geometry": { "type": "MultiLineString", "coordinates": [ [ [ 413725.047286855406128, 7654087.378765344619751 ], [ 413736.765471293299925, 7654036.185229768976569 ], [ 413765.185062795935664, 7653929.870935101062059 ], [ 413779.636734827363398, 7653873.188950518146157 ] ] ] } },
{ "type": "Feature", "properties": { "fid": 554.0, "COMPR_M": 220.9, "CLASSE": "02 - Curta", "CD_FAZ": " 400028", "TALHOES": "2, 3", "FAZ_tAL": "400530002, 400028003", "ID_LINHA": 167291 }, "geometry": { "type": "MultiLineString", "coordinates": [ [ [ 413721.745826089754701, 7654088.509355880320072 ], [ 413725.276657998736482, 7654071.631445522420108 ], [ 413733.855789763561916, 7654035.454436804167926 ], [ 413762.285818428441416, 7653929.099919522181153 ], [ 413776.230645450239535, 7653874.538845057599247 ] ] ] } },
{ "type": "Feature", "properties": { "fid": 555.0, "COMPR_M": 220.64, "CLASSE": "02 - Curta", "CD_FAZ": " 400028", "TALHOES": "2, 3", "FAZ_tAL": "400530002, 400028003", "ID_LINHA": 167292 }, "geometry": { "type": "MultiLineString", "coordinates": [ [ [ 413718.485302872140892, 7654089.625927299261093 ], [ 413722.346001282217912, 7654070.989536656066775 ], [ 413730.946108236210421, 7654034.723643841221929 ], [ 413759.3865740604233, 7653928.328903941437602 ], [ 413772.824556071544066, 7653875.888739595189691 ] ] ] } },
{ "type": "Feature", "properties": { "fid": 556.0, "COMPR_M": 220.38, "CLASSE": "02 - Curta", "CD_FAZ": " 400028", "TALHOES": "2, 3", "FAZ_tAL": "400530002, 400028003", "ID_LINHA": 167293 }, "geometry": { "type": "MultiLineString", "coordinates": [ [ [ 413715.224619909422472, 7654090.742553413845599 ], [ 413719.415344561217353, 7654070.3476277962327 ], [ 413728.036426708567888, 7654033.992850879207253 ], [ 413756.487329691182822, 7653927.557888364419341 ], [ 413769.418466688599437, 7653877.238634137436748 ] ] ] } },
{ "type": "Feature", "properties": { "fid": 557.0, "COMPR_M": 220.11, "CLASSE": "02 - Curta", "CD_FAZ": " 400028", "TALHOES": "2, 3", "FAZ_tAL": "400530002, 400028003", "ID_LINHA": 167294 }, "geometry": { "type": "MultiLineString", "coordinates": [ [ [ 413711.963936939137056, 7654091.859179532155395 ], [ 413716.484687846328598, 7654069.705718932673335 ], [ 413725.1267451812746, 7654033.262057917192578 ], [ 413753.588085329392925, 7653926.786872780881822 ], [ 413766.000282350811176, 7653878.593322125263512 ] ] ] } },
{ "type": "Feature", "properties": { "fid": 558.0, "COMPR_M": 219.84, "CLASSE": "02 - Curta", "CD_FAZ": " 400028", "TALHOES": "2, 3", "FAZ_tAL": "400530002, 400028003", "ID_LINHA": 167295 }, "geometry": { "type": "MultiLineString", "coordinates": [ [ [ 413708.703253975894768, 7654092.975805649533868 ], [ 413713.554031132429373, 7654069.06381007283926 ], [ 413722.21706365630962, 7654032.531264955177903 ], [ 413762.562193319259677, 7653879.955898702144623 ] ] ] } },
{ "type": "Feature", "properties": { "fid": 559.0, "COMPR_M": 219.56, "CLASSE": "02 - Curta", "CD_FAZ": " 400028", "TALHOES": "2, 3", "FAZ_tAL": "400530002, 400028003", "ID_LINHA": 167296 }, "geometry": { "type": "MultiLineString", "coordinates": [ [ [ 413705.442571010498796, 7654094.092431770637631 ], [ 413710.623374418704771, 7654068.42190120741725 ], [ 413719.307382125756703, 7654031.800471991300583 ], [ 413759.124104290269315, 7653881.318475279025733 ] ] ] } },
{ "type": "Feature", "properties": { "fid": 560.0, "COMPR_M": 219.28, "CLASSE": "02 - Curta", "CD_FAZ": " 400028", "TALHOES": "2, 3", "FAZ_tAL": "400530002, 400028003", "ID_LINHA": 167297 }, "geometry": { "type": "MultiLineString", "coordinates": [ [ [ 413702.181888043531217, 7654095.20905788987875 ], [ 413707.692717698635533, 7654067.779992343857884 ], [ 413716.397700601490214, 7654031.069679033011198 ], [ 413755.686015253828373, 7653882.681051859632134 ] ] ] } },
{ "type": "Feature", "properties": { "fid": 561.0, "COMPR_M": 219.0, "CLASSE": "02 - Curta", "CD_FAZ": " 400028", "TALHOES": "2, 3", "FAZ_tAL": "400530002, 400028003", "ID_LINHA": 167298 }, "geometry": { "type": "MultiLineString", "coordinates": [ [ [ 413698.921205077669583, 7654096.325684007257223 ], [ 413704.76206098071998, 7654067.138083482161164 ], [ 413713.48801907437155, 7654030.338886067271233 ], [ 413752.247926221287344, 7653884.043628435581923 ] ] ] } },
{ "type": "Feature", "properties": { "fid": 562.0, "COMPR_M": 218.72, "CLASSE": "02 - Curta", "CD_FAZ": " 400028", "TALHOES": "2, 3", "FAZ_tAL": "400530002, 400028003", "ID_LINHA": 167299 }, "geometry": { "type": "MultiLineString", "coordinates": [ [ [ 413695.660522114834748, 7654097.442310126498342 ], [ 413701.831404268275946, 7654066.496174611151218 ], [ 413710.578337548126001, 7654029.608093110844493 ], [ 413748.809837194567081, 7653885.406205011531711 ] ] ] } },
{ "type": "Feature", "properties": { "fid": 563.0, "COMPR_M": 218.44, "CLASSE": "02 - Curta", "CD_FAZ": " 400028", "TALHOES": "2, 3", "FAZ_tAL": "400530002, 400028003", "ID_LINHA": 167300 }, "geometry": { "type": "MultiLineString", "coordinates": [ [ [ 413692.399839149205945, 7654098.55893624201417 ], [ 413698.900747553445399, 7654065.854265755042434 ], [ 413707.668656022986397, 7654028.877300143241882 ], [ 413745.371748163772281, 7653886.768781589344144 ] ] ] } },
{ "type": "Feature", "properties": { "fid": 564.0, "COMPR_M": 218.17, "CLASSE": "02 - Curta", "CD_FAZ": " 400028", "TALHOES": "2, 3", "FAZ_tAL": "400530002, 400028003", "ID_LINHA": 167301 }, "geometry": { "type": "MultiLineString", "coordinates": [ [ [ 413689.139156182005536, 7654099.675562362186611 ], [ 413695.970090836170129, 7654065.212356891483068 ], [ 413704.758974496275187, 7654028.146507181227207 ], [ 413741.933659130241722, 7653888.131358167156577 ] ] ] } },
{ "type": "Feature", "properties": { "fid": 565.0, "COMPR_M": 217.89, "CLASSE": "02 - Curta", "CD_FAZ": " 400028", "TALHOES": "2, 3", "FAZ_tAL": "400530002, 400028003", "ID_LINHA": 167302 }, "geometry": { "type": "MultiLineString", "coordinates": [ [ [ 413685.877668165834621, 7654100.796495337039232 ], [ 413693.039434117090423, 7654064.570448025129735 ], [ 413701.849292965838686, 7654027.415714221075177 ], [ 413738.4955700985156, 7653889.49393474496901 ] ] ] } },
{ "type": "Feature", "properties": { "fid": 566.0, "COMPR_M": 217.59, "CLASSE": "02 - Curta", "CD_FAZ": " 400028", "TALHOES": "2, 3", "FAZ_tAL": "400530002, 400028003", "ID_LINHA": 167303 }, "geometry": { "type": "MultiLineString", "coordinates": [ [ [ 413682.682716611016076, 7654101.900027162395418 ], [ 413690.10877740685828, 7654063.928539164364338 ], [ 413698.939611439127475, 7654026.684921255335212 ], [ 413735.057481067371555, 7653890.856511322781444 ] ] ] } },
{ "type": "Feature", "properties": { "fid": 567.0, "COMPR_M": 217.3, "CLASSE": "02 - Curta", "CD_FAZ": " 400028", "TALHOES": "2, 3", "FAZ_tAL": "400530002, 400028003", "ID_LINHA": 167304 }, "geometry": { "type": "MultiLineString", "coordinates": [ [ [ 413679.457408887799829, 7654103.014043968170881 ], [ 413687.178120688884519, 7654063.286630301736295 ], [ 413696.029929916025139, 7654025.954128297045827 ], [ 413731.619392031512689, 7653892.219087902456522 ] ] ] } },
{ "type": "Feature", "properties": { "fid": 568.0, "COMPR_M": 217.01, "CLASSE": "02 - Curta", "CD_FAZ": " 400028", "TALHOES": "2, 3", "FAZ_tAL": "400530002, 400028003", "ID_LINHA": 167305 }, "geometry": { "type": "MultiLineString", "coordinates": [ [ [ 413676.232101162255276, 7654104.128060769289732 ], [ 413684.247463974461425, 7654062.644721435382962 ], [ 413693.120248382096179, 7654025.223335331305861 ], [ 413728.181303004152142, 7653893.581664476543665 ] ] ] } },
{ "type": "Feature", "properties": { "fid": 569.0, "COMPR_M": 216.72, "CLASSE": "02 - Curta", "CD_FAZ": " 400028", "TALHOES": "2, 3", "FAZ_tAL": "400530002, 400028003", "ID_LINHA": 167306 }, "geometry": { "type": "MultiLineString", "coordinates": [ [ [ 413673.006793432985432, 7654105.242077575996518 ], [ 413681.316807258292101, 7654062.00281257275492 ], [ 413690.210566861729603, 7654024.492542371153831 ], [ 413724.730049057281576, 7653894.949458546936512 ] ] ] } },
{ "type": "Feature", "properties": { "fid": 570.0, "COMPR_M": 216.42, "CLASSE": "02 - Curta", "CD_FAZ": " 400028", "TALHOES": "2, 3", "FAZ_tAL": "400530002, 400028003", "ID_LINHA": 167307 }, "geometry": { "type": "MultiLineString", "coordinates": [ [ [ 413669.781485707964748, 7654106.356094369664788 ], [ 413674.658962104003876, 7654079.177427995949984 ], [ 413678.386150539619848, 7654061.360903711989522 ], [ 413687.300885334436316, 7654023.761749407276511 ], [ 413721.267819791799411, 7653896.321602335199714 ] ] ] } },
{ "type": "Feature", "properties": { "fid": 571.0, "COMPR_M": 216.11, "CLASSE": "02 - Curta", "CD_FAZ": " 400028", "TALHOES": "2, 3", "FAZ_tAL": "400530002, 400028003", "ID_LINHA": 167308 }, "geometry": { "type": "MultiLineString", "coordinates": [ [ [ 413666.556177987135015, 7654107.47011118195951 ], [ 413671.715945343137719, 7654078.594602018594742 ], [ 413679.686821132781915, 7654042.234080014750361 ], [ 413689.519481709226966, 7654003.104185746051371 ], [ 413717.805590523057617, 7653897.693746122531593 ] ] ] } },
{ "type": "Feature", "properties": { "fid": 572.0, "COMPR_M": 215.81, "CLASSE": "02 - Curta", "CD_FAZ": " 400028", "TALHOES": "2, 3", "FAZ_tAL": "400530002, 400028003", "ID_LINHA": 167309 }, "geometry": { "type": "MultiLineString", "coordinates": [ [ [ 413663.330870261415839, 7654108.584127974696457 ], [ 413668.772928583668545, 7654078.011776038445532 ], [ 413676.767552705714479, 7654041.542420450598001 ], [ 413686.617172991158441, 7654002.344744507223368 ], [ 413714.343361252336763, 7653899.065889911726117 ] ] ] } },
{ "type": "Feature", "properties": { "fid": 573.0, "COMPR_M": 215.51, "CLASSE": "02 - Curta", "CD_FAZ": " 400028", "TALHOES": "2, 3", "FAZ_tAL": "400530002, 400028003", "ID_LINHA": 167310 }, "geometry": { "type": "MultiLineString", "coordinates": [ [ [ 413660.105562533892225, 7654109.698144786059856 ], [ 413665.829911817098036, 7654077.428950061090291 ], [ 413673.848284275562037, 7654040.850760886445642 ], [ 413683.71486427844502, 7654001.585303271189332 ], [ 413710.881131983653177, 7653900.438033699057996 ] ] ] } },
{ "type": "Feature", "properties": { "fid": 574.0, "COMPR_M": 215.21, "CLASSE": "02 - Curta", "CD_FAZ": " 400028", "TALHOES": "2, 3", "FAZ_tAL": "400530002, 400028003", "ID_LINHA": 167311 }, "geometry": { "type": "MultiLineString", "coordinates": [ [ [ 413656.880254809977487, 7654110.812161590903997 ], [ 413662.886895059084054, 7654076.846124082803726 ], [ 413670.929015842324588, 7654040.159101324155927 ], [ 413680.812555557349697, 7654000.825862040743232 ], [ 413707.41890271572629, 7653901.810177488252521 ] ] ] } },
{ "type": "Feature", "properties": { "fid": 575.0, "COMPR_M": 214.9, "CLASSE": "02 - Curta", "CD_FAZ": " 400028", "TALHOES": "2, 3", "FAZ_tAL": "400530002, 400028003", "ID_LINHA": 167312 }, "geometry": { "type": "MultiLineString", "coordinates": [ [ [ 413653.654947088914923, 7654111.926178392022848 ], [ 413659.943878295249306, 7654076.26329810731113 ], [ 413668.009747408563271, 7654039.467441757209599 ], [ 413677.910246844345238, 7654000.066420808434486 ], [ 413703.956673455075361, 7653903.182321270927787 ] ] ] } },
{ "type": "Feature", "properties": { "fid": 576.0, "COMPR_M": 214.6, "CLASSE": "02 - Curta", "CD_FAZ": " 400028", "TALHOES": "2, 3", "FAZ_tAL": "400530002, 400028003", "ID_LINHA": 167313 }, "geometry": { "type": "MultiLineString", "coordinates": [ [ [ 413650.429639360925648, 7654113.040195196866989 ], [ 413657.000861538690515, 7654075.680472126230597 ], [ 413665.090478983009234, 7654038.775782192125916 ], [ 413675.007938124821521, 7653999.306979575194418 ], [ 413700.494444183888845, 7653904.554465061053634 ] ] ] } },
{ "type": "Feature", "properties": { "fid": 577.0, "COMPR_M": 214.27, "CLASSE": "02 - Curta", "CD_FAZ": " 400028", "TALHOES": "2, 3", "FAZ_tAL": "400530002, 400028003", "ID_LINHA": 167314 }, "geometry": { "type": "MultiLineString", "coordinates": [ [ [ 413647.257231119321659, 7654114.135940591804683 ], [ 413654.057844775030389, 7654075.097646145150065 ], [ 413662.17121055687312, 7654038.084122629836202 ], [ 413672.10562941012904, 7653998.547538336366415 ], [ 413697.032214912702329, 7653905.926608851179481 ] ] ] } },
{ "type": "Feature", "properties": { "fid": 578.0, "COMPR_M": 213.95, "CLASSE": "02 - Curta", "CD_FAZ": " 400028", "TALHOES": "2, 3", "FAZ_tAL": "400530002, 400028003", "ID_LINHA": 167315 }, "geometry": { "type": "MultiLineString", "coordinates": [ [ [ 413644.06457829795545, 7654115.238678436726332 ], [ 413651.114828015968669, 7654074.514820179902017 ], [ 413659.251942125090864, 7654037.392463061958551 ], [ 413669.20332069095457, 7653997.788097105920315 ], [ 413693.569985646230634, 7653907.298752637580037 ] ] ] } },
{ "type": "Feature", "properties": { "fid": 579.0, "COMPR_M": 213.63, "CLASSE": "02 - Curta", "CD_FAZ": " 400028", "TALHOES": "2, 3", "FAZ_tAL": "400530002, 400028003", "ID_LINHA": 167316 }, "geometry": { "type": "MultiLineString", "coordinates": [ [ [ 413640.871925482992083, 7654116.341416276991367 ], [ 413648.171811250504106, 7654073.931994194164872 ], [ 413656.332673697441351, 7654036.700803495012224 ], [ 413666.301011978532188, 7653997.028655869886279 ], [ 413690.107756375800818, 7653908.670896425843239 ] ] ] } },
{ "type": "Feature", "properties": { "fid": 580.0, "COMPR_M": 213.31, "CLASSE": "02 - Curta", "CD_FAZ": " 400028", "TALHOES": "2, 3", "FAZ_tAL": "400530002, 400028003", "ID_LINHA": 167317 }, "geometry": { "type": "MultiLineString", "coordinates": [ [ [ 413637.679272666398901, 7654117.444154121913016 ], [ 413645.22879449359607, 7654073.349168219603598 ], [ 413653.413405267288908, 7654036.009143928065896 ], [ 413663.398703261627816, 7653996.269214634783566 ], [ 413686.638326787739061, 7653910.045893831178546 ] ] ] } },
{ "type": "Feature", "properties": { "fid": 581.0, "COMPR_M": 212.98, "CLASSE": "02 - Curta", "CD_FAZ": " 400028", "TALHOES": "2, 3", "FAZ_tAL": "400530002, 400028003", "ID_LINHA": 167318 }, "geometry": { "type": "MultiLineString", "coordinates": [ [ [ 413634.486619845498353, 7654118.546891966834664 ], [ 413642.285777729586698, 7654072.766342241317034 ], [ 413650.494136839348357, 7654035.317484362050891 ], [ 413660.496394545538351, 7653995.509773403406143 ], [ 413683.160502744081896, 7653911.42421810887754 ] ] ] } },
{ "type": "Feature", "properties": { "fid": 582.0, "COMPR_M": 212.65, "CLASSE": "02 - Curta", "CD_FAZ": " 400028", "TALHOES": "2, 3", "FAZ_tAL": "400530002, 400028003", "ID_LINHA": 167319 }, "geometry": { "type": "MultiLineString", "coordinates": [ [ [ 413631.293967027566396, 7654119.649629812687635 ], [ 413635.899643212207593, 7654090.603523187339306 ], [ 413639.342760969535448, 7654072.183516263961792 ], [ 413647.574868406925816, 7654034.625824797898531 ], [ 413657.594085826189257, 7653994.750332167372108 ], [ 413679.682678704150021, 7653912.802542386576533 ] ] ] } },
{ "type": "Feature", "properties": { "fid": 583.0, "COMPR_M": 212.33, "CLASSE": "02 - Curta", "CD_FAZ": " 400028", "TALHOES": "2, 3", "FAZ_tAL": "400530002, 400028003", "ID_LINHA": 167320 }, "geometry": { "type": "MultiLineString", "coordinates": [ [ [ 413628.101314213941805, 7654120.752367656677961 ], [ 413632.945013991149608, 7654090.082821619696915 ], [ 413636.399744204303715, 7654071.60069028660655 ], [ 413644.655599978694227, 7654033.934165235608816 ], [ 413654.691777111089323, 7653993.990890932269394 ], [ 413676.204854654846713, 7653914.180866666138172 ] ] ] } },
{ "type": "Feature", "properties": { "fid": 584.0, "COMPR_M": 212.0, "CLASSE": "02 - Curta", "CD_FAZ": " 400028", "TALHOES": "2, 3", "FAZ_tAL": "400530002, 400028003", "ID_LINHA": 167321 }, "geometry": { "type": "MultiLineString", "coordinates": [ [ [ 413624.908661396708339, 7654121.855105496942997 ], [ 413629.990384766133502, 7654089.562120051123202 ], [ 413633.456727443786804, 7654071.017864311113954 ], [ 413641.736331547377631, 7654033.242505667731166 ], [ 413651.789468390110414, 7653993.231449698098004 ], [ 413672.727030608046334, 7653915.559190945699811 ] ] ] } },
{ "type": "Feature", "properties": { "fid": 585.0, "COMPR_M": 211.67, "CLASSE": "02 - Curta", "CD_FAZ": " 400028", "TALHOES": "2, 3", "FAZ_tAL": "400530002, 400028003", "ID_LINHA": 167322 }, "geometry": { "type": "MultiLineString", "coordinates": [ [ [ 413621.716008579183836, 7654122.957843337208033 ], [ 413627.035755541059189, 7654089.041418486274779 ], [ 413630.513710684666876, 7654070.435038330033422 ], [ 413638.817063118796796, 7654032.550846103578806 ], [ 413648.887159677804448, 7653992.472008467651904 ], [ 413669.249206562410109, 7653916.937515223398805 ] ] ] } },
{ "type": "Feature", "properties": { "fid": 586.0, "COMPR_M": 211.34, "CLASSE": "02 - Curta", "CD_FAZ": " 400028", "TALHOES": "2, 3", "FAZ_tAL": "400530002, 400028003", "ID_LINHA": 167323 }, "geometry": { "type": "MultiLineString", "coordinates": [ [ [ 413618.523355759331025, 7654124.060581183061004 ], [ 413624.08112631860422, 7654088.520716917701066 ], [ 413627.570693918969482, 7654069.85221235267818 ], [ 413635.897794692427851, 7654031.859186537563801 ], [ 413645.984850961714983, 7653991.712567234411836 ], [ 413665.771382519276813, 7653918.315839501097798 ] ] ] } },
{ "type": "Feature", "properties": { "fid": 587.0, "COMPR_M": 211.01, "CLASSE": "02 - Curta", "CD_FAZ": " 400028", "TALHOES": "2, 3", "FAZ_tAL": "400530002, 400028003", "ID_LINHA": 167324 }, "geometry": { "type": "MultiLineString", "coordinates": [ [ [ 413615.330702942446806, 7654125.163319028913975 ], [ 413621.126497090852354, 7654088.00001535192132 ], [ 413628.564986367127858, 7654050.448453038930893 ], [ 413643.082542241900228, 7653990.953125990927219 ], [ 413662.293558471254073, 7653919.694163780659437 ] ] ] } },
{ "type": "Feature", "properties": { "fid": 588.0, "COMPR_M": 210.68, "CLASSE": "02 - Curta", "CD_FAZ": " 400028", "TALHOES": "2, 3", "FAZ_tAL": "400530002, 400028003", "ID_LINHA": 167325 }, "geometry": { "type": "MultiLineString", "coordinates": [ [ [ 413612.138050126610324, 7654126.266056871041656 ], [ 413618.171867868339177, 7654087.479313781484962 ], [ 413625.634329652821179, 7654049.806544175371528 ], [ 413640.180233526043594, 7653990.193684760481119 ], [ 413658.815734430449083, 7653921.072488058358431 ] ] ] } },
{ "type": "Feature", "properties": { "fid": 589.0, "COMPR_M": 210.34, "CLASSE": "02 - Curta", "CD_FAZ": " 400028", "TALHOES": "2, 3", "FAZ_tAL": "400530002, 400028003", "ID_LINHA": 167326 }, "geometry": { "type": "MultiLineString", "coordinates": [ [ [ 413608.981184988922905, 7654127.35643370077014 ], [ 413615.217238642449956, 7654086.958612216636539 ], [ 413622.703672939329408, 7654049.16463531460613 ], [ 413637.27792481041979, 7653989.434243527241051 ], [ 413655.337910379515961, 7653922.450812340714037 ] ] ] } },
{ "type": "Feature", "properties": { "fid": 677.0, "COMPR_M": 237.28, "CLASSE": "02 - Curta", "CD_FAZ": " 400028", "TALHOES": "1, 2", "FAZ_tAL": "400530001, 400028002", "ID_LINHA": 167414 }, "geometry": { "type": "MultiLineString", "coordinates": [ [ [ 414086.872727497597225, 7653968.016708325594664 ], [ 414096.944979016552679, 7653926.417694101110101 ], [ 414104.222996132797562, 7653893.472553065046668 ], [ 414111.244542132655624, 7653858.323187937028706 ], [ 414117.79043050238397, 7653820.947003707289696 ], [ 414123.594736536615528, 7653781.496723690070212 ], [ 414128.844223889987916, 7653734.791735986247659 ] ] ] } },
{ "type": "Feature", "properties": { "fid": 678.0, "COMPR_M": 237.27, "CLASSE": "02 - Curta", "CD_FAZ": " 400028", "TALHOES": "1, 2", "FAZ_tAL": "400530001, 400028002", "ID_LINHA": 167415 }, "geometry": { "type": "MultiLineString", "coordinates": [ [ [ 414083.48220780614065, 7653969.190849356353283 ], [ 414094.021012851328123, 7653925.746091799810529 ], [ 414101.287071611382999, 7653892.855082238093019 ], [ 414108.295675150468014, 7653857.770506181754172 ], [ 414114.828343504399527, 7653820.469806527718902 ], [ 414120.620094585348852, 7653781.104859068989754 ], [ 414125.728165063541383, 7653736.026686196215451 ] ] ] } },
{ "type": "Feature", "properties": { "fid": 679.0, "COMPR_M": 237.25, "CLASSE": "02 - Curta", "CD_FAZ": " 400028", "TALHOES": "1, 2", "FAZ_tAL": "400530001, 400028002", "ID_LINHA": 167416 }, "geometry": { "type": "MultiLineString", "coordinates": [ [ [ 414080.091688114684075, 7653970.364990387111902 ], [ 414091.097046691458672, 7653925.074489502236247 ], [ 414098.351147089095321, 7653892.237611415795982 ], [ 414105.346808165195398, 7653857.21782442368567 ], [ 414111.866256498964503, 7653819.992609350010753 ], [ 414117.645452641765587, 7653780.712994446977973 ], [ 414122.612106239423156, 7653737.261636406183243 ] ] ] } },
{ "type": "Feature", "properties": { "fid": 680.0, "COMPR_M": 237.24, "CLASSE": "02 - Curta", "CD_FAZ": " 400028", "TALHOES": "1, 2", "FAZ_tAL": "400530001, 400028002", "ID_LINHA": 167417 }, "geometry": { "type": "MultiLineString", "coordinates": [ [ [ 414076.701168424682692, 7653971.539131419733167 ], [ 414088.173080525710247, 7653924.402887206524611 ], [ 414095.415222569252364, 7653891.620140589773655 ], [ 414102.397941174800508, 7653856.665142666548491 ], [ 414108.904169504705351, 7653819.515412172302604 ], [ 414114.670810691837687, 7653780.321129828691483 ], [ 414119.496047412336338, 7653738.496586615219712 ] ] ] } },
{ "type": "Feature", "properties": { "fid": 681.0, "COMPR_M": 237.22, "CLASSE": "02 - Curta", "CD_FAZ": " 400028", "TALHOES": "1, 2", "FAZ_tAL": "400530001, 400028002", "ID_LINHA": 167418 }, "geometry": { "type": "MultiLineString", "coordinates": [ [ [ 414073.310648732702248, 7653972.713272448629141 ], [ 414085.249114363337867, 7653923.731284901499748 ], [ 414092.479298047197517, 7653891.002669764682651 ], [ 414099.449074188596569, 7653856.112460912205279 ], [ 414105.942082507652231, 7653819.038214990869164 ], [ 414111.696168738300912, 7653779.929265208542347 ], [ 414116.375018915045075, 7653739.733506393618882 ] ] ] } },
{ "type": "Feature", "properties": { "fid": 682.0, "COMPR_M": 237.18, "CLASSE": "02 - Curta", "CD_FAZ": " 400028", "TALHOES": "1, 2", "FAZ_tAL": "400530001, 400028002", "ID_LINHA": 167419 }, "geometry": { "type": "MultiLineString", "coordinates": [ [ [ 414069.920129041478503, 7653973.88741347566247 ], [ 414082.325148200849071, 7653923.059682604856789 ], [ 414089.543373525550123, 7653890.385198941454291 ], [ 414096.500207203906029, 7653855.559779151342809 ], [ 414102.979995506466366, 7653818.561017813161016 ], [ 414108.721526790352073, 7653779.537400588393211 ], [ 414113.208694276632741, 7653740.988377852365375 ] ] ] } },
{ "type": "Feature", "properties": { "fid": 683.0, "COMPR_M": 237.15, "CLASSE": "02 - Curta", "CD_FAZ": " 400028", "TALHOES": "1, 2", "FAZ_tAL": "400530001, 400028002", "ID_LINHA": 167420 }, "geometry": { "type": "MultiLineString", "coordinates": [ [ [ 414066.529609355493449, 7653975.061554512009025 ], [ 414079.401182033878285, 7653922.388080299831927 ], [ 414086.607449002331123, 7653889.767728116363287 ], [ 414093.551340218691621, 7653855.007097396999598 ], [ 414100.017908504523803, 7653818.083820629864931 ], [ 414105.74688484147191, 7653779.145535964518785 ], [ 414110.042369631119072, 7653742.243249309249222 ] ] ] } },
{ "type": "Feature", "properties": { "fid": 684.0, "COMPR_M": 237.11, "CLASSE": "02 - Curta", "CD_FAZ": " 400028", "TALHOES": "1, 2", "FAZ_tAL": "400530001, 400028002", "ID_LINHA": 167421 }, "geometry": { "type": "MultiLineString", "coordinates": [ [ [ 414063.139089659729507, 7653976.235695539042354 ], [ 414076.47721587412525, 7653921.716478001326323 ], [ 414083.671524481556844, 7653889.150257287546992 ], [ 414090.602473230450414, 7653854.45441563706845 ], [ 414097.055821506364737, 7653817.606623454019427 ], [ 414102.772242892184295, 7653778.753671341575682 ], [ 414106.876044987235218, 7653743.498120767995715 ] ] ] } },
{ "type": "Feature", "properties": { "fid": 685.0, "COMPR_M": 237.07, "CLASSE": "02 - Curta", "CD_FAZ": " 400028", "TALHOES": "1, 2", "FAZ_tAL": "400530001, 400028002", "ID_LINHA": 167422 }, "geometry": { "type": "MultiLineString", "coordinates": [ [ [ 414059.748569971881807, 7653977.409836571663618 ], [ 414073.553249710472301, 7653921.044875700026751 ], [ 414080.735599961190019, 7653888.532786468043923 ], [ 414087.653606240986846, 7653853.901733882725239 ], [ 414094.09373450872954, 7653817.129426274448633 ], [ 414099.797600943944417, 7653778.361806722357869 ], [ 414103.709720343584195, 7653744.752992225810885 ] ] ] } },
{ "type": "Feature", "properties": { "fid": 686.0, "COMPR_M": 237.03, "CLASSE": "02 - Curta", "CD_FAZ": " 400028", "TALHOES": "1, 2", "FAZ_tAL": "400530001, 400028002", "ID_LINHA": 167423 }, "geometry": { "type": "MultiLineString", "coordinates": [ [ [ 414056.358050282753538, 7653978.583977602422237 ], [ 414070.629283546819352, 7653920.373273402452469 ], [ 414077.799675434012897, 7653887.915315639227629 ], [ 414084.704739258391783, 7653853.349052124656737 ], [ 414091.131647507660091, 7653816.652229091152549 ], [ 414096.822959001234267, 7653777.969942096620798 ], [ 414100.543395696789958, 7653746.007863685488701 ] ] ] } },
{ "type": "Feature", "properties": { "fid": 687.0, "COMPR_M": 236.99, "CLASSE": "02 - Curta", "CD_FAZ": " 400028", "TALHOES": "1, 2", "FAZ_tAL": "400530001, 400028002", "ID_LINHA": 167424 }, "geometry": { "type": "MultiLineString", "coordinates": [ [ [ 414052.967530587688088, 7653979.758118633180857 ], [ 414067.705317380605265, 7653919.701671101152897 ], [ 414074.863750912540127, 7653887.297844816930592 ], [ 414081.755872269335669, 7653852.79637036845088 ], [ 414088.169560512993485, 7653816.175031915307045 ], [ 414093.848317046999, 7653777.578077478334308 ], [ 414097.37707105424488, 7653747.262735143303871 ] ] ] } },
{ "type": "Feature", "properties": { "fid": 688.0, "COMPR_M": 236.98, "CLASSE": "02 - Curta", "CD_FAZ": " 400028", "TALHOES": "1, 2", "FAZ_tAL": "400530001, 400028002", "ID_LINHA": 167425 }, "geometry": { "type": "MultiLineString", "coordinates": [ [ [ 414049.539443666115403, 7653980.945269241929054 ], [ 414064.781351213692687, 7653919.030068802647293 ], [ 414071.927826390194241, 7653886.680373988114297 ], [ 414078.807005281152669, 7653852.243688611313701 ], [ 414085.207473513670266, 7653815.697834735736251 ], [ 414090.8736750970711, 7653777.18621285725385 ], [ 414094.210746410652064, 7653748.517606601119041 ] ] ] } },
{ "type": "Feature", "properties": { "fid": 689.0, "COMPR_M": 236.95, "CLASSE": "02 - Curta", "CD_FAZ": " 400028", "TALHOES": "1, 2", "FAZ_tAL": "400530001, 400028002", "ID_LINHA": 167426 }, "geometry": { "type": "MultiLineString", "coordinates": [ [ [ 414046.12725650833454, 7653982.12691374309361 ], [ 414061.857385056093335, 7653918.358466506004333 ], [ 414068.991901870933361, 7653886.062903165817261 ], [ 414075.858138295763638, 7653851.691006855107844 ], [ 414082.245386515394785, 7653815.220637555234134 ], [ 414087.899033152032644, 7653776.794348239898682 ], [ 414091.04442176525481, 7653749.772478059865534 ] ] ] } },
{ "type": "Feature", "properties": { "fid": 690.0, "COMPR_M": 236.92, "CLASSE": "02 - Curta", "CD_FAZ": " 400028", "TALHOES": "1, 2", "FAZ_tAL": "400530001, 400028002", "ID_LINHA": 167427 }, "geometry": { "type": "MultiLineString", "coordinates": [ [ [ 414042.715069352649152, 7653983.30855824239552 ], [ 414058.933418888540473, 7653917.686864204704762 ], [ 414066.055977352021728, 7653885.445432342588902 ], [ 414072.909271308628377, 7653851.138325093314052 ], [ 414079.283299515023828, 7653814.743440378457308 ], [ 414084.924391199427191, 7653776.402483614161611 ], [ 414087.878097122069448, 7653751.027349516749382 ] ] ] } },
{ "type": "Feature", "properties": { "fid": 691.0, "COMPR_M": 236.9, "CLASSE": "02 - Curta", "CD_FAZ": " 400028", "TALHOES": "1, 2", "FAZ_tAL": "400530001, 400028002", "ID_LINHA": 167428 }, "geometry": { "type": "MultiLineString", "coordinates": [ [ [ 414039.30288220231887, 7653984.490202736109495 ], [ 414056.009452728321776, 7653917.01526190713048 ], [ 414063.120052829617634, 7653884.827961514703929 ], [ 414069.960404324927367, 7653850.585643336176872 ], [ 414076.321212516515516, 7653814.266243197023869 ], [ 414081.949749254388735, 7653776.01061899214983 ], [ 414084.711772477836348, 7653752.282220976427197 ] ] ] } },
{ "type": "Feature", "properties": { "fid": 692.0, "COMPR_M": 236.87, "CLASSE": "02 - Curta", "CD_FAZ": " 400028", "TALHOES": "1, 2", "FAZ_tAL": "400530001, 400028002", "ID_LINHA": 167429 }, "geometry": { "type": "MultiLineString", "coordinates": [ [ [ 414035.890695045352913, 7653985.671847241930664 ], [ 414053.085486564144958, 7653916.343659602105618 ], [ 414060.184128304361366, 7653884.210490690544248 ], [ 414067.01153733744286, 7653850.032961580902338 ], [ 414073.359125513234176, 7653813.78904601931572 ], [ 414078.975107304344419, 7653775.618754372000694 ], [ 414081.545447832497302, 7653753.537092434242368 ] ] ] } },
{ "type": "Feature", "properties": { "fid": 693.0, "COMPR_M": 236.85, "CLASSE": "02 - Curta", "CD_FAZ": " 400028", "TALHOES": "1, 2", "FAZ_tAL": "400530001, 400028002", "ID_LINHA": 167430 }, "geometry": { "type": "MultiLineString", "coordinates": [ [ [ 414032.478507887164596, 7653986.853491740301251 ], [ 414050.161520398687571, 7653915.672057300806046 ], [ 414057.24820378475124, 7653883.593019867315888 ], [ 414064.062670350191183, 7653849.480279826559126 ], [ 414070.397038517694455, 7653813.311848841607571 ], [ 414076.000465355347842, 7653775.226889749988914 ], [ 414078.379123188089579, 7653754.791963893920183 ] ] ] } },
{ "type": "Feature", "properties": { "fid": 694.0, "COMPR_M": 236.82, "CLASSE": "02 - Curta", "CD_FAZ": " 400028", "TALHOES": "1, 2", "FAZ_tAL": "400530001, 400028002", "ID_LINHA": 167431 }, "geometry": { "type": "MultiLineString", "coordinates": [ [ [ 414029.066320731071755, 7653988.035136237740517 ], [ 414040.074721598357428, 7653945.033531775698066 ], [ 414047.23755423584953, 7653915.000455006957054 ], [ 414054.312279262987431, 7653882.975549038499594 ], [ 414061.113803365733474, 7653848.927598068490624 ], [ 414067.434951519360766, 7653812.834651661105454 ], [ 414073.025823409901932, 7653774.835025133565068 ], [ 414075.21279854059685, 7653756.046835351735353 ] ] ] } },
{ "type": "Feature", "properties": { "fid": 695.0, "COMPR_M": 236.8, "CLASSE": "02 - Curta", "CD_FAZ": " 400028", "TALHOES": "1, 2", "FAZ_tAL": "400530001, 400028002", "ID_LINHA": 167432 }, "geometry": { "type": "MultiLineString", "coordinates": [ [ [ 414025.654133577016182, 7653989.21678073797375 ], [ 414037.161145125399344, 7653944.31836648657918 ], [ 414051.376354737614747, 7653882.358078216202557 ], [ 414058.164936374174431, 7653848.374916312284768 ], [ 414064.472864521667361, 7653812.357454476878047 ], [ 414070.051181456889026, 7653774.443160509690642 ], [ 414072.046473899274133, 7653757.301706809550524 ] ] ] } },
{ "type": "Feature", "properties": { "fid": 696.0, "COMPR_M": 236.77, "CLASSE": "02 - Curta", "CD_FAZ": " 400028", "TALHOES": "1, 2", "FAZ_tAL": "400530001, 400028002", "ID_LINHA": 167433 }, "geometry": { "type": "MultiLineString", "coordinates": [ [ [ 414022.24194642493967, 7653990.398425240069628 ], [ 414034.247568657388911, 7653943.603201197460294 ], [ 414048.440430216665845, 7653881.74060739390552 ], [ 414055.21606939076446, 7653847.822234555147588 ], [ 414061.51077751966659, 7653811.880257302895188 ], [ 414067.076539510802832, 7653774.051295893266797 ], [ 414068.880149256787263, 7653758.556578267365694 ] ] ] } },
{ "type": "Feature", "properties": { "fid": 697.0, "COMPR_M": 236.74, "CLASSE": "02 - Curta", "CD_FAZ": " 400028", "TALHOES": "1, 2", "FAZ_tAL": "400530001, 400028002", "ID_LINHA": 167434 }, "geometry": { "type": "MultiLineString", "coordinates": [ [ [ 414018.829759267740883, 7653991.58006973657757 ], [ 414031.333992177911568, 7653942.888035910204053 ], [ 414045.504505701479502, 7653881.123136565089226 ], [ 414052.267202405608259, 7653847.269552793353796 ], [ 414058.548690517607611, 7653811.403060122393072 ], [ 414064.10189756040927, 7653773.659431265667081 ], [ 414065.71382461063331, 7653759.811449727043509 ] ] ] } },
{ "type": "Feature", "properties": { "fid": 698.0, "COMPR_M": 236.72, "CLASSE": "02 - Curta", "CD_FAZ": " 400028", "TALHOES": "1, 2", "FAZ_tAL": "400530001, 400028002", "ID_LINHA": 167435 }, "geometry": { "type": "MultiLineString", "coordinates": [ [ [ 414015.417572115198709, 7653992.761714239604771 ], [ 414028.420415708096698, 7653942.172870624810457 ], [ 414042.568581172788981, 7653880.505665741860867 ], [ 414049.3183354139328, 7653846.716871036216617 ], [ 414055.586603518691845, 7653810.925862941890955 ], [ 414062.547499965352472, 7653761.066321185790002 ] ] ] } },
{ "type": "Feature", "properties": { "fid": 699.0, "COMPR_M": 236.69, "CLASSE": "02 - Curta", "CD_FAZ": " 400028", "TALHOES": "1, 2", "FAZ_tAL": "400530001, 400028002", "ID_LINHA": 167436 }, "geometry": { "type": "MultiLineString", "coordinates": [ [ [ 414012.005384958698414, 7653993.943358742631972 ], [ 414025.50683923996985, 7653941.457705336622894 ], [ 414039.632656654401217, 7653879.888194913044572 ], [ 414046.369468431046698, 7653846.164189280942082 ], [ 414052.624516522919293, 7653810.448665766045451 ], [ 414059.381175319023896, 7653762.321192643605173 ] ] ] } },
{ "type": "Feature", "properties": { "fid": 700.0, "COMPR_M": 236.67, "CLASSE": "02 - Curta", "CD_FAZ": " 400028", "TALHOES": "1, 2", "FAZ_tAL": "400530001, 400028002", "ID_LINHA": 167437 }, "geometry": { "type": "MultiLineString", "coordinates": [ [ [ 414008.593197805690579, 7653995.125003237277269 ], [ 414022.593262767710257, 7653940.74254004471004 ], [ 414036.696732131182216, 7653879.270724090747535 ], [ 414043.420601441757753, 7653845.611507523804903 ], [ 414049.662429523654282, 7653809.97146858740598 ], [ 414056.214850677526556, 7653763.576064101420343 ] ] ] } },
{ "type": "Feature", "properties": { "fid": 701.0, "COMPR_M": 236.65, "CLASSE": "02 - Curta", "CD_FAZ": " 400028", "TALHOES": "1, 2", "FAZ_tAL": "400530001, 400028002", "ID_LINHA": 167438 }, "geometry": { "type": "MultiLineString", "coordinates": [ [ [ 414005.163509347185027, 7653996.312708456069231 ], [ 414019.679686289920937, 7653940.027374758385122 ], [ 414033.760807608370669, 7653878.653253264725208 ], [ 414040.471734457241837, 7653845.058825764805079 ], [ 414046.700342526310124, 7653809.494271403178573 ], [ 414053.04852603294421, 7653764.830935560166836 ] ] ] } },
{ "type": "Feature", "properties": { "fid": 702.0, "COMPR_M": 236.63, "CLASSE": "02 - Curta", "CD_FAZ": " 400028", "TALHOES": "1, 2", "FAZ_tAL": "400530001, 400028002", "ID_LINHA": 167439 }, "geometry": { "type": "MultiLineString", "coordinates": [ [ [ 414001.737324565299787, 7653997.499200349673629 ], [ 414016.766109820397105, 7653939.312209470197558 ], [ 414030.824883089924697, 7653878.035782441496849 ], [ 414037.522867471561767, 7653844.506144009530544 ], [ 414043.738255527394358, 7653809.017074229195714 ], [ 414049.882201385917142, 7653766.085807019844651 ] ] ] } },
{ "type": "Feature", "properties": { "fid": 703.0, "COMPR_M": 236.52, "CLASSE": "02 - Curta", "CD_FAZ": " 400028", "TALHOES": "1, 2", "FAZ_tAL": "400530001, 400028002", "ID_LINHA": 167440 }, "geometry": { "type": "MultiLineString", "coordinates": [ [ [ 413998.336749481561128, 7653998.590555896051228 ], [ 414013.852533350000158, 7653938.597044182009995 ], [ 414027.888958565308712, 7653877.418311610817909 ], [ 414034.574000484775752, 7653843.95346225425601 ], [ 414040.776168528362177, 7653808.53987704589963 ], [ 414046.715876743139233, 7653767.340678475797176 ] ] ] } },
{ "type": "Feature", "properties": { "fid": 704.0, "COMPR_M": 236.39, "CLASSE": "02 - Curta", "CD_FAZ": " 400028", "TALHOES": "1, 2", "FAZ_tAL": "400530001, 400028002", "ID_LINHA": 167441 }, "geometry": { "type": "MultiLineString", "coordinates": [ [ [ 413994.939785989641678, 7653999.668494904413819 ], [ 414010.938956876751035, 7653937.881878893822432 ], [ 414024.95303404313745, 7653876.80084078386426 ], [ 414031.625133499444928, 7653843.400780496187508 ], [ 414037.814081527816597, 7653808.062679869122803 ], [ 414043.54955210123444, 7653768.595549936406314 ] ] ] } },
{ "type": "Feature", "properties": { "fid": 705.0, "COMPR_M": 236.26, "CLASSE": "02 - Curta", "CD_FAZ": " 400028", "TALHOES": "1, 2", "FAZ_tAL": "400530001, 400028002", "ID_LINHA": 167442 }, "geometry": { "type": "MultiLineString", "coordinates": [ [ [ 413991.542822499584872, 7654000.746433908119798 ], [ 414008.025380399252754, 7653937.166713606566191 ], [ 414022.017109523934778, 7653876.183369964361191 ], [ 414028.676266512309667, 7653842.848098738119006 ], [ 414034.851994531112723, 7653807.585482688620687 ], [ 414040.383227458223701, 7653769.850421391427517 ] ] ] } },
{ "type": "Feature", "properties": { "fid": 706.0, "COMPR_M": 236.11, "CLASSE": "02 - Curta", "CD_FAZ": " 400028", "TALHOES": "1, 2", "FAZ_tAL": "400530001, 400028002", "ID_LINHA": 167443 }, "geometry": { "type": "MultiLineString", "coordinates": [ [ [ 413988.14585900871316, 7654001.824372919276357 ], [ 414005.111803929379676, 7653936.451548321172595 ], [ 414019.08118500187993, 7653875.565899138338864 ], [ 414025.72739952406846, 7653842.295416980981827 ], [ 414031.889907529577613, 7653807.108285509981215 ], [ 414037.185164717724547, 7653771.117871230468154 ] ] ] } },
{ "type": "Feature", "properties": { "fid": 707.0, "COMPR_M": 235.95, "CLASSE": "02 - Curta", "CD_FAZ": " 400028", "TALHOES": "1, 2", "FAZ_tAL": "400530001, 400028002", "ID_LINHA": 167444 }, "geometry": { "type": "MultiLineString", "coordinates": [ [ [ 413984.748895521042868, 7654002.902311916463077 ], [ 414002.198227459331974, 7653935.736383031122386 ], [ 414016.145260479592253, 7653874.948428316041827 ], [ 414022.778532536001876, 7653841.742735223844647 ], [ 414028.927820528624579, 7653806.631088327616453 ], [ 414033.965105807117652, 7653772.394038545899093 ] ] ] } },
{ "type": "Feature", "properties": { "fid": 708.0, "COMPR_M": 235.79, "CLASSE": "02 - Curta", "CD_FAZ": " 400028", "TALHOES": "1, 2", "FAZ_tAL": "400530001, 400028002", "ID_LINHA": 167445 }, "geometry": { "type": "MultiLineString", "coordinates": [ [ [ 413981.351932032499462, 7654003.980250925756991 ], [ 413999.284650987014174, 7653935.021217741072178 ], [ 414013.209335960389581, 7653874.330957487225533 ], [ 414019.82966555072926, 7653841.190053468570113 ], [ 414025.965733535354957, 7653806.153891149908304 ], [ 414030.745046895928681, 7653773.670205861330032 ] ] ] } },
{ "type": "Feature", "properties": { "fid": 709.0, "COMPR_M": 235.64, "CLASSE": "02 - Curta", "CD_FAZ": " 400028", "TALHOES": "1, 2", "FAZ_tAL": "400530001, 400028002", "ID_LINHA": 167446 }, "geometry": { "type": "MultiLineString", "coordinates": [ [ [ 413977.954968543141149, 7654005.058189935982227 ], [ 413996.371074512484483, 7653934.30605245474726 ], [ 414010.273411436239257, 7653873.713486665859818 ], [ 414016.880798564990982, 7653840.637371711432934 ], [ 414023.00364653399447, 7653805.676693975925446 ], [ 414027.524987988115754, 7653774.946373176760972 ] ] ] } },
{ "type": "Feature", "properties": { "fid": 710.0, "COMPR_M": 235.48, "CLASSE": "02 - Curta", "CD_FAZ": " 400028", "TALHOES": "1, 2", "FAZ_tAL": "400530001, 400028002", "ID_LINHA": 167447 }, "geometry": { "type": "MultiLineString", "coordinates": [ [ [ 413974.558005049708299, 7654006.136128947138786 ], [ 413993.457498039584607, 7653933.590887168422341 ], [ 414007.33748691319488, 7653873.096015842631459 ], [ 414013.931931576749776, 7653840.084689952433109 ], [ 414020.041559532517567, 7653805.199496790766716 ], [ 414024.304929080302827, 7653776.222540490329266 ] ] ] } },
{ "type": "Feature", "properties": { "fid": 711.0, "COMPR_M": 234.02, "CLASSE": "02 - Curta", "CD_FAZ": " 400028", "TALHOES": "1, 2", "FAZ_tAL": "400530001, 400028002", "ID_LINHA": 167448 }, "geometry": { "type": "MultiLineString", "coordinates": [ [ [ 413971.498211009078659, 7654005.961532209068537 ], [ 413990.543921571807005, 7653932.875721879303455 ], [ 414004.401562391256448, 7653872.4785450194031 ], [ 414010.983064591302536, 7653839.532008193433285 ], [ 414017.079472536803223, 7653804.722299613058567 ], [ 414021.084870167949703, 7653777.498707804828882 ] ] ] } },
{ "type": "Feature", "properties": { "fid": 712.0, "COMPR_M": 226.94, "CLASSE": "02 - Curta", "CD_FAZ": " 400028", "TALHOES": "1, 2", "FAZ_tAL": "400530001, 400028002", "ID_LINHA": 167449 }, "geometry": { "type": "MultiLineString", "coordinates": [ [ [ 413969.90025153773604, 7654000.356431362219155 ], [ 413987.630345093202777, 7653932.160556591115892 ], [ 414001.465637867047917, 7653871.861074190586805 ], [ 414008.034197606728412, 7653838.979326436296105 ], [ 414014.117385536956135, 7653804.245102435350418 ], [ 414017.864811255596578, 7653778.774875123053789 ] ] ] } },
{ "type": "Feature", "properties": { "fid": 713.0, "COMPR_M": 219.86, "CLASSE": "02 - Curta", "CD_FAZ": " 400028", "TALHOES": "1, 2", "FAZ_tAL": "400530001, 400028002", "ID_LINHA": 167450 }, "geometry": { "type": "MultiLineString", "coordinates": [ [ [ 413968.302292064006906, 7653994.751330518163741 ], [ 413984.716768621583469, 7653931.445391301065683 ], [ 413998.529713351163082, 7653871.243603365495801 ], [ 414005.085330617032014, 7653838.426644679158926 ], [ 414011.155298536992632, 7653803.767905252985656 ], [ 414014.644752349879127, 7653780.051042435690761 ] ] ] } },
{ "type": "Feature", "properties": { "fid": 714.0, "COMPR_M": 212.78, "CLASSE": "02 - Curta", "CD_FAZ": " 400028", "TALHOES": "1, 2", "FAZ_tAL": "400530001, 400028002", "ID_LINHA": 167451 }, "geometry": { "type": "MultiLineString", "coordinates": [ [ [ 413966.704332594526932, 7653989.146229680627584 ], [ 413981.80319215497002, 7653930.730226018466055 ], [ 413995.593788829108234, 7653870.626132544130087 ], [ 414002.136463634727988, 7653837.873962923884392 ], [ 414008.193211537436582, 7653803.29070807620883 ], [ 414011.424693439621478, 7653781.327209752053022 ] ] ] } },
{ "type": "Feature", "properties": { "fid": 715.0, "COMPR_M": 205.7, "CLASSE": "02 - Curta", "CD_FAZ": " 400028", "TALHOES": "1, 2", "FAZ_tAL": "400530001, 400028002", "ID_LINHA": 167452 }, "geometry": { "type": "MultiLineString", "coordinates": [ [ [ 413965.106373123300727, 7653983.541128834709525 ], [ 413978.889615680207498, 7653930.015060728415847 ], [ 413992.657864306180272, 7653870.008661716245115 ], [ 413999.187596648698673, 7653837.32128116954118 ], [ 414005.231124537065625, 7653802.813510897569358 ], [ 414008.204634526744485, 7653782.603377069346607 ] ] ] } },
{ "type": "Feature", "properties": { "fid": 716.0, "COMPR_M": 198.57, "CLASSE": "02 - Curta", "CD_FAZ": " 400028", "TALHOES": "1, 2", "FAZ_tAL": "400530001, 400028002", "ID_LINHA": 167453 }, "geometry": { "type": "MultiLineString", "coordinates": [ [ [ 413963.493650215328671, 7653977.884242849424481 ], [ 413975.976039207191207, 7653929.299895437434316 ], [ 413989.721939781622496, 7653869.391190892085433 ], [ 413996.23872966010822, 7653836.768599415197968 ], [ 414002.269037536578253, 7653802.336313718929887 ], [ 414004.984575619862881, 7653783.879544381052256 ] ] ] } },
{ "type": "Feature", "properties": { "fid": 717.0, "COMPR_M": 191.44, "CLASSE": "02 - Curta", "CD_FAZ": " 400028", "TALHOES": "1, 2", "FAZ_tAL": "400530001, 400028002", "ID_LINHA": 167454 }, "geometry": { "type": "MultiLineString", "coordinates": [ [ [ 413961.879336876794696, 7653972.221778182312846 ], [ 413973.062462737143505, 7653928.58473015204072 ], [ 413986.786015259509441, 7653868.773720063269138 ], [ 413993.289862670411821, 7653836.215917654335499 ], [ 413999.30695053783711, 7653801.85911653470248 ], [ 414001.76451670966344, 7653785.155711697414517 ] ] ] } },
{ "type": "Feature", "properties": { "fid": 718.0, "COMPR_M": 184.31, "CLASSE": "02 - Curta", "CD_FAZ": " 400028", "TALHOES": "1, 2", "FAZ_tAL": "400530001, 400028002", "ID_LINHA": 167455 }, "geometry": { "type": "MultiLineString", "coordinates": [ [ [ 413960.265023541403934, 7653966.559313518926501 ], [ 413970.148886262206361, 7653927.869564864784479 ], [ 413983.850090742402244, 7653868.156249234452844 ], [ 413990.340995688107796, 7653835.663235897198319 ], [ 413998.544457801559474, 7653786.431879011914134 ] ] ] } },
{ "type": "Feature", "properties": { "fid": 719.0, "COMPR_M": 177.17, "CLASSE": "02 - Curta", "CD_FAZ": " 400028", "TALHOES": "1, 2", "FAZ_tAL": "400530001, 400028002", "ID_LINHA": 167456 }, "geometry": { "type": "MultiLineString", "coordinates": [ [ [ 413958.650710207351949, 7653960.896848856471479 ], [ 413974.138400148134679, 7653898.210397513583302 ], [ 413980.914166219707113, 7653867.538778411224484 ], [ 413987.392128701438196, 7653835.11055414006114 ], [ 413995.32439889019588, 7653787.708046326413751 ] ] ] } },
{ "type": "Feature", "properties": { "fid": 721.0, "COMPR_M": 170.04, "CLASSE": "02 - Curta", "CD_FAZ": " 400028", "TALHOES": "1, 2", "FAZ_tAL": "400530001, 400028002", "ID_LINHA": 167457 }, "geometry": { "type": "MultiLineString", "coordinates": [ [ [ 413957.036396870564204, 7653955.234384191222489 ], [ 413971.214433988847304, 7653897.538795212283731 ], [ 413977.978241696779151, 7653866.921307585202157 ], [ 413984.443261715525296, 7653834.557872382923961 ], [ 413992.104339979414362, 7653788.98421364184469 ] ] ] } },
{ "type": "Feature", "properties": { "fid": 723.0, "COMPR_M": 162.85, "CLASSE": "02 - Curta", "CD_FAZ": " 400028", "TALHOES": "1, 2", "FAZ_tAL": "400530001, 400028002", "ID_LINHA": 167459 }, "geometry": { "type": "MultiLineString", "coordinates": [ [ [ 413955.403964580618776, 7653949.50836437009275 ], [ 413968.290467822225764, 7653896.867192914709449 ], [ 413975.042317170999013, 7653866.303836766630411 ], [ 413981.494394727807958, 7653834.005190622061491 ], [ 413988.8842810667702, 7653790.260380959138274 ] ] ] } },
{ "type": "Feature", "properties": { "fid": 725.0, "COMPR_M": 159.35, "CLASSE": "02 - Curta", "CD_FAZ": " 400028", "TALHOES": "1, 2", "FAZ_tAL": "400530001, 400028002", "ID_LINHA": 167461 }, "geometry": { "type": "MultiLineString", "coordinates": [ [ [ 413952.854098341544159, 7653947.352440496906638 ], [ 413965.366501659678761, 7653896.195590609684587 ], [ 413972.106392654823139, 7653865.686365940608084 ], [ 413978.545527740905527, 7653833.452508864924312 ], [ 413985.664222160819918, 7653791.536548271775246 ] ] ] } },
{ "type": "Feature", "properties": { "fid": 727.0, "COMPR_M": 159.17, "CLASSE": "02 - Curta", "CD_FAZ": " 400028", "TALHOES": "1, 2", "FAZ_tAL": "400530001, 400028002", "ID_LINHA": 167463 }, "geometry": { "type": "MultiLineString", "coordinates": [ [ [ 413949.491547459678259, 7653948.415789194405079 ], [ 413962.442535493755713, 7653895.523988312110305 ], [ 413969.17046813305933, 7653865.068895114585757 ], [ 413975.596660750219598, 7653832.8998271105811 ], [ 413982.444163254112937, 7653792.812715586274862 ] ] ] } },
{ "type": "Feature", "properties": { "fid": 729.0, "COMPR_M": 158.99, "CLASSE": "02 - Curta", "CD_FAZ": " 400028", "TALHOES": "1, 2", "FAZ_tAL": "400530001, 400028002", "ID_LINHA": 167465 }, "geometry": { "type": "MultiLineString", "coordinates": [ [ [ 413946.128996581363026, 7653949.479137893766165 ], [ 413959.518569329869933, 7653894.85238600615412 ], [ 413966.234543612459674, 7653864.45142428856343 ], [ 413972.647793768206611, 7653832.347145350649953 ], [ 413979.224104340886697, 7653794.088882903568447 ] ] ] } },
{ "type": "Feature", "properties": { "fid": 731.0, "COMPR_M": 158.81, "CLASSE": "02 - Curta", "CD_FAZ": " 400028", "TALHOES": "1, 2", "FAZ_tAL": "400530001, 400028002", "ID_LINHA": 167467 }, "geometry": { "type": "MultiLineString", "coordinates": [ [ [ 413942.766445698798634, 7653950.542486593127251 ], [ 413956.594603167264722, 7653894.180783711373806 ], [ 413963.298619087610859, 7653863.833953460678458 ], [ 413969.698926777869929, 7653831.794463591650128 ], [ 413976.004045429755934, 7653795.365050218999386 ] ] ] } },
{ "type": "Feature", "properties": { "fid": 733.0, "COMPR_M": 158.63, "CLASSE": "02 - Curta", "CD_FAZ": " 400028", "TALHOES": "1, 2", "FAZ_tAL": "400530001, 400028002", "ID_LINHA": 167469 }, "geometry": { "type": "MultiLineString", "coordinates": [ [ [ 413939.403894827060867, 7653951.605835285969079 ], [ 413953.670637005299795, 7653893.509181411005557 ], [ 413960.362694564450067, 7653863.216482641175389 ], [ 413966.750059792888351, 7653831.24178184196353 ], [ 413972.783986523165368, 7653796.641217531636357 ] ] ] } },
{ "type": "Feature", "properties": { "fid": 735.0, "COMPR_M": 158.46, "CLASSE": "02 - Curta", "CD_FAZ": " 400028", "TALHOES": "1, 2, 3", "FAZ_tAL": "400530001, 400028002, 400028003", "ID_LINHA": 167471 }, "geometry": { "type": "MultiLineString", "coordinates": [ [ [ 413935.993827061203774, 7653952.684210383333266 ], [ 413950.746670842694584, 7653892.837579108774662 ], [ 413957.426770043675788, 7653862.599011812359095 ], [ 413963.80119280150393, 7653830.689100082963705 ], [ 413969.538941987382714, 7653797.927287100814283 ] ] ] } },
{ "type": "Feature", "properties": { "fid": 737.0, "COMPR_M": 158.26, "CLASSE": "02 - Curta", "CD_FAZ": " 400028", "TALHOES": "1, 2, 3", "FAZ_tAL": "400530001, 400028002, 400028003", "ID_LINHA": 167473 }, "geometry": { "type": "MultiLineString", "coordinates": [ [ [ 413932.611033329972997, 7653953.753960528410971 ], [ 413947.822704680729657, 7653892.16597681120038 ], [ 413954.490845522668678, 7653861.981540990062058 ], [ 413960.852325820189435, 7653830.136418325826526 ], [ 413966.266116523882374, 7653799.224366750568151 ] ] ] } },
{ "type": "Feature", "properties": { "fid": 739.0, "COMPR_M": 158.06, "CLASSE": "02 - Curta", "CD_FAZ": " 400028", "TALHOES": "1, 2, 3", "FAZ_tAL": "400530001, 400028002, 400028003", "ID_LINHA": 167475 }, "geometry": { "type": "MultiLineString", "coordinates": [ [ [ 413929.22823962313123, 7653954.823710677213967 ], [ 413938.099545070494059, 7653920.00274670124054 ], [ 413951.554920998751186, 7653861.364070165902376 ], [ 413957.903458833694458, 7653829.583736569620669 ], [ 413962.993291066261008, 7653800.521446399390697 ] ] ] } },
{ "type": "Feature", "properties": { "fid": 740.0, "COMPR_M": 232.26, "CLASSE": "02 - Curta", "CD_FAZ": " 400028", "TALHOES": "1, 2, 3", "FAZ_tAL": "400530001, 400028002, 400028003", "ID_LINHA": 167476 }, "geometry": { "type": "MultiLineString", "coordinates": [ [ [ 413906.533990541123785, 7654027.721800630912185 ], [ 413928.399198178842198, 7653946.171889090910554 ], [ 413941.974772348825354, 7653890.822772212326527 ], [ 413948.618996475881431, 7653860.746599338017404 ], [ 413954.954591846093535, 7653829.031054813414812 ], [ 413959.72046560049057, 7653801.818526051938534 ] ] ] } },
{ "type": "Feature", "properties": { "fid": 741.0, "COMPR_M": 232.08, "CLASSE": "02 - Curta", "CD_FAZ": " 400028", "TALHOES": "1, 2, 3", "FAZ_tAL": "400530001, 400028002, 400028003", "ID_LINHA": 167477 }, "geometry": { "type": "MultiLineString", "coordinates": [ [ [ 413903.133654823410325, 7654028.800809727050364 ], [ 413925.49397841579048, 7653945.423620509915054 ], [ 413939.050806186860427, 7653890.151169914752245 ], [ 413945.683071957377251, 7653860.129128511995077 ], [ 413952.005724861286581, 7653828.478373056277633 ], [ 413956.447640138561837, 7653803.115605699829757 ] ] ] } },
{ "type": "Feature", "properties": { "fid": 742.0, "COMPR_M": 231.89, "CLASSE": "02 - Curta", "CD_FAZ": " 400028", "TALHOES": "1, 2, 3", "FAZ_tAL": "400530001, 400028002, 400028003", "ID_LINHA": 167478 }, "geometry": { "type": "MultiLineString", "coordinates": [ [ [ 413899.733319100050721, 7654029.879818826913834 ], [ 413922.588758660305757, 7653944.675351930782199 ], [ 413936.126840022858232, 7653889.479567616246641 ], [ 413942.747147433983628, 7653859.511657686904073 ], [ 413949.05685787065886, 7653827.925691295415163 ], [ 413953.174814675236121, 7653804.412685350514948 ] ] ] } },
{ "type": "Feature", "properties": { "fid": 743.0, "COMPR_M": 231.71, "CLASSE": "02 - Curta", "CD_FAZ": " 400028", "TALHOES": "1, 2, 3", "FAZ_tAL": "400530001, 400028002, 400028003", "ID_LINHA": 167479 }, "geometry": { "type": "MultiLineString", "coordinates": [ [ [ 413896.331283467181493, 7654030.965104216709733 ], [ 413919.683538899989799, 7653943.927083358168602 ], [ 413933.202873857633676, 7653888.807965310290456 ], [ 413939.811222915595863, 7653858.894186860881746 ], [ 413946.107990884862375, 7653827.373009540140629 ], [ 413949.901989213714842, 7653805.709765000268817 ] ] ] } },
{ "type": "Feature", "properties": { "fid": 744.0, "COMPR_M": 231.54, "CLASSE": "02 - Curta", "CD_FAZ": " 400028", "TALHOES": "1, 2, 3", "FAZ_tAL": "400530001, 400028002, 400028003", "ID_LINHA": 167480 }, "geometry": { "type": "MultiLineString", "coordinates": [ [ [ 413892.927207258006092, 7654032.057923694141209 ], [ 413910.147281138401013, 7653968.421714156866074 ], [ 413923.531662706518546, 7653916.426920258440077 ], [ 413936.875298390397802, 7653858.276716034859419 ], [ 413946.629163750796579, 7653807.006844650022686 ] ] ] } },
{ "type": "Feature", "properties": { "fid": 745.0, "COMPR_M": 231.37, "CLASSE": "02 - Curta", "CD_FAZ": " 400028", "TALHOES": "1, 2, 3", "FAZ_tAL": "400530001, 400028002, 400028003", "ID_LINHA": 167481 }, "geometry": { "type": "MultiLineString", "coordinates": [ [ [ 413889.523131040856242, 7654033.15074316598475 ], [ 413907.248036776960362, 7653967.650698579847813 ], [ 413920.618086232396308, 7653915.711754968389869 ], [ 413933.93937386746984, 7653857.659245209768414 ], [ 413943.35633828578284, 7653808.303924301639199 ] ] ] } },
{ "type": "Feature", "properties": { "fid": 746.0, "COMPR_M": 231.2, "CLASSE": "02 - Curta", "CD_FAZ": " 400028", "TALHOES": "1, 2, 3", "FAZ_tAL": "400530001, 400028002, 400028003", "ID_LINHA": 167482 }, "geometry": { "type": "MultiLineString", "coordinates": [ [ [ 413886.119054822949693, 7654034.243562646210194 ], [ 413904.348792407196015, 7653966.879682993516326 ], [ 413917.704509762581438, 7653914.996589681133628 ], [ 413931.003449350304436, 7653857.041774385608733 ], [ 413940.083512827171944, 7653809.601003949530423 ] ] ] } },
{ "type": "Feature", "properties": { "fid": 747.0, "COMPR_M": 231.02, "CLASSE": "02 - Curta", "CD_FAZ": " 400028", "TALHOES": "1, 2, 3", "FAZ_tAL": "400530001, 400028002, 400028003", "ID_LINHA": 167483 }, "geometry": { "type": "MultiLineString", "coordinates": [ [ [ 413882.727392387925647, 7654035.33239689655602 ], [ 413901.449548040749505, 7653966.10866741463542 ], [ 413914.790933290554676, 7653914.281424395740032 ], [ 413928.067524822952691, 7653856.424303563311696 ], [ 413936.810687365243211, 7653810.898083599284291 ] ] ] } },
{ "type": "Feature", "properties": { "fid": 748.0, "COMPR_M": 230.85, "CLASSE": "02 - Curta", "CD_FAZ": " 400028", "TALHOES": "1, 2, 3", "FAZ_tAL": "400530001, 400028002, 400028003", "ID_LINHA": 167484 }, "geometry": { "type": "MultiLineString", "coordinates": [ [ [ 413879.333251305215526, 7654036.422026870772243 ], [ 413898.550303678493947, 7653965.337651832029223 ], [ 413911.877356812939979, 7653913.566259104758501 ], [ 413925.131600306543987, 7653855.806832738220692 ], [ 413933.53786190378014, 7653812.195163248106837 ] ] ] } },
{ "type": "Feature", "properties": { "fid": 749.0, "COMPR_M": 230.67, "CLASSE": "02 - Curta", "CD_FAZ": " 400028", "TALHOES": "1, 2, 3", "FAZ_tAL": "400530001, 400028002, 400028003", "ID_LINHA": 167485 }, "geometry": { "type": "MultiLineString", "coordinates": [ [ [ 413875.939110223262105, 7654037.51165684685111 ], [ 413895.651059309660923, 7653964.566636255010962 ], [ 413908.963780340389349, 7653912.851093821227551 ], [ 413922.195675786584616, 7653855.189361912198365 ], [ 413930.26503643556498, 7653813.492242901585996 ] ] ] } },
{ "type": "Feature", "properties": { "fid": 750.0, "COMPR_M": 230.49, "CLASSE": "02 - Curta", "CD_FAZ": " 400028", "TALHOES": "1, 2, 3", "FAZ_tAL": "400530001, 400028002, 400028003", "ID_LINHA": 167486 }, "geometry": { "type": "MultiLineString", "coordinates": [ [ [ 413872.544969137466978, 7654038.601286824792624 ], [ 413892.751814939780161, 7653963.795620668679476 ], [ 413906.050203874125145, 7653912.135928533039987 ], [ 413919.259751261677593, 7653854.571891088038683 ], [ 413926.992210973869078, 7653814.789322551339865 ] ] ] } },
{ "type": "Feature", "properties": { "fid": 751.0, "COMPR_M": 230.32, "CLASSE": "02 - Curta", "CD_FAZ": " 400028", "TALHOES": "1, 2, 3", "FAZ_tAL": "400530001, 400028002, 400028003", "ID_LINHA": 167487 }, "geometry": { "type": "MultiLineString", "coordinates": [ [ [ 413869.150828059064224, 7654039.690916797146201 ], [ 413889.852570575254504, 7653963.024605091661215 ], [ 413903.136627400293946, 7653911.420763243921101 ], [ 413916.323826740495861, 7653853.954420264810324 ], [ 413923.719385512638837, 7653816.086402200162411 ] ] ] } },
{ "type": "Feature", "properties": { "fid": 752.0, "COMPR_M": 230.14, "CLASSE": "02 - Curta", "CD_FAZ": " 400028", "TALHOES": "1, 2, 3", "FAZ_tAL": "400530001, 400028002, 400028003", "ID_LINHA": 167488 }, "geometry": { "type": "MultiLineString", "coordinates": [ [ [ 413865.756686970125884, 7654040.780546770431101 ], [ 413886.953326204326004, 7653962.253589507192373 ], [ 413900.22305092489114, 7653910.705597955733538 ], [ 413913.387902214424685, 7653853.336949435994029 ], [ 413920.446560048731044, 7653817.383481850847602 ] ] ] } },
{ "type": "Feature", "properties": { "fid": 753.0, "COMPR_M": 229.96, "CLASSE": "02 - Curta", "CD_FAZ": " 400028", "TALHOES": "1, 2, 3", "FAZ_tAL": "400530001, 400028002, 400028003", "ID_LINHA": 167489 }, "geometry": { "type": "MultiLineString", "coordinates": [ [ [ 413862.3625458899769, 7654041.870176745578647 ], [ 413884.054081837413833, 7653961.482573930174112 ], [ 413897.309474457113538, 7653909.990432669408619 ], [ 413910.451977699296549, 7653852.719478613696992 ], [ 413917.173734589887317, 7653818.680561499670148 ] ] ] } },
{ "type": "Feature", "properties": { "fid": 754.0, "COMPR_M": 229.79, "CLASSE": "02 - Curta", "CD_FAZ": " 400028", "TALHOES": "1, 2, 3", "FAZ_tAL": "400530001, 400028002, 400028003", "ID_LINHA": 167490 }, "geometry": { "type": "MultiLineString", "coordinates": [ [ [ 413858.968404809187632, 7654042.959806725382805 ], [ 413881.154837471316569, 7653960.711558346636593 ], [ 413894.395897982467432, 7653909.275267379358411 ], [ 413907.516053174738772, 7653852.102007783018053 ], [ 413913.900909128366038, 7653819.977641148492694 ] ] ] } },
{ "type": "Feature", "properties": { "fid": 755.0, "COMPR_M": 229.6, "CLASSE": "02 - Curta", "CD_FAZ": " 400028", "TALHOES": "1, 2, 3", "FAZ_tAL": "400530001, 400028002, 400028003", "ID_LINHA": 167491 }, "geometry": { "type": "MultiLineString", "coordinates": [ [ [ 413855.574263727932703, 7654044.049436697736382 ], [ 413878.255593108129688, 7653959.940542762167752 ], [ 413891.482321508228779, 7653908.560102090239525 ], [ 413904.580128655768931, 7653851.484536957927048 ], [ 413910.613804589316715, 7653821.280379853211343 ] ] ] } },
{ "type": "Feature", "properties": { "fid": 756.0, "COMPR_M": 229.4, "CLASSE": "02 - Curta", "CD_FAZ": " 400028", "TALHOES": "1, 2, 3", "FAZ_tAL": "400530001, 400028002, 400028003", "ID_LINHA": 167492 }, "geometry": { "type": "MultiLineString", "coordinates": [ [ [ 413852.180122642719653, 7654045.139066675677896 ], [ 413875.356348740286194, 7653959.169527184218168 ], [ 413888.568745040276553, 7653907.844936804845929 ], [ 413901.644204127253033, 7653850.867066135630012 ], [ 413907.291506830835715, 7653822.597066264599562 ] ] ] } },
{ "type": "Feature", "properties": { "fid": 759.0, "COMPR_M": 228.76, "CLASSE": "02 - Curta", "CD_FAZ": " 400028", "TALHOES": "2, 3", "FAZ_tAL": "400530002, 400028003", "ID_LINHA": 167495 }, "geometry": { "type": "MultiLineString", "coordinates": [ [ [ 413842.045252456504386, 7654048.392690517008305 ], [ 413866.65861563780345, 7653956.856480441987514 ], [ 413879.828015617618803, 7653905.699440941214561 ], [ 413886.419415242620744, 7653878.062328517436981 ], [ 413897.324613550212234, 7653826.547125501558185 ] ] ] } },
{ "type": "Feature", "properties": { "fid": 760.0, "COMPR_M": 228.54, "CLASSE": "02 - Curta", "CD_FAZ": " 400028", "TALHOES": "2, 3", "FAZ_tAL": "400530002, 400028003", "ID_LINHA": 167496 }, "geometry": { "type": "MultiLineString", "coordinates": [ [ [ 413838.66851139505161, 7654049.476734518073499 ], [ 413863.759371269319672, 7653956.085464858449996 ], [ 413876.91443914861884, 7653904.984275652095675 ], [ 413883.495449081063271, 7653877.3907262198627 ], [ 413894.002315795223694, 7653827.863811910152435 ] ] ] } }
]
}
