{
"type": "FeatureCollection",
"name": " 400292",
"crs": { "type": "name", "properties": { "name": "urn:ogc:def:crs:EPSG::32722" } },
"xy_coordinate_resolution": 1e-15,
"features": [
{ "type": "Feature", "properties": { "fid": 316.0, "COMPR_M": 643.98, "CLASSE": "04 - Longa", "CD_FAZ": " 400292", "TALHOES": "1", "FAZ_tAL": "403941001, 400292001", "ID_LINHA": 235389 }, "geometry": { "type": "MultiLineString", "coordinates": [ [ [ 413854.194777066528331, 7632086.98660684376955 ], [ 413850.340208533103578, 7631443.214881492778659 ] ] ] } },
{ "type": "Feature", "properties": { "fid": 317.0, "COMPR_M": 643.99, "CLASSE": "04 - Longa", "CD_FAZ": " 400292", "TALHOES": "1", "FAZ_tAL": "403941001, 400292001", "ID_LINHA": 235390 }, "geometry": { "type": "MultiLineString", "coordinates": [ [ [ 413857.194013048079796, 7632086.850023213773966 ], [ 413853.33939443557756, 7631443.069933690130711 ] ] ] } },
{ "type": "Feature", "properties": { "fid": 318.0, "COMPR_M": 644.0, "CLASSE": "04 - Longa", "CD_FAZ": " 400292", "TALHOES": "1", "FAZ_tAL": "403941001, 400292001", "ID_LINHA": 235391 }, "geometry": { "type": "MultiLineString", "coordinates": [ [ [ 413860.193249031493906, 7632086.713439583778381 ], [ 413856.338580338051543, 7631442.924985889345407 ] ] ] } },
{ "type": "Feature", "properties": { "fid": 319.0, "COMPR_M": 644.01, "CLASSE": "04 - Longa", "CD_FAZ": " 400292", "TALHOES": "1", "FAZ_tAL": "403941001, 400292001", "ID_LINHA": 235392 }, "geometry": { "type": "MultiLineString", "coordinates": [ [ [ 413863.192485014733393, 7632086.576855955645442 ], [ 413859.337766241282225, 7631442.780038084834814 ] ] ] } },
{ "type": "Feature", "properties": { "fid": 320.0, "COMPR_M": 644.02, "CLASSE": "04 - Longa", "CD_FAZ": " 400292", "TALHOES": "1", "FAZ_tAL": "403941001, 400292001", "ID_LINHA": 235393 }, "geometry": { "type": "MultiLineString", "coordinates": [ [ [ 413866.191720998496749, 7632086.440272324718535 ], [ 413862.33695214393083, 7631442.635090280324221 ] ] ] } },
{ "type": "Feature", "properties": { "fid": 321.0, "COMPR_M": 644.02, "CLASSE": "04 - Longa", "CD_FAZ": " 400292", "TALHOES": "1", "FAZ_tAL": "403941001, 400292001", "ID_LINHA": 235394 }, "geometry": { "type": "MultiLineString", "coordinates": [ [ [ 413869.190956980804913, 7632086.303688693791628 ], [ 413865.33613804721972, 7631442.490142479538918 ] ] ] } },
{ "type": "Feature", "properties": { "fid": 322.0, "COMPR_M": 644.03, "CLASSE": "04 - Longa", "CD_FAZ": " 400292", "TALHOES": "1", "FAZ_tAL": "403941001, 400292001", "ID_LINHA": 235395 }, "geometry": { "type": "MultiLineString", "coordinates": [ [ [ 413872.190192963578738, 7632086.167105064727366 ], [ 413868.335323949286249, 7631442.345194675959647 ] ] ] } },
{ "type": "Feature", "properties": { "fid": 323.0, "COMPR_M": 644.04, "CLASSE": "04 - Longa", "CD_FAZ": " 400292", "TALHOES": "1", "FAZ_tAL": "403941001, 400292001", "ID_LINHA": 235396 }, "geometry": { "type": "MultiLineString", "coordinates": [ [ [ 413875.189428946876433, 7632086.030521435663104 ], [ 413871.334509851410985, 7631442.200246874243021 ] ] ] } },
{ "type": "Feature", "properties": { "fid": 324.0, "COMPR_M": 644.05, "CLASSE": "04 - Longa", "CD_FAZ": " 400292", "TALHOES": "1", "FAZ_tAL": "403941001, 400292001", "ID_LINHA": 235397 }, "geometry": { "type": "MultiLineString", "coordinates": [ [ [ 413878.188664930057712, 7632085.893937803804874 ], [ 413874.333695754874498, 7631442.055299071595073 ] ] ] } },
{ "type": "Feature", "properties": { "fid": 325.0, "COMPR_M": 644.06, "CLASSE": "04 - Longa", "CD_FAZ": " 400292", "TALHOES": "1", "FAZ_tAL": "403941001, 400292001", "ID_LINHA": 235398 }, "geometry": { "type": "MultiLineString", "coordinates": [ [ [ 413881.187900913122576, 7632085.757354174740613 ], [ 413877.332881657057442, 7631441.910351268947124 ] ] ] } },
{ "type": "Feature", "properties": { "fid": 326.0, "COMPR_M": 644.07, "CLASSE": "04 - Longa", "CD_FAZ": " 400292", "TALHOES": "1", "FAZ_tAL": "403941001, 400292001", "ID_LINHA": 235399 }, "geometry": { "type": "MultiLineString", "coordinates": [ [ [ 413884.18713689467404, 7632085.620770547538996 ], [ 413880.332067560055293, 7631441.765403464436531 ] ] ] } },
{ "type": "Feature", "properties": { "fid": 327.0, "COMPR_M": 644.07, "CLASSE": "04 - Longa", "CD_FAZ": " 400292", "TALHOES": "1", "FAZ_tAL": "403941001, 400292001", "ID_LINHA": 235400 }, "geometry": { "type": "MultiLineString", "coordinates": [ [ [ 413887.186372878146358, 7632085.484186912886798 ], [ 413883.331253462994937, 7631441.620455665513873 ] ] ] } },
{ "type": "Feature", "properties": { "fid": 328.0, "COMPR_M": 644.08, "CLASSE": "04 - Longa", "CD_FAZ": " 400292", "TALHOES": "1", "FAZ_tAL": "403941001, 400292001", "ID_LINHA": 235401 }, "geometry": { "type": "MultiLineString", "coordinates": [ [ [ 413890.185608861385845, 7632085.347603285685182 ], [ 413886.330439365410712, 7631441.475507858209312 ] ] ] } },
{ "type": "Feature", "properties": { "fid": 329.0, "COMPR_M": 644.09, "CLASSE": "04 - Longa", "CD_FAZ": " 400292", "TALHOES": "1", "FAZ_tAL": "403941001, 400292001", "ID_LINHA": 235402 }, "geometry": { "type": "MultiLineString", "coordinates": [ [ [ 413893.184844843810424, 7632085.211019659414887 ], [ 413889.329625267884694, 7631441.330560060217977 ] ] ] } },
{ "type": "Feature", "properties": { "fid": 330.0, "COMPR_M": 644.1, "CLASSE": "04 - Longa", "CD_FAZ": " 400292", "TALHOES": "1", "FAZ_tAL": "403941001, 400292001", "ID_LINHA": 235403 }, "geometry": { "type": "MultiLineString", "coordinates": [ [ [ 413896.184080826235004, 7632085.074436027556658 ], [ 413892.328811171057168, 7631441.185612255707383 ] ] ] } },
{ "type": "Feature", "properties": { "fid": 331.0, "COMPR_M": 644.11, "CLASSE": "04 - Longa", "CD_FAZ": " 400292", "TALHOES": "1", "FAZ_tAL": "403941001, 400292001", "ID_LINHA": 235404 }, "geometry": { "type": "MultiLineString", "coordinates": [ [ [ 413899.183316809707321, 7632084.937852397561073 ], [ 413895.327997073647566, 7631441.04066445119679 ] ] ] } },
{ "type": "Feature", "properties": { "fid": 332.0, "COMPR_M": 644.12, "CLASSE": "04 - Longa", "CD_FAZ": " 400292", "TALHOES": "1", "FAZ_tAL": "403941001, 400292001", "ID_LINHA": 235405 }, "geometry": { "type": "MultiLineString", "coordinates": [ [ [ 413902.182552793179639, 7632084.801268764771521 ], [ 413898.327182976296172, 7631440.895716649480164 ] ] ] } },
{ "type": "Feature", "properties": { "fid": 333.0, "COMPR_M": 644.12, "CLASSE": "04 - Longa", "CD_FAZ": " 400292", "TALHOES": "1", "FAZ_tAL": "403941001, 400292001", "ID_LINHA": 235406 }, "geometry": { "type": "MultiLineString", "coordinates": [ [ [ 413905.181788776419125, 7632084.664685133844614 ], [ 413901.326368878944777, 7631440.750768847763538 ] ] ] } },
{ "type": "Feature", "properties": { "fid": 334.0, "COMPR_M": 644.13, "CLASSE": "04 - Longa", "CD_FAZ": " 400292", "TALHOES": "1", "FAZ_tAL": "403941001, 400292001", "ID_LINHA": 235407 }, "geometry": { "type": "MultiLineString", "coordinates": [ [ [ 413908.181024759483989, 7632084.528101509436965 ], [ 413904.325554780429229, 7631440.60582104511559 ] ] ] } },
{ "type": "Feature", "properties": { "fid": 335.0, "COMPR_M": 644.14, "CLASSE": "04 - Longa", "CD_FAZ": " 400292", "TALHOES": "1", "FAZ_tAL": "403941001, 400292001", "ID_LINHA": 235408 }, "geometry": { "type": "MultiLineString", "coordinates": [ [ [ 413911.180260742432438, 7632084.391517878510058 ], [ 413907.324740683892742, 7631440.460873244330287 ] ] ] } },
{ "type": "Feature", "properties": { "fid": 336.0, "COMPR_M": 644.15, "CLASSE": "04 - Longa", "CD_FAZ": " 400292", "TALHOES": "1", "FAZ_tAL": "403941001, 400292001", "ID_LINHA": 235409 }, "geometry": { "type": "MultiLineString", "coordinates": [ [ [ 413914.179496726021171, 7632084.254934249445796 ], [ 413910.32392658747267, 7631440.315925441682339 ] ] ] } },
{ "type": "Feature", "properties": { "fid": 337.0, "COMPR_M": 644.16, "CLASSE": "04 - Longa", "CD_FAZ": " 400292", "TALHOES": "1", "FAZ_tAL": "403941001, 400292001", "ID_LINHA": 235410 }, "geometry": { "type": "MultiLineString", "coordinates": [ [ [ 413917.178732708678581, 7632084.118350619450212 ], [ 413913.323112490412313, 7631440.1709776353091 ] ] ] } },
{ "type": "Feature", "properties": { "fid": 338.0, "COMPR_M": 644.17, "CLASSE": "04 - Longa", "CD_FAZ": " 400292", "TALHOES": "1", "FAZ_tAL": "403941001, 400292001", "ID_LINHA": 235411 }, "geometry": { "type": "MultiLineString", "coordinates": [ [ [ 413920.177968691335991, 7632083.98176699038595 ], [ 413916.322298392129596, 7631440.026029834523797 ] ] ] } },
{ "type": "Feature", "properties": { "fid": 339.0, "COMPR_M": 644.17, "CLASSE": "04 - Longa", "CD_FAZ": " 400292", "TALHOES": "1", "FAZ_tAL": "403941001, 400292001", "ID_LINHA": 235412 }, "geometry": { "type": "MultiLineString", "coordinates": [ [ [ 413923.177204674400855, 7632083.845183357596397 ], [ 413919.321484293905087, 7631439.881082030944526 ] ] ] } },
{ "type": "Feature", "properties": { "fid": 340.0, "COMPR_M": 644.18, "CLASSE": "04 - Longa", "CD_FAZ": " 400292", "TALHOES": "1", "FAZ_tAL": "403941001, 400292001", "ID_LINHA": 235413 }, "geometry": { "type": "MultiLineString", "coordinates": [ [ [ 413926.176440658106003, 7632083.708599728532135 ], [ 413922.320670197717845, 7631439.736134228296578 ] ] ] } },
{ "type": "Feature", "properties": { "fid": 426.0, "COMPR_M": 189.6, "CLASSE": "02 - Curta", "CD_FAZ": " 400292", "TALHOES": "1", "FAZ_tAL": "403941001, 400292001", "ID_LINHA": 235499 }, "geometry": { "type": "MultiLineString", "coordinates": [ [ [ 414184.113035304355435, 7632072.346561059355736 ], [ 414182.978198687022086, 7631882.811540234833956 ] ] ] } },
{ "type": "Feature", "properties": { "fid": 427.0, "COMPR_M": 189.59, "CLASSE": "02 - Curta", "CD_FAZ": " 400292", "TALHOES": "1", "FAZ_tAL": "403941001, 400292001", "ID_LINHA": 235500 }, "geometry": { "type": "MultiLineString", "coordinates": [ [ [ 414187.112307935429271, 7632072.216098122298717 ], [ 414185.977491538098548, 7631882.684454306028783 ] ] ] } },
{ "type": "Feature", "properties": { "fid": 428.0, "COMPR_M": 189.66, "CLASSE": "02 - Curta", "CD_FAZ": " 400292", "TALHOES": "1", "FAZ_tAL": "403941001, 400292001", "ID_LINHA": 235501 }, "geometry": { "type": "MultiLineString", "coordinates": [ [ [ 414190.111580566735938, 7632072.085635178722441 ], [ 414188.976389258517884, 7631882.491375673562288 ] ] ] } },
{ "type": "Feature", "properties": { "fid": 429.0, "COMPR_M": 189.65, "CLASSE": "02 - Curta", "CD_FAZ": " 400292", "TALHOES": "1", "FAZ_tAL": "403941001, 400292001", "ID_LINHA": 235502 }, "geometry": { "type": "MultiLineString", "coordinates": [ [ [ 414193.110853196354583, 7632071.95517223700881 ], [ 414191.975669656996615, 7631882.362210214138031 ] ] ] } },
{ "type": "Feature", "properties": { "fid": 430.0, "COMPR_M": 189.75, "CLASSE": "02 - Curta", "CD_FAZ": " 400292", "TALHOES": "1", "FAZ_tAL": "403941001, 400292001", "ID_LINHA": 235503 }, "geometry": { "type": "MultiLineString", "coordinates": [ [ [ 414196.110125826788135, 7632071.824709294363856 ], [ 414194.974357672617771, 7631882.134107561782002 ] ] ] } },
{ "type": "Feature", "properties": { "fid": 431.0, "COMPR_M": 189.9, "CLASSE": "02 - Curta", "CD_FAZ": " 400292", "TALHOES": "1", "FAZ_tAL": "403941001, 400292001", "ID_LINHA": 235504 }, "geometry": { "type": "MultiLineString", "coordinates": [ [ [ 414199.109398457454517, 7632071.694246353581548 ], [ 414197.972767270985059, 7631881.859505176544189 ] ] ] } },
{ "type": "Feature", "properties": { "fid": 432.0, "COMPR_M": 190.1, "CLASSE": "02 - Curta", "CD_FAZ": " 400292", "TALHOES": "1", "FAZ_tAL": "403941001, 400292001", "ID_LINHA": 235505 }, "geometry": { "type": "MultiLineString", "coordinates": [ [ [ 414202.108671087713446, 7632071.563783412799239 ], [ 414200.970821474911645, 7631881.525546441785991 ] ] ] } },
{ "type": "Feature", "properties": { "fid": 433.0, "COMPR_M": 190.33, "CLASSE": "02 - Curta", "CD_FAZ": " 400292", "TALHOES": "1", "FAZ_tAL": "403941001, 400292001", "ID_LINHA": 235506 }, "geometry": { "type": "MultiLineString", "coordinates": [ [ [ 414205.107943718146998, 7632071.433320471085608 ], [ 414203.968723985250108, 7631881.16625253111124 ] ] ] } },
{ "type": "Feature", "properties": { "fid": 434.0, "COMPR_M": 190.62, "CLASSE": "02 - Curta", "CD_FAZ": " 400292", "TALHOES": "1", "FAZ_tAL": "403941001, 400292001", "ID_LINHA": 235507 }, "geometry": { "type": "MultiLineString", "coordinates": [ [ [ 414208.107216348871589, 7632071.302857531234622 ], [ 414206.966276921273675, 7631880.748574320226908 ] ] ] } },
{ "type": "Feature", "properties": { "fid": 435.0, "COMPR_M": 190.92, "CLASSE": "02 - Curta", "CD_FAZ": " 400292", "TALHOES": "1", "FAZ_tAL": "403941001, 400292001", "ID_LINHA": 235508 }, "geometry": { "type": "MultiLineString", "coordinates": [ [ [ 414211.106488979770802, 7632071.172394588589668 ], [ 414209.963747656845953, 7631880.317167479544878 ] ] ] } },
{ "type": "Feature", "properties": { "fid": 436.0, "COMPR_M": 191.22, "CLASSE": "02 - Curta", "CD_FAZ": " 400292", "TALHOES": "1", "FAZ_tAL": "403941001, 400292001", "ID_LINHA": 235509 }, "geometry": { "type": "MultiLineString", "coordinates": [ [ [ 414214.105761608225293, 7632071.04193164780736 ], [ 414212.961218392301816, 7631879.885760646313429 ] ] ] } },
{ "type": "Feature", "properties": { "fid": 437.0, "COMPR_M": 191.38, "CLASSE": "02 - Curta", "CD_FAZ": " 400292", "TALHOES": "1", "FAZ_tAL": "403941001, 400292001", "ID_LINHA": 235510 }, "geometry": { "type": "MultiLineString", "coordinates": [ [ [ 414217.10503424028866, 7632070.911468706093729 ], [ 414215.959547241043765, 7631879.597671722993255 ] ] ] } },
{ "type": "Feature", "properties": { "fid": 438.0, "COMPR_M": 191.44, "CLASSE": "02 - Curta", "CD_FAZ": " 400292", "TALHOES": "1", "FAZ_tAL": "403941001, 400292001", "ID_LINHA": 235511 }, "geometry": { "type": "MultiLineString", "coordinates": [ [ [ 414220.104306871187873, 7632070.781005763448775 ], [ 414218.958422837196849, 7631879.400898035615683 ] ] ] } },
{ "type": "Feature", "properties": { "fid": 439.0, "COMPR_M": 191.19, "CLASSE": "02 - Curta", "CD_FAZ": " 400292", "TALHOES": "1", "FAZ_tAL": "403941001, 400292001", "ID_LINHA": 235512 }, "geometry": { "type": "MultiLineString", "coordinates": [ [ [ 414223.103579501039349, 7632070.650542823597789 ], [ 414221.959186967113055, 7631879.519538138993084 ] ] ] } },
{ "type": "Feature", "properties": { "fid": 440.0, "COMPR_M": 190.66, "CLASSE": "02 - Curta", "CD_FAZ": " 400292", "TALHOES": "1", "FAZ_tAL": "403941001, 400292001", "ID_LINHA": 235513 }, "geometry": { "type": "MultiLineString", "coordinates": [ [ [ 414226.102852131763939, 7632070.52007987909019 ], [ 414224.961629707599059, 7631879.918532127514482 ] ] ] } }
]
}
