{
"type": "FeatureCollection",
"name": " 400097",
"crs": { "type": "name", "properties": { "name": "urn:ogc:def:crs:EPSG::32722" } },
"xy_coordinate_resolution": 1e-15,
"features": [
{ "type": "Feature", "properties": { "fid": 45.0, "COMPR_M": 202.97, "CLASSE": "02 - Curta", "CD_FAZ": " 400097", "TALHOES": "1, 3, 2", "FAZ_tAL": "400511001, 400097003, 400011002", "ID_LINHA": 63980 }, "geometry": { "type": "MultiLineString", "coordinates": [ [ [ 421387.872623784060124, 7648120.686982135288417 ], [ 421552.208481929963455, 7648001.681540086865425 ] ] ] } },
{ "type": "Feature", "properties": { "fid": 46.0, "COMPR_M": 205.17, "CLASSE": "02 - Curta", "CD_FAZ": " 400097", "TALHOES": "1, 3, 2", "FAZ_tAL": "400511001, 400097003, 400011002", "ID_LINHA": 63981 }, "geometry": { "type": "MultiLineString", "coordinates": [ [ [ 421384.800724164408166, 7648119.20752140134573 ], [ 421550.922015533200465, 7647998.90914027299732 ] ] ] } },
{ "type": "Feature", "properties": { "fid": 47.0, "COMPR_M": 206.4, "CLASSE": "02 - Curta", "CD_FAZ": " 400097", "TALHOES": "1, 3, 2", "FAZ_tAL": "400511001, 400097003, 400011002", "ID_LINHA": 63982 }, "geometry": { "type": "MultiLineString", "coordinates": [ [ [ 421382.516308145364746, 7648117.157797202467918 ], [ 421549.635549259488471, 7647996.136740729212761 ] ] ] } },
{ "type": "Feature", "properties": { "fid": 48.0, "COMPR_M": 206.44, "CLASSE": "02 - Curta", "CD_FAZ": " 400097", "TALHOES": "1, 3, 2", "FAZ_tAL": "400511001, 400097003, 400011002", "ID_LINHA": 63983 }, "geometry": { "type": "MultiLineString", "coordinates": [ [ [ 421381.204252760508098, 7648114.403927519917488 ], [ 421548.349082802596968, 7647993.364340789616108 ] ] ] } },
{ "type": "Feature", "properties": { "fid": 49.0, "COMPR_M": 206.47, "CLASSE": "02 - Curta", "CD_FAZ": " 400097", "TALHOES": "1, 3, 2", "FAZ_tAL": "400511001, 400097003, 400011002", "ID_LINHA": 63984 }, "geometry": { "type": "MultiLineString", "coordinates": [ [ [ 421379.892197645734996, 7648111.650058407336473 ], [ 421547.062616504728794, 7647990.591941190883517 ] ] ] } },
{ "type": "Feature", "properties": { "fid": 50.0, "COMPR_M": 206.53, "CLASSE": "02 - Curta", "CD_FAZ": " 400097", "TALHOES": "1, 3, 2", "FAZ_tAL": "400511001, 400097003, 400011002", "ID_LINHA": 63985 }, "geometry": { "type": "MultiLineString", "coordinates": [ [ [ 421377.268087346630637, 7648106.142320030368865 ], [ 421544.489683866151609, 7647985.047141905874014 ] ] ] } },
{ "type": "Feature", "properties": { "fid": 51.0, "COMPR_M": 206.56, "CLASSE": "02 - Curta", "CD_FAZ": " 400097", "TALHOES": "1, 3, 2", "FAZ_tAL": "400511001, 400097003, 400011002", "ID_LINHA": 63986 }, "geometry": { "type": "MultiLineString", "coordinates": [ [ [ 421375.956032271962613, 7648103.388450996950269 ], [ 421543.203217592090368, 7647982.274742357432842 ] ] ] } },
{ "type": "Feature", "properties": { "fid": 52.0, "COMPR_M": 206.59, "CLASSE": "02 - Curta", "CD_FAZ": " 400097", "TALHOES": "1, 3, 2", "FAZ_tAL": "400511001, 400097003, 400011002", "ID_LINHA": 63987 }, "geometry": { "type": "MultiLineString", "coordinates": [ [ [ 421374.643977000901941, 7648100.634581555612385 ], [ 421541.915129413362592, 7647979.503516997210681 ] ] ] } },
{ "type": "Feature", "properties": { "fid": 53.0, "COMPR_M": 206.62, "CLASSE": "02 - Curta", "CD_FAZ": " 400097", "TALHOES": "1, 3, 2", "FAZ_tAL": "400511001, 400097003, 400011002", "ID_LINHA": 63988 }, "geometry": { "type": "MultiLineString", "coordinates": [ [ [ 421373.331921830191277, 7648097.880712328478694 ], [ 421540.626047704892699, 7647976.733011281117797 ] ] ] } },
{ "type": "Feature", "properties": { "fid": 54.0, "COMPR_M": 206.65, "CLASSE": "02 - Curta", "CD_FAZ": " 400097", "TALHOES": "1, 3, 2", "FAZ_tAL": "400511001, 400097003, 400011002", "ID_LINHA": 63989 }, "geometry": { "type": "MultiLineString", "coordinates": [ [ [ 421372.019866465008818, 7648095.126842686906457 ], [ 421539.336965880997013, 7647973.96250531822443 ] ] ] } },
{ "type": "Feature", "properties": { "fid": 55.0, "COMPR_M": 206.68, "CLASSE": "02 - Curta", "CD_FAZ": " 400097", "TALHOES": "1, 3, 2", "FAZ_tAL": "400511001, 400097003, 400011002", "ID_LINHA": 63990 }, "geometry": { "type": "MultiLineString", "coordinates": [ [ [ 421370.707811338012107, 7648092.372973546385765 ], [ 421538.047884197032545, 7647971.191999657079577 ] ] ] } },
{ "type": "Feature", "properties": { "fid": 56.0, "COMPR_M": 206.73, "CLASSE": "02 - Curta", "CD_FAZ": " 400097", "TALHOES": "1, 3, 2", "FAZ_tAL": "400511001, 400097003, 400011002", "ID_LINHA": 63991 }, "geometry": { "type": "MultiLineString", "coordinates": [ [ [ 421368.083700904506259, 7648086.865234890952706 ], [ 421535.469720725261141, 7647965.650988107547164 ] ] ] } },
{ "type": "Feature", "properties": { "fid": 57.0, "COMPR_M": 206.76, "CLASSE": "02 - Curta", "CD_FAZ": " 400097", "TALHOES": "1, 3, 2", "FAZ_tAL": "400511001, 400097003, 400011002", "ID_LINHA": 63992 }, "geometry": { "type": "MultiLineString", "coordinates": [ [ [ 421366.771645737870131, 7648084.111365666612983 ], [ 421534.180639019119553, 7647962.88048239517957 ] ] ] } },
{ "type": "Feature", "properties": { "fid": 58.0, "COMPR_M": 206.79, "CLASSE": "02 - Curta", "CD_FAZ": " 400097", "TALHOES": "1, 3, 2", "FAZ_tAL": "400511001, 400097003, 400011002", "ID_LINHA": 63993 }, "geometry": { "type": "MultiLineString", "coordinates": [ [ [ 421365.459590425773058, 7648081.357496140524745 ], [ 421532.89155722752912, 7647960.109976500272751 ] ] ] } },
{ "type": "Feature", "properties": { "fid": 59.0, "COMPR_M": 206.82, "CLASSE": "02 - Curta", "CD_FAZ": " 400097", "TALHOES": "1, 3, 2", "FAZ_tAL": "400511001, 400097003, 400011002", "ID_LINHA": 63994 }, "geometry": { "type": "MultiLineString", "coordinates": [ [ [ 421364.147535356460139, 7648078.603627121075988 ], [ 421531.602475577266887, 7647957.339470911771059 ] ] ] } },
{ "type": "Feature", "properties": { "fid": 60.0, "COMPR_M": 206.85, "CLASSE": "02 - Curta", "CD_FAZ": " 400097", "TALHOES": "1, 3, 2", "FAZ_tAL": "400511001, 400097003, 400011002", "ID_LINHA": 63995 }, "geometry": { "type": "MultiLineString", "coordinates": [ [ [ 421362.835480195353739, 7648075.849757907912135 ], [ 421530.31339387234766, 7647954.568965205922723 ] ] ] } },
{ "type": "Feature", "properties": { "fid": 61.0, "COMPR_M": 206.88, "CLASSE": "02 - Curta", "CD_FAZ": " 400097", "TALHOES": "1, 3, 2", "FAZ_tAL": "400511001, 400097003, 400011002", "ID_LINHA": 63996 }, "geometry": { "type": "MultiLineString", "coordinates": [ [ [ 421361.52342507103458, 7648073.095888772048056 ], [ 421529.024312190478668, 7647951.79845954850316 ] ] ] } },
{ "type": "Feature", "properties": { "fid": 62.0, "COMPR_M": 206.93, "CLASSE": "02 - Curta", "CD_FAZ": " 400097", "TALHOES": "1, 3, 2", "FAZ_tAL": "400511001, 400097003, 400011002", "ID_LINHA": 63997 }, "geometry": { "type": "MultiLineString", "coordinates": [ [ [ 421358.899314912967384, 7648067.588150697760284 ], [ 421526.446148880932014, 7647946.257448348216712 ] ] ] } },
{ "type": "Feature", "properties": { "fid": 63.0, "COMPR_M": 206.96, "CLASSE": "02 - Curta", "CD_FAZ": " 400097", "TALHOES": "1, 3, 2", "FAZ_tAL": "400511001, 400097003, 400011002", "ID_LINHA": 63998 }, "geometry": { "type": "MultiLineString", "coordinates": [ [ [ 421357.587259547202848, 7648064.834281054325402 ], [ 421525.157067057327367, 7647943.486942381598055 ] ] ] } },
{ "type": "Feature", "properties": { "fid": 64.0, "COMPR_M": 206.99, "CLASSE": "02 - Curta", "CD_FAZ": " 400097", "TALHOES": "1, 3, 2", "FAZ_tAL": "400511001, 400097003, 400011002", "ID_LINHA": 63999 }, "geometry": { "type": "MultiLineString", "coordinates": [ [ [ 421356.275204281148035, 7648062.080411623232067 ], [ 421523.867985291290097, 7647940.716436545364559 ] ] ] } },
{ "type": "Feature", "properties": { "fid": 65.0, "COMPR_M": 207.02, "CLASSE": "02 - Curta", "CD_FAZ": " 400097", "TALHOES": "1, 3, 2", "FAZ_tAL": "400511001, 400097003, 400011002", "ID_LINHA": 64000 }, "geometry": { "type": "MultiLineString", "coordinates": [ [ [ 421354.963149069517385, 7648059.326542304828763 ], [ 421522.57890355825657, 7647937.945930778048933 ] ] ] } },
{ "type": "Feature", "properties": { "fid": 66.0, "COMPR_M": 207.05, "CLASSE": "02 - Curta", "CD_FAZ": " 400097", "TALHOES": "1, 3, 2", "FAZ_tAL": "400511001, 400097003, 400011002", "ID_LINHA": 64001 }, "geometry": { "type": "MultiLineString", "coordinates": [ [ [ 421353.651093666849192, 7648056.572672585956752 ], [ 421521.289821712358389, 7647935.175424767658114 ] ] ] } },
{ "type": "Feature", "properties": { "fid": 67.0, "COMPR_M": 207.07, "CLASSE": "02 - Curta", "CD_FAZ": " 400097", "TALHOES": "1, 3, 2", "FAZ_tAL": "400511001, 400097003, 400011002", "ID_LINHA": 64002 }, "geometry": { "type": "MultiLineString", "coordinates": [ [ [ 421352.339038808713667, 7648053.818804008886218 ], [ 421520.000740188756026, 7647932.404919443652034 ] ] ] } },
{ "type": "Feature", "properties": { "fid": 68.0, "COMPR_M": 207.13, "CLASSE": "02 - Curta", "CD_FAZ": " 400097", "TALHOES": "1, 3, 2", "FAZ_tAL": "400511001, 400097003, 400011002", "ID_LINHA": 64003 }, "geometry": { "type": "MultiLineString", "coordinates": [ [ [ 421349.714928274042904, 7648048.311065142974257 ], [ 421517.422576656797901, 7647926.863907768391073 ] ] ] } },
{ "type": "Feature", "properties": { "fid": 69.0, "COMPR_M": 207.16, "CLASSE": "02 - Curta", "CD_FAZ": " 400097", "TALHOES": "1, 3, 2", "FAZ_tAL": "400511001, 400097003, 400011002", "ID_LINHA": 64004 }, "geometry": { "type": "MultiLineString", "coordinates": [ [ [ 421348.402873186278157, 7648045.557196084409952 ], [ 421516.133494995301589, 7647924.093402154743671 ] ] ] } },
{ "type": "Feature", "properties": { "fid": 70.0, "COMPR_M": 207.19, "CLASSE": "02 - Curta", "CD_FAZ": " 400097", "TALHOES": "1, 3, 2", "FAZ_tAL": "400511001, 400097003, 400011002", "ID_LINHA": 64005 }, "geometry": { "type": "MultiLineString", "coordinates": [ [ [ 421347.090817984426394, 7648042.803326786495745 ], [ 421514.844413268088829, 7647921.322896400466561 ] ] ] } },
{ "type": "Feature", "properties": { "fid": 134.0, "COMPR_M": 209.99, "CLASSE": "02 - Curta", "CD_FAZ": " 400097", "TALHOES": "1, 3, 2", "FAZ_tAL": "400511001, 400097003, 400011002", "ID_LINHA": 64069 }, "geometry": { "type": "MultiLineString", "coordinates": [ [ [ 421248.686678527563345, 7647836.263130941428244 ], [ 421418.712820072192699, 7647713.137013629078865 ] ] ] } },
{ "type": "Feature", "properties": { "fid": 135.0, "COMPR_M": 210.05, "CLASSE": "02 - Curta", "CD_FAZ": " 400097", "TALHOES": "1, 3, 2", "FAZ_tAL": "400511001, 400097003, 400011002", "ID_LINHA": 64070 }, "geometry": { "type": "MultiLineString", "coordinates": [ [ [ 421247.374623317620717, 7647833.509261626750231 ], [ 421417.445744505035691, 7647710.350571880117059 ] ] ] } },
{ "type": "Feature", "properties": { "fid": 136.0, "COMPR_M": 210.11, "CLASSE": "02 - Curta", "CD_FAZ": " 400097", "TALHOES": "1, 3, 2", "FAZ_tAL": "400511001, 400097003, 400011002", "ID_LINHA": 64071 }, "geometry": { "type": "MultiLineString", "coordinates": [ [ [ 421246.062568012741394, 7647830.755392113700509 ], [ 421416.178668880660553, 7647707.564130012877285 ] ] ] } },
{ "type": "Feature", "properties": { "fid": 137.0, "COMPR_M": 210.16, "CLASSE": "02 - Curta", "CD_FAZ": " 400097", "TALHOES": "1, 3, 2", "FAZ_tAL": "400511001, 400097003, 400011002", "ID_LINHA": 64072 }, "geometry": { "type": "MultiLineString", "coordinates": [ [ [ 421244.750512840168085, 7647828.001522878184915 ], [ 421414.911593333701603, 7647704.77768831141293 ] ] ] } },
{ "type": "Feature", "properties": { "fid": 138.0, "COMPR_M": 210.22, "CLASSE": "02 - Curta", "CD_FAZ": " 400097", "TALHOES": "1, 3, 2", "FAZ_tAL": "400511001, 400097003, 400011002", "ID_LINHA": 64073 }, "geometry": { "type": "MultiLineString", "coordinates": [ [ [ 421243.438457726151682, 7647825.247653763741255 ], [ 421413.644517820968758, 7647701.991246683523059 ] ] ] } },
{ "type": "Feature", "properties": { "fid": 139.0, "COMPR_M": 210.27, "CLASSE": "02 - Curta", "CD_FAZ": " 400097", "TALHOES": "1, 3, 2", "FAZ_tAL": "400511001, 400097003, 400011002", "ID_LINHA": 64074 }, "geometry": { "type": "MultiLineString", "coordinates": [ [ [ 421242.126402730820701, 7647822.493784902617335 ], [ 421412.3774423757568, 7647699.204805206507444 ] ] ] } },
{ "type": "Feature", "properties": { "fid": 140.0, "COMPR_M": 210.38, "CLASSE": "02 - Curta", "CD_FAZ": " 400097", "TALHOES": "1, 3, 2", "FAZ_tAL": "400511001, 400097003, 400011002", "ID_LINHA": 64075 }, "geometry": { "type": "MultiLineString", "coordinates": [ [ [ 421239.502291965065524, 7647816.986045544967055 ], [ 421409.843291041557677, 7647693.631921276450157 ] ] ] } },
{ "type": "Feature", "properties": { "fid": 141.0, "COMPR_M": 210.44, "CLASSE": "02 - Curta", "CD_FAZ": " 400097", "TALHOES": "1, 3, 2", "FAZ_tAL": "400511001, 400097003, 400011002", "ID_LINHA": 64076 }, "geometry": { "type": "MultiLineString", "coordinates": [ [ [ 421238.190237007394899, 7647814.232176765799522 ], [ 421408.576215618173592, 7647690.845479844138026 ] ] ] } },
{ "type": "Feature", "properties": { "fid": 142.0, "COMPR_M": 210.49, "CLASSE": "02 - Curta", "CD_FAZ": " 400097", "TALHOES": "1, 3, 2", "FAZ_tAL": "400511001, 400097003, 400011002", "ID_LINHA": 64077 }, "geometry": { "type": "MultiLineString", "coordinates": [ [ [ 421236.878181738546118, 7647811.478307326324284 ], [ 421407.309140014171135, 7647688.059038024395704 ] ] ] } },
{ "type": "Feature", "properties": { "fid": 143.0, "COMPR_M": 210.55, "CLASSE": "02 - Curta", "CD_FAZ": " 400097", "TALHOES": "1, 3, 2", "FAZ_tAL": "400511001, 400097003, 400011002", "ID_LINHA": 64078 }, "geometry": { "type": "MultiLineString", "coordinates": [ [ [ 421235.566126470046584, 7647808.724437888711691 ], [ 421406.042064413719345, 7647685.272596200928092 ] ] ] } },
{ "type": "Feature", "properties": { "fid": 146.0, "COMPR_M": 210.77, "CLASSE": "02 - Curta", "CD_FAZ": " 400097", "TALHOES": "1, 3, 2", "FAZ_tAL": "400511001, 400097003, 400011002", "ID_LINHA": 64081 }, "geometry": { "type": "MultiLineString", "coordinates": [ [ [ 421230.317905775038525, 7647797.708960937336087 ], [ 421400.973762223380618, 7647674.126829393208027 ] ] ] } },
{ "type": "Feature", "properties": { "fid": 147.0, "COMPR_M": 210.83, "CLASSE": "02 - Curta", "CD_FAZ": " 400097", "TALHOES": "1, 3, 2", "FAZ_tAL": "400511001, 400097003, 400011002", "ID_LINHA": 64082 }, "geometry": { "type": "MultiLineString", "coordinates": [ [ [ 421229.00585053791292, 7647794.955091566778719 ], [ 421399.706686638121027, 7647671.340387608855963 ] ] ] } },
{ "type": "Feature", "properties": { "fid": 148.0, "COMPR_M": 210.88, "CLASSE": "02 - Curta", "CD_FAZ": " 400097", "TALHOES": "1, 3, 2", "FAZ_tAL": "400511001, 400097003, 400011002", "ID_LINHA": 64083 }, "geometry": { "type": "MultiLineString", "coordinates": [ [ [ 421227.693795354105532, 7647792.201222307048738 ], [ 421398.439611085865181, 7647668.553945897147059 ] ] ] } },
{ "type": "Feature", "properties": { "fid": 149.0, "COMPR_M": 210.94, "CLASSE": "02 - Curta", "CD_FAZ": " 400097", "TALHOES": "1, 3, 2", "FAZ_tAL": "400511001, 400097003, 400011002", "ID_LINHA": 64084 }, "geometry": { "type": "MultiLineString", "coordinates": [ [ [ 421226.381740113894921, 7647789.447352931834757 ], [ 421397.172535500605591, 7647665.767504110001028 ] ] ] } },
{ "type": "Feature", "properties": { "fid": 150.0, "COMPR_M": 210.99, "CLASSE": "02 - Curta", "CD_FAZ": " 400097", "TALHOES": "1, 3, 2", "FAZ_tAL": "400511001, 400097003, 400011002", "ID_LINHA": 64085 }, "geometry": { "type": "MultiLineString", "coordinates": [ [ [ 421225.0696849047672, 7647786.693483617156744 ], [ 421395.905459931993391, 7647662.981062361970544 ] ] ] } },
{ "type": "Feature", "properties": { "fid": 151.0, "COMPR_M": 211.05, "CLASSE": "02 - Curta", "CD_FAZ": " 400097", "TALHOES": "1, 3, 2", "FAZ_tAL": "400511001, 400097003, 400011002", "ID_LINHA": 64086 }, "geometry": { "type": "MultiLineString", "coordinates": [ [ [ 421223.757629658095539, 7647783.939614224247634 ], [ 421394.638384342135396, 7647660.194620568305254 ] ] ] } },
{ "type": "Feature", "properties": { "fid": 152.0, "COMPR_M": 211.16, "CLASSE": "02 - Curta", "CD_FAZ": " 400097", "TALHOES": "1, 3, 2", "FAZ_tAL": "400511001, 400097003, 400011002", "ID_LINHA": 64087 }, "geometry": { "type": "MultiLineString", "coordinates": [ [ [ 421221.133519422204699, 7647778.431875983253121 ], [ 421392.104233311547432, 7647654.621737303212285 ] ] ] } },
{ "type": "Feature", "properties": { "fid": 153.0, "COMPR_M": 211.22, "CLASSE": "02 - Curta", "CD_FAZ": " 400097", "TALHOES": "1, 3, 2", "FAZ_tAL": "400511001, 400097003, 400011002", "ID_LINHA": 64088 }, "geometry": { "type": "MultiLineString", "coordinates": [ [ [ 421219.821464199572802, 7647775.678006641566753 ], [ 421390.837157736357767, 7647651.83529554028064 ] ] ] } },
{ "type": "Feature", "properties": { "fid": 154.0, "COMPR_M": 211.27, "CLASSE": "02 - Curta", "CD_FAZ": " 400097", "TALHOES": "1, 3, 2", "FAZ_tAL": "400511001, 400097003, 400011002", "ID_LINHA": 64089 }, "geometry": { "type": "MultiLineString", "coordinates": [ [ [ 421218.509408979385626, 7647772.924137305468321 ], [ 421389.57008216145914, 7647649.048853777348995 ] ] ] } },
{ "type": "Feature", "properties": { "fid": 155.0, "COMPR_M": 211.33, "CLASSE": "02 - Curta", "CD_FAZ": " 400097", "TALHOES": "1, 3, 2", "FAZ_tAL": "400511001, 400097003, 400011002", "ID_LINHA": 64090 }, "geometry": { "type": "MultiLineString", "coordinates": [ [ [ 421217.197353787021711, 7647770.170268028043211 ], [ 421388.303006603149697, 7647646.262412050738931 ] ] ] } },
{ "type": "Feature", "properties": { "fid": 156.0, "COMPR_M": 211.38, "CLASSE": "02 - Curta", "CD_FAZ": " 400097", "TALHOES": "1, 3, 2", "FAZ_tAL": "400511001, 400097003, 400011002", "ID_LINHA": 64091 }, "geometry": { "type": "MultiLineString", "coordinates": [ [ [ 421215.885298500303179, 7647767.416398556903005 ], [ 421387.035930990998168, 7647643.475970206782222 ] ] ] } },
{ "type": "Feature", "properties": { "fid": 157.0, "COMPR_M": 211.44, "CLASSE": "02 - Curta", "CD_FAZ": " 400097", "TALHOES": "1, 3, 2", "FAZ_tAL": "400511001, 400097003, 400011002", "ID_LINHA": 64092 }, "geometry": { "type": "MultiLineString", "coordinates": [ [ [ 421214.573243310733233, 7647764.662529283203185 ], [ 421385.768855433969293, 7647640.689528483897448 ] ] ] } },
{ "type": "Feature", "properties": { "fid": 158.0, "COMPR_M": 211.55, "CLASSE": "02 - Curta", "CD_FAZ": " 400097", "TALHOES": "1, 3, 2", "FAZ_tAL": "400511001, 400097003, 400011002", "ID_LINHA": 64093 }, "geometry": { "type": "MultiLineString", "coordinates": [ [ [ 421211.94913325161906, 7647759.154791412875056 ], [ 421383.234704503091052, 7647635.116645442321897 ] ] ] } },
{ "type": "Feature", "properties": { "fid": 159.0, "COMPR_M": 211.6, "CLASSE": "02 - Curta", "CD_FAZ": " 400097", "TALHOES": "1, 3, 2", "FAZ_tAL": "400511001, 400097003, 400011002", "ID_LINHA": 64094 }, "geometry": { "type": "MultiLineString", "coordinates": [ [ [ 421210.637077569961548, 7647756.400921106338501 ], [ 421381.967628666199744, 7647632.330203104764223 ] ] ] } },
{ "type": "Feature", "properties": { "fid": 160.0, "COMPR_M": 211.66, "CLASSE": "02 - Curta", "CD_FAZ": " 400097", "TALHOES": "1, 3, 2", "FAZ_tAL": "400511001, 400097003, 400011002", "ID_LINHA": 64095 }, "geometry": { "type": "MultiLineString", "coordinates": [ [ [ 421209.325022734818049, 7647753.647052578628063 ], [ 421380.700553309696261, 7647629.543761823326349 ] ] ] } },
{ "type": "Feature", "properties": { "fid": 161.0, "COMPR_M": 211.72, "CLASSE": "02 - Curta", "CD_FAZ": " 400097", "TALHOES": "1, 3, 2", "FAZ_tAL": "400511001, 400097003, 400011002", "ID_LINHA": 64096 }, "geometry": { "type": "MultiLineString", "coordinates": [ [ [ 421208.012967068993021, 7647750.893182311207056 ], [ 421379.433477483282331, 7647626.757319507189095 ] ] ] } },
{ "type": "Feature", "properties": { "fid": 162.0, "COMPR_M": 211.77, "CLASSE": "02 - Curta", "CD_FAZ": " 400097", "TALHOES": "1, 3, 2", "FAZ_tAL": "400511001, 400097003, 400011002", "ID_LINHA": 64097 }, "geometry": { "type": "MultiLineString", "coordinates": [ [ [ 421206.700912318308838, 7647748.139313960447907 ], [ 421378.166402176953852, 7647623.97087833378464 ] ] ] } },
{ "type": "Feature", "properties": { "fid": 163.0, "COMPR_M": 211.83, "CLASSE": "02 - Curta", "CD_FAZ": " 400097", "TALHOES": "1, 3, 2", "FAZ_tAL": "400511001, 400097003, 400011002", "ID_LINHA": 64098 }, "geometry": { "type": "MultiLineString", "coordinates": [ [ [ 421205.388856911391485, 7647745.385444233193994 ], [ 421376.89932649617549, 7647621.184436338022351 ] ] ] } },
{ "type": "Feature", "properties": { "fid": 164.0, "COMPR_M": 211.94, "CLASSE": "02 - Curta", "CD_FAZ": " 400097", "TALHOES": "1, 3, 2", "FAZ_tAL": "400511001, 400097003, 400011002", "ID_LINHA": 64099 }, "geometry": { "type": "MultiLineString", "coordinates": [ [ [ 421202.764746818109415, 7647739.877706289291382 ], [ 421374.365175544924568, 7647615.611553251743317 ] ] ] } },
{ "type": "Feature", "properties": { "fid": 165.0, "COMPR_M": 211.99, "CLASSE": "02 - Curta", "CD_FAZ": " 400097", "TALHOES": "1, 3, 2", "FAZ_tAL": "400511001, 400097003, 400011002", "ID_LINHA": 64100 }, "geometry": { "type": "MultiLineString", "coordinates": [ [ [ 421201.452691485639662, 7647737.12383671849966 ], [ 421373.098099907510914, 7647612.825111350044608 ] ] ] } },
{ "type": "Feature", "properties": { "fid": 166.0, "COMPR_M": 212.05, "CLASSE": "02 - Curta", "CD_FAZ": " 400097", "TALHOES": "1, 3, 2", "FAZ_tAL": "400511001, 400097003, 400011002", "ID_LINHA": 64101 }, "geometry": { "type": "MultiLineString", "coordinates": [ [ [ 421200.140636296011508, 7647734.369967447593808 ], [ 421371.831024350074586, 7647610.038669629022479 ] ] ] } },
{ "type": "Feature", "properties": { "fid": 167.0, "COMPR_M": 212.1, "CLASSE": "02 - Curta", "CD_FAZ": " 400097", "TALHOES": "1, 3, 2", "FAZ_tAL": "400511001, 400097003, 400011002", "ID_LINHA": 64102 }, "geometry": { "type": "MultiLineString", "coordinates": [ [ [ 421198.828581173380371, 7647731.616098318248987 ], [ 421370.563948832161259, 7647607.252227989956737 ] ] ] } },
{ "type": "Feature", "properties": { "fid": 168.0, "COMPR_M": 212.16, "CLASSE": "02 - Curta", "CD_FAZ": " 400097", "TALHOES": "1, 3, 2", "FAZ_tAL": "400511001, 400097003, 400011002", "ID_LINHA": 64103 }, "geometry": { "type": "MultiLineString", "coordinates": [ [ [ 421197.516525954473764, 7647728.8622289840132 ], [ 421369.296873259765562, 7647604.465786229819059 ] ] ] } },
{ "type": "Feature", "properties": { "fid": 169.0, "COMPR_M": 212.22, "CLASSE": "02 - Curta", "CD_FAZ": " 400097", "TALHOES": "1, 3, 2", "FAZ_tAL": "400511001, 400097003, 400011002", "ID_LINHA": 64104 }, "geometry": { "type": "MultiLineString", "coordinates": [ [ [ 421196.204470755008515, 7647726.108359692618251 ], [ 421368.029797696741298, 7647601.679344497621059 ] ] ] } },
{ "type": "Feature", "properties": { "fid": 170.0, "COMPR_M": 212.33, "CLASSE": "02 - Curta", "CD_FAZ": " 400097", "TALHOES": "1, 3, 2", "FAZ_tAL": "400511001, 400097003, 400011002", "ID_LINHA": 64105 }, "geometry": { "type": "MultiLineString", "coordinates": [ [ [ 421193.580360353924334, 7647720.600621104240417 ], [ 421365.49564657045994, 7647596.106461022049189 ] ] ] } },
{ "type": "Feature", "properties": { "fid": 171.0, "COMPR_M": 212.38, "CLASSE": "02 - Curta", "CD_FAZ": " 400097", "TALHOES": "1, 3, 2", "FAZ_tAL": "400511001, 400097003, 400011002", "ID_LINHA": 64106 }, "geometry": { "type": "MultiLineString", "coordinates": [ [ [ 421192.268305160920136, 7647717.84675182774663 ], [ 421364.228571012383327, 7647593.320019299164414 ] ] ] } },
{ "type": "Feature", "properties": { "fid": 172.0, "COMPR_M": 212.44, "CLASSE": "02 - Curta", "CD_FAZ": " 400097", "TALHOES": "1, 3, 2", "FAZ_tAL": "400511001, 400097003, 400011002", "ID_LINHA": 64107 }, "geometry": { "type": "MultiLineString", "coordinates": [ [ [ 421190.956249895156361, 7647715.092882390134037 ], [ 421362.961495410883799, 7647590.533577477559447 ] ] ] } },
{ "type": "Feature", "properties": { "fid": 173.0, "COMPR_M": 212.49, "CLASSE": "02 - Curta", "CD_FAZ": " 400097", "TALHOES": "1, 3, 2", "FAZ_tAL": "400511001, 400097003, 400011002", "ID_LINHA": 64108 }, "geometry": { "type": "MultiLineString", "coordinates": [ [ [ 421189.644194717984647, 7647712.339013148099184 ], [ 421361.694419862644281, 7647587.747135772369802 ] ] ] } },
{ "type": "Feature", "properties": { "fid": 174.0, "COMPR_M": 212.55, "CLASSE": "02 - Curta", "CD_FAZ": " 400097", "TALHOES": "1, 3, 2", "FAZ_tAL": "400511001, 400097003, 400011002", "ID_LINHA": 64109 }, "geometry": { "type": "MultiLineString", "coordinates": [ [ [ 421188.332139607868157, 7647709.58514404669404 ], [ 421360.427344351250213, 7647584.960694151930511 ] ] ] } },
{ "type": "Feature", "properties": { "fid": 185.0, "COMPR_M": 213.27, "CLASSE": "02 - Curta", "CD_FAZ": " 400097", "TALHOES": "1, 3, 2", "FAZ_tAL": "400511001, 400097003, 400011002", "ID_LINHA": 64120 }, "geometry": { "type": "MultiLineString", "coordinates": [ [ [ 421171.275422190374229, 7647673.784843616187572 ], [ 421343.95536214025924, 7647548.736951816827059 ] ] ] } },
{ "type": "Feature", "properties": { "fid": 186.0, "COMPR_M": 213.33, "CLASSE": "02 - Curta", "CD_FAZ": " 400097", "TALHOES": "1, 3, 2", "FAZ_tAL": "400511001, 400097003, 400011002", "ID_LINHA": 64121 }, "geometry": { "type": "MultiLineString", "coordinates": [ [ [ 421169.963366957614198, 7647671.03097425494343 ], [ 421342.688286559190601, 7647545.950510039925575 ] ] ] } },
{ "type": "Feature", "properties": { "fid": 187.0, "COMPR_M": 213.38, "CLASSE": "02 - Curta", "CD_FAZ": " 400097", "TALHOES": "1, 3, 2", "FAZ_tAL": "400511001, 400097003, 400011002", "ID_LINHA": 64122 }, "geometry": { "type": "MultiLineString", "coordinates": [ [ [ 421168.651311798428651, 7647668.277105047367513 ], [ 421341.421211020846386, 7647543.164068358018994 ] ] ] } },
{ "type": "Feature", "properties": { "fid": 188.0, "COMPR_M": 213.49, "CLASSE": "02 - Curta", "CD_FAZ": " 400097", "TALHOES": "1, 3, 2", "FAZ_tAL": "400511001, 400097003, 400011002", "ID_LINHA": 64123 }, "geometry": { "type": "MultiLineString", "coordinates": [ [ [ 421166.027201329125091, 7647662.769366312772036 ], [ 421338.887059855158441, 7647537.591184799559414 ] ] ] } },
{ "type": "Feature", "properties": { "fid": 189.0, "COMPR_M": 213.55, "CLASSE": "02 - Curta", "CD_FAZ": " 400097", "TALHOES": "1, 3, 2", "FAZ_tAL": "400511001, 400097003, 400011002", "ID_LINHA": 64124 }, "geometry": { "type": "MultiLineString", "coordinates": [ [ [ 421164.715146066737361, 7647660.015496892854571 ], [ 421337.619984257151373, 7647534.804742988198996 ] ] ] } },
{ "type": "Feature", "properties": { "fid": 190.0, "COMPR_M": 213.6, "CLASSE": "02 - Curta", "CD_FAZ": " 400097", "TALHOES": "1, 3, 2", "FAZ_tAL": "400511001, 400097003, 400011002", "ID_LINHA": 64125 }, "geometry": { "type": "MultiLineString", "coordinates": [ [ [ 421163.403091035375837, 7647657.26162795163691 ], [ 421336.352908790111542, 7647532.018301459960639 ] ] ] } },
{ "type": "Feature", "properties": { "fid": 191.0, "COMPR_M": 213.66, "CLASSE": "02 - Curta", "CD_FAZ": " 400097", "TALHOES": "1, 3, 2", "FAZ_tAL": "400511001, 400097003, 400011002", "ID_LINHA": 64126 }, "geometry": { "type": "MultiLineString", "coordinates": [ [ [ 421162.091035754885525, 7647654.50775848980993 ], [ 421335.085833181685302, 7647529.231859626248479 ] ] ] } },
{ "type": "Feature", "properties": { "fid": 192.0, "COMPR_M": 213.72, "CLASSE": "02 - Curta", "CD_FAZ": " 400097", "TALHOES": "1, 3, 2", "FAZ_tAL": "400511001, 400097003, 400011002", "ID_LINHA": 64127 }, "geometry": { "type": "MultiLineString", "coordinates": [ [ [ 421160.778980576782487, 7647651.753889242187142 ], [ 421333.818757630418986, 7647526.445417918264866 ] ] ] } },
{ "type": "Feature", "properties": { "fid": 193.0, "COMPR_M": 213.77, "CLASSE": "02 - Curta", "CD_FAZ": " 400097", "TALHOES": "1, 3, 2", "FAZ_tAL": "400511001, 400097003, 400011002", "ID_LINHA": 64128 }, "geometry": { "type": "MultiLineString", "coordinates": [ [ [ 421159.466925314860418, 7647649.000019818544388 ], [ 421332.551682035147678, 7647523.658976105973125 ] ] ] } },
{ "type": "Feature", "properties": { "fid": 199.0, "COMPR_M": 214.14, "CLASSE": "02 - Curta", "CD_FAZ": " 400097", "TALHOES": "1, 2", "FAZ_tAL": "400511001, 400097002, 400011002", "ID_LINHA": 64134 }, "geometry": { "type": "MultiLineString", "coordinates": [ [ [ 421150.282539491949137, 7647629.722935978323221 ], [ 421323.661605858127587, 7647504.168764397501945 ] ] ] } },
{ "type": "Feature", "properties": { "fid": 200.0, "COMPR_M": 214.16, "CLASSE": "02 - Curta", "CD_FAZ": " 400097", "TALHOES": "1, 2", "FAZ_tAL": "400511001, 400097002, 400011002", "ID_LINHA": 64135 }, "geometry": { "type": "MultiLineString", "coordinates": [ [ [ 421147.658428597380407, 7647624.215196354314685 ], [ 421321.060182352259289, 7647498.644596072845161 ] ] ] } },
{ "type": "Feature", "properties": { "fid": 201.0, "COMPR_M": 214.18, "CLASSE": "02 - Curta", "CD_FAZ": " 400097", "TALHOES": "1, 2", "FAZ_tAL": "400511001, 400097002, 400011002", "ID_LINHA": 64136 }, "geometry": { "type": "MultiLineString", "coordinates": [ [ [ 421146.346373369917274, 7647621.461327001452446 ], [ 421319.759470725257415, 7647495.882512180134654 ] ] ] } },
{ "type": "Feature", "properties": { "fid": 202.0, "COMPR_M": 214.19, "CLASSE": "02 - Curta", "CD_FAZ": " 400097", "TALHOES": "1, 2", "FAZ_tAL": "400511001, 400097002, 400011002", "ID_LINHA": 64137 }, "geometry": { "type": "MultiLineString", "coordinates": [ [ [ 421145.034318274934776, 7647618.707457929849625 ], [ 421318.458759176835883, 7647493.120428452268243 ] ] ] } },
{ "type": "Feature", "properties": { "fid": 336.0, "COMPR_M": 206.5, "CLASSE": "02 - Curta", "CD_FAZ": " 400097", "TALHOES": "1, 3, 2", "FAZ_tAL": "400511001, 400097003, 400011002", "ID_LINHA": 64271 }, "geometry": { "type": "MultiLineString", "coordinates": [ [ [ 421378.580142391496338, 7648108.896188997663558 ], [ 421545.776150124205742, 7647987.819541415199637 ] ] ] } },
{ "type": "Feature", "properties": { "fid": 337.0, "COMPR_M": 206.7, "CLASSE": "02 - Curta", "CD_FAZ": " 400097", "TALHOES": "1, 3, 2", "FAZ_tAL": "400511001, 400097003, 400011002", "ID_LINHA": 64272 }, "geometry": { "type": "MultiLineString", "coordinates": [ [ [ 421369.39575619099196, 7648089.619104366749525 ], [ 421536.758802502183244, 7647968.421493969857693 ] ] ] } },
{ "type": "Feature", "properties": { "fid": 338.0, "COMPR_M": 206.9, "CLASSE": "02 - Curta", "CD_FAZ": " 400097", "TALHOES": "1, 3, 2", "FAZ_tAL": "400511001, 400097003, 400011002", "ID_LINHA": 64273 }, "geometry": { "type": "MultiLineString", "coordinates": [ [ [ 421360.211370039265603, 7648070.342019834555686 ], [ 421527.735230562393554, 7647949.027954006567597 ] ] ] } },
{ "type": "Feature", "properties": { "fid": 339.0, "COMPR_M": 207.1, "CLASSE": "02 - Curta", "CD_FAZ": " 400097", "TALHOES": "1, 3, 2", "FAZ_tAL": "400511001, 400097003, 400011002", "ID_LINHA": 64274 }, "geometry": { "type": "MultiLineString", "coordinates": [ [ [ 421351.026983471994754, 7648051.064934431575239 ], [ 421518.711658381856978, 7647929.634413519874215 ] ] ] } },
{ "type": "Feature", "properties": { "fid": 350.0, "COMPR_M": 209.94, "CLASSE": "02 - Curta", "CD_FAZ": " 400097", "TALHOES": "1, 3, 2", "FAZ_tAL": "400511001, 400097003, 400011002", "ID_LINHA": 64285 }, "geometry": { "type": "MultiLineString", "coordinates": [ [ [ 421249.998733584303409, 7647839.016999933868647 ], [ 421419.979895552794915, 7647715.923455182462931 ] ] ] } },
{ "type": "Feature", "properties": { "fid": 351.0, "COMPR_M": 210.33, "CLASSE": "02 - Curta", "CD_FAZ": " 400097", "TALHOES": "1, 3, 2", "FAZ_tAL": "400511001, 400097003, 400011002", "ID_LINHA": 64286 }, "geometry": { "type": "MultiLineString", "coordinates": [ [ [ 421240.814347145846114, 7647819.739914797246456 ], [ 421411.110366591950879, 7647696.418362986296415 ] ] ] } },
{ "type": "Feature", "properties": { "fid": 352.0, "COMPR_M": 210.72, "CLASSE": "02 - Curta", "CD_FAZ": " 400097", "TALHOES": "1, 3, 2", "FAZ_tAL": "400511001, 400097003, 400011002", "ID_LINHA": 64287 }, "geometry": { "type": "MultiLineString", "coordinates": [ [ [ 421231.629960960941389, 7647800.462830198928714 ], [ 421402.24083777749911, 7647676.91327110864222 ] ] ] } },
{ "type": "Feature", "properties": { "fid": 353.0, "COMPR_M": 211.1, "CLASSE": "02 - Curta", "CD_FAZ": " 400097", "TALHOES": "1, 3, 2", "FAZ_tAL": "400511001, 400097003, 400011002", "ID_LINHA": 64288 }, "geometry": { "type": "MultiLineString", "coordinates": [ [ [ 421222.445574658224359, 7647781.185745351016521 ], [ 421393.371308892965317, 7647657.408179083839059 ] ] ] } },
{ "type": "Feature", "properties": { "fid": 354.0, "COMPR_M": 211.49, "CLASSE": "02 - Curta", "CD_FAZ": " 400097", "TALHOES": "1, 3, 2", "FAZ_tAL": "400511001, 400097003, 400011002", "ID_LINHA": 64289 }, "geometry": { "type": "MultiLineString", "coordinates": [ [ [ 421213.261188425356522, 7647761.908660652115941 ], [ 421384.501780049700756, 7647637.903087144717574 ] ] ] } },
{ "type": "Feature", "properties": { "fid": 355.0, "COMPR_M": 211.88, "CLASSE": "02 - Curta", "CD_FAZ": " 400097", "TALHOES": "1, 3, 2", "FAZ_tAL": "400511001, 400097003, 400011002", "ID_LINHA": 64290 }, "geometry": { "type": "MultiLineString", "coordinates": [ [ [ 421204.076801952440292, 7647742.631575444713235 ], [ 421375.632251070346683, 7647618.39799490571022 ] ] ] } },
{ "type": "Feature", "properties": { "fid": 356.0, "COMPR_M": 212.27, "CLASSE": "02 - Curta", "CD_FAZ": " 400097", "TALHOES": "1, 3, 2", "FAZ_tAL": "400511001, 400097003, 400011002", "ID_LINHA": 64291 }, "geometry": { "type": "MultiLineString", "coordinates": [ [ [ 421194.892415553273167, 7647723.354490393772721 ], [ 421366.762722132785711, 7647598.892902757972479 ] ] ] } },
{ "type": "Feature", "properties": { "fid": 359.0, "COMPR_M": 213.44, "CLASSE": "02 - Curta", "CD_FAZ": " 400097", "TALHOES": "1, 3, 2", "FAZ_tAL": "400511001, 400097003, 400011002", "ID_LINHA": 64294 }, "geometry": { "type": "MultiLineString", "coordinates": [ [ [ 421167.339256515551824, 7647665.52323558088392 ], [ 421340.154135409742594, 7647540.377626517787576 ] ] ] } },
{ "type": "Feature", "properties": { "fid": 360.0, "COMPR_M": 213.83, "CLASSE": "02 - Curta", "CD_FAZ": " 400097", "TALHOES": "1, 3, 2", "FAZ_tAL": "400511001, 400097003, 400011002", "ID_LINHA": 64295 }, "geometry": { "type": "MultiLineString", "coordinates": [ [ [ 421158.154870240832679, 7647646.246150790713727 ], [ 421331.284606542030815, 7647520.872534526512027 ] ] ] } },
{ "type": "Feature", "properties": { "fid": 361.0, "COMPR_M": 214.15, "CLASSE": "02 - Curta", "CD_FAZ": " 400097", "TALHOES": "1, 2", "FAZ_tAL": "400511001, 400097002, 400011002", "ID_LINHA": 64296 }, "geometry": { "type": "MultiLineString", "coordinates": [ [ [ 421148.970483847428113, 7647626.969065751880407 ], [ 421322.36089398979675, 7647501.406679990701377 ] ] ] } }
]
}
