{
"type": "FeatureCollection",
"name": " 400498",
"crs": { "type": "name", "properties": { "name": "urn:ogc:def:crs:EPSG::32722" } },
"xy_coordinate_resolution": 1e-15,
"features": [
{ "type": "Feature", "properties": { "fid": 41.0, "COMPR_M": 362.19, "CLASSE": "03 - Média", "CD_FAZ": " 400498", "TALHOES": "1, 3", "FAZ_tAL": "400423001, 400498003", "ID_LINHA": 149852 }, "geometry": { "type": "MultiLineString", "coordinates": [ [ [ 418130.847513632150367, 7644951.048722012899816 ], [ 418152.998296261299402, 7644940.920998124405742 ], [ 418173.21947916544741, 7644930.803743843920529 ], [ 418193.090954327664804, 7644919.982598794624209 ], [ 418212.591702303790953, 7644908.481169053353369 ], [ 418231.701454918598756, 7644896.322317529469728 ], [ 418250.399914739944506, 7644883.528538653627038 ], [ 418268.6672344035469, 7644870.121578335762024 ], [ 418286.500981658988167, 7644856.10037475079298 ], [ 418303.875627049477771, 7644841.454454186372459 ], [ 418320.746627730259206, 7644826.182366227731109 ], [ 418337.068587967194617, 7644810.282619534060359 ], [ 418352.795177004532889, 7644793.753801489248872 ], [ 418367.879044095636345, 7644776.594740588217974 ], [ 418379.431649471458513, 7644762.441317979246378 ], [ 418393.117550555150956, 7644744.4697265625 ], [ 418407.281726969289593, 7644724.608355431817472 ] ] ] } },
{ "type": "Feature", "properties": { "fid": 42.0, "COMPR_M": 362.4, "CLASSE": "03 - Média", "CD_FAZ": " 400498", "TALHOES": "1, 3", "FAZ_tAL": "400423001, 400498003", "ID_LINHA": 149853 }, "geometry": { "type": "MultiLineString", "coordinates": [ [ [ 418129.684151892666705, 7644948.282880794256926 ], [ 418151.703219559742138, 7644938.214914739131927 ], [ 418171.830492565175518, 7644928.144641583785415 ], [ 418191.611138515698258, 7644917.372953115031123 ], [ 418211.02405281906249, 7644905.923322743736207 ], [ 418230.048824363620952, 7644893.818537870422006 ], [ 418248.665015028498601, 7644881.081045765429735 ], [ 418270.438201065349858, 7644864.990331598557532 ], [ 418288.104462152230553, 7644850.907434662804008 ], [ 418305.302313525578938, 7644836.204511356540024 ], [ 418321.987189580104314, 7644820.880479184910655 ], [ 418338.113729127217084, 7644804.934232176281512 ], [ 418350.581916288239881, 7644791.728556634858251 ], [ 418365.586283443262801, 7644774.659954003989697 ], [ 418377.077555185940582, 7644760.581648323684931 ], [ 418390.701371613889933, 7644742.69148002192378 ], [ 418405.907325472740922, 7644721.325485045090318 ] ] ] } },
{ "type": "Feature", "properties": { "fid": 43.0, "COMPR_M": 362.62, "CLASSE": "03 - Média", "CD_FAZ": " 400498", "TALHOES": "1, 3", "FAZ_tAL": "400423001, 400498003", "ID_LINHA": 149854 }, "geometry": { "type": "MultiLineString", "coordinates": [ [ [ 418128.520790153823327, 7644945.517039578408003 ], [ 418150.408142857835628, 7644935.508831353858113 ], [ 418170.441505963972304, 7644925.485539322718978 ], [ 418190.131322702742182, 7644914.763307435438037 ], [ 418209.456403335556388, 7644903.365476435981691 ], [ 418228.396193807537202, 7644891.314758207648993 ], [ 418246.930115317227319, 7644878.633552867919207 ], [ 418268.607795819349121, 7644862.613418508321047 ], [ 418286.19487190147629, 7644848.593656117096543 ], [ 418303.313068357529119, 7644833.958844989538193 ], [ 418319.917967597662937, 7644818.708281523548067 ], [ 418335.96442274749279, 7644802.841240604408085 ], [ 418351.406480698904488, 7644786.357088690623641 ], [ 418363.293522791878786, 7644772.725167418830097 ], [ 418377.498156607092824, 7644755.18188638985157 ], [ 418390.910241511010099, 7644737.323900150135159 ], [ 418404.530082525452599, 7644718.035827619954944 ] ] ] } },
{ "type": "Feature", "properties": { "fid": 44.0, "COMPR_M": 362.84, "CLASSE": "03 - Média", "CD_FAZ": " 400498", "TALHOES": "1, 3", "FAZ_tAL": "400423001, 400498003", "ID_LINHA": 149855 }, "geometry": { "type": "MultiLineString", "coordinates": [ [ [ 418127.357428415038157, 7644942.751198364421725 ], [ 418149.113066154241096, 7644932.802747968584299 ], [ 418169.052519362419844, 7644922.826437059789896 ], [ 418188.651506889495067, 7644912.153661758638918 ], [ 418207.888753850595094, 7644900.807630124501884 ], [ 418226.743563253607135, 7644888.81097854860127 ], [ 418245.195215604733676, 7644876.186059974133968 ], [ 418266.777390573231969, 7644860.236505417153239 ], [ 418284.285281650780234, 7644846.279877569526434 ], [ 418301.323823189130053, 7644831.713178620673716 ], [ 418317.84874561522156, 7644816.536083864979446 ], [ 418333.815116365149152, 7644800.748249028809369 ], [ 418349.177269945677835, 7644784.349413109943271 ], [ 418361.000762138806749, 7644770.790380837395787 ], [ 418375.130232218420133, 7644753.339861854910851 ], [ 418388.483694896276575, 7644735.559829737059772 ], [ 418403.152089879906271, 7644714.744379479438066 ] ] ] } }
]
}
