{
"type": "FeatureCollection",
"name": " 400056",
"crs": { "type": "name", "properties": { "name": "urn:ogc:def:crs:EPSG::32722" } },
"xy_coordinate_resolution": 1e-15,
"features": [
{ "type": "Feature", "properties": { "fid": 260.0, "COMPR_M": 516.33, "CLASSE": "03 - Média", "CD_FAZ": " 400056", "TALHOES": "1", "FAZ_tAL": "400500001, 400056001", "ID_LINHA": 19682 }, "geometry": { "type": "MultiLineString", "coordinates": [ [ [ 418210.280588207708206, 7641164.843325203284621 ], [ 418216.428333914605901, 7641179.259538077749312 ], [ 418225.904593063110951, 7641199.156625529751182 ], [ 418241.319943986309227, 7641226.988526774570346 ], [ 418250.46543746831594, 7641241.417897040955722 ], [ 418260.704019328346476, 7641256.09232712071389 ], [ 418272.135609972581733, 7641270.912887290120125 ], [ 418284.852355482638814, 7641285.755595051683486 ], [ 418306.498950239620171, 7641307.724355800077319 ], [ 418322.813267639139667, 7641321.992298590019345 ], [ 418331.64817905833479, 7641329.006448121741414 ], [ 418350.869538629660383, 7641342.712869329378009 ], [ 418361.335343210084829, 7641349.349786208942533 ], [ 418384.177482383325696, 7641361.993519086390734 ], [ 418396.628631795698311, 7641367.893395595252514 ], [ 418409.80844872520538, 7641373.423095616512001 ], [ 418423.738065705925692, 7641378.50215273629874 ], [ 418438.426054605981335, 7641383.03937734849751 ], [ 418453.864369031507522, 7641386.934233661741018 ], [ 418469.916601416305639, 7641390.058519300073385 ], [ 418486.020244167535566, 7641392.261567087844014 ], [ 418501.618094100267626, 7641393.543158136308193 ], [ 418516.582769822038244, 7641394.008389189839363 ], [ 418530.90463396924315, 7641393.766944067552686 ], [ 418557.661302732944023, 7641391.547203410416842 ], [ 418570.14328679360915, 7641389.730693597346544 ], [ 418593.476527754683048, 7641385.003315718844533 ], [ 418604.400449393491726, 7641382.189462633803487 ], [ 418624.613694460480474, 7641375.948652923107147 ] ] ] } },
{ "type": "Feature", "properties": { "fid": 261.0, "COMPR_M": 511.78, "CLASSE": "03 - Média", "CD_FAZ": " 400056", "TALHOES": "1", "FAZ_tAL": "400500001, 400056001", "ID_LINHA": 19683 }, "geometry": { "type": "MultiLineString", "coordinates": [ [ [ 418212.845257109613158, 7641163.180092825554311 ], [ 418219.167027045390569, 7641178.034750416874886 ], [ 418228.580743168480694, 7641197.800572569482028 ], [ 418243.887084097950719, 7641225.43587479647249 ], [ 418252.964266193564981, 7641239.757488220930099 ], [ 418263.123808538541198, 7641254.318656802177429 ], [ 418274.464501625974663, 7641269.021393289789557 ], [ 418287.077463914756663, 7641283.742987292818725 ], [ 418308.542498434544541, 7641305.527554643340409 ], [ 418324.716517439519521, 7641319.672819814644754 ], [ 418333.473971069906838, 7641326.625474614091218 ], [ 418352.522996426210739, 7641340.209042048081756 ], [ 418362.892791332444176, 7641346.785074146464467 ], [ 418385.520368053519633, 7641359.31008530035615 ], [ 418397.851891195925418, 7641365.15327787026763 ], [ 418410.903240496409126, 7641370.62907824292779 ], [ 418424.695225887058768, 7641375.657951733097434 ], [ 418439.236261904879939, 7641380.149781554937363 ], [ 418454.518363492621575, 7641384.005227699875832 ], [ 418470.406873374478891, 7641387.097647623158991 ], [ 418486.34662758273771, 7641389.278274751268327 ], [ 418501.787647277640644, 7641390.546979907900095 ], [ 418516.60410832776688, 7641391.007603172212839 ], [ 418530.786381362355314, 7641390.768511345610023 ], [ 418557.288718911178876, 7641388.569823480211198 ], [ 418569.655104465316981, 7641386.770136781036854 ], [ 418592.777557302557398, 7641382.085433185100555 ], [ 418603.605095586564858, 7641379.296407133340836 ], [ 418623.091881203348748, 7641373.289577662944794 ] ] ] } },
{ "type": "Feature", "properties": { "fid": 262.0, "COMPR_M": 507.46, "CLASSE": "03 - Média", "CD_FAZ": " 400056", "TALHOES": "1", "FAZ_tAL": "400500001, 400056001", "ID_LINHA": 19684 }, "geometry": { "type": "MultiLineString", "coordinates": [ [ [ 418215.409926012333017, 7641161.516860449686646 ], [ 418221.905720178619958, 7641176.809962758794427 ], [ 418231.256893271522131, 7641196.444519604556262 ], [ 418246.454224210057873, 7641223.883222820237279 ], [ 418255.463094917649869, 7641238.097079403698444 ], [ 418265.543597749201581, 7641252.544986486434937 ], [ 418282.885423983214423, 7641274.436803566291928 ], [ 418296.053656070376746, 7641288.991309590637684 ], [ 418310.586046628654003, 7641303.330753486603498 ], [ 418326.61976723925909, 7641317.353341040201485 ], [ 418335.299763080663979, 7641324.244501106441021 ], [ 418354.176454221480526, 7641337.705214768648148 ], [ 418364.450239453115501, 7641344.220362085849047 ], [ 418386.863253721676301, 7641356.626651510596275 ], [ 418399.075150596268941, 7641362.413160138763487 ], [ 418411.998032267496455, 7641367.835060870274901 ], [ 418425.652386068482883, 7641372.813750733621418 ], [ 418440.046469207271002, 7641377.260185761377215 ], [ 418455.172357955074403, 7641381.07622173987329 ], [ 418470.897145335038658, 7641384.136775949969888 ], [ 418486.673010996892117, 7641386.294982416555285 ], [ 418501.957200454548001, 7641387.550801677629352 ], [ 418516.625446832797024, 7641388.00681715644896 ], [ 418530.66812875517644, 7641387.770078622736037 ], [ 418556.916135091101751, 7641385.592443546280265 ], [ 418569.166922135802452, 7641383.809579957276583 ], [ 418592.078586849907879, 7641379.167550651356578 ], [ 418602.809741779463366, 7641376.403351632878184 ], [ 418621.792686644010246, 7641370.557852195575833 ] ] ] } },
{ "type": "Feature", "properties": { "fid": 263.0, "COMPR_M": 503.15, "CLASSE": "03 - Média", "CD_FAZ": " 400056", "TALHOES": "1", "FAZ_tAL": "400500001, 400056001", "ID_LINHA": 19685 }, "geometry": { "type": "MultiLineString", "coordinates": [ [ [ 418217.974594914645422, 7641159.853628071025014 ], [ 418224.644413309637457, 7641175.585175098851323 ], [ 418233.933043376076967, 7641195.088466646149755 ], [ 418249.02136432135012, 7641222.330570839345455 ], [ 418257.961923642549664, 7641236.436670584604144 ], [ 418267.963386959861964, 7641250.771316165104508 ], [ 418285.16409227438271, 7641272.485070651397109 ], [ 418298.221772717428394, 7641286.917405989021063 ], [ 418312.629594823811203, 7641301.133952332660556 ], [ 418328.523017040221021, 7641315.033862265758216 ], [ 418337.125555091304705, 7641321.863527597859502 ], [ 418355.829912016750313, 7641335.201387491077185 ], [ 418366.007687576755416, 7641341.655650024302304 ], [ 418388.206139390473254, 7641353.943217723630369 ], [ 418400.298409996030387, 7641359.673042410984635 ], [ 418413.09282403846737, 7641365.041043497622013 ], [ 418426.60954624961596, 7641369.969549735076725 ], [ 418440.85667650855612, 7641374.370589968748391 ], [ 418455.826352418924216, 7641378.147215778008103 ], [ 418471.387417294667102, 7641381.175904271192849 ], [ 418486.999394411919639, 7641383.311690079979599 ], [ 418502.126753632444888, 7641384.554623446427286 ], [ 418516.646785337186884, 7641385.006031136959791 ], [ 418530.54987614764832, 7641384.771645901724696 ], [ 418556.543551271315664, 7641382.615063613280654 ], [ 418568.678739806928206, 7641380.849023139104247 ], [ 418591.379616398131475, 7641376.24966811388731 ], [ 418602.014387972012628, 7641373.510296134278178 ], [ 418620.493492082867306, 7641367.826126733794808 ] ] ] } },
{ "type": "Feature", "properties": { "fid": 264.0, "COMPR_M": 498.83, "CLASSE": "03 - Média", "CD_FAZ": " 400056", "TALHOES": "1", "FAZ_tAL": "400500001, 400056001", "ID_LINHA": 19686 }, "geometry": { "type": "MultiLineString", "coordinates": [ [ [ 418220.539263815211598, 7641158.190395688638091 ], [ 418227.383106442459393, 7641174.360387435182929 ], [ 418236.609193479642272, 7641193.732413683086634 ], [ 418251.588504433166236, 7641220.777918864041567 ], [ 418260.460752367042005, 7641234.776261767372489 ], [ 418270.383176169823855, 7641248.99764584377408 ], [ 418287.442760563804768, 7641270.533337733708322 ], [ 418300.389889365294948, 7641284.843502389267087 ], [ 418314.673143019492272, 7641298.937151178717613 ], [ 418330.426266840600874, 7641312.714383490383625 ], [ 418338.951347102411091, 7641319.482554089277983 ], [ 418357.483369811379816, 7641332.697560208849609 ], [ 418367.565135699405801, 7641339.090937966480851 ], [ 418389.549025057931431, 7641351.25978393573314 ], [ 418401.521669395791832, 7641356.932924684137106 ], [ 418414.187615809321869, 7641362.247026124969125 ], [ 418427.566706431098282, 7641367.125348733738065 ], [ 418441.666883809957653, 7641371.480994175188243 ], [ 418456.480346880794968, 7641375.218209819868207 ], [ 418471.877689254703, 7641378.2150325961411 ], [ 418487.325777826539706, 7641380.328397746197879 ], [ 418502.296306809817906, 7641381.55844521895051 ], [ 418516.668123843497597, 7641382.005245117470622 ], [ 418530.431623538490385, 7641381.773213181644678 ], [ 418556.170967451180331, 7641379.637683683075011 ], [ 418568.190557476773392, 7641377.888466320931911 ], [ 418590.680645946529694, 7641373.33178557921201 ], [ 418601.219034163106699, 7641370.617240636609495 ], [ 418619.194297522073612, 7641365.094401270151138 ] ] ] } },
{ "type": "Feature", "properties": { "fid": 265.0, "COMPR_M": 494.52, "CLASSE": "03 - Média", "CD_FAZ": " 400056", "TALHOES": "1", "FAZ_tAL": "400500001, 400056001", "ID_LINHA": 19687 }, "geometry": { "type": "MultiLineString", "coordinates": [ [ [ 418223.103932717931457, 7641156.527163315564394 ], [ 418236.071217167249415, 7641185.896398110315204 ], [ 418246.295334151946008, 7641205.626236919313669 ], [ 418254.155644544865936, 7641219.225266890600324 ], [ 418262.959581092989538, 7641233.115852944552898 ], [ 418272.802965380309615, 7641247.223975528031588 ], [ 418289.721428855438717, 7641268.581604816019535 ], [ 418302.558006012579426, 7641282.769598789513111 ], [ 418316.716691214300226, 7641296.740350021980703 ], [ 418332.32951664092252, 7641310.394904715009034 ], [ 418340.777139112120494, 7641317.101580581627786 ], [ 418359.136827606649604, 7641330.193732930347323 ], [ 418369.122583821066655, 7641336.526225904002786 ], [ 418390.891910727950744, 7641348.576350146904588 ], [ 418402.744928794389125, 7641354.192806955426931 ], [ 418415.282407579477876, 7641359.453008750453591 ], [ 418428.523866612231359, 7641364.281147735193372 ], [ 418442.477091111592017, 7641368.591398381628096 ], [ 418457.134341342782136, 7641372.289203856140375 ], [ 418472.367961215204559, 7641375.254160919226706 ], [ 418487.652161240810528, 7641377.345105407759547 ], [ 418502.465859986841679, 7641378.562266988679767 ], [ 418516.689462348469533, 7641379.004459098912776 ], [ 418530.313370930962265, 7641378.774780458770692 ], [ 418555.798383630113676, 7641376.660303749144077 ], [ 418567.70237514533801, 7641374.927909502759576 ], [ 418589.981675493880175, 7641370.413903041742742 ], [ 418600.423680357867852, 7641367.724185138009489 ], [ 418617.895102962094825, 7641362.362675804644823 ] ] ] } },
{ "type": "Feature", "properties": { "fid": 266.0, "COMPR_M": 486.28, "CLASSE": "03 - Média", "CD_FAZ": " 400056", "TALHOES": "1", "FAZ_tAL": "400500001, 400056001", "ID_LINHA": 19688 }, "geometry": { "type": "MultiLineString", "coordinates": [ [ [ 418228.233270522672683, 7641153.200698561035097 ], [ 418235.599185838189442, 7641170.686024454422295 ], [ 418241.468112430768088, 7641183.274199761450291 ], [ 418251.547084406251088, 7641202.72412133961916 ], [ 418259.289924767799675, 7641216.119962933473289 ], [ 418267.957238542847335, 7641229.795035310089588 ], [ 418277.642543801106513, 7641243.676634891889989 ], [ 418294.278765436087269, 7641264.678138989955187 ], [ 418306.894239306217059, 7641278.621791585348547 ], [ 418320.803787603974342, 7641292.34674771130085 ], [ 418336.136016242264304, 7641305.755947164259851 ], [ 418344.42872313503176, 7641312.33963356539607 ], [ 418362.443743197305594, 7641325.186078366823494 ], [ 418372.237480065959971, 7641331.3968017809093 ], [ 418393.577682065370027, 7641343.209482576698065 ], [ 418417.471991122583859, 7641353.86497400701046 ], [ 418430.438186974904966, 7641358.592745736241341 ], [ 418444.097505714162253, 7641362.812206795439124 ], [ 418458.442330267571378, 7641366.431191935203969 ], [ 418473.348505135450978, 7641369.332417565397918 ], [ 418488.304928069235757, 7641371.378520736470819 ], [ 418502.804966342227999, 7641372.569910530000925 ], [ 418516.732139358937275, 7641373.002887063659728 ], [ 418530.07686571823433, 7641372.777915013954043 ], [ 418555.053215988969896, 7641370.705543888732791 ], [ 418566.726010488462634, 7641369.006795863620937 ], [ 418588.583734589628875, 7641364.578137971460819 ], [ 418615.668387335026637, 7641356.777931585907936 ] ] ] } },
{ "type": "Feature", "properties": { "fid": 267.0, "COMPR_M": 482.35, "CLASSE": "03 - Média", "CD_FAZ": " 400056", "TALHOES": "1", "FAZ_tAL": "400500001, 400056001", "ID_LINHA": 19689 }, "geometry": { "type": "MultiLineString", "coordinates": [ [ [ 418230.797939425392542, 7641151.537466179579496 ], [ 418238.337878969381563, 7641169.461236795410514 ], [ 418244.166560064535588, 7641181.963100581429899 ], [ 418254.172959533927497, 7641201.273063546046615 ], [ 418261.857064880430698, 7641214.567310955375433 ], [ 418270.456067267339677, 7641228.134626490063965 ], [ 418280.062333010719158, 7641241.902964576147497 ], [ 418296.557433727080934, 7641262.726406073197722 ], [ 418309.062355951929931, 7641276.547887984663248 ], [ 418322.847335797501728, 7641290.149946556426585 ], [ 418338.039266043226235, 7641303.436468390747905 ], [ 418346.254515145672485, 7641309.958660058677197 ], [ 418364.097200992633589, 7641322.682251086458564 ], [ 418373.794928187911864, 7641328.832089718431234 ], [ 418394.920567736029625, 7641340.526048788800836 ], [ 418418.566782894311473, 7641351.070956634357572 ], [ 418431.39534715708578, 7641355.748544733971357 ], [ 418444.90771301445784, 7641359.922610999085009 ], [ 418459.096324731013738, 7641363.50218597240746 ], [ 418473.838777093915269, 7641366.371545890346169 ], [ 418488.631311484205071, 7641368.395228400826454 ], [ 418502.974519518611487, 7641369.573732300661504 ], [ 418516.753477863152511, 7641370.002101046964526 ], [ 418529.95861310971668, 7641369.77948229201138 ], [ 418554.680632168892771, 7641367.72816395573318 ], [ 418566.237828157725744, 7641366.046239046379924 ], [ 418587.88476413814351, 7641361.660255435854197 ], [ 418614.737663793202955, 7641353.925957940518856 ] ] ] } },
{ "type": "Feature", "properties": { "fid": 268.0, "COMPR_M": 477.28, "CLASSE": "03 - Média", "CD_FAZ": " 400056", "TALHOES": "1", "FAZ_tAL": "400500001, 400056001", "ID_LINHA": 19690 }, "geometry": { "type": "MultiLineString", "coordinates": [ [ [ 418233.362608326948248, 7641149.874233802780509 ], [ 418241.076572101796046, 7641168.23644913546741 ], [ 418246.865007697197143, 7641180.652001408860087 ], [ 418260.503998022759333, 7641206.381155770272017 ], [ 418268.570702385448385, 7641219.715130714699626 ], [ 418277.588243179197889, 7641233.282482894137502 ], [ 418287.647676802589558, 7641247.002720690332353 ], [ 418298.836102018365636, 7641260.774673160165548 ], [ 418317.899305760976858, 7641281.250941848382354 ], [ 418332.225506845978089, 7641294.573714209720492 ], [ 418339.942515842849389, 7641301.116989614441991 ], [ 418356.671657041704748, 7641313.938974342308939 ], [ 418365.750658785982523, 7641320.178423806093633 ], [ 418385.511971931962762, 7641332.170051976107061 ], [ 418407.637966395821422, 7641343.232336046174169 ], [ 418419.661574664642103, 7641348.276939262636006 ], [ 418432.352507338277064, 7641352.904343735426664 ], [ 418445.717920314869843, 7641357.03301520831883 ], [ 418459.750319193815812, 7641360.573180012404919 ], [ 418474.329049054067582, 7641363.410674216225743 ], [ 418488.957694897369947, 7641365.4119360614568 ], [ 418503.144072696566582, 7641366.577554073184729 ], [ 418516.774816369987093, 7641367.001315025612712 ], [ 418529.840360501490068, 7641366.781049569137394 ], [ 418554.308048349164892, 7641364.750784024596214 ], [ 418565.749645828385837, 7641363.085682227276266 ], [ 418587.185793686134275, 7641358.742372900247574 ], [ 418612.716335634002462, 7641351.429896202869713 ] ] ] } },
{ "type": "Feature", "properties": { "fid": 269.0, "COMPR_M": 472.97, "CLASSE": "03 - Média", "CD_FAZ": " 400056", "TALHOES": "1", "FAZ_tAL": "400500001, 400056001", "ID_LINHA": 19691 }, "geometry": { "type": "MultiLineString", "coordinates": [ [ [ 418235.927277229377069, 7641148.211001424118876 ], [ 418243.815265232638922, 7641167.011661473661661 ], [ 418249.563455328112468, 7641179.340902229771018 ], [ 418263.101631564262789, 7641204.880102667026222 ], [ 418271.104955568502191, 7641218.109335586428642 ], [ 418280.048965119174682, 7641231.566079762764275 ], [ 418295.424526504939422, 7641251.997947261668742 ], [ 418307.103439800965134, 7641265.62951746955514 ], [ 418320.00692370836623, 7641279.115558661520481 ], [ 418334.201134406088386, 7641292.315604756586254 ], [ 418341.845765643753111, 7641298.797510840930045 ], [ 418358.414371511607897, 7641311.496487781405449 ], [ 418367.404116581950802, 7641317.674596527591348 ], [ 418386.966082046390511, 7641329.545301048085093 ], [ 418408.861225795408245, 7641340.492218315601349 ], [ 418420.756366436835378, 7641345.482921889051795 ], [ 418433.309667519759387, 7641350.060142736881971 ], [ 418446.528127616853453, 7641354.143419412896037 ], [ 418460.404313654114958, 7641357.644174048677087 ], [ 418474.819321014045272, 7641360.449802539311349 ], [ 418489.284078312106431, 7641362.428643726743758 ], [ 418503.313625874114223, 7641363.581375842913985 ], [ 418516.796154875424691, 7641364.000529007054865 ], [ 418529.722107894951478, 7641363.782616848126054 ], [ 418553.935464527807198, 7641361.773404091596603 ], [ 418565.261463497008663, 7641360.125125411897898 ], [ 418586.486823233717587, 7641355.824490364640951 ], [ 418611.422077218536288, 7641348.696559861302376 ] ] ] } },
{ "type": "Feature", "properties": { "fid": 270.0, "COMPR_M": 468.66, "CLASSE": "03 - Média", "CD_FAZ": " 400056", "TALHOES": "1", "FAZ_tAL": "400500001, 400056001", "ID_LINHA": 19692 }, "geometry": { "type": "MultiLineString", "coordinates": [ [ [ 418238.49194613203872, 7641146.547769045457244 ], [ 418243.88182466145372, 7641159.684877160005271 ], [ 418252.261902961239684, 7641178.029803054407239 ], [ 418265.699265106173698, 7641203.379049563780427 ], [ 418273.639208751963452, 7641216.503540455363691 ], [ 418282.509687059151474, 7641229.849676629528403 ], [ 418297.75341815862339, 7641250.106453260406852 ], [ 418309.328548234771006, 7641263.616909710690379 ], [ 418322.114541656104848, 7641276.980175470933318 ], [ 418336.176761966198683, 7641290.05749530531466 ], [ 418343.749015444074757, 7641296.478032065555453 ], [ 418360.157085980754346, 7641309.054001221433282 ], [ 418369.057574377977289, 7641315.170769246295094 ], [ 418388.420192161458544, 7641326.920550120063126 ], [ 418410.08448519569356, 7641337.752100588753819 ], [ 418421.851158208213747, 7641342.688904518261552 ], [ 418434.266827700310387, 7641347.215941737405956 ], [ 418447.338334917731117, 7641351.253823621198535 ], [ 418461.058308118314017, 7641354.71516809053719 ], [ 418475.30959297309164, 7641357.488930862396955 ], [ 418489.610461728414521, 7641359.445351390168071 ], [ 418503.483179051836487, 7641360.585197616368532 ], [ 418516.817493380163796, 7641360.999742990359664 ], [ 418529.603855286724865, 7641360.784184128046036 ], [ 418553.562880708079319, 7641358.796024160459638 ], [ 418564.77328116906574, 7641357.164568590000272 ], [ 418585.787852782115806, 7641352.906607830896974 ], [ 418610.127818803361151, 7641345.963223515078425 ] ] ] } },
{ "type": "Feature", "properties": { "fid": 284.0, "COMPR_M": 396.29, "CLASSE": "03 - Média", "CD_FAZ": " 400056", "TALHOES": "1", "FAZ_tAL": "400500001, 400056001", "ID_LINHA": 19706 }, "geometry": { "type": "MultiLineString", "coordinates": [ [ [ 418282.307555014034733, 7641118.132584815844893 ], [ 418293.111741605680436, 7641144.965483589097857 ], [ 418303.685767683258746, 7641166.692201002500951 ], [ 418316.721512851538137, 7641189.205023259855807 ], [ 418324.341960043821018, 7641200.670823374763131 ], [ 418332.789594756613951, 7641212.19313920289278 ], [ 418347.155391576408874, 7641229.402577826753259 ], [ 418363.718299696978647, 7641246.213923443108797 ], [ 418382.77035536483163, 7641262.33918989636004 ], [ 418397.166356896515936, 7641272.605705480091274 ], [ 418404.943890632654075, 7641277.537848494946957 ], [ 418421.778281114005949, 7641286.857373043894768 ], [ 418430.8798949921038, 7641291.170099215582013 ], [ 418450.538550783472601, 7641298.864524740725756 ], [ 418472.176213978091255, 7641304.922066749073565 ], [ 418483.644216291198973, 7641307.154112365096807 ], [ 418495.158979775907937, 7641308.729381675831974 ], [ 418517.180247970565688, 7641309.98638067767024 ], [ 418537.606806085910648, 7641309.189425853081048 ], [ 418547.228955762926489, 7641308.180565320886672 ], [ 418565.359905989316758, 7641305.196739437989891 ], [ 418588.923049599223305, 7641299.197744876146317 ] ] ] } },
{ "type": "Feature", "properties": { "fid": 301.0, "COMPR_M": 671.01, "CLASSE": "04 - Longa", "CD_FAZ": " 400056", "TALHOES": "1", "FAZ_tAL": "400500001, 400056001", "ID_LINHA": 19723 }, "geometry": { "type": "MultiLineString", "coordinates": [ [ [ 418115.799498385866173, 7641226.115954801440239 ], [ 418126.88703922147397, 7641249.330585119314492 ], [ 418136.008578784996644, 7641266.570664141327143 ], [ 418146.335759855457582, 7641284.436649941839278 ], [ 418158.008774649526458, 7641302.853023340925574 ], [ 418171.171818540547974, 7641321.718128890730441 ], [ 418185.966618800535798, 7641340.898165395483375 ], [ 418202.523343501903582, 7641360.22208210080862 ], [ 418211.497106844733935, 7641369.873550016433001 ], [ 418230.887667025905102, 7641389.005998550914228 ], [ 418241.346639061463065, 7641398.44674900919199 ], [ 418264.093874655198306, 7641417.102467918768525 ], [ 418276.506791461724788, 7641426.293356101959944 ], [ 418289.691600209451281, 7641435.35447870194912 ], [ 418303.709762687853072, 7641444.244132475927472 ], [ 418318.622906661068555, 7641452.90859464649111 ], [ 418334.490712633472867, 7641461.280569210648537 ], [ 418351.368033996899612, 7641469.27775152772665 ], [ 418369.301153191772755, 7641476.801738400943577 ], [ 418388.323138996725902, 7641483.737589728087187 ], [ 418408.448384462157264, 7641489.954421703703701 ], [ 418429.666573920811061, 7641495.307454226538539 ], [ 418451.776538906269707, 7641499.610771322622895 ], [ 418473.94405783287948, 7641502.643383527174592 ], [ 418495.34462653810624, 7641504.401752619072795 ], [ 418515.793245122942608, 7641505.037471869960427 ], [ 418535.279980450985022, 7641504.708954772911966 ], [ 418553.820083282887936, 7641503.558393001556396 ], [ 418571.446904084237758, 7641501.710260886698961 ], [ 418588.206032991816755, 7641499.27129589766264 ], [ 418604.150713379727677, 7641496.331391755491495 ], [ 418633.828540269401856, 7641489.232516095973551 ], [ 418647.682328150956891, 7641485.181597551330924 ], [ 418667.803866441885475, 7641478.386333087459207 ] ] ] } },
{ "type": "Feature", "properties": { "fid": 305.0, "COMPR_M": 649.9, "CLASSE": "04 - Longa", "CD_FAZ": " 400056", "TALHOES": "1", "FAZ_tAL": "400500001, 400056001", "ID_LINHA": 19727 }, "geometry": { "type": "MultiLineString", "coordinates": [ [ [ 418128.521911909454502, 7641217.86524841375649 ], [ 418140.26778974046465, 7641242.550320310518146 ], [ 418149.137954425765201, 7641259.315375184640288 ], [ 418159.171460414188914, 7641276.673390055075288 ], [ 418170.50291827408364, 7641294.550979245454073 ], [ 418183.270764593267813, 7641312.849777301773429 ], [ 418197.611077067325823, 7641331.440695386379957 ], [ 418213.648885661154054, 7641350.159043310210109 ], [ 418222.337690079002641, 7641359.504032013937831 ], [ 418241.105408001283649, 7641378.021992772817612 ], [ 418251.224776864750311, 7641387.156201748177409 ], [ 418273.222834710148163, 7641405.197600377723575 ], [ 418285.220363807689864, 7641414.080923302099109 ], [ 418311.497003299067728, 7641431.42057216912508 ], [ 418325.893457234080415, 7641439.784840008243918 ], [ 418341.205140977515839, 7641447.863400274887681 ], [ 418357.484330996754579, 7641455.577162886969745 ], [ 418374.775112047675066, 7641462.831651536747813 ], [ 418393.108939903147984, 7641469.516584729775786 ], [ 418412.499420967884362, 7641475.506442738696933 ], [ 418432.936546232318506, 7641480.662424419075251 ], [ 418454.227898704702966, 7641484.806412940844893 ], [ 418475.575974905514158, 7641487.72692184522748 ], [ 418496.192392425145954, 7641489.420861476100981 ], [ 418515.899937649664935, 7641490.033541779965162 ], [ 418534.688717412936967, 7641489.716791164129972 ], [ 418552.572908113594167, 7641488.606933992356062 ], [ 418569.583984982513357, 7641486.823361225426197 ], [ 418585.765121342730708, 7641484.468511803075671 ], [ 418601.166805118613411, 7641481.628726192750037 ], [ 418629.85177123057656, 7641474.767238600179553 ], [ 418643.249557735223789, 7641470.849657194688916 ], [ 418661.777916701918002, 7641464.613378307782114 ] ] ] } },
{ "type": "Feature", "properties": { "fid": 306.0, "COMPR_M": 645.87, "CLASSE": "04 - Longa", "CD_FAZ": " 400056", "TALHOES": "1", "FAZ_tAL": "400500001, 400056001", "ID_LINHA": 19728 }, "geometry": { "type": "MultiLineString", "coordinates": [ [ [ 418131.066394613590091, 7641216.215107136406004 ], [ 418142.943939844262786, 7641241.194267347455025 ], [ 418151.763829552277457, 7641257.864317396655679 ], [ 418161.738600524375215, 7641275.120738077908754 ], [ 418173.001746998052113, 7641292.890570426359773 ], [ 418185.69055380357895, 7641311.076106983236969 ], [ 418199.939968719845638, 7641329.549201379530132 ], [ 418215.873994094028603, 7641348.146435551345348 ], [ 418224.505806725821458, 7641357.430128414183855 ], [ 418243.148956196208019, 7641375.825191617943347 ], [ 418253.200404425268061, 7641384.898092297837138 ], [ 418275.048626720963512, 7641402.816626871004701 ], [ 418286.963078276487067, 7641411.638436740264297 ], [ 418313.054451421834528, 7641428.855860109440982 ], [ 418327.34756734885741, 7641437.160089082084596 ], [ 418342.548026647244114, 7641445.179966488853097 ], [ 418358.707590397039894, 7641452.837045159190893 ], [ 418375.869903819868341, 7641460.03763416595757 ], [ 418394.066100084222853, 7641466.672383729368448 ], [ 418413.309628269344103, 7641472.616846945136786 ], [ 418433.590540694654919, 7641477.733418460935354 ], [ 418454.718170663691126, 7641481.845541265793145 ], [ 418475.90235831955215, 7641484.743629509583116 ], [ 418496.361945602635387, 7641486.424683244898915 ], [ 418515.921276154520456, 7641487.032755762338638 ], [ 418534.570464805001393, 7641486.718358440324664 ], [ 418552.323473081283737, 7641485.616642186418176 ], [ 418569.211401162785478, 7641483.845981294289231 ], [ 418585.276939014496747, 7641481.50795498304069 ], [ 418600.570023466192652, 7641478.688193080946803 ], [ 418629.056417424289975, 7641471.874183099716902 ], [ 418642.363003652659245, 7641467.983269121497869 ], [ 418660.761494750506245, 7641461.790810962207615 ] ] ] } },
{ "type": "Feature", "properties": { "fid": 307.0, "COMPR_M": 641.85, "CLASSE": "04 - Longa", "CD_FAZ": " 400056", "TALHOES": "1", "FAZ_tAL": "400500001, 400056001", "ID_LINHA": 19729 }, "geometry": { "type": "MultiLineString", "coordinates": [ [ [ 418133.610877318424173, 7641214.564965857192874 ], [ 418145.620089947711676, 7641239.838214386254549 ], [ 418154.389704680070281, 7641256.413259605877101 ], [ 418164.305740636307746, 7641273.568086100742221 ], [ 418175.500575723417569, 7641291.230161609128118 ], [ 418188.110343013191596, 7641309.302436666563153 ], [ 418202.268860373296775, 7641327.657707376405597 ], [ 418218.099102524574846, 7641346.133827792480588 ], [ 418226.673923372814897, 7641355.356224811635911 ], [ 418245.192504390375689, 7641373.628390464931726 ], [ 418255.176031985902227, 7641382.639982847496867 ], [ 418276.874418731022161, 7641400.435653362423182 ], [ 418288.70579274604097, 7641409.19595018029213 ], [ 418314.611899543029722, 7641426.291148047894239 ], [ 418328.801677463110536, 7641434.535338154062629 ], [ 418343.890912315691821, 7641442.496532700024545 ], [ 418359.930849797441624, 7641450.096927432343364 ], [ 418376.964695590082556, 7641457.243616789579391 ], [ 418395.023260266287252, 7641463.82818272896111 ], [ 418414.119835570338182, 7641469.727251151576638 ], [ 418434.24453515780624, 7641474.80441250000149 ], [ 418455.208442623843439, 7641478.884669587016106 ], [ 418476.228741734579671, 7641481.760337171144783 ], [ 418496.531498779659159, 7641483.428505016490817 ], [ 418515.942614660016261, 7641484.031969740986824 ], [ 418534.452212197356857, 7641483.719925720244646 ], [ 418552.074038046703208, 7641482.626350386068225 ], [ 418568.838817342009861, 7641480.868601362220943 ], [ 418584.788756684341934, 7641478.547398165799677 ], [ 418599.973241814062931, 7641475.747659965418279 ], [ 418628.2610636157915, 7641468.981127601116896 ], [ 418641.476449570734985, 7641465.116881050169468 ], [ 418659.745072800898924, 7641458.968243616633117 ] ] ] } },
{ "type": "Feature", "properties": { "fid": 311.0, "COMPR_M": 620.75, "CLASSE": "04 - Longa", "CD_FAZ": " 400056", "TALHOES": "1", "FAZ_tAL": "400500001, 400056001", "ID_LINHA": 19733 }, "geometry": { "type": "MultiLineString", "coordinates": [ [ [ 418146.385139901889488, 7641206.280634451657534 ], [ 418155.117788202594966, 7641225.229373401030898 ], [ 418167.519080318917986, 7641249.15797065012157 ], [ 418177.141441194806248, 7641265.804826213046908 ], [ 418187.994719347392675, 7641282.928117511793971 ], [ 418200.209289066318888, 7641300.434085075743496 ], [ 418213.913318640552461, 7641318.200237361714244 ], [ 418229.22464468452381, 7641336.070789000950754 ], [ 418237.514506607083604, 7641344.986706808209419 ], [ 418255.410245365463197, 7641362.644384684972465 ], [ 418265.054169788199943, 7641371.349435582756996 ], [ 418286.003378786786925, 7641388.530785823240876 ], [ 418297.4193650916568, 7641396.98351738229394 ], [ 418322.399140154651832, 7641413.467587741091847 ], [ 418336.072228036355227, 7641421.411583514884114 ], [ 418350.605340659851208, 7641429.079363765195012 ], [ 418366.047146796656307, 7641436.396338790655136 ], [ 418382.43865444639232, 7641443.273529929108918 ], [ 418399.809061172127258, 7641449.60717773064971 ], [ 418418.170872075832449, 7641455.279272183775902 ], [ 418437.514507470477838, 7641460.159382691606879 ], [ 418457.65980242221849, 7641464.080311207100749 ], [ 418477.860658806574065, 7641466.843875491991639 ], [ 418497.379264666698873, 7641468.447613868862391 ], [ 418516.049307186272927, 7641469.028039650991559 ], [ 418533.860949160705786, 7641468.72776211053133 ], [ 418550.826862876769155, 7641467.674891378730536 ], [ 418566.975898240401875, 7641465.981701705604792 ], [ 418582.34784503566334, 7641463.744614070281386 ], [ 418596.989333553996403, 7641461.044994407333434 ], [ 418624.284294579818379, 7641454.515850107185543 ], [ 418653.719123062735889, 7641445.195288835093379 ] ] ] } },
{ "type": "Feature", "properties": { "fid": 312.0, "COMPR_M": 616.73, "CLASSE": "04 - Longa", "CD_FAZ": " 400056", "TALHOES": "1", "FAZ_tAL": "400500001, 400056001", "ID_LINHA": 19734 }, "geometry": { "type": "MultiLineString", "coordinates": [ [ [ 418148.935808965179604, 7641204.626481212675571 ], [ 418157.816235834790859, 7641223.918274223804474 ], [ 418170.14495544572128, 7641247.70691285841167 ], [ 418179.708581305341795, 7641264.25217423401773 ], [ 418190.493548072641715, 7641281.267708692699671 ], [ 418202.629078276921064, 7641298.660414760001004 ], [ 418216.242210294120014, 7641316.308743361383677 ], [ 418231.449753116699867, 7641334.058181244879961 ], [ 418239.682623253494967, 7641342.912803208455443 ], [ 418257.453793560503982, 7641360.447583531029522 ], [ 418267.029797347320709, 7641369.091326132416725 ], [ 418287.829170797485858, 7641386.149812314659357 ], [ 418299.162079559871927, 7641394.541030822321773 ], [ 418323.956588277244009, 7641410.902875678613782 ], [ 418337.52633815119043, 7641418.786832587793469 ], [ 418351.948226329637691, 7641426.395929979160428 ], [ 418367.270406194904353, 7641433.65622106846422 ], [ 418383.533446217363235, 7641440.479512555524707 ], [ 418400.766221354424488, 7641446.762976730242372 ], [ 418418.981079378107097, 7641452.389676391147077 ], [ 418438.168501932697836, 7641457.230376730673015 ], [ 418458.150074382894672, 7641461.119439530186355 ], [ 418478.187042219680734, 7641463.86058315448463 ], [ 418497.548817843955476, 7641465.451435640454292 ], [ 418516.070645692874677, 7641466.02725363150239 ], [ 418533.742696551023982, 7641465.729329392313957 ], [ 418550.57742784236325, 7641464.684599574655294 ], [ 418566.603314419626258, 7641463.004321772605181 ], [ 418581.859662706265226, 7641460.784057252109051 ], [ 418596.39255190192489, 7641458.10446129180491 ], [ 418623.488940770388581, 7641451.622794606722891 ], [ 418652.702701111906208, 7641442.372721488587558 ] ] ] } },
{ "type": "Feature", "properties": { "fid": 313.0, "COMPR_M": 612.71, "CLASSE": "04 - Longa", "CD_FAZ": " 400056", "TALHOES": "1", "FAZ_tAL": "400500001, 400056001", "ID_LINHA": 19735 }, "geometry": { "type": "MultiLineString", "coordinates": [ [ [ 418151.486478027887642, 7641202.972327973693609 ], [ 418160.514683467918076, 7641222.60717504657805 ], [ 418172.770830573164858, 7641246.255855067633092 ], [ 418182.275721418322064, 7641262.699522258713841 ], [ 418192.992376797366887, 7641279.607299876399338 ], [ 418205.048867487406824, 7641296.886744439601898 ], [ 418218.571101945941336, 7641314.417249359190464 ], [ 418233.67486154922517, 7641332.045573486015201 ], [ 418241.850739900779445, 7641340.838899606838822 ], [ 418259.497341756010428, 7641358.250782376155257 ], [ 418269.005424908478744, 7641366.833216680213809 ], [ 418289.654962809348945, 7641383.768838807009161 ], [ 418300.90479402942583, 7641392.098544262349606 ], [ 418325.514036398148164, 7641408.338163618929684 ], [ 418338.980448265909217, 7641416.162081660702825 ], [ 418353.291111998725682, 7641423.712496190331876 ], [ 418368.493665596586652, 7641430.916103336028755 ], [ 418384.628237988916226, 7641437.685495184734464 ], [ 418401.723381535732187, 7641443.918775729835033 ], [ 418419.791286677296739, 7641449.50008059758693 ], [ 418438.822496394976042, 7641454.301370770670474 ], [ 418458.640346342115663, 7641458.158567856065929 ], [ 418478.513425636454485, 7641460.87729082070291 ], [ 418497.718371021444909, 7641462.455257411114872 ], [ 418516.091984198777936, 7641463.026467613875866 ], [ 418533.624443944368977, 7641462.730896667577326 ], [ 418550.32799280830659, 7641461.694307770580053 ], [ 418566.23073059914168, 7641460.026941840536892 ], [ 418581.371480377507396, 7641457.82350043579936 ], [ 418595.795770250202622, 7641455.163928179070354 ], [ 418622.693586964043789, 7641448.729739110916853 ], [ 418651.686279162880965, 7641439.550154142081738 ] ] ] } },
{ "type": "Feature", "properties": { "fid": 316.0, "COMPR_M": 595.62, "CLASSE": "03 - Média", "CD_FAZ": " 400056", "TALHOES": "1", "FAZ_tAL": "400500001, 400056001", "ID_LINHA": 19738 }, "geometry": { "type": "MultiLineString", "coordinates": [ [ [ 418161.689154283259995, 7641196.355715015903115 ], [ 418171.308473996003158, 7641217.362778343260288 ], [ 418179.041632840060629, 7641232.619692359119654 ], [ 418187.770258862932678, 7641248.410642678849399 ], [ 418197.611613279557787, 7641264.677394330501556 ], [ 418208.688028852571733, 7641281.341770609840751 ], [ 418221.122745079337619, 7641298.301051302812994 ], [ 418242.575295275310054, 7641323.995142454281449 ], [ 418258.88600323459832, 7641341.041671120561659 ], [ 418267.671534535533283, 7641349.463577752932906 ], [ 418286.651521430118009, 7641366.062395317479968 ], [ 418296.958130851911847, 7641374.244944771751761 ], [ 418319.453840522735845, 7641390.285587655380368 ], [ 418331.743828887934797, 7641398.079315373674035 ], [ 418344.796888724085875, 7641405.663077948614955 ], [ 418358.66265467449557, 7641412.978761043399572 ], [ 418373.386703196913004, 7641419.955632424913347 ], [ 418389.007405072916299, 7641426.50942569412291 ], [ 418405.552022260497324, 7641432.541971730999649 ], [ 418423.032115883426741, 7641437.941697423346341 ], [ 418441.438474245369434, 7641442.585346926003695 ], [ 418460.601434179698117, 7641446.315081149339676 ], [ 418479.818959293770604, 7641448.944121476262808 ], [ 418498.396583730413113, 7641450.470544493757188 ], [ 418516.177338219422381, 7641451.023323537781835 ], [ 418533.151433514140081, 7641450.737165781669319 ], [ 418549.330252672894858, 7641449.733140562660992 ], [ 418564.740395318600349, 7641448.117422114126384 ], [ 418579.418751057353802, 7641445.981273157522082 ], [ 418593.408643640694208, 7641443.401795729063451 ], [ 418619.51217173418263, 7641437.157517112791538 ], [ 418646.676751370774582, 7641428.599766708910465 ] ] ] } },
{ "type": "Feature", "properties": { "fid": 317.0, "COMPR_M": 591.6, "CLASSE": "03 - Média", "CD_FAZ": " 400056", "TALHOES": "1", "FAZ_tAL": "400500001, 400056001", "ID_LINHA": 19739 }, "geometry": { "type": "MultiLineString", "coordinates": [ [ [ 418164.239823346957564, 7641194.701561778783798 ], [ 418174.006921628315467, 7641216.051679166033864 ], [ 418181.693635709234513, 7641231.216979778371751 ], [ 418190.367892405076418, 7641246.909589575603604 ], [ 418200.145866461738478, 7641263.071599202230573 ], [ 418211.148750792548526, 7641279.625367476604879 ], [ 418223.498635498515796, 7641296.468968070112169 ], [ 418244.800403708417434, 7641321.982534697279334 ], [ 418260.993621181696653, 7641338.906287932768464 ], [ 418269.715082730166614, 7641347.266776595264673 ], [ 418288.554771230497863, 7641363.742916543968022 ], [ 418298.783922863192856, 7641371.863971266895533 ], [ 418321.107298317481764, 7641387.78176037594676 ], [ 418333.301277010643389, 7641395.51460331119597 ], [ 418346.250998838688247, 7641403.038327020592988 ], [ 418360.00554034288507, 7641410.295327255502343 ], [ 418374.609962596325204, 7641417.21551469899714 ], [ 418390.102196844061837, 7641423.715408321470022 ], [ 418406.509182441630401, 7641429.69777073059231 ], [ 418423.842323183722328, 7641435.052101630717516 ], [ 418442.09246870863717, 7641439.656340964138508 ], [ 418461.091706141014583, 7641443.354209476150572 ], [ 418480.145342707110103, 7641445.960829138755798 ], [ 418498.566136908484623, 7641447.474366264417768 ], [ 418516.198676725791302, 7641448.022537521086633 ], [ 418533.033180906437337, 7641447.738733059726655 ], [ 418549.080817640468013, 7641446.742848760448396 ], [ 418564.367811498465016, 7641445.140042182058096 ], [ 418578.930568728712387, 7641443.020716337487102 ], [ 418592.811861988622695, 7641440.461262617260218 ], [ 418618.716817927896045, 7641434.264461614191532 ], [ 418645.660329419362824, 7641425.777199367061257 ] ] ] } },
{ "type": "Feature", "properties": { "fid": 318.0, "COMPR_M": 587.58, "CLASSE": "03 - Média", "CD_FAZ": " 400056", "TALHOES": "1", "FAZ_tAL": "400500001, 400056001", "ID_LINHA": 19740 }, "geometry": { "type": "MultiLineString", "coordinates": [ [ [ 418166.790492411411833, 7641193.047408539801836 ], [ 418176.705369260860607, 7641214.740579990670085 ], [ 418184.345638578874059, 7641229.814267194829881 ], [ 418192.965525945648551, 7641245.408536471426487 ], [ 418202.680119643744547, 7641261.465804073959589 ], [ 418213.609472731768619, 7641277.908964345231652 ], [ 418225.874525917228311, 7641294.636884832754731 ], [ 418247.025512139895, 7641319.969926937483251 ], [ 418263.101239129086025, 7641336.770904744043946 ], [ 418271.758630925207399, 7641345.069975441321731 ], [ 418290.458021031576209, 7641361.423437767662108 ], [ 418300.609714873018675, 7641369.482997760176659 ], [ 418322.760756113682874, 7641385.27793309558183 ], [ 418334.858725132304244, 7641392.949891250580549 ], [ 418347.705108953348827, 7641400.413576094433665 ], [ 418361.348426011973061, 7641407.611893469467759 ], [ 418375.833221996552311, 7641414.475396972149611 ], [ 418391.196988615090959, 7641420.921390950679779 ], [ 418407.466342623112723, 7641426.853569731116295 ], [ 418424.652530485531315, 7641432.162505835294724 ], [ 418442.746463170624338, 7641436.727335000410676 ], [ 418461.581978100119159, 7641440.393337797373533 ], [ 418480.471726120682433, 7641442.977536803111434 ], [ 418498.735690086032264, 7641444.478188036009669 ], [ 418516.220015228842385, 7641445.021751504391432 ], [ 418532.914928299025632, 7641444.74030033685267 ], [ 418548.831382606585976, 7641443.752556957304478 ], [ 418578.442386399372481, 7641440.060159519314766 ], [ 418592.215080336958636, 7641437.520729502663016 ], [ 418617.921464120736346, 7641431.371406116522849 ], [ 418644.643907468416728, 7641422.954632017761469 ] ] ] } },
{ "type": "Feature", "properties": { "fid": 319.0, "COMPR_M": 583.56, "CLASSE": "03 - Média", "CD_FAZ": " 400056", "TALHOES": "1", "FAZ_tAL": "400500001, 400056001", "ID_LINHA": 19741 }, "geometry": { "type": "MultiLineString", "coordinates": [ [ [ 418169.341161475284025, 7641191.393255300819874 ], [ 418179.403816892241593, 7641213.429480815306306 ], [ 418186.997641447524074, 7641228.411554610356688 ], [ 418195.563159487966914, 7641243.90748336724937 ], [ 418205.214372826099861, 7641259.86000894382596 ], [ 418216.070194673025981, 7641276.19256121199578 ], [ 418228.25041633611545, 7641292.804801595397294 ], [ 418249.250620573060587, 7641317.957319179549813 ], [ 418265.208857076824643, 7641334.635521555319428 ], [ 418273.802179120131768, 7641342.873174287378788 ], [ 418292.361270831315778, 7641359.103958990424871 ], [ 418302.435506883484777, 7641367.102024249732494 ], [ 418324.414213906566147, 7641382.774105816148221 ], [ 418336.416173254314344, 7641390.385179189033806 ], [ 418349.159219068009406, 7641397.78882516734302 ], [ 418362.691311681061052, 7641404.92845968157053 ], [ 418377.056481396197341, 7641411.735279241576791 ], [ 418392.291780386702158, 7641418.1273735743016 ], [ 418408.4235028042458, 7641424.009368732571602 ], [ 418425.462737786874641, 7641429.272910041734576 ], [ 418443.400457632727921, 7641433.79832904227078 ], [ 418462.072250060271472, 7641437.432466121390462 ], [ 418480.798109536408447, 7641439.99424446746707 ], [ 418498.905243262590375, 7641441.482009805738926 ], [ 418516.24135373585159, 7641442.020965484902263 ], [ 418532.796675691264682, 7641441.741867615841329 ], [ 418548.581947572471108, 7641440.762265154160559 ], [ 418577.954204068752006, 7641437.09960270114243 ], [ 418591.618298684246838, 7641434.580196390859783 ], [ 418617.126110313285608, 7641428.478350615128875 ], [ 418643.627485520031769, 7641420.132064670324326 ] ] ] } },
{ "type": "Feature", "properties": { "fid": 322.0, "COMPR_M": 566.48, "CLASSE": "03 - Média", "CD_FAZ": " 400056", "TALHOES": "1", "FAZ_tAL": "400500001, 400056001", "ID_LINHA": 19744 }, "geometry": { "type": "MultiLineString", "coordinates": [ [ [ 418179.57384500693297, 7641184.757182100787759 ], [ 418186.80128845886793, 7641201.04716238938272 ], [ 418197.605652923113666, 7641222.800704285502434 ], [ 418205.95369365386432, 7641237.903270951472223 ], [ 418215.351385556452442, 7641253.436828427016735 ], [ 418225.913082433806267, 7641269.326948679983616 ], [ 418237.753978010150604, 7641285.476468650624156 ], [ 418258.151054299611133, 7641309.906888145953417 ], [ 418273.639328865683638, 7641326.093988802284002 ], [ 418281.976371900411323, 7641334.085969665087759 ], [ 418299.974270032951608, 7641349.826043892651796 ], [ 418309.738674928550608, 7641357.578130219131708 ], [ 418331.028045088925865, 7641372.758796691894531 ], [ 418342.645965743693523, 7641380.126330942846835 ], [ 418368.062854356016032, 7641394.194724531844258 ], [ 418381.949518996174447, 7641400.774808330461383 ], [ 418396.670947470702231, 7641406.951304086484015 ], [ 418412.252143529069144, 7641412.632564732804894 ], [ 418428.70356699032709, 7641417.714526869356632 ], [ 418446.016435481666122, 7641422.082305196672678 ], [ 418464.033337899367325, 7641425.588979415595531 ], [ 418482.103643194714095, 7641428.061075121164322 ], [ 418499.583455971849617, 7641429.497296886518598 ], [ 418516.326707756845281, 7641430.017821412533522 ], [ 418532.323665260220878, 7641429.748136729001999 ], [ 418547.584207437932491, 7641428.801097947172821 ], [ 418576.001474750461057, 7641425.257375423796475 ], [ 418601.864173179375939, 7641420.017906146124005 ], [ 418625.518476076016668, 7641413.521895770914853 ], [ 418638.617957729438785, 7641409.181677236221731 ] ] ] } },
{ "type": "Feature", "properties": { "fid": 323.0, "COMPR_M": 562.46, "CLASSE": "03 - Média", "CD_FAZ": " 400056", "TALHOES": "1", "FAZ_tAL": "400500001, 400056001", "ID_LINHA": 19745 }, "geometry": { "type": "MultiLineString", "coordinates": [ [ [ 418182.131250762147829, 7641183.098660002462566 ], [ 418189.520445975358598, 7641199.779588436707854 ], [ 418200.257655793626327, 7641221.397991701960564 ], [ 418208.551327194902115, 7641236.402217846363783 ], [ 418217.885638738865964, 7641251.831033297814429 ], [ 418228.373804374248721, 7641267.610545547679067 ], [ 418240.129868429328781, 7641283.644385414198041 ], [ 418260.376162731321529, 7641307.894280387088656 ], [ 418275.746946813771501, 7641323.958605612628162 ], [ 418284.019920094346162, 7641331.889168512076139 ], [ 418301.877519833971746, 7641347.506565116345882 ], [ 418311.564466938376427, 7641355.197156709618866 ], [ 418332.681502883264329, 7641370.254969411529601 ], [ 418344.20341386605287, 7641377.561618884094059 ], [ 418369.405740024987608, 7641391.511290743947029 ], [ 418383.172778396168724, 7641398.034690603613853 ], [ 418397.76573924254626, 7641404.157286712899804 ], [ 418413.209303710667882, 7641409.788363732397556 ], [ 418429.513774292077869, 7641414.82493107393384 ], [ 418446.670429945341311, 7641419.153299236670136 ], [ 418464.523609859053977, 7641422.628107741475105 ], [ 418482.430026608984917, 7641425.077782785519958 ], [ 418499.753009149571881, 7641426.501118659041822 ], [ 418516.348046262341086, 7641427.017035393044353 ], [ 418532.205412652809173, 7641426.749704005196691 ], [ 418547.334772404108662, 7641425.810806144028902 ], [ 418575.513292420597281, 7641422.296818606555462 ], [ 418601.165202727657743, 7641417.100023610517383 ], [ 418624.63192199356854, 7641410.655507697723806 ], [ 418637.601535779947881, 7641406.359109892509878 ] ] ] } },
{ "type": "Feature", "properties": { "fid": 324.0, "COMPR_M": 558.44, "CLASSE": "03 - Média", "CD_FAZ": " 400056", "TALHOES": "1", "FAZ_tAL": "400500001, 400056001", "ID_LINHA": 19746 }, "geometry": { "type": "MultiLineString", "coordinates": [ [ [ 418184.688656516605988, 7641181.440137900412083 ], [ 418192.239603494061157, 7641198.512014482170343 ], [ 418202.909658661868889, 7641219.995279120281339 ], [ 418211.148960736289155, 7641234.901164744049311 ], [ 418220.419891920406371, 7641250.225238168612123 ], [ 418230.834526314749382, 7641265.894142415374517 ], [ 418242.505758847983088, 7641281.812302177771926 ], [ 418262.601271163439378, 7641305.881672630086541 ], [ 418277.854564760753419, 7641321.823222426697612 ], [ 418286.063468290143646, 7641329.692367354407907 ], [ 418303.780769634409808, 7641345.187086340039968 ], [ 418313.390258950006682, 7641352.816183203831315 ], [ 418334.33496067894157, 7641367.75114213116467 ], [ 418345.760861988121178, 7641374.996906821615994 ], [ 418370.748625694017392, 7641388.827856957912445 ], [ 418384.396037796337623, 7641395.294572873972356 ], [ 418398.860531013517175, 7641401.363269340246916 ], [ 418414.166463891917374, 7641406.944162733852863 ], [ 418430.323981592664495, 7641411.935335280373693 ], [ 418447.324424407153856, 7641416.22429327480495 ], [ 418465.013881819089875, 7641419.667236061766744 ], [ 418482.756410023604985, 7641422.094490449875593 ], [ 418499.922562326886691, 7641423.504940431565046 ], [ 418516.369384767836891, 7641424.016249375417829 ], [ 418532.087160045630299, 7641423.751271285116673 ], [ 418547.085337370750494, 7641422.820514339953661 ], [ 418575.025110090035014, 7641419.336261786520481 ], [ 418600.466232274891809, 7641414.18214107491076 ], [ 418623.745367909083143, 7641407.789119627326727 ], [ 418636.585113829001784, 7641403.536542546004057 ] ] ] } },
{ "type": "Feature", "properties": { "fid": 325.0, "COMPR_M": 554.42, "CLASSE": "03 - Média", "CD_FAZ": " 400056", "TALHOES": "1", "FAZ_tAL": "400500001, 400056001", "ID_LINHA": 19747 }, "geometry": { "type": "MultiLineString", "coordinates": [ [ [ 418187.246062271646224, 7641179.781615801155567 ], [ 418194.958761009038426, 7641197.244440528564155 ], [ 418205.561661530518904, 7641218.592566540464759 ], [ 418213.746594276744872, 7641233.400111638009548 ], [ 418222.954145101713948, 7641248.619443040341139 ], [ 418233.295248254493345, 7641264.177739282138646 ], [ 418244.881649265473243, 7641279.980218945071101 ], [ 418264.826379593927413, 7641303.869064869359136 ], [ 418279.962182708084583, 7641319.687839235179126 ], [ 418288.107016484369524, 7641327.495566199533641 ], [ 418305.684019435488153, 7641342.867607567459345 ], [ 418315.216050960880239, 7641350.435209695249796 ], [ 418335.988418474618811, 7641365.247314852662385 ], [ 418347.318310109141748, 7641372.432194761000574 ], [ 418372.091511363047175, 7641386.144423170015216 ], [ 418385.619297195866238, 7641392.554455146193504 ], [ 418399.955322783091106, 7641398.569251967594028 ], [ 418415.123624072235543, 7641404.09996173158288 ], [ 418431.134188894124236, 7641409.04573948867619 ], [ 418447.978418870363384, 7641413.295287312939763 ], [ 418465.504153778310865, 7641416.706364386714995 ], [ 418483.082793437759392, 7641419.111198114231229 ], [ 418500.092115504434332, 7641420.508762201294303 ], [ 418516.390723273274489, 7641421.015463355928659 ], [ 418531.968907438218594, 7641420.752838561311364 ], [ 418546.835902336519212, 7641419.830222537741065 ], [ 418574.53692776162643, 7641416.3757049664855 ], [ 418599.76726182224229, 7641411.264258539304137 ], [ 418622.858813827275299, 7641404.922731555998325 ], [ 418635.568691878579557, 7641400.713975200429559 ] ] ] } },
{ "type": "Feature", "properties": { "fid": 326.0, "COMPR_M": 545.38, "CLASSE": "03 - Média", "CD_FAZ": " 400056", "TALHOES": "1", "FAZ_tAL": "400500001, 400056001", "ID_LINHA": 19748 }, "geometry": { "type": "MultiLineString", "coordinates": [ [ [ 418192.360873782192357, 7641176.464571600779891 ], [ 418200.397076043765992, 7641194.709292618557811 ], [ 418207.171542337164283, 7641208.648996267467737 ], [ 418218.941861360974144, 7641230.398005433380604 ], [ 418228.022651468112599, 7641245.407852780073881 ], [ 418238.216692135320045, 7641260.744933019392192 ], [ 418249.633430103771389, 7641276.316052470356226 ], [ 418269.276596458570566, 7641299.843849356286228 ], [ 418284.177418602455873, 7641315.417072860524058 ], [ 418292.194112874858547, 7641323.101963886991143 ], [ 418309.4905190350255, 7641338.228650014847517 ], [ 418318.867634982278105, 7641345.67326267901808 ], [ 418339.29533406480914, 7641360.239660291001201 ], [ 418350.433206354209688, 7641367.302770637907088 ], [ 418374.777282700350042, 7641380.777555594220757 ], [ 418388.065815995796584, 7641387.0742196906358 ], [ 418402.144906327244826, 7641392.981217223219573 ], [ 418417.037944436538965, 7641398.411559732630849 ], [ 418432.75460349698551, 7641403.266547903418541 ], [ 418449.286407794221304, 7641407.437275391072035 ], [ 418466.484697698033415, 7641410.784621035680175 ], [ 418483.735560266824905, 7641413.144613441079855 ], [ 418500.431221858365461, 7641414.516405742615461 ], [ 418516.433400284033269, 7641415.013891320675611 ], [ 418531.73240222298773, 7641414.755973121151328 ], [ 418546.337032268173061, 7641413.849638935178518 ], [ 418560.269389473542105, 7641412.388862931169569 ], [ 418573.560563102713786, 7641410.454591331072152 ], [ 418598.369320919504389, 7641405.428493468090892 ], [ 418621.085705661564134, 7641399.189955413341522 ], [ 418632.592007990169805, 7641395.408722456544638 ] ] ] } },
{ "type": "Feature", "properties": { "fid": 327.0, "COMPR_M": 541.36, "CLASSE": "03 - Média", "CD_FAZ": " 400056", "TALHOES": "1", "FAZ_tAL": "400500001, 400056001", "ID_LINHA": 19749 }, "geometry": { "type": "MultiLineString", "coordinates": [ [ [ 418194.918279536999762, 7641174.806049497798085 ], [ 418203.116233560896944, 7641193.44171866029501 ], [ 418209.847692440613173, 7641207.292943302541971 ], [ 418221.539494902594015, 7641228.896952329203486 ], [ 418230.556904649245553, 7641243.80205765273422 ], [ 418240.677414074365515, 7641259.028529886156321 ], [ 418252.009320523124188, 7641274.483969233930111 ], [ 418271.501704891503323, 7641297.83124159835279 ], [ 418286.285036550136283, 7641313.281689673662186 ], [ 418294.23766106920084, 7641320.90516272932291 ], [ 418311.393768836103845, 7641335.909171240404248 ], [ 418320.693426993442699, 7641343.292289168573916 ], [ 418340.948791860544588, 7641357.735833009704947 ], [ 418351.990654475579504, 7641364.738058576360345 ], [ 418376.120168369961902, 7641378.094121811911464 ], [ 418389.289075395558029, 7641384.334101963788271 ], [ 418403.239698098506778, 7641390.187199851498008 ], [ 418417.995104618545156, 7641395.567358733154833 ], [ 418433.564810798503458, 7641400.376952107995749 ], [ 418449.940402256848756, 7641404.508269429206848 ], [ 418466.974969657836482, 7641407.823749357834458 ], [ 418484.061943681677803, 7641410.161321105435491 ], [ 418500.600775036669802, 7641411.520227511413395 ], [ 418516.454738789354451, 7641412.01310530025512 ], [ 418531.614149615168571, 7641411.75754039734602 ], [ 418546.08759723464027, 7641410.859347131103277 ], [ 418559.896805654047057, 7641409.411482999101281 ], [ 418573.07238077162765, 7641407.494034511968493 ], [ 418597.670350467378739, 7641402.510610933415592 ], [ 418620.199151578301098, 7641396.323567342944443 ], [ 418631.575586039689369, 7641392.58615511097014 ] ] ] } },
{ "type": "Feature", "properties": { "fid": 328.0, "COMPR_M": 537.34, "CLASSE": "03 - Média", "CD_FAZ": " 400056", "TALHOES": "1", "FAZ_tAL": "400500001, 400056001", "ID_LINHA": 19750 }, "geometry": { "type": "MultiLineString", "coordinates": [ [ [ 418197.475685292389244, 7641173.147527396678925 ], [ 418205.835391076223459, 7641192.174144705757499 ], [ 418212.523842544993386, 7641205.936890341341496 ], [ 418224.13712844409747, 7641227.395899225026369 ], [ 418233.091157831600867, 7641242.196262520737946 ], [ 418243.13813601603033, 7641257.312126752920449 ], [ 418254.385210941371042, 7641272.651885997503996 ], [ 418273.726813322748058, 7641295.818633841350675 ], [ 418288.392654496128671, 7641311.146306486800313 ], [ 418296.281209263950586, 7641318.708361577242613 ], [ 418313.297018635843415, 7641333.589692465029657 ], [ 418322.519219003792387, 7641340.911315659992397 ], [ 418342.60224965569796, 7641355.232005732133985 ], [ 418353.548102599277627, 7641362.173346513882279 ], [ 418377.463054038933478, 7641375.410688020288944 ], [ 418390.512334796076175, 7641381.593984236940742 ], [ 418404.334489868371747, 7641387.393182478845119 ], [ 418418.952264798921533, 7641392.723157733678818 ], [ 418434.37501809943933, 7641397.487356316298246 ], [ 418450.594396718312055, 7641401.579263465479016 ], [ 418467.465241617406718, 7641404.862877679988742 ], [ 418484.388327095541172, 7641407.178028767928481 ], [ 418500.770328213868197, 7641408.524049285799265 ], [ 418516.476077294675633, 7641409.012319287285209 ], [ 418531.495897008338943, 7641408.759107675403357 ], [ 418559.524221833562478, 7641406.434103069826961 ], [ 418572.584198441938497, 7641404.533477690070868 ], [ 418596.971380014147144, 7641399.592728396877646 ], [ 418619.31259749509627, 7641393.457179272547364 ], [ 418630.55916409031488, 7641389.763587767258286 ] ] ] } },
{ "type": "Feature", "properties": { "fid": 329.0, "COMPR_M": 533.32, "CLASSE": "03 - Média", "CD_FAZ": " 400056", "TALHOES": "1", "FAZ_tAL": "400500001, 400056001", "ID_LINHA": 19751 }, "geometry": { "type": "MultiLineString", "coordinates": [ [ [ 418200.033091047720518, 7641171.489005296491086 ], [ 418208.554548593820073, 7641190.906570754945278 ], [ 418215.199992649024352, 7641204.580837378278375 ], [ 418226.734761984553188, 7641225.894846123643219 ], [ 418235.625411015527789, 7641240.590467392466962 ], [ 418245.598857955657877, 7641255.595723621547222 ], [ 418256.761101359850727, 7641270.819802761077881 ], [ 418275.951921754400246, 7641293.806026082485914 ], [ 418290.500272444449365, 7641309.010923294350505 ], [ 418298.324757457943633, 7641316.511560420505702 ], [ 418315.20026843692176, 7641331.270213690586388 ], [ 418324.345011015364435, 7641338.5303421523422 ], [ 418344.255707450211048, 7641352.728178449906409 ], [ 418355.105550720647443, 7641359.608634454198182 ], [ 418378.805939707846846, 7641372.72725423425436 ], [ 418391.735594194673467, 7641378.853866506367922 ], [ 418405.429281640739646, 7641384.599165106192231 ], [ 418419.909424978948664, 7641389.878956735134125 ], [ 418435.185225399967749, 7641394.597760521806777 ], [ 418451.248391181754414, 7641398.65025750733912 ], [ 418467.955513577384409, 7641401.902006004936993 ], [ 418484.714710509520955, 7641404.194736432284117 ], [ 418500.939881390018854, 7641405.527871054597199 ], [ 418516.497415799938608, 7641406.011533265933394 ], [ 418531.3776443998795, 7641405.760674955323339 ], [ 418559.151638012786862, 7641403.456723134964705 ], [ 418572.096016114170197, 7641401.572920873761177 ], [ 418596.272409561788663, 7641396.674845863133669 ], [ 418618.42604341119295, 7641390.590791201218963 ], [ 418629.542742140183691, 7641386.941020420752466 ] ] ] } },
{ "type": "Feature", "properties": { "fid": 330.0, "COMPR_M": 529.3, "CLASSE": "03 - Média", "CD_FAZ": " 400056", "TALHOES": "1", "FAZ_tAL": "400500001, 400056001", "ID_LINHA": 19752 }, "geometry": { "type": "MultiLineString", "coordinates": [ [ [ 418202.5904968023533, 7641169.830483196303248 ], [ 418211.273706109612249, 7641189.638996794819832 ], [ 418217.876142752589658, 7641203.224784417077899 ], [ 418229.332395524834283, 7641224.39379301853478 ], [ 418238.159664197941311, 7641238.984672263264656 ], [ 418248.059579895983916, 7641253.879320487380028 ], [ 418259.136991778446827, 7641268.987719526514411 ], [ 418278.177030187100172, 7641291.793418323621154 ], [ 418292.607890391780529, 7641306.875540105625987 ], [ 418300.368305653624702, 7641314.314759267494082 ], [ 418317.10351823864039, 7641328.950734915211797 ], [ 418326.170803025481291, 7641336.149368645623326 ], [ 418345.90916524536442, 7641350.224351167678833 ], [ 418356.662998843705282, 7641357.043922393582761 ], [ 418380.148825376061723, 7641370.043820446357131 ], [ 418392.95885359600652, 7641376.11374877858907 ], [ 418406.524073411012068, 7641381.805147733539343 ], [ 418420.866585162002593, 7641387.034755734726787 ], [ 418435.995432701311074, 7641391.708164731040597 ], [ 418451.902385643334128, 7641395.721251544542611 ], [ 418468.445785537129268, 7641398.941134328953922 ], [ 418485.041093925829045, 7641401.211444098502398 ], [ 418501.109434567682911, 7641402.531692825257778 ], [ 418516.518754305143375, 7641403.010747247375548 ], [ 418531.259391793049872, 7641402.76224223151803 ], [ 418558.779054192360491, 7641400.479343205690384 ], [ 418571.607833783840761, 7641398.612364053726196 ], [ 418595.573439111525659, 7641393.756963327527046 ], [ 418617.539489329908974, 7641387.724403128959239 ], [ 418628.526320189936087, 7641384.11845307610929 ] ] ] } },
{ "type": "Feature", "properties": { "fid": 331.0, "COMPR_M": 525.28, "CLASSE": "03 - Média", "CD_FAZ": " 400056", "TALHOES": "1", "FAZ_tAL": "400500001, 400056001", "ID_LINHA": 19753 }, "geometry": { "type": "MultiLineString", "coordinates": [ [ [ 418205.147902556811459, 7641168.171961094252765 ], [ 418213.992863628314808, 7641188.371422844007611 ], [ 418220.552292857144494, 7641201.868731455877423 ], [ 418227.914208257570863, 7641215.783641455695033 ], [ 418236.185663762036711, 7641230.093830728903413 ], [ 418245.467780019040219, 7641244.738714681938291 ], [ 418255.864440907840617, 7641259.639667754992843 ], [ 418267.477826666436158, 7641274.695875296369195 ], [ 418280.402138617471792, 7641289.780810566619039 ], [ 418294.715508339344524, 7641304.740156917832792 ], [ 418302.411853849131148, 7641312.117958110757172 ], [ 418319.00676803837996, 7641326.631256140768528 ], [ 418327.996595036762301, 7641333.768395135179162 ], [ 418347.562623039935715, 7641347.720523889176548 ], [ 418358.220446965075098, 7641354.479210330173373 ], [ 418381.491711044334807, 7641367.360386658459902 ], [ 418394.182112996000797, 7641373.373631052672863 ], [ 418407.618865182506852, 7641379.011130360886455 ], [ 418421.823745342786424, 7641384.190554734319448 ], [ 418436.805640002246946, 7641388.818568935617805 ], [ 418452.556380106136203, 7641392.792245587334037 ], [ 418468.936057496699505, 7641395.980262651108205 ], [ 418485.367477339692414, 7641398.228151759132743 ], [ 418501.278987746336497, 7641399.53551459684968 ], [ 418516.540092810988426, 7641400.009961228817701 ], [ 418531.141139185230713, 7641399.763809508644044 ], [ 418558.406470372865442, 7641397.501963273622096 ], [ 418571.119651453511324, 7641395.651807235553861 ], [ 418594.874468658817932, 7641390.839080790057778 ], [ 418616.652935246005654, 7641384.858015055768192 ], [ 418627.509898239572067, 7641381.295885730534792 ] ] ] } },
{ "type": "Feature", "properties": { "fid": 763.0, "COMPR_M": 490.21, "CLASSE": "03 - Média", "CD_FAZ": " 400056", "TALHOES": "1", "FAZ_tAL": "400500001, 400056001", "ID_LINHA": 20178 }, "geometry": { "type": "MultiLineString", "coordinates": [ [ [ 418225.668601621524431, 7641154.863930936902761 ], [ 418238.76966479991097, 7641184.585298934951425 ], [ 418248.921209277759772, 7641204.175179130397737 ], [ 418256.722784656449221, 7641217.672614910639822 ], [ 418265.458409817831125, 7641231.455444128252566 ], [ 418275.222754591377452, 7641245.45030521042645 ], [ 418292.00009714596672, 7641266.629871903918684 ], [ 418304.726122659340035, 7641280.69569518789649 ], [ 418318.760239408933558, 7641294.543548866175115 ], [ 418334.232766441942658, 7641308.075425937771797 ], [ 418342.602931124274619, 7641314.72060707397759 ], [ 418360.790285401977599, 7641327.689905646257102 ], [ 418370.680031944357324, 7641333.961513840593398 ], [ 418392.234796397329774, 7641345.892916360870004 ], [ 418416.37719935271889, 7641356.658991379663348 ], [ 418429.481026794412173, 7641361.436946736648679 ], [ 418443.287298412120435, 7641365.701802587136626 ], [ 418457.78833580610808, 7641369.360197894275188 ], [ 418472.858233174774796, 7641372.293289242312312 ], [ 418487.978544655255973, 7641374.361813070252538 ], [ 418502.635413163399789, 7641375.566088761202991 ], [ 418516.710800854023546, 7641376.003673082217574 ], [ 418530.195118325762451, 7641375.776347734965384 ], [ 418555.425799810676835, 7641373.682923819869757 ], [ 418567.214192816521972, 7641371.967352682724595 ], [ 418589.28270504262764, 7641367.496020507067442 ], [ 418599.628326550417114, 7641364.83112963847816 ], [ 418616.599110879004002, 7641359.629905235022306 ] ] ] } },
{ "type": "Feature", "properties": { "fid": 764.0, "COMPR_M": 520.26, "CLASSE": "03 - Média", "CD_FAZ": " 400056", "TALHOES": "1", "FAZ_tAL": "400500001, 400056001", "ID_LINHA": 20179 }, "geometry": { "type": "MultiLineString", "coordinates": [ [ [ 418207.715919305337593, 7641166.506557581946254 ], [ 418213.689640783588402, 7641180.484325737692416 ], [ 418223.228442959371023, 7641200.512678492814302 ], [ 418238.752803873969242, 7641228.541178752668202 ], [ 418247.966608744580299, 7641243.0783058591187 ], [ 418258.284230117453262, 7641257.865997437387705 ], [ 418269.806718320061918, 7641272.804381294175982 ], [ 418282.62724705087021, 7641287.768202807754278 ], [ 418296.823126287315972, 7641302.604773730039597 ], [ 418304.455402044462971, 7641309.921156954951584 ], [ 418320.910017838701606, 7641324.311777364462614 ], [ 418329.822387047286611, 7641331.387421630322933 ], [ 418349.216080835729372, 7641345.216696610674262 ], [ 418359.777895088074729, 7641351.914498270489275 ], [ 418382.834596715169027, 7641364.676952872425318 ], [ 418395.405372396111488, 7641370.633513323962688 ], [ 418408.71365695388522, 7641376.217112989164889 ], [ 418422.780905525141861, 7641381.34635373391211 ], [ 418437.615847303997725, 7641385.928973140195012 ], [ 418453.210374567774124, 7641389.863239624537528 ], [ 418469.426329456618987, 7641393.019390976056457 ], [ 418485.693860753148329, 7641395.244859426282346 ], [ 418501.448540923185647, 7641396.539336365647614 ], [ 418516.561431316193193, 7641397.009175209328532 ], [ 418531.022886577702593, 7641396.765376789495349 ], [ 418558.033886553079356, 7641394.524583341553807 ], [ 418570.631469124578871, 7641392.69125041551888 ], [ 418594.175498206343036, 7641387.921198256313801 ], [ 418605.195803202223033, 7641385.082518129609525 ], [ 418625.544418003642932, 7641378.800626571290195 ] ] ] } },
{ "type": "Feature", "properties": { "fid": 765.0, "COMPR_M": 549.39, "CLASSE": "03 - Média", "CD_FAZ": " 400056", "TALHOES": "1", "FAZ_tAL": "400500001, 400056001", "ID_LINHA": 20180 }, "geometry": { "type": "MultiLineString", "coordinates": [ [ [ 418189.803468025987968, 7641178.123093699105084 ], [ 418197.677918526984286, 7641195.976866570301354 ], [ 418208.21366440015845, 7641217.189853956922889 ], [ 418216.344227819005027, 7641231.899058538489044 ], [ 418225.488398285990115, 7641247.01364791020751 ], [ 418235.755970193597022, 7641262.461336150765419 ], [ 418247.257539684535004, 7641278.148135706782341 ], [ 418267.051488027384039, 7641301.856457116082311 ], [ 418282.069800655124709, 7641317.552456049248576 ], [ 418290.150564679759555, 7641325.298765044659376 ], [ 418307.587269235227723, 7641340.548128791153431 ], [ 418317.041842971695587, 7641348.054236186668277 ], [ 418337.641876269713975, 7641362.743487570434809 ], [ 418348.875758232490625, 7641369.867482699453831 ], [ 418373.434397031378467, 7641383.460989383980632 ], [ 418386.842556596093345, 7641389.814337420277297 ], [ 418401.050114555866458, 7641395.775234594941139 ], [ 418416.080784254882019, 7641401.255760733038187 ], [ 418431.944396196457092, 7641406.156143695116043 ], [ 418448.632413331593852, 7641410.366281351074576 ], [ 418465.994425737299025, 7641413.745492711663246 ], [ 418483.409176851506345, 7641416.127905776724219 ], [ 418500.261668681632727, 7641417.51258397102356 ], [ 418516.412061778013594, 7641418.014677340164781 ], [ 418531.850654830457643, 7641417.754405841231346 ], [ 418546.58646730275359, 7641416.839930736459792 ], [ 418560.64197329536546, 7641415.366242863237858 ], [ 418574.048745431820862, 7641413.415148148313165 ], [ 418599.06829137110617, 7641408.346376003697515 ], [ 418621.972259744768962, 7641402.056343484669924 ], [ 418633.608429939951748, 7641398.231289802119136 ] ] ] } }
]
}
