{
"type": "FeatureCollection",
"name": " 400146",
"crs": { "type": "name", "properties": { "name": "urn:ogc:def:crs:EPSG::32722" } },
"xy_coordinate_resolution": 1e-15,
"features": [
{ "type": "Feature", "properties": { "fid": 27.0, "COMPR_M": 504.72, "CLASSE": "03 - Média", "CD_FAZ": " 400146", "TALHOES": "3, 1", "FAZ_tAL": "400036003, 400146001", "ID_LINHA": 36258 }, "geometry": { "type": "MultiLineString", "coordinates": [ [ [ 415397.672780556895304, 7632964.570182645693421 ], [ 415204.341284246649593, 7632964.245517332106829 ], [ 414893.11328119749669, 7632964.931951642036438 ] ] ] } },
{ "type": "Feature", "properties": { "fid": 28.0, "COMPR_M": 269.81, "CLASSE": "02 - Curta", "CD_FAZ": " 400146", "TALHOES": "3, 1", "FAZ_tAL": "400036003, 400146001", "ID_LINHA": 36259 }, "geometry": { "type": "MultiLineString", "coordinates": [ [ [ 415162.90089671156602, 7632961.287608992308378 ], [ 414893.17844269197667, 7632961.931792058050632 ] ] ] } },
{ "type": "Feature", "properties": { "fid": 851.0, "COMPR_M": 172.45, "CLASSE": "02 - Curta", "CD_FAZ": " 400146", "TALHOES": "3, 1", "FAZ_tAL": "400036003, 400146001", "ID_LINHA": 115285 }, "geometry": { "type": "MultiLineString", "coordinates": [ [ [ 415397.672780556895304, 7632964.570182645693421 ], [ 415225.276539313839749, 7632964.237204807810485 ] ] ] } },
{ "type": "Feature", "properties": { "fid": 853.0, "COMPR_M": 112.97, "CLASSE": "02 - Curta", "CD_FAZ": " 400146", "TALHOES": "3, 1", "FAZ_tAL": "400036003, 400146001", "ID_LINHA": 115287 }, "geometry": { "type": "MultiLineString", "coordinates": [ [ [ 415162.90089671156602, 7632961.287608992308378 ], [ 415049.965421712608077, 7632961.519905462861061 ] ] ] } },
{ "type": "Feature", "properties": { "fid": 1212.0, "COMPR_M": 172.45, "CLASSE": "02 - Curta", "CD_FAZ": " 400146", "TALHOES": "3, 1", "FAZ_tAL": "400036003, 400146001", "ID_LINHA": 115638 }, "geometry": { "type": "MultiLineString", "coordinates": [ [ [ 415397.672780556895304, 7632964.570182645693421 ], [ 415225.276539313839749, 7632964.237204807810485 ] ] ] } },
{ "type": "Feature", "properties": { "fid": 1214.0, "COMPR_M": 112.97, "CLASSE": "02 - Curta", "CD_FAZ": " 400146", "TALHOES": "3, 1", "FAZ_tAL": "400036003, 400146001", "ID_LINHA": 115640 }, "geometry": { "type": "MultiLineString", "coordinates": [ [ [ 415162.90089671156602, 7632961.287608992308378 ], [ 415049.965421712608077, 7632961.519905462861061 ] ] ] } },
{ "type": "Feature", "properties": { "fid": 851.0, "COMPR_M": 172.45, "CLASSE": "02 - Curta", "CD_FAZ": " 400146", "TALHOES": "3, 1", "FAZ_tAL": "400036003, 400146001", "ID_LINHA": 227597 }, "geometry": { "type": "MultiLineString", "coordinates": [ [ [ 415397.672780556895304, 7632964.570182645693421 ], [ 415225.276539313839749, 7632964.237204807810485 ] ] ] } },
{ "type": "Feature", "properties": { "fid": 853.0, "COMPR_M": 112.97, "CLASSE": "02 - Curta", "CD_FAZ": " 400146", "TALHOES": "3, 1", "FAZ_tAL": "400036003, 400146001", "ID_LINHA": 227599 }, "geometry": { "type": "MultiLineString", "coordinates": [ [ [ 415162.90089671156602, 7632961.287608992308378 ], [ 415049.965421712608077, 7632961.519905462861061 ] ] ] } },
{ "type": "Feature", "properties": { "fid": 1212.0, "COMPR_M": 172.45, "CLASSE": "02 - Curta", "CD_FAZ": " 400146", "TALHOES": "3, 1", "FAZ_tAL": "400036003, 400146001", "ID_LINHA": 227950 }, "geometry": { "type": "MultiLineString", "coordinates": [ [ [ 415397.672780556895304, 7632964.570182645693421 ], [ 415225.276539313839749, 7632964.237204807810485 ] ] ] } },
{ "type": "Feature", "properties": { "fid": 1214.0, "COMPR_M": 112.97, "CLASSE": "02 - Curta", "CD_FAZ": " 400146", "TALHOES": "3, 1", "FAZ_tAL": "400036003, 400146001", "ID_LINHA": 227952 }, "geometry": { "type": "MultiLineString", "coordinates": [ [ [ 415162.90089671156602, 7632961.287608992308378 ], [ 415049.965421712608077, 7632961.519905462861061 ] ] ] } }
]
}
