{
"type": "FeatureCollection",
"name": " 400030",
"crs": { "type": "name", "properties": { "name": "urn:ogc:def:crs:EPSG::32722" } },
"xy_coordinate_resolution": 1e-15,
"features": [
{ "type": "Feature", "properties": { "fid": 2101.0, "COMPR_M": 451.1, "CLASSE": "03 - Média", "CD_FAZ": " 400030", "TALHOES": "1, 7", "FAZ_tAL": "400493001, 400030007", "ID_LINHA": 146399 }, "geometry": { "type": "MultiLineString", "coordinates": [ [ [ 414322.922336593212094, 7649585.900875397026539 ], [ 414330.281807482359, 7649563.015069765970111 ], [ 414338.373505370109342, 7649531.894116636365652 ], [ 414344.678485552198254, 7649502.017667435109615 ], [ 414357.958211571269203, 7649431.274185436777771 ], [ 414362.298920873610768, 7649411.76634600199759 ], [ 414367.161059873411432, 7649393.389421941712499 ], [ 414374.326152813737281, 7649371.54720835853368 ], [ 414382.809643877786584, 7649350.949116409756243 ], [ 414392.560652378539089, 7649331.953594252467155 ], [ 414401.222497159265913, 7649318.105980503372848 ], [ 414408.194947112933733, 7649308.574903402477503 ], [ 414415.564204876951408, 7649299.801558919250965 ], [ 414428.821938740788028, 7649286.789720516651869 ], [ 414437.494932412286289, 7649279.82673074118793 ], [ 414446.601417137077078, 7649273.583884899504483 ], [ 414456.012368933181278, 7649268.147722076624632 ], [ 414465.59776043437887, 7649263.585071759298444 ], [ 414475.232658206834458, 7649259.941279644146562 ], [ 414484.910846527083777, 7649257.210270865820348 ], [ 414495.065849143371452, 7649255.26718850620091 ], [ 414505.731435305904597, 7649254.109072588384151 ], [ 414516.811767961713485, 7649253.755079474300146 ], [ 414528.18759036733536, 7649254.212004852481186 ], [ 414548.874755319789983, 7649257.004767494276166 ] ] ] } },
{ "type": "Feature", "properties": { "fid": 2102.0, "COMPR_M": 465.5, "CLASSE": "03 - Média", "CD_FAZ": " 400030", "TALHOES": "1, 7", "FAZ_tAL": "400493001, 400030007", "ID_LINHA": 146400 }, "geometry": { "type": "MultiLineString", "coordinates": [ [ [ 414316.307313850789797, 7649595.355552732944489 ], [ 414325.508003274386283, 7649568.479694562032819 ], [ 414334.008727741835173, 7649537.320609604939818 ], [ 414341.733774094493128, 7649501.444321037270129 ], [ 414355.020336145767942, 7649430.666745200753212 ], [ 414359.382622965902556, 7649411.06247884966433 ], [ 414364.280504203226883, 7649392.551101231016219 ], [ 414371.510595588595606, 7649370.511290312744677 ], [ 414380.083985600795131, 7649349.69555530231446 ], [ 414389.957276223110966, 7649330.462540680542588 ], [ 414398.745959511084948, 7649316.412539599463344 ], [ 414405.833327040600125, 7649306.724531889893115 ], [ 414413.336222955374978, 7649297.792238008230925 ], [ 414426.857444396009669, 7649284.52208792231977 ], [ 414435.705974610522389, 7649277.418192753568292 ], [ 414445.001132604957093, 7649271.04605576954782 ], [ 414454.615435083047487, 7649265.492508728057146 ], [ 414464.420433954917826, 7649260.825431857258081 ], [ 414480.878079422051087, 7649255.129099484533072 ], [ 414491.096839526551776, 7649252.874585287645459 ], [ 414501.839542738103773, 7649251.41984567977488 ], [ 414513.020093976636417, 7649250.783370155841112 ], [ 414524.525789565755986, 7649250.973591558635235 ], [ 414536.252300435269717, 7649251.986699191853404 ], [ 414548.472171732631978, 7649253.869008525274694 ] ] ] } },
{ "type": "Feature", "properties": { "fid": 1480.0, "COMPR_M": 731.69, "CLASSE": "04 - Longa", "CD_FAZ": " 400030", "TALHOES": "1, 5", "FAZ_tAL": "400055001, 400030005, 400030001", "ID_LINHA": 196214 }, "geometry": { "type": "MultiLineString", "coordinates": [ [ [ 415433.596650785882957, 7647567.087945517152548 ], [ 415529.766441752959508, 7648292.199229571968317 ] ] ] } },
{ "type": "Feature", "properties": { "fid": 1482.0, "COMPR_M": 729.54, "CLASSE": "04 - Longa", "CD_FAZ": " 400030", "TALHOES": "1, 5", "FAZ_tAL": "400055001, 400030005, 400030001", "ID_LINHA": 196216 }, "geometry": { "type": "MultiLineString", "coordinates": [ [ [ 415436.577445188187994, 7647566.745062893256545 ], [ 415532.464640055899508, 7648289.725598612800241 ] ] ] } },
{ "type": "Feature", "properties": { "fid": 1484.0, "COMPR_M": 727.29, "CLASSE": "04 - Longa", "CD_FAZ": " 400030", "TALHOES": "1, 5", "FAZ_tAL": "400055001, 400030005, 400030001", "ID_LINHA": 196218 }, "geometry": { "type": "MultiLineString", "coordinates": [ [ [ 415439.558239591133315, 7647566.402180265635252 ], [ 415535.150261420116294, 7648287.15713871922344 ] ] ] } },
{ "type": "Feature", "properties": { "fid": 1486.0, "COMPR_M": 725.05, "CLASSE": "04 - Longa", "CD_FAZ": " 400030", "TALHOES": "1, 5", "FAZ_tAL": "400055001, 400030005, 400030001", "ID_LINHA": 196220 }, "geometry": { "type": "MultiLineString", "coordinates": [ [ [ 415442.539033993321937, 7647566.059297638945282 ], [ 415537.835882783925626, 7648284.588678827509284 ] ] ] } },
{ "type": "Feature", "properties": { "fid": 1488.0, "COMPR_M": 722.26, "CLASSE": "04 - Longa", "CD_FAZ": " 400030", "TALHOES": "1, 5", "FAZ_tAL": "400055001, 400030005, 400030001", "ID_LINHA": 196222 }, "geometry": { "type": "MultiLineString", "coordinates": [ [ [ 415445.519828396092635, 7647565.716415012255311 ], [ 415540.450123862654436, 7648281.482018206268549 ] ] ] } },
{ "type": "Feature", "properties": { "fid": 1490.0, "COMPR_M": 719.15, "CLASSE": "04 - Longa", "CD_FAZ": " 400030", "TALHOES": "1, 5", "FAZ_tAL": "400055001, 400030005, 400030001", "ID_LINHA": 196224 }, "geometry": { "type": "MultiLineString", "coordinates": [ [ [ 415448.500622798106633, 7647565.373532385565341 ], [ 415543.022513499949127, 7648278.059801623225212 ] ] ] } },
{ "type": "Feature", "properties": { "fid": 1492.0, "COMPR_M": 716.04, "CLASSE": "04 - Longa", "CD_FAZ": " 400030", "TALHOES": "1, 5", "FAZ_tAL": "400055001, 400030005, 400030001", "ID_LINHA": 196226 }, "geometry": { "type": "MultiLineString", "coordinates": [ [ [ 415451.481417200644501, 7647565.03064975887537 ], [ 415545.594903138990048, 7648274.637585040181875 ] ] ] } },
{ "type": "Feature", "properties": { "fid": 1494.0, "COMPR_M": 712.94, "CLASSE": "04 - Longa", "CD_FAZ": " 400030", "TALHOES": "1, 5", "FAZ_tAL": "400055001, 400030005, 400030001", "ID_LINHA": 196228 }, "geometry": { "type": "MultiLineString", "coordinates": [ [ [ 415454.462211603182368, 7647564.687767134048045 ], [ 415548.167292777216062, 7648271.215368457138538 ] ] ] } },
{ "type": "Feature", "properties": { "fid": 1496.0, "COMPR_M": 709.78, "CLASSE": "04 - Longa", "CD_FAZ": " 400030", "TALHOES": "1, 5", "FAZ_tAL": "400055001, 400030005, 400030001", "ID_LINHA": 196230 }, "geometry": { "type": "MultiLineString", "coordinates": [ [ [ 415457.443006005545612, 7647564.344884506426752 ], [ 415550.7338084615767, 7648267.748862809501588 ] ] ] } },
{ "type": "Feature", "properties": { "fid": 1498.0, "COMPR_M": 706.58, "CLASSE": "04 - Longa", "CD_FAZ": " 400030", "TALHOES": "1, 5", "FAZ_tAL": "400055001, 400030005, 400030001", "ID_LINHA": 196232 }, "geometry": { "type": "MultiLineString", "coordinates": [ [ [ 415460.423800407908857, 7647564.002001879736781 ], [ 415553.293495585967321, 7648264.230870448052883 ] ] ] } },
{ "type": "Feature", "properties": { "fid": 1500.0, "COMPR_M": 703.38, "CLASSE": "04 - Longa", "CD_FAZ": " 400030", "TALHOES": "1, 5", "FAZ_tAL": "400055001, 400030005, 400030001", "ID_LINHA": 196234 }, "geometry": { "type": "MultiLineString", "coordinates": [ [ [ 415463.404594810097478, 7647563.659119253978133 ], [ 415555.853182709950488, 7648260.712878087535501 ] ] ] } },
{ "type": "Feature", "properties": { "fid": 1502.0, "COMPR_M": 700.17, "CLASSE": "04 - Longa", "CD_FAZ": " 400030", "TALHOES": "1, 5", "FAZ_tAL": "400055001, 400030005, 400030001", "ID_LINHA": 196236 }, "geometry": { "type": "MultiLineString", "coordinates": [ [ [ 415466.385389212984592, 7647563.31623662635684 ], [ 415558.412869833584409, 7648257.194885728880763 ] ] ] } },
{ "type": "Feature", "properties": { "fid": 1504.0, "COMPR_M": 696.97, "CLASSE": "04 - Longa", "CD_FAZ": " 400030", "TALHOES": "1, 5", "FAZ_tAL": "400055001, 400030005, 400030001", "ID_LINHA": 196238 }, "geometry": { "type": "MultiLineString", "coordinates": [ [ [ 415469.366183614358306, 7647562.973353998735547 ], [ 415560.972556957509369, 7648253.676893366500735 ] ] ] } },
{ "type": "Feature", "properties": { "fid": 1506.0, "COMPR_M": 693.76, "CLASSE": "04 - Longa", "CD_FAZ": " 400030", "TALHOES": "1, 5", "FAZ_tAL": "400055001, 400030005, 400030001", "ID_LINHA": 196240 }, "geometry": { "type": "MultiLineString", "coordinates": [ [ [ 415472.346978017711081, 7647562.630471374839544 ], [ 415563.531059741042554, 7648250.149971188977361 ] ] ] } },
{ "type": "Feature", "properties": { "fid": 1508.0, "COMPR_M": 690.42, "CLASSE": "04 - Longa", "CD_FAZ": " 400030", "TALHOES": "1, 5", "FAZ_tAL": "400055001, 400030005, 400030001", "ID_LINHA": 196242 }, "geometry": { "type": "MultiLineString", "coordinates": [ [ [ 415475.327772418968379, 7647562.287588747218251 ], [ 415566.073742444161326, 7648246.503767077811062 ] ] ] } },
{ "type": "Feature", "properties": { "fid": 1510.0, "COMPR_M": 687.09, "CLASSE": "04 - Longa", "CD_FAZ": " 400030", "TALHOES": "1, 5", "FAZ_tAL": "400055001, 400030005, 400030001", "ID_LINHA": 196244 }, "geometry": { "type": "MultiLineString", "coordinates": [ [ [ 415478.308566822146531, 7647561.944706119596958 ], [ 415568.616425147512928, 7648242.857562964782119 ] ] ] } },
{ "type": "Feature", "properties": { "fid": 1512.0, "COMPR_M": 683.76, "CLASSE": "04 - Longa", "CD_FAZ": " 400030", "TALHOES": "1, 5", "FAZ_tAL": "400055001, 400030005, 400030001", "ID_LINHA": 196246 }, "geometry": { "type": "MultiLineString", "coordinates": [ [ [ 415481.289361224509776, 7647561.60182349383831 ], [ 415571.15910785109736, 7648239.211358852684498 ] ] ] } },
{ "type": "Feature", "properties": { "fid": 1514.0, "COMPR_M": 679.41, "CLASSE": "04 - Longa", "CD_FAZ": " 400030", "TALHOES": "1, 5", "FAZ_tAL": "400055001, 400030005, 400030001", "ID_LINHA": 196248 }, "geometry": { "type": "MultiLineString", "coordinates": [ [ [ 415484.27015562687302, 7647561.258940866217017 ], [ 415573.568776381376665, 7648234.562240249477327 ] ] ] } },
{ "type": "Feature", "properties": { "fid": 1516.0, "COMPR_M": 675.03, "CLASSE": "04 - Longa", "CD_FAZ": " 400030", "TALHOES": "1, 5", "FAZ_tAL": "400055001, 400030005, 400030001", "ID_LINHA": 196250 }, "geometry": { "type": "MultiLineString", "coordinates": [ [ [ 415487.250950028537773, 7647560.916058242321014 ], [ 415575.973213046556339, 7648229.873673849739134 ] ] ] } },
{ "type": "Feature", "properties": { "fid": 1518.0, "COMPR_M": 670.42, "CLASSE": "04 - Longa", "CD_FAZ": " 400030", "TALHOES": "1, 5", "FAZ_tAL": "400055001, 400030005, 400030001", "ID_LINHA": 196252 }, "geometry": { "type": "MultiLineString", "coordinates": [ [ [ 415490.231744432006963, 7647560.573175613768399 ], [ 415578.348927660787012, 7648224.968545872718096 ] ] ] } },
{ "type": "Feature", "properties": { "fid": 1520.0, "COMPR_M": 665.42, "CLASSE": "04 - Longa", "CD_FAZ": " 400030", "TALHOES": "1, 5", "FAZ_tAL": "400055001, 400030005, 400030001", "ID_LINHA": 196254 }, "geometry": { "type": "MultiLineString", "coordinates": [ [ [ 415493.212538834137376, 7647560.230292988941073 ], [ 415580.671750996785704, 7648219.664622576907277 ] ] ] } },
{ "type": "Feature", "properties": { "fid": 1522.0, "COMPR_M": 660.38, "CLASSE": "04 - Longa", "CD_FAZ": " 400030", "TALHOES": "1, 5", "FAZ_tAL": "400055001, 400030005, 400030001", "ID_LINHA": 196256 }, "geometry": { "type": "MultiLineString", "coordinates": [ [ [ 415496.193333237548359, 7647559.887410360388458 ], [ 415582.990057101822458, 7648214.326639764010906 ] ] ] } },
{ "type": "Feature", "properties": { "fid": 1524.0, "COMPR_M": 655.2, "CLASSE": "04 - Longa", "CD_FAZ": " 400030", "TALHOES": "1, 5", "FAZ_tAL": "400055001, 400030005, 400030001", "ID_LINHA": 196258 }, "geometry": { "type": "MultiLineString", "coordinates": [ [ [ 415499.174127638863865, 7647559.54452773462981 ], [ 415585.290418679593131, 7648208.853356901556253 ] ] ] } },
{ "type": "Feature", "properties": { "fid": 1526.0, "COMPR_M": 650.01, "CLASSE": "04 - Longa", "CD_FAZ": " 400030", "TALHOES": "1, 5", "FAZ_tAL": "400055001, 400030005, 400030001", "ID_LINHA": 196260 }, "geometry": { "type": "MultiLineString", "coordinates": [ [ [ 415502.154922041401733, 7647559.201645107939839 ], [ 415587.589214428036939, 7648203.36826781090349 ] ] ] } },
{ "type": "Feature", "properties": { "fid": 1528.0, "COMPR_M": 644.56, "CLASSE": "04 - Longa", "CD_FAZ": " 400030", "TALHOES": "1, 5", "FAZ_tAL": "400055001, 400030005, 400030001", "ID_LINHA": 196262 }, "geometry": { "type": "MultiLineString", "coordinates": [ [ [ 415505.135716444521677, 7647558.858762482181191 ], [ 415589.853323950897902, 7648197.621647831052542 ] ] ] } },
{ "type": "Feature", "properties": { "fid": 1530.0, "COMPR_M": 639.11, "CLASSE": "04 - Longa", "CD_FAZ": " 400030", "TALHOES": "1, 5", "FAZ_tAL": "400055001, 400030005, 400030001", "ID_LINHA": 196264 }, "geometry": { "type": "MultiLineString", "coordinates": [ [ [ 415508.116510846943129, 7647558.515879854559898 ], [ 415592.117854665964842, 7648191.878203570842743 ] ] ] } },
{ "type": "Feature", "properties": { "fid": 1532.0, "COMPR_M": 634.09, "CLASSE": "04 - Longa", "CD_FAZ": " 400030", "TALHOES": "1, 5", "FAZ_tAL": "400055001, 400030005, 400030001", "ID_LINHA": 196266 }, "geometry": { "type": "MultiLineString", "coordinates": [ [ [ 415511.097305249306373, 7647558.172997226938605 ], [ 415594.439042940270156, 7648186.561952056363225 ] ] ] } },
{ "type": "Feature", "properties": { "fid": 1534.0, "COMPR_M": 629.07, "CLASSE": "04 - Longa", "CD_FAZ": " 400030", "TALHOES": "1, 5", "FAZ_tAL": "400055001, 400030005, 400030001", "ID_LINHA": 196268 }, "geometry": { "type": "MultiLineString", "coordinates": [ [ [ 415514.078099652251694, 7647557.83011460211128 ], [ 415596.760603941394947, 7648181.248510864563286 ] ] ] } },
{ "type": "Feature", "properties": { "fid": 1536.0, "COMPR_M": 624.14, "CLASSE": "04 - Longa", "CD_FAZ": " 400030", "TALHOES": "1, 5", "FAZ_tAL": "400055001, 400030005, 400030001", "ID_LINHA": 196270 }, "geometry": { "type": "MultiLineString", "coordinates": [ [ [ 415517.058894053800032, 7647557.487231975421309 ], [ 415599.092820533784106, 7648176.015411844477057 ] ] ] } },
{ "type": "Feature", "properties": { "fid": 1538.0, "COMPR_M": 619.2, "CLASSE": "04 - Longa", "CD_FAZ": " 400030", "TALHOES": "1, 5", "FAZ_tAL": "400055001, 400030005, 400030001", "ID_LINHA": 196272 }, "geometry": { "type": "MultiLineString", "coordinates": [ [ [ 415520.039688455988653, 7647557.144349348731339 ], [ 415601.425037126871757, 7648170.782312823459506 ] ] ] } },
{ "type": "Feature", "properties": { "fid": 1540.0, "COMPR_M": 613.74, "CLASSE": "04 - Longa", "CD_FAZ": " 400030", "TALHOES": "1, 5", "FAZ_tAL": "400055001, 400030005, 400030001", "ID_LINHA": 196274 }, "geometry": { "type": "MultiLineString", "coordinates": [ [ [ 415523.020482858060859, 7647556.801466722041368 ], [ 415603.68776020896621, 7648165.025239190086722 ] ] ] } },
{ "type": "Feature", "properties": { "fid": 1542.0, "COMPR_M": 607.16, "CLASSE": "04 - Longa", "CD_FAZ": " 400030", "TALHOES": "1, 5", "FAZ_tAL": "400055001, 400030005, 400030001", "ID_LINHA": 196276 }, "geometry": { "type": "MultiLineString", "coordinates": [ [ [ 415526.001277261413634, 7647556.458584095351398 ], [ 415605.804080325353425, 7648158.164300817996264 ] ] ] } },
{ "type": "Feature", "properties": { "fid": 1544.0, "COMPR_M": 597.55, "CLASSE": "03 - Média", "CD_FAZ": " 400030", "TALHOES": "1, 5", "FAZ_tAL": "400055001, 400030005, 400030001", "ID_LINHA": 196278 }, "geometry": { "type": "MultiLineString", "coordinates": [ [ [ 415528.982071664009709, 7647556.115701468661427 ], [ 415607.520598274073564, 7648148.28889124840498 ] ] ] } },
{ "type": "Feature", "properties": { "fid": 1546.0, "COMPR_M": 573.1, "CLASSE": "03 - Média", "CD_FAZ": " 400030", "TALHOES": "1, 5", "FAZ_tAL": "400055001, 400030005, 400030001", "ID_LINHA": 196280 }, "geometry": { "type": "MultiLineString", "coordinates": [ [ [ 415531.9628660652088, 7647555.77281884290278 ], [ 415607.28852649620967, 7648123.721296289935708 ] ] ] } },
{ "type": "Feature", "properties": { "fid": 1548.0, "COMPR_M": 550.53, "CLASSE": "03 - Média", "CD_FAZ": " 400030", "TALHOES": "1, 5", "FAZ_tAL": "400055001, 400030005, 400030001", "ID_LINHA": 196282 }, "geometry": { "type": "MultiLineString", "coordinates": [ [ [ 415534.94366046768846, 7647555.429936216212809 ], [ 415607.303157434740569, 7648101.013816885650158 ] ] ] } },
{ "type": "Feature", "properties": { "fid": 1550.0, "COMPR_M": 544.97, "CLASSE": "03 - Média", "CD_FAZ": " 400030", "TALHOES": "1, 5", "FAZ_tAL": "400055001, 400030005, 400030001", "ID_LINHA": 196284 }, "geometry": { "type": "MultiLineString", "coordinates": [ [ [ 415537.924454870750196, 7647555.087053587660193 ], [ 415609.552187166060321, 7648095.153496651910245 ] ] ] } },
{ "type": "Feature", "properties": { "fid": 1552.0, "COMPR_M": 541.78, "CLASSE": "03 - Média", "CD_FAZ": " 400030", "TALHOES": "1, 5", "FAZ_tAL": "400055001, 400030005, 400030001", "ID_LINHA": 196286 }, "geometry": { "type": "MultiLineString", "coordinates": [ [ [ 415540.905249272473156, 7647554.744170963764191 ], [ 415612.113866625586525, 7648091.650526314042509 ] ] ] } },
{ "type": "Feature", "properties": { "fid": 1554.0, "COMPR_M": 539.75, "CLASSE": "03 - Média", "CD_FAZ": " 400030", "TALHOES": "1, 5", "FAZ_tAL": "400055001, 400030005, 400030001", "ID_LINHA": 196288 }, "geometry": { "type": "MultiLineString", "coordinates": [ [ [ 415543.886043676116969, 7647554.401288336142898 ], [ 415614.828061493521091, 7648089.297507980838418 ] ] ] } },
{ "type": "Feature", "properties": { "fid": 1556.0, "COMPR_M": 538.35, "CLASSE": "03 - Média", "CD_FAZ": " 400030", "TALHOES": "1, 5", "FAZ_tAL": "400055001, 400030005, 400030001", "ID_LINHA": 196290 }, "geometry": { "type": "MultiLineString", "coordinates": [ [ [ 415546.866838078363799, 7647554.05840571038425 ], [ 415617.624479922757018, 7648087.564447660930455 ] ] ] } },
{ "type": "Feature", "properties": { "fid": 1558.0, "COMPR_M": 537.14, "CLASSE": "03 - Média", "CD_FAZ": " 400030", "TALHOES": "1, 5", "FAZ_tAL": "400055001, 400030005, 400030001", "ID_LINHA": 196292 }, "geometry": { "type": "MultiLineString", "coordinates": [ [ [ 415549.847632479853928, 7647553.715523083694279 ], [ 415620.446624382166192, 7648086.025359209626913 ] ] ] } },
{ "type": "Feature", "properties": { "fid": 1560.0, "COMPR_M": 536.65, "CLASSE": "03 - Média", "CD_FAZ": " 400030", "TALHOES": "1, 5", "FAZ_tAL": "400055001, 400030005, 400030001", "ID_LINHA": 196294 }, "geometry": { "type": "MultiLineString", "coordinates": [ [ [ 415552.828426881984342, 7647553.372640457004309 ], [ 415623.363806012028363, 7648085.202842188999057 ] ] ] } },
{ "type": "Feature", "properties": { "fid": 1562.0, "COMPR_M": 536.29, "CLASSE": "03 - Média", "CD_FAZ": " 400030", "TALHOES": "1, 5", "FAZ_tAL": "400055001, 400030005, 400030001", "ID_LINHA": 196296 }, "geometry": { "type": "MultiLineString", "coordinates": [ [ [ 415555.809221284696832, 7647553.029757831245661 ], [ 415626.296564249438234, 7648084.497771352529526 ] ] ] } },
{ "type": "Feature", "properties": { "fid": 1564.0, "COMPR_M": 536.12, "CLASSE": "03 - Média", "CD_FAZ": " 400030", "TALHOES": "1, 5", "FAZ_tAL": "400055001, 400030005, 400030001", "ID_LINHA": 196298 }, "geometry": { "type": "MultiLineString", "coordinates": [ [ [ 415558.790015688049607, 7647552.68687520455569 ], [ 415629.255290371715091, 7648083.98849593102932 ] ] ] } },
{ "type": "Feature", "properties": { "fid": 1566.0, "COMPR_M": 536.16, "CLASSE": "03 - Média", "CD_FAZ": " 400030", "TALHOES": "1, 5", "FAZ_tAL": "400055001, 400030005, 400030001", "ID_LINHA": 196300 }, "geometry": { "type": "MultiLineString", "coordinates": [ [ [ 415561.770810089306906, 7647552.343992576003075 ], [ 415632.241010908503085, 7648083.682755907997489 ] ] ] } },
{ "type": "Feature", "properties": { "fid": 1569.0, "COMPR_M": 536.25, "CLASSE": "03 - Média", "CD_FAZ": " 400030", "TALHOES": "1, 5", "FAZ_tAL": "400055001, 400030005, 400030001", "ID_LINHA": 196303 }, "geometry": { "type": "MultiLineString", "coordinates": [ [ [ 415564.751604492543265, 7647552.001109952107072 ], [ 415635.23365320940502, 7648083.429205328226089 ] ] ] } },
{ "type": "Feature", "properties": { "fid": 1571.0, "COMPR_M": 536.33, "CLASSE": "03 - Média", "CD_FAZ": " 400030", "TALHOES": "1, 5", "FAZ_tAL": "400055001, 400030005, 400030001", "ID_LINHA": 196305 }, "geometry": { "type": "MultiLineString", "coordinates": [ [ [ 415567.732398895721417, 7647551.658227324485779 ], [ 415638.224985952896532, 7648083.165780816227198 ] ] ] } },
{ "type": "Feature", "properties": { "fid": 1573.0, "COMPR_M": 536.41, "CLASSE": "03 - Média", "CD_FAZ": " 400030", "TALHOES": "1, 5", "FAZ_tAL": "400055001, 400030005, 400030001", "ID_LINHA": 196307 }, "geometry": { "type": "MultiLineString", "coordinates": [ [ [ 415570.713193296804093, 7647551.315344697795808 ], [ 415641.216177676105872, 7648082.901293020695448 ] ] ] } },
{ "type": "Feature", "properties": { "fid": 1575.0, "COMPR_M": 536.49, "CLASSE": "03 - Média", "CD_FAZ": " 400030", "TALHOES": "1, 5", "FAZ_tAL": "400055001, 400030005, 400030001", "ID_LINHA": 196309 }, "geometry": { "type": "MultiLineString", "coordinates": [ [ [ 415573.693987699865829, 7647550.972462072968483 ], [ 415644.207369399431627, 7648082.636805225163698 ] ] ] } },
{ "type": "Feature", "properties": { "fid": 1577.0, "COMPR_M": 536.57, "CLASSE": "03 - Média", "CD_FAZ": " 400030", "TALHOES": "1, 5", "FAZ_tAL": "400055001, 400030005, 400030001", "ID_LINHA": 196311 }, "geometry": { "type": "MultiLineString", "coordinates": [ [ [ 415576.674782102927566, 7647550.62957944534719 ], [ 415647.198561122291721, 7648082.372317429631948 ] ] ] } },
{ "type": "Feature", "properties": { "fid": 1579.0, "COMPR_M": 536.42, "CLASSE": "03 - Média", "CD_FAZ": " 400030", "TALHOES": "1, 5", "FAZ_tAL": "400055001, 400030005, 400030001", "ID_LINHA": 196313 }, "geometry": { "type": "MultiLineString", "coordinates": [ [ [ 415579.655576505232602, 7647550.286696819588542 ], [ 415650.159727125777863, 7648081.881438504904509 ] ] ] } },
{ "type": "Feature", "properties": { "fid": 1581.0, "COMPR_M": 536.27, "CLASSE": "03 - Média", "CD_FAZ": " 400030", "TALHOES": "1, 5", "FAZ_tAL": "400055001, 400030005, 400030001", "ID_LINHA": 196315 }, "geometry": { "type": "MultiLineString", "coordinates": [ [ [ 415582.636370907421224, 7647549.943814191035926 ], [ 415653.121511597186327, 7648081.395222764462233 ] ] ] } },
{ "type": "Feature", "properties": { "fid": 1583.0, "COMPR_M": 536.13, "CLASSE": "03 - Média", "CD_FAZ": " 400030", "TALHOES": "1, 5", "FAZ_tAL": "400055001, 400030005, 400030001", "ID_LINHA": 196317 }, "geometry": { "type": "MultiLineString", "coordinates": [ [ [ 415585.617165310308337, 7647549.600931565277278 ], [ 415656.083296067197807, 7648080.909007022157311 ] ] ] } },
{ "type": "Feature", "properties": { "fid": 1585.0, "COMPR_M": 535.98, "CLASSE": "03 - Média", "CD_FAZ": " 400030", "TALHOES": "1, 5", "FAZ_tAL": "400055001, 400030005, 400030001", "ID_LINHA": 196319 }, "geometry": { "type": "MultiLineString", "coordinates": [ [ [ 415588.597959711798467, 7647549.258048938587308 ], [ 415659.045080540236086, 7648080.422791280783713 ] ] ] } },
{ "type": "Feature", "properties": { "fid": 1587.0, "COMPR_M": 535.62, "CLASSE": "03 - Média", "CD_FAZ": " 400030", "TALHOES": "1, 5", "FAZ_tAL": "400055001, 400030005, 400030001", "ID_LINHA": 196321 }, "geometry": { "type": "MultiLineString", "coordinates": [ [ [ 415591.578754114510957, 7647548.915166311897337 ], [ 415661.977599636476953, 7648079.715917338617146 ] ] ] } },
{ "type": "Feature", "properties": { "fid": 1589.0, "COMPR_M": 535.2, "CLASSE": "03 - Média", "CD_FAZ": " 400030", "TALHOES": "1, 5", "FAZ_tAL": "400055001, 400030005, 400030001", "ID_LINHA": 196323 }, "geometry": { "type": "MultiLineString", "coordinates": [ [ [ 415594.559548517223448, 7647548.572283687070012 ], [ 415664.903978256974369, 7648078.962744777090847 ] ] ] } },
{ "type": "Feature", "properties": { "fid": 1591.0, "COMPR_M": 534.63, "CLASSE": "03 - Média", "CD_FAZ": " 400030", "TALHOES": "1, 5", "FAZ_tAL": "400055001, 400030005, 400030001", "ID_LINHA": 196325 }, "geometry": { "type": "MultiLineString", "coordinates": [ [ [ 415597.540342919935938, 7647548.229401058517396 ], [ 415667.809069204726256, 7648078.049065141007304 ] ] ] } },
{ "type": "Feature", "properties": { "fid": 1593.0, "COMPR_M": 534.05, "CLASSE": "03 - Média", "CD_FAZ": " 400030", "TALHOES": "1, 5", "FAZ_tAL": "400055001, 400030005, 400030001", "ID_LINHA": 196327 }, "geometry": { "type": "MultiLineString", "coordinates": [ [ [ 415600.521137321193237, 7647547.886518432758749 ], [ 415670.714160153176636, 7648077.135385506786406 ] ] ] } },
{ "type": "Feature", "properties": { "fid": 1595.0, "COMPR_M": 533.47, "CLASSE": "03 - Média", "CD_FAZ": " 400030", "TALHOES": "1, 5", "FAZ_tAL": "400055001, 400030005, 400030001", "ID_LINHA": 196329 }, "geometry": { "type": "MultiLineString", "coordinates": [ [ [ 415603.501931723789312, 7647547.543635806068778 ], [ 415673.619251101044938, 7648076.221705870702863 ] ] ] } },
{ "type": "Feature", "properties": { "fid": 1597.0, "COMPR_M": 533.49, "CLASSE": "03 - Média", "CD_FAZ": " 400030", "TALHOES": "1, 5", "FAZ_tAL": "400055001, 400030005, 400030001", "ID_LINHA": 196331 }, "geometry": { "type": "MultiLineString", "coordinates": [ [ [ 415606.482726126967464, 7647547.200753178447485 ], [ 415676.601626175048295, 7648075.890741361305118 ] ] ] } },
{ "type": "Feature", "properties": { "fid": 1599.0, "COMPR_M": 534.28, "CLASSE": "03 - Média", "CD_FAZ": " 400030", "TALHOES": "1, 5", "FAZ_tAL": "400055001, 400030005, 400030001", "ID_LINHA": 196333 }, "geometry": { "type": "MultiLineString", "coordinates": [ [ [ 415609.463520529447123, 7647546.85787055362016 ], [ 415679.686384756641928, 7648076.331738982349634 ] ] ] } },
{ "type": "Feature", "properties": { "fid": 1601.0, "COMPR_M": 536.33, "CLASSE": "03 - Média", "CD_FAZ": " 400030", "TALHOES": "1, 5", "FAZ_tAL": "400055001, 400030005, 400030001", "ID_LINHA": 196335 }, "geometry": { "type": "MultiLineString", "coordinates": [ [ [ 415612.444314931926783, 7647546.514987925998867 ], [ 415682.937611188797746, 7648078.027888722717762 ] ] ] } },
{ "type": "Feature", "properties": { "fid": 1603.0, "COMPR_M": 539.83, "CLASSE": "03 - Média", "CD_FAZ": " 400030", "TALHOES": "1, 5", "FAZ_tAL": "400055001, 400030005, 400030001", "ID_LINHA": 196337 }, "geometry": { "type": "MultiLineString", "coordinates": [ [ [ 415615.425109334290028, 7647546.172105301171541 ], [ 415686.378218173980713, 7648081.151950223371387 ] ] ] } },
{ "type": "Feature", "properties": { "fid": 1605.0, "COMPR_M": 544.03, "CLASSE": "03 - Média", "CD_FAZ": " 400030", "TALHOES": "1, 5", "FAZ_tAL": "400055001, 400030005, 400030001", "ID_LINHA": 196339 }, "geometry": { "type": "MultiLineString", "coordinates": [ [ [ 415618.40590373671148, 7647545.829222673550248 ], [ 415689.911226315365639, 7648084.972707852721214 ] ] ] } },
{ "type": "Feature", "properties": { "fid": 1607.0, "COMPR_M": 549.23, "CLASSE": "03 - Média", "CD_FAZ": " 400030", "TALHOES": "1, 5", "FAZ_tAL": "400055001, 400030005, 400030001", "ID_LINHA": 196341 }, "geometry": { "type": "MultiLineString", "coordinates": [ [ [ 415621.386698138376232, 7647545.486340045928955 ], [ 415693.575541673868429, 7648089.783509690314531 ] ] ] } },
{ "type": "Feature", "properties": { "fid": 1609.0, "COMPR_M": 556.1, "CLASSE": "03 - Média", "CD_FAZ": " 400030", "TALHOES": "1, 5", "FAZ_tAL": "400055001, 400030005, 400030001", "ID_LINHA": 196343 }, "geometry": { "type": "MultiLineString", "coordinates": [ [ [ 415624.367492541321553, 7647545.143457420170307 ], [ 415697.459073507692665, 7648096.247183386236429 ] ] ] } },
{ "type": "Feature", "properties": { "fid": 1611.0, "COMPR_M": 563.8, "CLASSE": "03 - Média", "CD_FAZ": " 400030", "TALHOES": "1, 5", "FAZ_tAL": "400055001, 400030005, 400030001", "ID_LINHA": 196345 }, "geometry": { "type": "MultiLineString", "coordinates": [ [ [ 415627.348286943510175, 7647544.800574793480337 ], [ 415701.451787247671746, 7648103.534078501164913 ] ] ] } },
{ "type": "Feature", "properties": { "fid": 1613.0, "COMPR_M": 571.54, "CLASSE": "03 - Média", "CD_FAZ": " 400030", "TALHOES": "1, 5", "FAZ_tAL": "400055001, 400030005, 400030001", "ID_LINHA": 196347 }, "geometry": { "type": "MultiLineString", "coordinates": [ [ [ 415630.329081345757004, 7647544.457692166790366 ], [ 415705.450152452162001, 7648110.863585127517581 ] ] ] } },
{ "type": "Feature", "properties": { "fid": 1615.0, "COMPR_M": 578.51, "CLASSE": "03 - Média", "CD_FAZ": " 400030", "TALHOES": "1, 5", "FAZ_tAL": "400055001, 400030005, 400030001", "ID_LINHA": 196349 }, "geometry": { "type": "MultiLineString", "coordinates": [ [ [ 415633.30987574858591, 7647544.114809541031718 ], [ 415709.346802066487726, 7648117.426165661774576 ] ] ] } },
{ "type": "Feature", "properties": { "fid": 1617.0, "COMPR_M": 585.42, "CLASSE": "03 - Média", "CD_FAZ": " 400030", "TALHOES": "1, 5", "FAZ_tAL": "400055001, 400030005, 400030001", "ID_LINHA": 196351 }, "geometry": { "type": "MultiLineString", "coordinates": [ [ [ 415636.290670151356608, 7647543.771926913410425 ], [ 415713.23504650144605, 7648123.925371922552586 ] ] ] } },
{ "type": "Feature", "properties": { "fid": 1619.0, "COMPR_M": 592.31, "CLASSE": "03 - Média", "CD_FAZ": " 400030", "TALHOES": "1, 5", "FAZ_tAL": "400055001, 400030005, 400030001", "ID_LINHA": 196353 }, "geometry": { "type": "MultiLineString", "coordinates": [ [ [ 415639.271464552846737, 7647543.429044287651777 ], [ 415717.121678121155128, 7648130.412417715415359 ] ] ] } },
{ "type": "Feature", "properties": { "fid": 1621.0, "COMPR_M": 599.31, "CLASSE": "03 - Média", "CD_FAZ": " 400030", "TALHOES": "1, 5", "FAZ_tAL": "400055001, 400030005, 400030001", "ID_LINHA": 196355 }, "geometry": { "type": "MultiLineString", "coordinates": [ [ [ 415642.252258956199512, 7647543.086161661893129 ], [ 415721.0228584833676, 7648137.009159662760794 ] ] ] } },
{ "type": "Feature", "properties": { "fid": 1623.0, "COMPR_M": 606.37, "CLASSE": "04 - Longa", "CD_FAZ": " 400030", "TALHOES": "1, 5", "FAZ_tAL": "400055001, 400030005, 400030001", "ID_LINHA": 196357 }, "geometry": { "type": "MultiLineString", "coordinates": [ [ [ 415645.233053358271718, 7647542.743279036134481 ], [ 415724.931685226911213, 7648143.663554625585675 ] ] ] } },
{ "type": "Feature", "properties": { "fid": 1625.0, "COMPR_M": 614.23, "CLASSE": "04 - Longa", "CD_FAZ": " 400030", "TALHOES": "1, 5", "FAZ_tAL": "400055001, 400030005, 400030001", "ID_LINHA": 196359 }, "geometry": { "type": "MultiLineString", "coordinates": [ [ [ 415648.213847760926001, 7647542.400396408513188 ], [ 415728.945277947816066, 7648151.107875306159258 ] ] ] } },
{ "type": "Feature", "properties": { "fid": 1627.0, "COMPR_M": 623.72, "CLASSE": "04 - Longa", "CD_FAZ": " 400030", "TALHOES": "1, 5", "FAZ_tAL": "400055001, 400030005, 400030001", "ID_LINHA": 196361 }, "geometry": { "type": "MultiLineString", "coordinates": [ [ [ 415651.194642163580284, 7647542.057513780891895 ], [ 415733.173039555491414, 7648160.167009487748146 ] ] ] } },
{ "type": "Feature", "properties": { "fid": 1629.0, "COMPR_M": 638.9, "CLASSE": "04 - Longa", "CD_FAZ": " 400030", "TALHOES": "1, 5", "FAZ_tAL": "400055001, 400030005, 400030001", "ID_LINHA": 196363 }, "geometry": { "type": "MultiLineString", "coordinates": [ [ [ 415654.175436565536074, 7647541.714631154201925 ], [ 415738.14941927161999, 7648174.870654622092843 ] ] ] } },
{ "type": "Feature", "properties": { "fid": 1631.0, "COMPR_M": 658.2, "CLASSE": "04 - Longa", "CD_FAZ": " 400030", "TALHOES": "1, 5", "FAZ_tAL": "400055001, 400030005, 400030001", "ID_LINHA": 196365 }, "geometry": { "type": "MultiLineString", "coordinates": [ [ [ 415657.156230968073942, 7647541.371748527511954 ], [ 415743.667505884135608, 7648193.658719391562045 ] ] ] } },
{ "type": "Feature", "properties": { "fid": 1633.0, "COMPR_M": 681.92, "CLASSE": "04 - Longa", "CD_FAZ": " 400030", "TALHOES": "1, 5", "FAZ_tAL": "400055001, 400030005, 400030001", "ID_LINHA": 196367 }, "geometry": { "type": "MultiLineString", "coordinates": [ [ [ 415660.137025370611809, 7647541.028865901753306 ], [ 415749.765598695725203, 7648216.819977004081011 ] ] ] } },
{ "type": "Feature", "properties": { "fid": 1635.0, "COMPR_M": 694.82, "CLASSE": "04 - Longa", "CD_FAZ": " 400030", "TALHOES": "1, 5", "FAZ_tAL": "400055001, 400030005, 400030001", "ID_LINHA": 196369 }, "geometry": { "type": "MultiLineString", "coordinates": [ [ [ 415663.1178197718109, 7647540.685983275994658 ], [ 415754.441705228877254, 7648229.259590234607458 ] ] ] } },
{ "type": "Feature", "properties": { "fid": 1637.0, "COMPR_M": 700.79, "CLASSE": "04 - Longa", "CD_FAZ": " 400030", "TALHOES": "1, 5", "FAZ_tAL": "400055001, 400030005, 400030001", "ID_LINHA": 196371 }, "geometry": { "type": "MultiLineString", "coordinates": [ [ [ 415666.09861417429056, 7647540.343100649304688 ], [ 415758.207446762069594, 7648234.835136013105512 ] ] ] } },
{ "type": "Feature", "properties": { "fid": 1639.0, "COMPR_M": 705.52, "CLASSE": "04 - Longa", "CD_FAZ": " 400030", "TALHOES": "1, 5", "FAZ_tAL": "400055001, 400030005, 400030001", "ID_LINHA": 196373 }, "geometry": { "type": "MultiLineString", "coordinates": [ [ [ 415669.079408578108996, 7647540.000218022614717 ], [ 415761.809472326596733, 7648239.176278593949974 ] ] ] } },
{ "type": "Feature", "properties": { "fid": 1641.0, "COMPR_M": 709.91, "CLASSE": "04 - Longa", "CD_FAZ": " 400030", "TALHOES": "1, 5", "FAZ_tAL": "400055001, 400030005, 400030001", "ID_LINHA": 196375 }, "geometry": { "type": "MultiLineString", "coordinates": [ [ [ 415672.060202980530448, 7647539.657335395924747 ], [ 415765.367598524026107, 7648243.186424031853676 ] ] ] } },
{ "type": "Feature", "properties": { "fid": 1643.0, "COMPR_M": 714.29, "CLASSE": "04 - Longa", "CD_FAZ": " 400030", "TALHOES": "1, 5", "FAZ_tAL": "400055001, 400030005, 400030001", "ID_LINHA": 196377 }, "geometry": { "type": "MultiLineString", "coordinates": [ [ [ 415675.040997382253408, 7647539.314452770166099 ], [ 415768.924449887883384, 7648247.186957344412804 ] ] ] } },
{ "type": "Feature", "properties": { "fid": 1645.0, "COMPR_M": 719.16, "CLASSE": "04 - Longa", "CD_FAZ": " 400030", "TALHOES": "1, 5", "FAZ_tAL": "400055001, 400030005, 400030001", "ID_LINHA": 196379 }, "geometry": { "type": "MultiLineString", "coordinates": [ [ [ 415678.021791784674861, 7647538.971570143476129 ], [ 415772.545355365786236, 7648251.670452730730176 ] ] ] } },
{ "type": "Feature", "properties": { "fid": 1647.0, "COMPR_M": 724.22, "CLASSE": "04 - Longa", "CD_FAZ": " 400030", "TALHOES": "1, 5", "FAZ_tAL": "400055001, 400030005, 400030001", "ID_LINHA": 196381 }, "geometry": { "type": "MultiLineString", "coordinates": [ [ [ 415681.002586187678389, 7647538.628687515854836 ], [ 415776.190251089225058, 7648256.334832329303026 ] ] ] } },
{ "type": "Feature", "properties": { "fid": 1649.0, "COMPR_M": 730.91, "CLASSE": "04 - Longa", "CD_FAZ": " 400030", "TALHOES": "1, 5", "FAZ_tAL": "400055001, 400030005, 400030001", "ID_LINHA": 196383 }, "geometry": { "type": "MultiLineString", "coordinates": [ [ [ 415683.983380590041634, 7647538.285804889164865 ], [ 415780.050639026565477, 7648262.624003179371357 ] ] ] } },
{ "type": "Feature", "properties": { "fid": 1651.0, "COMPR_M": 742.86, "CLASSE": "04 - Longa", "CD_FAZ": " 400030", "TALHOES": "1, 5", "FAZ_tAL": "400055001, 400030005, 400030001", "ID_LINHA": 196385 }, "geometry": { "type": "MultiLineString", "coordinates": [ [ [ 415686.964174991706386, 7647537.942922262474895 ], [ 415784.602690764644649, 7648274.128254804760218 ] ] ] } },
{ "type": "Feature", "properties": { "fid": 1653.0, "COMPR_M": 765.06, "CLASSE": "04 - Longa", "CD_FAZ": " 400030", "TALHOES": "1, 5", "FAZ_tAL": "400055001, 400030005, 400030001", "ID_LINHA": 196387 }, "geometry": { "type": "MultiLineString", "coordinates": [ [ [ 415689.944969393953215, 7647537.600039635784924 ], [ 415790.500679403950926, 7648295.780745547264814 ] ] ] } },
{ "type": "Feature", "properties": { "fid": 1655.0, "COMPR_M": 780.4, "CLASSE": "04 - Longa", "CD_FAZ": " 400030", "TALHOES": "1, 5", "FAZ_tAL": "400055001, 400030005, 400030001", "ID_LINHA": 196389 }, "geometry": { "type": "MultiLineString", "coordinates": [ [ [ 415692.925763797597028, 7647537.257157010957599 ], [ 415795.497765632055234, 7648310.640515852719545 ] ] ] } },
{ "type": "Feature", "properties": { "fid": 1657.0, "COMPR_M": 794.09, "CLASSE": "04 - Longa", "CD_FAZ": " 400030", "TALHOES": "1, 5", "FAZ_tAL": "400055001, 400030005, 400030001", "ID_LINHA": 196391 }, "geometry": { "type": "MultiLineString", "coordinates": [ [ [ 415695.906558199145366, 7647536.914274383336306 ], [ 415800.277567053795792, 7648323.861978916451335 ] ] ] } },
{ "type": "Feature", "properties": { "fid": 1659.0, "COMPR_M": 808.63, "CLASSE": "04 - Longa", "CD_FAZ": " 400030", "TALHOES": "1, 5", "FAZ_tAL": "400055001, 400030005, 400030001", "ID_LINHA": 196393 }, "geometry": { "type": "MultiLineString", "coordinates": [ [ [ 415698.887352602090687, 7647536.571391757577658 ], [ 415805.169977338809986, 7648337.932502348907292 ] ] ] } },
{ "type": "Feature", "properties": { "fid": 1661.0, "COMPR_M": 1234.63, "CLASSE": "06 - Acima do limite", "CD_FAZ": " 400030", "TALHOES": "1, 6, 5", "FAZ_tAL": "400055001, 400030006, 400030005, 400030001", "ID_LINHA": 196395 }, "geometry": { "type": "MultiLineString", "coordinates": [ [ [ 415701.8681470049778, 7647536.228509129956365 ], [ 415864.141507253807504, 7648759.754560652188957 ] ] ] } },
{ "type": "Feature", "properties": { "fid": 1662.0, "COMPR_M": 1233.87, "CLASSE": "06 - Acima do limite", "CD_FAZ": " 400030", "TALHOES": "1, 6, 5", "FAZ_tAL": "400055001, 400030006, 400030005, 400030001", "ID_LINHA": 196396 }, "geometry": { "type": "MultiLineString", "coordinates": [ [ [ 415704.848941407166421, 7647535.885626503266394 ], [ 415867.022407003503758, 7648758.658481616526842 ] ] ] } },
{ "type": "Feature", "properties": { "fid": 1663.0, "COMPR_M": 1233.11, "CLASSE": "06 - Acima do limite", "CD_FAZ": " 400030", "TALHOES": "1, 6, 5", "FAZ_tAL": "400055001, 400030006, 400030005, 400030001", "ID_LINHA": 196397 }, "geometry": { "type": "MultiLineString", "coordinates": [ [ [ 415707.829735809355043, 7647535.542743876576424 ], [ 415869.903306751395576, 7648757.56240258179605 ] ] ] } },
{ "type": "Feature", "properties": { "fid": 1664.0, "COMPR_M": 1232.35, "CLASSE": "06 - Acima do limite", "CD_FAZ": " 400030", "TALHOES": "1, 6, 5", "FAZ_tAL": "400055001, 400030006, 400030005, 400030001", "ID_LINHA": 196398 }, "geometry": { "type": "MultiLineString", "coordinates": [ [ [ 415710.810530212183949, 7647535.199861251749098 ], [ 415872.784206499578431, 7648756.466323545202613 ] ] ] } },
{ "type": "Feature", "properties": { "fid": 1665.0, "COMPR_M": 1231.59, "CLASSE": "06 - Acima do limite", "CD_FAZ": " 400030", "TALHOES": "1, 6, 5", "FAZ_tAL": "400055001, 400030006, 400030005, 400030001", "ID_LINHA": 196399 }, "geometry": { "type": "MultiLineString", "coordinates": [ [ [ 415713.791324614314362, 7647534.856978625059128 ], [ 415875.665106247994117, 7648755.370244512334466 ] ] ] } },
{ "type": "Feature", "properties": { "fid": 1666.0, "COMPR_M": 1230.83, "CLASSE": "06 - Acima do limite", "CD_FAZ": " 400030", "TALHOES": "1, 6, 5", "FAZ_tAL": "400055001, 400030006, 400030005, 400030001", "ID_LINHA": 196400 }, "geometry": { "type": "MultiLineString", "coordinates": [ [ [ 415716.772119017143268, 7647534.514095997437835 ], [ 415878.546005994663574, 7648754.274165477603674 ] ] ] } },
{ "type": "Feature", "properties": { "fid": 1667.0, "COMPR_M": 1230.07, "CLASSE": "06 - Acima do limite", "CD_FAZ": " 400030", "TALHOES": "1, 6, 5", "FAZ_tAL": "400055001, 400030006, 400030005, 400030001", "ID_LINHA": 196401 }, "geometry": { "type": "MultiLineString", "coordinates": [ [ [ 415719.752913419913966, 7647534.171213369816542 ], [ 415881.426905742904637, 7648753.178086442872882 ] ] ] } },
{ "type": "Feature", "properties": { "fid": 1668.0, "COMPR_M": 1229.31, "CLASSE": "06 - Acima do limite", "CD_FAZ": " 400030", "TALHOES": "1, 6, 5", "FAZ_tAL": "400055001, 400030006, 400030005, 400030001", "ID_LINHA": 196402 }, "geometry": { "type": "MultiLineString", "coordinates": [ [ [ 415722.733707821345888, 7647533.828330744057894 ], [ 415884.307805491378531, 7648752.082007407210767 ] ] ] } },
{ "type": "Feature", "properties": { "fid": 1671.0, "COMPR_M": 1227.03, "CLASSE": "06 - Acima do limite", "CD_FAZ": " 400030", "TALHOES": "1, 6, 5", "FAZ_tAL": "400059001, 400030006, 400030005, 400030001", "ID_LINHA": 196405 }, "geometry": { "type": "MultiLineString", "coordinates": [ [ [ 415731.676091029017698, 7647532.799682864919305 ], [ 415892.950504734995775, 7648748.793770302087069 ] ] ] } },
{ "type": "Feature", "properties": { "fid": 1672.0, "COMPR_M": 1226.27, "CLASSE": "06 - Acima do limite", "CD_FAZ": " 400030", "TALHOES": "1, 6, 5", "FAZ_tAL": "400059001, 400030006, 400030005, 400030001", "ID_LINHA": 196406 }, "geometry": { "type": "MultiLineString", "coordinates": [ [ [ 415734.65688543044962, 7647532.456800239160657 ], [ 415895.831404483120423, 7648747.697691265493631 ] ] ] } },
{ "type": "Feature", "properties": { "fid": 1673.0, "COMPR_M": 1225.51, "CLASSE": "06 - Acima do limite", "CD_FAZ": " 400030", "TALHOES": "1, 6, 5", "FAZ_tAL": "400059001, 400030006, 400030005, 400030001", "ID_LINHA": 196407 }, "geometry": { "type": "MultiLineString", "coordinates": [ [ [ 415737.63767983316211, 7647532.113917613402009 ], [ 415898.712304230837617, 7648746.601612231694162 ] ] ] } },
{ "type": "Feature", "properties": { "fid": 1674.0, "COMPR_M": 1224.75, "CLASSE": "06 - Acima do limite", "CD_FAZ": " 400030", "TALHOES": "1, 6, 5", "FAZ_tAL": "400059001, 400030006, 400030005, 400030001", "ID_LINHA": 196408 }, "geometry": { "type": "MultiLineString", "coordinates": [ [ [ 415740.618474236573093, 7647531.771034984849393 ], [ 415901.593203977448866, 7648745.505533196032047 ] ] ] } },
{ "type": "Feature", "properties": { "fid": 1675.0, "COMPR_M": 1223.99, "CLASSE": "06 - Acima do limite", "CD_FAZ": " 400030", "TALHOES": "1, 6, 5", "FAZ_tAL": "400059001, 400030006, 400030005, 400030001", "ID_LINHA": 196409 }, "geometry": { "type": "MultiLineString", "coordinates": [ [ [ 415743.599268637306523, 7647531.428152358159423 ], [ 415904.474103725631721, 7648744.409454162232578 ] ] ] } },
{ "type": "Feature", "properties": { "fid": 1676.0, "COMPR_M": 1223.23, "CLASSE": "06 - Acima do limite", "CD_FAZ": " 400030", "TALHOES": "1, 6, 5", "FAZ_tAL": "400059001, 400030006, 400030005, 400030001", "ID_LINHA": 196410 }, "geometry": { "type": "MultiLineString", "coordinates": [ [ [ 415746.580063041299582, 7647531.085269732400775 ], [ 415907.355003474105615, 7648743.313375125639141 ] ] ] } },
{ "type": "Feature", "properties": { "fid": 1677.0, "COMPR_M": 1222.47, "CLASSE": "06 - Acima do limite", "CD_FAZ": " 400030", "TALHOES": "1, 6, 5", "FAZ_tAL": "400059001, 400030006, 400030005, 400030001", "ID_LINHA": 196411 }, "geometry": { "type": "MultiLineString", "coordinates": [ [ [ 415749.560857443371788, 7647530.742387106642127 ], [ 415910.235903222113848, 7648742.217296091839671 ] ] ] } },
{ "type": "Feature", "properties": { "fid": 1678.0, "COMPR_M": 1221.71, "CLASSE": "06 - Acima do limite", "CD_FAZ": " 400030", "TALHOES": "1, 6, 5", "FAZ_tAL": "400059001, 400030006, 400030005, 400030001", "ID_LINHA": 196412 }, "geometry": { "type": "MultiLineString", "coordinates": [ [ [ 415752.54165184602607, 7647530.399504479020834 ], [ 415913.116802971111611, 7648741.121217056177557 ] ] ] } },
{ "type": "Feature", "properties": { "fid": 1679.0, "COMPR_M": 1220.95, "CLASSE": "06 - Acima do limite", "CD_FAZ": " 400030", "TALHOES": "1, 6, 5", "FAZ_tAL": "400059001, 400030006, 400030005, 400030001", "ID_LINHA": 196413 }, "geometry": { "type": "MultiLineString", "coordinates": [ [ [ 415755.522446248098277, 7647530.056621853262186 ], [ 415915.99770271894522, 7648740.02513802330941 ] ] ] } },
{ "type": "Feature", "properties": { "fid": 1680.0, "COMPR_M": 1220.19, "CLASSE": "06 - Acima do limite", "CD_FAZ": " 400030", "TALHOES": "1, 6, 5", "FAZ_tAL": "400059001, 400030006, 400030005, 400030001", "ID_LINHA": 196414 }, "geometry": { "type": "MultiLineString", "coordinates": [ [ [ 415758.503240650810767, 7647529.713739225640893 ], [ 415918.878602467710152, 7648738.929058986715972 ] ] ] } },
{ "type": "Feature", "properties": { "fid": 1681.0, "COMPR_M": 1219.43, "CLASSE": "06 - Acima do limite", "CD_FAZ": " 400030", "TALHOES": "1, 6, 5", "FAZ_tAL": "400059001, 400030006, 400030005, 400030001", "ID_LINHA": 196415 }, "geometry": { "type": "MultiLineString", "coordinates": [ [ [ 415761.484035052824765, 7647529.370856602676213 ], [ 415921.759502214787062, 7648737.832979952916503 ] ] ] } },
{ "type": "Feature", "properties": { "fid": 1682.0, "COMPR_M": 1218.67, "CLASSE": "06 - Acima do limite", "CD_FAZ": " 400030", "TALHOES": "1, 6, 5", "FAZ_tAL": "400059001, 400030006, 400030005, 400030001", "ID_LINHA": 196416 }, "geometry": { "type": "MultiLineString", "coordinates": [ [ [ 415764.464829455537256, 7647529.027973974123597 ], [ 415924.640401962737087, 7648736.736900917254388 ] ] ] } },
{ "type": "Feature", "properties": { "fid": 1683.0, "COMPR_M": 1217.91, "CLASSE": "06 - Acima do limite", "CD_FAZ": " 400030", "TALHOES": "1, 6, 5", "FAZ_tAL": "400059001, 400030006, 400030005, 400030001", "ID_LINHA": 196417 }, "geometry": { "type": "MultiLineString", "coordinates": [ [ [ 415767.445623857609462, 7647528.685091346502304 ], [ 415927.52130171097815, 7648735.640821881592274 ] ] ] } },
{ "type": "Feature", "properties": { "fid": 1684.0, "COMPR_M": 1217.15, "CLASSE": "06 - Acima do limite", "CD_FAZ": " 400030", "TALHOES": "1, 6, 5", "FAZ_tAL": "400059001, 400030006, 400030005, 400030001", "ID_LINHA": 196418 }, "geometry": { "type": "MultiLineString", "coordinates": [ [ [ 415770.426418258983176, 7647528.342208718881011 ], [ 415930.402201458753552, 7648734.544742847792804 ] ] ] } },
{ "type": "Feature", "properties": { "fid": 1685.0, "COMPR_M": 1216.39, "CLASSE": "06 - Acima do limite", "CD_FAZ": " 400030", "TALHOES": "1, 6, 5", "FAZ_tAL": "400059001, 400030006, 400030005, 400030001", "ID_LINHA": 196419 }, "geometry": { "type": "MultiLineString", "coordinates": [ [ [ 415773.407212662976235, 7647527.999326094985008 ], [ 415933.283101206761785, 7648733.44866381213069 ] ] ] } },
{ "type": "Feature", "properties": { "fid": 1686.0, "COMPR_M": 1215.63, "CLASSE": "06 - Acima do limite", "CD_FAZ": " 400030", "TALHOES": "1, 6, 5", "FAZ_tAL": "400059001, 400030006, 400030005, 400030001", "ID_LINHA": 196420 }, "geometry": { "type": "MultiLineString", "coordinates": [ [ [ 415776.388007065048441, 7647527.656443466432393 ], [ 415936.164000955061056, 7648732.352584777399898 ] ] ] } },
{ "type": "Feature", "properties": { "fid": 1687.0, "COMPR_M": 1214.87, "CLASSE": "06 - Acima do limite", "CD_FAZ": " 400030", "TALHOES": "1, 6, 5", "FAZ_tAL": "400059001, 400030006, 400030005, 400030001", "ID_LINHA": 196421 }, "geometry": { "type": "MultiLineString", "coordinates": [ [ [ 415779.368801468401216, 7647527.313560840673745 ], [ 415939.044900702952873, 7648731.256505742669106 ] ] ] } },
{ "type": "Feature", "properties": { "fid": 1688.0, "COMPR_M": 1214.11, "CLASSE": "06 - Acima do limite", "CD_FAZ": " 400030", "TALHOES": "1, 6, 5", "FAZ_tAL": "400059001, 400030006, 400030005, 400030001", "ID_LINHA": 196422 }, "geometry": { "type": "MultiLineString", "coordinates": [ [ [ 415782.349595870415214, 7647526.970678213983774 ], [ 415941.925800450437237, 7648730.160426707938313 ] ] ] } },
{ "type": "Feature", "properties": { "fid": 1689.0, "COMPR_M": 1213.35, "CLASSE": "06 - Acima do limite", "CD_FAZ": " 400030", "TALHOES": "1, 6, 5", "FAZ_tAL": "400059001, 400030006, 400030005, 400030001", "ID_LINHA": 196423 }, "geometry": { "type": "MultiLineString", "coordinates": [ [ [ 415785.330390272487421, 7647526.627795588225126 ], [ 415944.806700198794715, 7648729.064347672276199 ] ] ] } },
{ "type": "Feature", "properties": { "fid": 1690.0, "COMPR_M": 1212.59, "CLASSE": "06 - Acima do limite", "CD_FAZ": " 400030", "TALHOES": "1, 6, 5", "FAZ_tAL": "400059001, 400030006, 400030005, 400030001", "ID_LINHA": 196424 }, "geometry": { "type": "MultiLineString", "coordinates": [ [ [ 415788.311184675199911, 7647526.284912962466478 ], [ 415947.687599946802948, 7648727.968268636614084 ] ] ] } },
{ "type": "Feature", "properties": { "fid": 1691.0, "COMPR_M": 1211.83, "CLASSE": "06 - Acima do limite", "CD_FAZ": " 400030", "TALHOES": "1, 6, 5", "FAZ_tAL": "400059001, 400030006, 400030005, 400030001", "ID_LINHA": 196425 }, "geometry": { "type": "MultiLineString", "coordinates": [ [ [ 415791.291979077272117, 7647525.942030334845185 ], [ 415950.568499695044011, 7648726.872189603745937 ] ] ] } },
{ "type": "Feature", "properties": { "fid": 1692.0, "COMPR_M": 1211.07, "CLASSE": "06 - Acima do limite", "CD_FAZ": " 400030", "TALHOES": "1, 6, 5", "FAZ_tAL": "400059001, 400030006, 400030005, 400030001", "ID_LINHA": 196426 }, "geometry": { "type": "MultiLineString", "coordinates": [ [ [ 415794.272773480042815, 7647525.599147707223892 ], [ 415953.44939944287762, 7648725.776110568083823 ] ] ] } },
{ "type": "Feature", "properties": { "fid": 1693.0, "COMPR_M": 1210.31, "CLASSE": "06 - Acima do limite", "CD_FAZ": " 400030", "TALHOES": "1, 6, 5", "FAZ_tAL": "400059001, 400030006, 400030005, 400030001", "ID_LINHA": 196427 }, "geometry": { "type": "MultiLineString", "coordinates": [ [ [ 415797.253567881416529, 7647525.256265082396567 ], [ 415956.330299190944061, 7648724.680031532421708 ] ] ] } },
{ "type": "Feature", "properties": { "fid": 1694.0, "COMPR_M": 1209.55, "CLASSE": "06 - Acima do limite", "CD_FAZ": " 400030", "TALHOES": "1, 6, 5", "FAZ_tAL": "400059001, 400030006, 400030005, 400030001", "ID_LINHA": 196428 }, "geometry": { "type": "MultiLineString", "coordinates": [ [ [ 415800.234362284827512, 7647524.913382454775274 ], [ 415959.211198938603047, 7648723.583952497690916 ] ] ] } },
{ "type": "Feature", "properties": { "fid": 1695.0, "COMPR_M": 1208.79, "CLASSE": "06 - Acima do limite", "CD_FAZ": " 400030", "TALHOES": "1, 6, 5", "FAZ_tAL": "400059001, 400030006, 400030005, 400030001", "ID_LINHA": 196429 }, "geometry": { "type": "MultiLineString", "coordinates": [ [ [ 415803.215156685677357, 7647524.570499829016626 ], [ 415962.092098685214296, 7648722.487873464822769 ] ] ] } },
{ "type": "Feature", "properties": { "fid": 1696.0, "COMPR_M": 1208.02, "CLASSE": "06 - Acima do limite", "CD_FAZ": " 400030", "TALHOES": "1, 6, 5", "FAZ_tAL": "400059001, 400030006, 400030005, 400030001", "ID_LINHA": 196430 }, "geometry": { "type": "MultiLineString", "coordinates": [ [ [ 415806.195951089728624, 7647524.227617202326655 ], [ 415964.97299843467772, 7648721.391794428229332 ] ] ] } },
{ "type": "Feature", "properties": { "fid": 1697.0, "COMPR_M": 1207.26, "CLASSE": "06 - Acima do limite", "CD_FAZ": " 400030", "TALHOES": "1, 6, 5", "FAZ_tAL": "400059001, 400030006, 400030005, 400030001", "ID_LINHA": 196431 }, "geometry": { "type": "MultiLineString", "coordinates": [ [ [ 415809.17674549180083, 7647523.884734574705362 ], [ 415967.85389818251133, 7648720.29571539349854 ] ] ] } },
{ "type": "Feature", "properties": { "fid": 1698.0, "COMPR_M": 1206.5, "CLASSE": "06 - Acima do limite", "CD_FAZ": " 400030", "TALHOES": "1, 6, 5", "FAZ_tAL": "400059001, 400030006, 400030005, 400030001", "ID_LINHA": 196432 }, "geometry": { "type": "MultiLineString", "coordinates": [ [ [ 415812.157539894629735, 7647523.54185195080936 ], [ 415970.734797930519562, 7648719.199636358767748 ] ] ] } },
{ "type": "Feature", "properties": { "fid": 1699.0, "COMPR_M": 1205.74, "CLASSE": "06 - Acima do limite", "CD_FAZ": " 400030", "TALHOES": "1, 6, 5", "FAZ_tAL": "400059001, 400030006, 400030005, 400030001", "ID_LINHA": 196433 }, "geometry": { "type": "MultiLineString", "coordinates": [ [ [ 415815.138334296760149, 7647523.198969323188066 ], [ 415973.615697678120341, 7648718.103557324036956 ] ] ] } },
{ "type": "Feature", "properties": { "fid": 1700.0, "COMPR_M": 1204.98, "CLASSE": "06 - Acima do limite", "CD_FAZ": " 400030", "TALHOES": "1, 6, 5", "FAZ_tAL": "400059001, 400030006, 400030005, 400030001", "ID_LINHA": 196434 }, "geometry": { "type": "MultiLineString", "coordinates": [ [ [ 415818.119128698948771, 7647522.856086697429419 ], [ 415976.496597426012158, 7648717.007478288374841 ] ] ] } },
{ "type": "Feature", "properties": { "fid": 1701.0, "COMPR_M": 1204.22, "CLASSE": "06 - Acima do limite", "CD_FAZ": " 400030", "TALHOES": "1, 6, 5", "FAZ_tAL": "400059001, 400030006, 400030005, 400030001", "ID_LINHA": 196435 }, "geometry": { "type": "MultiLineString", "coordinates": [ [ [ 415821.099923101835884, 7647522.513204069808125 ], [ 415979.377497174777091, 7648715.911399252712727 ] ] ] } },
{ "type": "Feature", "properties": { "fid": 1702.0, "COMPR_M": 1203.46, "CLASSE": "06 - Acima do limite", "CD_FAZ": " 400030", "TALHOES": "1, 6, 5", "FAZ_tAL": "400059001, 400030006, 400030005, 400030001", "ID_LINHA": 196436 }, "geometry": { "type": "MultiLineString", "coordinates": [ [ [ 415824.080717503966298, 7647522.170321442186832 ], [ 415982.258396923192777, 7648714.815320217981935 ] ] ] } },
{ "type": "Feature", "properties": { "fid": 1703.0, "COMPR_M": 1202.7, "CLASSE": "06 - Acima do limite", "CD_FAZ": " 400030", "TALHOES": "1, 6, 5", "FAZ_tAL": "400059001, 400030006, 400030005, 400030001", "ID_LINHA": 196437 }, "geometry": { "type": "MultiLineString", "coordinates": [ [ [ 415827.061511906853411, 7647521.827438814565539 ], [ 415985.139296670560725, 7648713.719241183251143 ] ] ] } },
{ "type": "Feature", "properties": { "fid": 1704.0, "COMPR_M": 1201.94, "CLASSE": "06 - Acima do limite", "CD_FAZ": " 400030", "TALHOES": "1, 6, 5", "FAZ_tAL": "400059001, 400030006, 400030005, 400030001", "ID_LINHA": 196438 }, "geometry": { "type": "MultiLineString", "coordinates": [ [ [ 415830.042306309740525, 7647521.484556189738214 ], [ 415988.020196418801788, 7648712.62316214852035 ] ] ] } },
{ "type": "Feature", "properties": { "fid": 1705.0, "COMPR_M": 1201.18, "CLASSE": "06 - Acima do limite", "CD_FAZ": " 400030", "TALHOES": "1, 6, 5", "FAZ_tAL": "400059001, 400030006, 400030005, 400030001", "ID_LINHA": 196439 }, "geometry": { "type": "MultiLineString", "coordinates": [ [ [ 415833.02310071134707, 7647521.141673563048244 ], [ 415990.901096166635398, 7648711.527083112858236 ] ] ] } },
{ "type": "Feature", "properties": { "fid": 1706.0, "COMPR_M": 1200.42, "CLASSE": "06 - Acima do limite", "CD_FAZ": " 400030", "TALHOES": "1, 6, 5", "FAZ_tAL": "400059001, 400030006, 400030005, 400030001", "ID_LINHA": 196440 }, "geometry": { "type": "MultiLineString", "coordinates": [ [ [ 415836.003895114292391, 7647520.79879093542695 ], [ 415993.781995914061554, 7648710.431004079058766 ] ] ] } },
{ "type": "Feature", "properties": { "fid": 1707.0, "COMPR_M": 1199.66, "CLASSE": "06 - Acima do limite", "CD_FAZ": " 400030", "TALHOES": "1, 6, 5", "FAZ_tAL": "400059001, 400030006, 400030005, 400030001", "ID_LINHA": 196441 }, "geometry": { "type": "MultiLineString", "coordinates": [ [ [ 415838.98468951653922, 7647520.455908309668303 ], [ 415996.66289566247724, 7648709.334925042465329 ] ] ] } },
{ "type": "Feature", "properties": { "fid": 1708.0, "COMPR_M": 1198.9, "CLASSE": "06 - Acima do limite", "CD_FAZ": " 400030", "TALHOES": "1, 6, 5", "FAZ_tAL": "400059001, 400030006, 400030005, 400030001", "ID_LINHA": 196442 }, "geometry": { "type": "MultiLineString", "coordinates": [ [ [ 415841.965483918786049, 7647520.113025683909655 ], [ 415999.543795410427265, 7648708.238846007734537 ] ] ] } },
{ "type": "Feature", "properties": { "fid": 1709.0, "COMPR_M": 1198.14, "CLASSE": "06 - Acima do limite", "CD_FAZ": " 400030", "TALHOES": "1, 6, 5", "FAZ_tAL": "400059001, 400030006, 400030005, 400030001", "ID_LINHA": 196443 }, "geometry": { "type": "MultiLineString", "coordinates": [ [ [ 415844.946278321789578, 7647519.770143056288362 ], [ 416002.424695157969836, 7648707.14276697486639 ] ] ] } },
{ "type": "Feature", "properties": { "fid": 1710.0, "COMPR_M": 1197.38, "CLASSE": "06 - Acima do limite", "CD_FAZ": " 400030", "TALHOES": "1, 6, 5", "FAZ_tAL": "400059001, 400030006, 400030005, 400030001", "ID_LINHA": 196444 }, "geometry": { "type": "MultiLineString", "coordinates": [ [ [ 415847.927072722814046, 7647519.427260432392359 ], [ 416005.305565196846146, 7648706.046463929116726 ] ] ] } },
{ "type": "Feature", "properties": { "fid": 1711.0, "COMPR_M": 1196.62, "CLASSE": "06 - Acima do limite", "CD_FAZ": " 400030", "TALHOES": "1, 6, 5", "FAZ_tAL": "400059001, 400030006, 400030005, 400030001", "ID_LINHA": 196445 }, "geometry": { "type": "MultiLineString", "coordinates": [ [ [ 415850.907867125235498, 7647519.084377804771066 ], [ 416008.185868975007907, 7648704.945891351439059 ] ] ] } },
{ "type": "Feature", "properties": { "fid": 1908.0, "COMPR_M": 946.42, "CLASSE": "05 - Muito longa", "CD_FAZ": " 400030", "TALHOES": "1, 7, 3", "FAZ_tAL": "400493001, 400030007, 400030003", "ID_LINHA": 196640 }, "geometry": { "type": "MultiLineString", "coordinates": [ [ [ 414537.900873887934722, 7649217.051028875634074 ], [ 414553.306329979444854, 7649215.302289618179202 ], [ 414577.543930285959505, 7649211.425005623139441 ], [ 414589.593425419298001, 7649208.978604736737907 ], [ 414612.715105335635599, 7649203.337161699309945 ], [ 414634.46422660863027, 7649196.961621258407831 ], [ 414655.716547395451926, 7649189.793239809572697 ], [ 414677.475091510510538, 7649181.386552484706044 ], [ 414699.626446386566386, 7649171.536533291451633 ], [ 414710.632615301641636, 7649166.099854800850153 ], [ 414732.160553645691834, 7649154.350649434141815 ], [ 414753.005342859425582, 7649141.461633794941008 ], [ 414773.111640778137371, 7649127.469706859439611 ], [ 414782.855062410468236, 7649120.085489795543253 ], [ 414801.685700301546603, 7649104.582588299177587 ], [ 414819.500752118939999, 7649088.259050720371306 ], [ 414836.196323063340969, 7649071.324941420927644 ], [ 414859.254848765092902, 7649044.953263154253364 ], [ 414880.126233068178408, 7649017.515540725551546 ], [ 414898.78489858499961, 7648989.398956671357155 ], [ 414915.072883249667939, 7648961.517472140491009 ], [ 414929.277216312009841, 7648934.346668637357652 ], [ 414941.764652731886599, 7648908.206465629860759 ], [ 414981.470526558521669, 7648817.11804826464504 ], [ 414999.782639671640936, 7648777.373907992616296 ], [ 415022.401231524534523, 7648733.037726607173681 ], [ 415046.832325879251584, 7648690.069200914353132 ], [ 415068.968023522524163, 7648655.171932628378272 ], [ 415092.768082838039845, 7648621.341583151370287 ], [ 415118.297916205425281, 7648588.433573793619871 ], [ 415147.47796460671816, 7648554.103008357807994 ] ] ] } }
]
}
