{
"type": "FeatureCollection",
"name": " 400525",
"crs": { "type": "name", "properties": { "name": "urn:ogc:def:crs:EPSG::32722" } },
"xy_coordinate_resolution": 1e-15,
"features": [
{ "type": "Feature", "properties": { "fid": 228.0, "COMPR_M": 701.65, "CLASSE": "04 - Longa", "CD_FAZ": " 400525", "TALHOES": "2", "FAZ_tAL": "400498002, 400525002", "ID_LINHA": 150033 }, "geometry": { "type": "MultiLineString", "coordinates": [ [ [ 418356.350266899971757, 7645478.389928819611669 ], [ 418375.933659999456722, 7645477.975569229573011 ], [ 418392.812276824668515, 7645476.976267607882619 ], [ 418409.713771428330801, 7645475.348240775987506 ], [ 418434.920837371551897, 7645471.736963978968561 ], [ 418451.534359716926701, 7645468.56919776275754 ], [ 418476.161790751037188, 7645462.690843760035932 ], [ 418500.435783764987718, 7645455.464960530400276 ], [ 418516.419413765892386, 7645449.896212964318693 ], [ 418540.087997991475277, 7645440.403281424194574 ], [ 418555.654449733963702, 7645433.303487895056605 ], [ 418570.996806229522917, 7645425.598452176898718 ], [ 418585.942587222438306, 7645417.378320315852761 ], [ 418600.448640701535624, 7645408.685706179589033 ], [ 418621.376190958486404, 7645394.809670802205801 ], [ 418634.771429426968098, 7645385.030329786241055 ], [ 418654.029507131490391, 7645369.612745260819793 ], [ 418678.158938582055271, 7645347.731816429644823 ], [ 418701.078267639968544, 7645323.798651510849595 ], [ 418712.263486823416315, 7645310.763999478891492 ], [ 418723.224930160620715, 7645296.955498135648668 ], [ 418733.918650824518409, 7645282.329190658405423 ], [ 418744.290446129743941, 7645266.843522340990603 ], [ 418754.275168546941131, 7645250.461417948827147 ], [ 418763.715358000597917, 7645233.304583417251706 ], [ 418771.9690383967245, 7645216.615173114463687 ], [ 418778.891337898559868, 7645201.103512015193701 ], [ 418787.156426097732037, 7645180.278454488143325 ], [ 418793.355442489322741, 7645162.573438175022602 ], [ 418806.061473529727664, 7645120.275048455223441 ], [ 418809.638992692984175, 7645111.026977116242051 ], [ 418813.640837637649383, 7645102.399921299889684 ], [ 418820.782844628032763, 7645089.859008369967341 ], [ 418829.520919188857079, 7645077.554596664384007 ], [ 418838.663019951316528, 7645067.127318324521184 ], [ 418851.612645401968621, 7645054.550003844313323 ] ] ] } },
{ "type": "Feature", "properties": { "fid": 229.0, "COMPR_M": 702.61, "CLASSE": "04 - Longa", "CD_FAZ": " 400525", "TALHOES": "2", "FAZ_tAL": "400498002, 400525002", "ID_LINHA": 150034 }, "geometry": { "type": "MultiLineString", "coordinates": [ [ [ 418365.438744729734026, 7645499.317616289481521 ], [ 418385.610176107147709, 7645498.518220590427518 ], [ 418403.275050638243556, 7645497.145445555448532 ], [ 418420.937971696490422, 7645495.113366320729256 ], [ 418447.180664850748144, 7645490.857724552974105 ], [ 418464.470977797638625, 7645487.230440152809024 ], [ 418490.099247662932612, 7645480.614180730655789 ], [ 418506.979220092471223, 7645475.420427657663822 ], [ 418523.692960141226649, 7645469.597305323928595 ], [ 418548.444656433130149, 7645459.669948611408472 ], [ 418564.725250773539301, 7645452.244432953186333 ], [ 418580.7725074600894, 7645444.185392314568162 ], [ 418596.40347239136463, 7645435.588417869061232 ], [ 418611.572505985037424, 7645426.498525595292449 ], [ 418633.45290422893595, 7645411.990728219039738 ], [ 418647.455794814566616, 7645401.767770063132048 ], [ 418667.584489749686327, 7645385.65321129001677 ], [ 418680.421486922656186, 7645374.413519393652678 ], [ 418698.856160707538947, 7645356.794677846133709 ], [ 418710.833906679938082, 7645344.295573752373457 ], [ 418722.633104204316624, 7645331.052356761880219 ], [ 418734.222348493756726, 7645317.017457631416619 ], [ 418745.560692752362229, 7645302.14339527208358 ], [ 418756.596725553215947, 7645286.384312229231 ], [ 418767.267744803917594, 7645269.697947287932038 ], [ 418777.495082321227528, 7645252.055292502045631 ], [ 418786.846086055156775, 7645234.127955567091703 ], [ 418794.765525852504652, 7645217.258043902926147 ], [ 418801.372002964373678, 7645201.710950963199139 ], [ 418813.292192749679089, 7645169.171705045737326 ], [ 418825.737267989432439, 7645127.63081537373364 ], [ 418831.37886942003388, 7645113.908367476426065 ], [ 418837.228230151580647, 7645103.174406345933676 ], [ 418844.241775630507618, 7645092.845331016927958 ], [ 418851.44574352336349, 7645084.1953793335706 ], [ 418861.754377153003588, 7645073.800347128883004 ] ] ] } },
{ "type": "Feature", "properties": { "fid": 231.0, "COMPR_M": 704.6, "CLASSE": "04 - Longa", "CD_FAZ": " 400525", "TALHOES": "2", "FAZ_tAL": "400498002, 400525002", "ID_LINHA": 150036 }, "geometry": { "type": "MultiLineString", "coordinates": [ [ [ 418383.402027003117837, 7645540.680973757989705 ], [ 418407.301803777634632, 7645538.953772520646453 ], [ 418426.510871433943976, 7645536.743812246248126 ], [ 418445.580536870576907, 7645533.831308398395777 ], [ 418464.470167450606823, 7645530.229553036391735 ], [ 418483.180621387495194, 7645525.944405573420227 ], [ 418510.911682978738099, 7645518.240238154307008 ], [ 418529.175640421686694, 7645512.251347728073597 ], [ 418547.25894434156362, 7645505.574912591837347 ], [ 418574.036649418761954, 7645494.253692200407386 ], [ 418591.640229143260513, 7645485.823097158223391 ], [ 418608.88756338134408, 7645476.752373803406954 ], [ 418625.636299436504487, 7645467.131437912583351 ], [ 418641.876694312901236, 7645456.989971698261797 ], [ 418657.606330772920046, 7645446.352843044325709 ], [ 418672.82452559506055, 7645435.242650611326098 ], [ 418694.694454984623007, 7645417.734143340960145 ], [ 418708.638550127565395, 7645405.525119259953499 ], [ 418728.660427501774393, 7645386.389304666779935 ], [ 418741.675968841533177, 7645372.807192424312234 ], [ 418754.506350956857204, 7645358.406543795019388 ], [ 418767.117653166060336, 7645343.133848365396261 ], [ 418779.465290195308626, 7645326.935694247484207 ], [ 418791.492981000221334, 7645309.760484211146832 ], [ 418803.131825558899436, 7645291.560640340670943 ], [ 418819.581344031379558, 7645262.43324919976294 ], [ 418833.125145823112689, 7645234.366263464093208 ], [ 418843.407691807602532, 7645209.629497271031141 ], [ 418851.085196630447172, 7645188.550166132859886 ], [ 418867.001371649326757, 7645137.164616072550416 ], [ 418869.873110446438659, 7645130.806855020113289 ], [ 418873.506704206636641, 7645124.360618468374014 ], [ 418877.77196216856828, 7645118.138344062492251 ], [ 418882.264540952281095, 7645112.731340739876032 ] ] ] } },
{ "type": "Feature", "properties": { "fid": 272.0, "COMPR_M": 1005.85, "CLASSE": "06 - Acima do limite", "CD_FAZ": " 400525", "TALHOES": "1", "FAZ_tAL": "400498001, 400525001", "ID_LINHA": 150077 }, "geometry": { "type": "MultiLineString", "coordinates": [ [ [ 418726.342433526937384, 7646341.050677577033639 ], [ 418721.253025862388313, 7646313.641846179962158 ], [ 418715.404237476701383, 7646275.996545852161944 ], [ 418710.873745868448168, 7646238.920737957581878 ], [ 418707.463846774480771, 7646200.975071264430881 ], [ 418705.794713085866533, 7646172.981540846638381 ], [ 418704.869662996090483, 7646142.561996287666261 ], [ 418704.975421890616417, 7646109.689909710548818 ], [ 418706.438298718538135, 7646074.366695590317249 ], [ 418709.621572867152281, 7646036.640578594990075 ], [ 418711.980128950264771, 7646016.909493974409997 ], [ 418718.484120583743788, 7645975.824063790030777 ], [ 418722.730835149879567, 7645954.53382877074182 ], [ 418727.706208835123107, 7645932.799689979292452 ], [ 418733.456304884050041, 7645910.671702502295375 ], [ 418740.023338244995102, 7645888.20737212523818 ], [ 418747.444453711388633, 7645865.471424916759133 ], [ 418755.738281722296961, 7645842.569059581495821 ], [ 418764.831564256455749, 7645819.804531814530492 ], [ 418774.605741583975032, 7645797.462961171753705 ], [ 418785.036220723588485, 7645775.55776902101934 ], [ 418796.149064317694865, 7645754.014495550654829 ], [ 418807.982881527219433, 7645732.765314340591431 ], [ 418820.589027060661465, 7645711.748813873156905 ], [ 418834.032315828255378, 7645690.909829476848245 ], [ 418848.392113671754487, 7645670.199650041759014 ], [ 418863.763767550233752, 7645649.576704179868102 ], [ 418880.260322782327421, 7645629.007862396538258 ], [ 418898.014440713392105, 7645608.470532055944204 ], [ 418917.180369396868628, 7645587.955768637359142 ], [ 418937.935718499182258, 7645567.472676526755095 ], [ 418960.467155691934749, 7645547.068428272381425 ], [ 418984.707743990642484, 7645527.04501869995147 ], [ 419010.264521251199767, 7645507.88566442579031 ], [ 419036.831377311900724, 7645489.880942586809397 ], [ 419064.25495716498699, 7645473.156910251826048 ], [ 419071.992753908562008, 7645468.933938071131706 ] ] ] } },
{ "type": "Feature", "properties": { "fid": 273.0, "COMPR_M": 948.06, "CLASSE": "05 - Muito longa", "CD_FAZ": " 400525", "TALHOES": "1", "FAZ_tAL": "400498001, 400525001", "ID_LINHA": 150078 }, "geometry": { "type": "MultiLineString", "coordinates": [ [ [ 418692.396242394635919, 7646261.932673536241055 ], [ 418688.72864415042568, 7646228.63177723903209 ], [ 418685.589586913993116, 7646188.53218737617135 ], [ 418684.231344308354892, 7646158.718725947663188 ], [ 418683.773469618696254, 7646126.369255097582936 ], [ 418684.532075469149277, 7646091.467773673124611 ], [ 418685.477478535205591, 7646073.064979775808752 ], [ 418688.740472198463976, 7646034.395230583846569 ], [ 418691.159540856373496, 7646014.157913031056523 ], [ 418697.834187037893571, 7645971.995078066363931 ], [ 418702.194375474762637, 7645950.135959649458528 ], [ 418707.304131546872668, 7645927.814792505465448 ], [ 418713.211008435755502, 7645905.083468241617084 ], [ 418719.958563018240966, 7645882.001615745015442 ], [ 418727.585087015409954, 7645858.636361861601472 ], [ 418736.109645696997177, 7645835.096862730570138 ], [ 418745.455941790947691, 7645811.698929571546614 ], [ 418755.50102853809949, 7645788.738120933994651 ], [ 418766.219699252571445, 7645766.227693711407483 ], [ 418777.639351598336361, 7645744.089643139392138 ], [ 418789.800412319018506, 7645722.252853002399206 ], [ 418802.756543921597768, 7645700.652868679724634 ], [ 418816.575386808253825, 7645679.231722684577107 ], [ 418831.339691971952561, 7645657.938149303197861 ], [ 418847.148806175624486, 7645636.728297136723995 ], [ 418864.12045525200665, 7645615.567081370390952 ], [ 418882.392735517641995, 7645594.430359322577715 ], [ 418902.126160261570476, 7645573.308161348104477 ], [ 418923.505502902204171, 7645552.209260890260339 ], [ 418946.724943258275744, 7645531.181963728740811 ], [ 418971.715293488407042, 7645510.539229659363627 ], [ 418998.068662477366161, 7645490.782688071019948 ], [ 419025.467242425191216, 7645472.214295573532581 ], [ 419053.751852937741205, 7645454.965171160176396 ], [ 419061.844595644972287, 7645450.548484025523067 ] ] ] } },
{ "type": "Feature", "properties": { "fid": 274.0, "COMPR_M": 906.77, "CLASSE": "05 - Muito longa", "CD_FAZ": " 400525", "TALHOES": "1", "FAZ_tAL": "400498001, 400525001", "ID_LINHA": 150079 }, "geometry": { "type": "MultiLineString", "coordinates": [ [ [ 418665.211166188528296, 7646198.572723647579551 ], [ 418663.240502121741883, 7646159.360318832099438 ], [ 418662.772722936584614, 7646126.305216325446963 ], [ 418663.548832480446436, 7646090.602530204690993 ], [ 418664.516658353852108, 7646071.763263959437609 ], [ 418667.859371527738404, 7646032.149882572703063 ], [ 418670.338952761609107, 7646011.406332086771727 ], [ 418677.18425349064637, 7645968.166092345491052 ], [ 418681.657915800285991, 7645945.73809052631259 ], [ 418686.902054257981945, 7645922.829895026981831 ], [ 418692.965711984841619, 7645899.49523398745805 ], [ 418699.893787791370414, 7645875.795859361067414 ], [ 418707.725720319082029, 7645851.801298804581165 ], [ 418716.481009670416825, 7645827.624665876850486 ], [ 418726.080319322936703, 7645803.593327331356704 ], [ 418736.396315491292626, 7645780.01328069716692 ], [ 418747.403177780332044, 7645756.897618398070335 ], [ 418759.129638878628612, 7645734.164790734648705 ], [ 418771.617943111865316, 7645711.740391666069627 ], [ 418784.924060781253502, 7645689.556923488155007 ], [ 418799.118457788426895, 7645667.55361589603126 ], [ 418814.287270273081958, 7645645.676648567430675 ], [ 418830.533844802877866, 7645623.879890091717243 ], [ 418847.980587721336633, 7645602.126300346106291 ], [ 418866.771030322066508, 7645580.390186589211226 ], [ 418887.071951124002226, 7645558.660554060712457 ], [ 418909.075287307496183, 7645536.945845259353518 ], [ 418932.982730824092869, 7645515.295499188825488 ], [ 418958.722842986055184, 7645494.033440619707108 ], [ 418985.872803704114631, 7645473.679711719974875 ], [ 419014.103107537492178, 7645454.547648561187088 ], [ 419043.248748708574567, 7645436.773432067595422 ], [ 419051.696437381091528, 7645432.163029983639717 ] ] ] } },
{ "type": "Feature", "properties": { "fid": 275.0, "COMPR_M": 703.17, "CLASSE": "04 - Longa", "CD_FAZ": " 400525", "TALHOES": "1", "FAZ_tAL": "400498001, 400525001", "ID_LINHA": 150080 }, "geometry": { "type": "MultiLineString", "coordinates": [ [ [ 418641.883985971100628, 7646143.90800129622221 ], [ 418641.987192113767378, 7646108.331924576312304 ], [ 418642.565589489997365, 7646089.737286736257374 ], [ 418645.009015069925226, 7646050.512966442853212 ], [ 418649.51836466829991, 7646008.654751144349575 ], [ 418656.534319944330491, 7645964.337106626480818 ], [ 418661.121456126915291, 7645941.340221403166652 ], [ 418666.49997697037179, 7645917.844997555017471 ], [ 418672.72041553654708, 7645893.906999727711082 ], [ 418679.8290125655476, 7645869.590102981775999 ], [ 418687.866353622230235, 7645844.966235749423504 ], [ 418696.852373645582702, 7645820.152469026856124 ], [ 418706.70469685504213, 7645795.487725090235472 ], [ 418717.291602446814068, 7645771.288440460339189 ], [ 418728.586656310304534, 7645747.567543085664511 ], [ 418740.619926159153692, 7645724.239938326179981 ], [ 418753.435473902500235, 7645701.227930326014757 ], [ 418767.091577641433105, 7645678.460978297516704 ], [ 418781.661528768774588, 7645655.875509111210704 ], [ 418797.234848571999464, 7645633.415147826075554 ], [ 418813.918883428734262, 7645611.031483049504459 ], [ 418831.840720189677086, 7645588.685519320890307 ], [ 418851.149325126199983, 7645566.350013860501349 ], [ 418872.017741988878697, 7645544.012946771457791 ], [ 418894.64507171214791, 7645521.68242962565273 ], [ 418903.194440643419512, 7645513.940205077640712 ] ] ] } },
{ "type": "Feature", "properties": { "fid": 276.0, "COMPR_M": 598.76, "CLASSE": "03 - Média", "CD_FAZ": " 400525", "TALHOES": "1", "FAZ_tAL": "400498001, 400525001", "ID_LINHA": 150081 }, "geometry": { "type": "MultiLineString", "coordinates": [ [ [ 418621.367683192831464, 7646095.773157687857747 ], [ 418622.595017989631742, 7646069.159832328557968 ], [ 418626.097170186345465, 7646027.65918655321002 ], [ 418631.940960824140348, 7645983.50857368670404 ], [ 418635.884386397432536, 7645960.508120905607939 ], [ 418640.584996453020722, 7645936.942352278158069 ], [ 418646.097899681713898, 7645912.860100075602531 ], [ 418652.475119086564519, 7645888.31876547075808 ], [ 418659.764237339084502, 7645863.384346601553261 ], [ 418668.00698692467995, 7645838.131172692403197 ], [ 418677.223737621097825, 7645812.680272173136473 ], [ 418687.32907438906841, 7645787.382122848182917 ], [ 418698.18688940058928, 7645762.56360022071749 ], [ 418709.770134838996455, 7645738.237467774190009 ], [ 418722.110213439969812, 7645714.315085921436548 ], [ 418735.25300469546346, 7645690.71546898689121 ], [ 418749.259094501729123, 7645667.365033105015755 ], [ 418764.204599749471527, 7645644.197402324527502 ], [ 418780.182426874001976, 7645621.153647089377046 ], [ 418797.303922055405565, 7645598.183076005429029 ], [ 418815.700852659938391, 7645575.244738293811679 ], [ 418837.087706153164618, 7645550.639961192384362 ] ] ] } },
{ "type": "Feature", "properties": { "fid": 277.0, "COMPR_M": 514.69, "CLASSE": "03 - Média", "CD_FAZ": " 400525", "TALHOES": "1", "FAZ_tAL": "400498001, 400525001", "ID_LINHA": 150082 }, "geometry": { "type": "MultiLineString", "coordinates": [ [ [ 418602.777875266154297, 7646052.158208781853318 ], [ 418605.216069517715368, 7646025.413838542066514 ], [ 418607.877188481623307, 7646003.151589257642627 ], [ 418611.196869120118208, 7645980.228775525465608 ], [ 418615.234452849021181, 7645956.67913518473506 ], [ 418620.04853677842766, 7645932.544483158737421 ], [ 418625.695822392532136, 7645907.875202601775527 ], [ 418632.229822638677433, 7645882.730531213805079 ], [ 418639.699462112621404, 7645857.178590221330523 ], [ 418648.147620229516178, 7645831.296109635382891 ], [ 418657.595101595565211, 7645805.208075321279466 ], [ 418667.953451921581291, 7645779.276520606130362 ], [ 418679.082176355237607, 7645753.838759983889759 ], [ 418690.953613367688376, 7645728.907392461784184 ], [ 418703.600500720378477, 7645704.39023351110518 ], [ 418717.070535487495363, 7645680.20300764683634 ], [ 418731.426611361966934, 7645656.269087917171419 ], [ 418746.747670730517711, 7645632.519295535981655 ], [ 418763.130005173909012, 7645608.892146352678537 ], [ 418785.58189350325847, 7645579.233882481232285 ] ] ] } },
{ "type": "Feature", "properties": { "fid": 278.0, "COMPR_M": 441.24, "CLASSE": "03 - Média", "CD_FAZ": " 400525", "TALHOES": "1", "FAZ_tAL": "400498001, 400525001", "ID_LINHA": 150083 }, "geometry": { "type": "MultiLineString", "coordinates": [ [ [ 418585.668116423417814, 7646012.015714542008936 ], [ 418590.452777415048331, 7645976.948977362364531 ], [ 418594.584519302123226, 7645952.850149461999536 ], [ 418599.512077104882337, 7645928.146614035591483 ], [ 418605.293745105853304, 7645902.890305126085877 ], [ 418611.98452618875308, 7645877.142296954058111 ], [ 418619.634686885983683, 7645850.972833839245141 ], [ 418628.288253533362877, 7645824.461046580225229 ], [ 418637.966465570672881, 7645797.735878471285105 ], [ 418648.577829453861341, 7645771.170918365940452 ], [ 418659.97746330924565, 7645745.113919746130705 ], [ 418672.137091895681806, 7645719.577317150309682 ], [ 418685.090788000903558, 7645694.465381104499102 ], [ 418698.888066278654151, 7645669.690546309575438 ], [ 418713.59412822232116, 7645645.173142726533115 ], [ 418729.29074170999229, 7645620.841188749298453 ], [ 418740.965931731218006, 7645604.002840263769031 ] ] ] } },
{ "type": "Feature", "properties": { "fid": 279.0, "COMPR_M": 374.69, "CLASSE": "03 - Média", "CD_FAZ": " 400525", "TALHOES": "1", "FAZ_tAL": "400498001, 400525001", "ID_LINHA": 150084 }, "geometry": { "type": "MultiLineString", "coordinates": [ [ [ 418569.611087271128781, 7645974.343108737841249 ], [ 418573.934585755225271, 7645949.021163743920624 ], [ 418578.975617431395222, 7645923.748744912445545 ], [ 418584.89166781748645, 7645897.90540765132755 ], [ 418591.739229741157033, 7645871.554062696173787 ], [ 418599.569911659462377, 7645844.767077459022403 ], [ 418608.42888683732599, 7645817.625983526930213 ], [ 418618.337829545838758, 7645790.263681618496776 ], [ 418629.20220698765479, 7645763.065316123887897 ], [ 418640.872750263952184, 7645736.389079508371651 ], [ 418653.320570425596088, 7645710.247241837903857 ], [ 418666.581075281603262, 7645684.540528697893023 ], [ 418680.705597072083037, 7645659.178084970451891 ], [ 418700.765544019872323, 7645626.320451867766678 ] ] ] } },
{ "type": "Feature", "properties": { "fid": 280.0, "COMPR_M": 313.23, "CLASSE": "03 - Média", "CD_FAZ": " 400525", "TALHOES": "1", "FAZ_tAL": "400498001, 400525001", "ID_LINHA": 150085 }, "geometry": { "type": "MultiLineString", "coordinates": [ [ [ 418554.528449515171815, 7645938.956596000120044 ], [ 418558.439157757093199, 7645919.350875791162252 ], [ 418564.489590528537519, 7645892.920510178431869 ], [ 418571.493933291058056, 7645865.965828439220786 ], [ 418579.505136431718711, 7645838.561321076005697 ], [ 418588.569520141172688, 7645810.790920468047261 ], [ 418598.70919352065539, 7645782.791484765708447 ], [ 418609.826584520342294, 7645754.959713881835341 ], [ 418621.768037218484096, 7645727.66423927154392 ], [ 418634.504048953996971, 7645700.917166525498033 ], [ 418648.071362562419381, 7645674.615676290355623 ], [ 418663.525413777446374, 7645646.99464955739677 ] ] ] } },
{ "type": "Feature", "properties": { "fid": 281.0, "COMPR_M": 255.61, "CLASSE": "02 - Curta", "CD_FAZ": " 400525", "TALHOES": "1", "FAZ_tAL": "400498001, 400525001", "ID_LINHA": 150086 }, "geometry": { "type": "MultiLineString", "coordinates": [ [ [ 418540.141786349413451, 7645905.171901123598218 ], [ 418544.08751324005425, 7645887.935612699016929 ], [ 418551.24863684218144, 7645860.37759418413043 ], [ 418559.440361207118258, 7645832.355564695782959 ], [ 418568.710153445485048, 7645803.955857413820922 ], [ 418579.080557495122775, 7645775.319287915714085 ], [ 418590.45096205297159, 7645746.854111639782786 ], [ 418602.663324172841385, 7645718.939399031922221 ], [ 418615.687527484027669, 7645691.587091216817498 ], [ 418628.723793175304309, 7645666.315086399205029 ] ] ] } },
{ "type": "Feature", "properties": { "fid": 282.0, "COMPR_M": 200.94, "CLASSE": "02 - Curta", "CD_FAZ": " 400525", "TALHOES": "1", "FAZ_tAL": "400498001, 400525001", "ID_LINHA": 150087 }, "geometry": { "type": "MultiLineString", "coordinates": [ [ [ 418526.338720534462482, 7645872.740129603073001 ], [ 418531.003340392373502, 7645854.789359925314784 ], [ 418539.375585980189499, 7645826.149808315560222 ], [ 418548.850786748109385, 7645797.120794357731938 ], [ 418559.451921470405068, 7645767.847091062925756 ], [ 418571.075339586241171, 7645738.748509397730231 ], [ 418583.558611128304619, 7645710.214558796025813 ], [ 418595.743830111750867, 7645684.624213456176221 ] ] ] } },
{ "type": "Feature", "properties": { "fid": 283.0, "COMPR_M": 148.58, "CLASSE": "02 - Curta", "CD_FAZ": " 400525", "TALHOES": "1", "FAZ_tAL": "400498001, 400525001", "ID_LINHA": 150088 }, "geometry": { "type": "MultiLineString", "coordinates": [ [ [ 418513.02296490536537, 7645841.453345205634832 ], [ 418519.310810752096586, 7645819.944051936268806 ], [ 418528.991420052130707, 7645790.285731301642954 ], [ 418539.823285444406793, 7645760.374894212931395 ], [ 418551.699717117939144, 7645730.642907157540321 ], [ 418564.161871518299449, 7645702.157225590199232 ] ] ] } },
{ "type": "Feature", "properties": { "fid": 284.0, "COMPR_M": 98.21, "CLASSE": "01 - Muito curta", "CD_FAZ": " 400525", "TALHOES": "1", "FAZ_tAL": "400498001, 400525001", "ID_LINHA": 150089 }, "geometry": { "type": "MultiLineString", "coordinates": [ [ [ 418500.106013809912838, 7645811.103594483807683 ], [ 418509.132053356152028, 7645783.45066824555397 ], [ 418520.194649420212954, 7645752.902697360143065 ], [ 418533.887149338261224, 7645718.964513515122235 ] ] ] } },
{ "type": "Feature", "properties": { "fid": 285.0, "COMPR_M": 49.59, "CLASSE": "01 - Muito curta", "CD_FAZ": " 400525", "TALHOES": "1", "FAZ_tAL": "400498001, 400525001", "ID_LINHA": 150090 }, "geometry": { "type": "MultiLineString", "coordinates": [ [ [ 418487.603842888376676, 7645781.728413907811046 ], [ 418500.566013394447509, 7645745.430500511080027 ], [ 418504.655483514769003, 7645735.192739199846983 ] ] ] } }
]
}
