{
"type": "FeatureCollection",
"name": " 400568",
"crs": { "type": "name", "properties": { "name": "urn:ogc:def:crs:EPSG::32722" } },
"xy_coordinate_resolution": 1e-15,
"features": [
{ "type": "Feature", "properties": { "fid": 426.0, "COMPR_M": 1154.29, "CLASSE": "06 - Acima do limite", "CD_FAZ": " 400568", "TALHOES": "2, 3, 9", "FAZ_tAL": "404059002, 404059003, 400568009", "ID_LINHA": 15413 }, "geometry": { "type": "MultiLineString", "coordinates": [ [ [ 428785.944479884055909, 7674777.207239104434848 ], [ 428090.147569222201128, 7673856.690170797519386 ] ] ] } },
{ "type": "Feature", "properties": { "fid": 427.0, "COMPR_M": 1157.98, "CLASSE": "06 - Acima do limite", "CD_FAZ": " 400568", "TALHOES": "2, 3, 9", "FAZ_tAL": "404059002, 404059003, 400568009", "ID_LINHA": 15414 }, "geometry": { "type": "MultiLineString", "coordinates": [ [ [ 428793.521747799706645, 7674782.256564057432115 ], [ 428095.502412971341982, 7673858.799299625679851 ] ] ] } },
{ "type": "Feature", "properties": { "fid": 428.0, "COMPR_M": 1161.69, "CLASSE": "06 - Acima do limite", "CD_FAZ": " 400568", "TALHOES": "2, 3, 9", "FAZ_tAL": "404059002, 404059003, 400568009", "ID_LINHA": 15415 }, "geometry": { "type": "MultiLineString", "coordinates": [ [ [ 428801.117881897545885, 7674787.33084836229682 ], [ 428100.8572567194351, 7673860.908428452908993 ] ] ] } },
{ "type": "Feature", "properties": { "fid": 429.0, "COMPR_M": 1165.41, "CLASSE": "06 - Acima do limite", "CD_FAZ": " 400568", "TALHOES": "2, 3, 9", "FAZ_tAL": "404059002, 404059003, 400568009", "ID_LINHA": 15416 }, "geometry": { "type": "MultiLineString", "coordinates": [ [ [ 428808.714015994395595, 7674792.405132669955492 ], [ 428106.212100466596894, 7673863.01755728200078 ] ] ] } },
{ "type": "Feature", "properties": { "fid": 430.0, "COMPR_M": 1169.13, "CLASSE": "06 - Acima do limite", "CD_FAZ": " 400568", "TALHOES": "2, 3, 9", "FAZ_tAL": "404059002, 404059003, 400568009", "ID_LINHA": 15417 }, "geometry": { "type": "MultiLineString", "coordinates": [ [ [ 428816.310150092875119, 7674797.479416977614164 ], [ 428111.566944214166142, 7673865.126686111092567 ] ] ] } },
{ "type": "Feature", "properties": { "fid": 431.0, "COMPR_M": 1172.85, "CLASSE": "06 - Acima do limite", "CD_FAZ": " 400568", "TALHOES": "2, 3, 9", "FAZ_tAL": "404059002, 404059003, 400568009", "ID_LINHA": 15418 }, "geometry": { "type": "MultiLineString", "coordinates": [ [ [ 428823.906284190423321, 7674802.553701285272837 ], [ 428116.921787962783128, 7673867.23581493832171 ] ] ] } },
{ "type": "Feature", "properties": { "fid": 432.0, "COMPR_M": 1176.57, "CLASSE": "06 - Acima do limite", "CD_FAZ": " 400568", "TALHOES": "2, 3, 9", "FAZ_tAL": "404059002, 404059003, 400568009", "ID_LINHA": 15419 }, "geometry": { "type": "MultiLineString", "coordinates": [ [ [ 428831.502418287622277, 7674807.627985592931509 ], [ 428122.276631710410584, 7673869.344943767413497 ] ] ] } },
{ "type": "Feature", "properties": { "fid": 433.0, "COMPR_M": 1179.21, "CLASSE": "06 - Acima do limite", "CD_FAZ": " 400568", "TALHOES": "2, 3, 9", "FAZ_tAL": "404059002, 404059003, 400568009", "ID_LINHA": 15420 }, "geometry": { "type": "MultiLineString", "coordinates": [ [ [ 428839.098552384530194, 7674812.702269898727536 ], [ 428128.280977824644651, 7673872.313343461602926 ] ] ] } },
{ "type": "Feature", "properties": { "fid": 434.0, "COMPR_M": 1180.64, "CLASSE": "06 - Acima do limite", "CD_FAZ": " 400568", "TALHOES": "2, 3, 9", "FAZ_tAL": "404059002, 404059003, 400568009", "ID_LINHA": 15421 }, "geometry": { "type": "MultiLineString", "coordinates": [ [ [ 428846.69468648172915, 7674817.776554207317531 ], [ 428135.012267075129785, 7673876.243465684354305 ] ] ] } },
{ "type": "Feature", "properties": { "fid": 435.0, "COMPR_M": 1182.08, "CLASSE": "06 - Acima do limite", "CD_FAZ": " 400568", "TALHOES": "2, 3, 9", "FAZ_tAL": "404059002, 404059003, 400568009", "ID_LINHA": 15422 }, "geometry": { "type": "MultiLineString", "coordinates": [ [ [ 428854.290820580616128, 7674822.850838515907526 ], [ 428141.743556325614918, 7673880.173587907105684 ] ] ] } },
{ "type": "Feature", "properties": { "fid": 436.0, "COMPR_M": 1183.51, "CLASSE": "06 - Acima do limite", "CD_FAZ": " 400568", "TALHOES": "2, 3, 9", "FAZ_tAL": "404059002, 404059003, 400568009", "ID_LINHA": 15423 }, "geometry": { "type": "MultiLineString", "coordinates": [ [ [ 428861.886954677174799, 7674827.925122821703553 ], [ 428148.474845573538914, 7673884.103710130788386 ] ] ] } },
{ "type": "Feature", "properties": { "fid": 437.0, "COMPR_M": 1184.95, "CLASSE": "06 - Acima do limite", "CD_FAZ": " 400568", "TALHOES": "2, 3, 9", "FAZ_tAL": "404059002, 404059003, 400568009", "ID_LINHA": 15424 }, "geometry": { "type": "MultiLineString", "coordinates": [ [ [ 428869.483088776003569, 7674832.999407129362226 ], [ 428155.20613482472254, 7673888.033832352608442 ] ] ] } },
{ "type": "Feature", "properties": { "fid": 438.0, "COMPR_M": 1189.32, "CLASSE": "06 - Acima do limite", "CD_FAZ": " 400568", "TALHOES": "2, 3, 9", "FAZ_tAL": "404059002, 404059003, 400568009", "ID_LINHA": 15425 }, "geometry": { "type": "MultiLineString", "coordinates": [ [ [ 428877.079222872504033, 7674838.073691436089575 ], [ 428160.166825486696325, 7673889.621509250253439 ] ] ] } },
{ "type": "Feature", "properties": { "fid": 439.0, "COMPR_M": 1194.06, "CLASSE": "06 - Acima do limite", "CD_FAZ": " 400568", "TALHOES": "2, 3, 9", "FAZ_tAL": "404059002, 404059003, 400568009", "ID_LINHA": 15426 }, "geometry": { "type": "MultiLineString", "coordinates": [ [ [ 428884.675356971332803, 7674843.147975742816925 ], [ 428164.905498829553835, 7673890.915464332327247 ] ] ] } },
{ "type": "Feature", "properties": { "fid": 440.0, "COMPR_M": 1199.31, "CLASSE": "06 - Acima do limite", "CD_FAZ": " 400568", "TALHOES": "2, 3, 9", "FAZ_tAL": "404059002, 404059003, 400568009", "ID_LINHA": 15427 }, "geometry": { "type": "MultiLineString", "coordinates": [ [ [ 428892.271491067833267, 7674848.222260050475597 ], [ 428169.336450446629897, 7673891.802313409745693 ] ] ] } },
{ "type": "Feature", "properties": { "fid": 441.0, "COMPR_M": 1205.34, "CLASSE": "06 - Acima do limite", "CD_FAZ": " 400568", "TALHOES": "2, 3, 9", "FAZ_tAL": "404059002, 404059003, 400568009", "ID_LINHA": 15428 }, "geometry": { "type": "MultiLineString", "coordinates": [ [ [ 428899.867625164624769, 7674853.29654435813427 ], [ 428173.296373810095247, 7673892.066007165238261 ] ] ] } },
{ "type": "Feature", "properties": { "fid": 442.0, "COMPR_M": 1212.29, "CLASSE": "06 - Acima do limite", "CD_FAZ": " 400568", "TALHOES": "2, 3, 9", "FAZ_tAL": "404059002, 404059003, 400568009", "ID_LINHA": 15429 }, "geometry": { "type": "MultiLineString", "coordinates": [ [ [ 428907.463759263628162, 7674858.370828665792942 ], [ 428176.704397670808248, 7673891.59955551661551 ] ] ] } },
{ "type": "Feature", "properties": { "fid": 443.0, "COMPR_M": 1219.71, "CLASSE": "06 - Acima do limite", "CD_FAZ": " 400568", "TALHOES": "2, 3, 9", "FAZ_tAL": "404059002, 404059003, 400568009", "ID_LINHA": 15430 }, "geometry": { "type": "MultiLineString", "coordinates": [ [ [ 428915.059893360419665, 7674863.445112971588969 ], [ 428179.828883574868087, 7673890.757992222905159 ] ] ] } },
{ "type": "Feature", "properties": { "fid": 444.0, "COMPR_M": 1227.91, "CLASSE": "06 - Acima do limite", "CD_FAZ": " 400568", "TALHOES": "2, 3, 9", "FAZ_tAL": "404059002, 404059003, 400568009", "ID_LINHA": 15431 }, "geometry": { "type": "MultiLineString", "coordinates": [ [ [ 428922.656027458026074, 7674868.519397279247642 ], [ 428182.483070568589028, 7673889.294238505885005 ] ] ] } },
{ "type": "Feature", "properties": { "fid": 445.0, "COMPR_M": 1236.38, "CLASSE": "06 - Acima do limite", "CD_FAZ": " 400568", "TALHOES": "2, 3, 9", "FAZ_tAL": "404059002, 404059003, 400568009", "ID_LINHA": 15432 }, "geometry": { "type": "MultiLineString", "coordinates": [ [ [ 428930.252161555981729, 7674873.593681586906314 ], [ 428184.970666529610753, 7673887.610090178437531 ] ] ] } },
{ "type": "Feature", "properties": { "fid": 446.0, "COMPR_M": 1245.03, "CLASSE": "06 - Acima do limite", "CD_FAZ": " 400568", "TALHOES": "2, 3, 9", "FAZ_tAL": "404059002, 404059003, 400568009", "ID_LINHA": 15433 }, "geometry": { "type": "MultiLineString", "coordinates": [ [ [ 428937.848295652889647, 7674878.667965896427631 ], [ 428187.355860803916585, 7673885.790467690676451 ] ] ] } },
{ "type": "Feature", "properties": { "fid": 447.0, "COMPR_M": 1254.3, "CLASSE": "06 - Acima do limite", "CD_FAZ": " 400568", "TALHOES": "2, 3, 9", "FAZ_tAL": "404059002, 404059003, 400568009", "ID_LINHA": 15434 }, "geometry": { "type": "MultiLineString", "coordinates": [ [ [ 428945.444429750088602, 7674883.742250202223659 ], [ 428189.361784857697785, 7673883.469082828611135 ] ] ] } },
{ "type": "Feature", "properties": { "fid": 448.0, "COMPR_M": 1263.87, "CLASSE": "06 - Acima do limite", "CD_FAZ": " 400568", "TALHOES": "2, 3, 9", "FAZ_tAL": "404059002, 404059003, 400568009", "ID_LINHA": 15435 }, "geometry": { "type": "MultiLineString", "coordinates": [ [ [ 428953.040563848800957, 7674888.816534508951008 ], [ 428191.189051681722049, 7673880.911340162158012 ] ] ] } },
{ "type": "Feature", "properties": { "fid": 449.0, "COMPR_M": 1274.21, "CLASSE": "06 - Acima do limite", "CD_FAZ": " 400568", "TALHOES": "2, 3, 9", "FAZ_tAL": "404059002, 404059003, 400568009", "ID_LINHA": 15436 }, "geometry": { "type": "MultiLineString", "coordinates": [ [ [ 428960.636697945883498, 7674893.890818817541003 ], [ 428192.549480329325888, 7673877.735985513776541 ] ] ] } },
{ "type": "Feature", "properties": { "fid": 450.0, "COMPR_M": 1284.69, "CLASSE": "06 - Acima do limite", "CD_FAZ": " 400568", "TALHOES": "2, 3, 9", "FAZ_tAL": "404059002, 404059003, 400568009", "ID_LINHA": 15437 }, "geometry": { "type": "MultiLineString", "coordinates": [ [ [ 428968.232832042558584, 7674898.965103122405708 ], [ 428193.831808268325403, 7673874.457306126132607 ] ] ] } },
{ "type": "Feature", "properties": { "fid": 451.0, "COMPR_M": 1295.19, "CLASSE": "06 - Acima do limite", "CD_FAZ": " 400568", "TALHOES": "2, 3, 9", "FAZ_tAL": "404059002, 404059003, 400568009", "ID_LINHA": 15438 }, "geometry": { "type": "MultiLineString", "coordinates": [ [ [ 428975.828966140164994, 7674904.039387431927025 ], [ 428195.099357886414509, 7673871.159075489267707 ] ] ] } },
{ "type": "Feature", "properties": { "fid": 452.0, "COMPR_M": 1305.86, "CLASSE": "06 - Acima do limite", "CD_FAZ": " 400568", "TALHOES": "2, 3, 9", "FAZ_tAL": "404059002, 404059003, 400568009", "ID_LINHA": 15439 }, "geometry": { "type": "MultiLineString", "coordinates": [ [ [ 428983.425100239284802, 7674909.113671738654375 ], [ 428196.262808877334464, 7673867.723125698044896 ] ] ] } },
{ "type": "Feature", "properties": { "fid": 453.0, "COMPR_M": 1316.53, "CLASSE": "06 - Acima do limite", "CD_FAZ": " 400568", "TALHOES": "2, 3, 9", "FAZ_tAL": "404059002, 404059003, 400568009", "ID_LINHA": 15440 }, "geometry": { "type": "MultiLineString", "coordinates": [ [ [ 428991.021234337415081, 7674914.187956046313047 ], [ 428197.426259867148474, 7673864.287175906822085 ] ] ] } },
{ "type": "Feature", "properties": { "fid": 454.0, "COMPR_M": 1326.41, "CLASSE": "06 - Acima do limite", "CD_FAZ": " 400568", "TALHOES": "2, 3, 9", "FAZ_tAL": "404059002, 404059003, 400568009", "ID_LINHA": 15441 }, "geometry": { "type": "MultiLineString", "coordinates": [ [ [ 428998.141790159395896, 7674918.633065502159297 ], [ 428198.589710857719183, 7673860.851226115599275 ] ] ] } },
{ "type": "Feature", "properties": { "fid": 455.0, "COMPR_M": 1335.65, "CLASSE": "06 - Acima do limite", "CD_FAZ": " 400568", "TALHOES": "2, 3, 9", "FAZ_tAL": "404059002, 404059003, 400568009", "ID_LINHA": 15442 }, "geometry": { "type": "MultiLineString", "coordinates": [ [ [ 429004.875132092507556, 7674922.565903356298804 ], [ 428199.753161849163007, 7673857.415276324376464 ] ] ] } },
{ "type": "Feature", "properties": { "fid": 456.0, "COMPR_M": 1344.89, "CLASSE": "06 - Acima do limite", "CD_FAZ": " 400568", "TALHOES": "2, 3, 9", "FAZ_tAL": "404059002, 404059003, 400568009", "ID_LINHA": 15443 }, "geometry": { "type": "MultiLineString", "coordinates": [ [ [ 429011.608474023989402, 7674926.498741210438311 ], [ 428200.916612841363531, 7673853.979326533153653 ] ] ] } },
{ "type": "Feature", "properties": { "fid": 457.0, "COMPR_M": 1351.67, "CLASSE": "06 - Acima do limite", "CD_FAZ": " 400568", "TALHOES": "2, 3, 9", "FAZ_tAL": "404059002, 404059003, 400568009", "ID_LINHA": 15444 }, "geometry": { "type": "MultiLineString", "coordinates": [ [ [ 429018.341815955005586, 7674930.431579066440463 ], [ 428203.562169392418582, 7673852.504155019298196 ] ] ] } },
{ "type": "Feature", "properties": { "fid": 458.0, "COMPR_M": 1357.79, "CLASSE": "06 - Acima do limite", "CD_FAZ": " 400568", "TALHOES": "2, 3, 9", "FAZ_tAL": "404059002, 404059003, 400568009", "ID_LINHA": 15445 }, "geometry": { "type": "MultiLineString", "coordinates": [ [ [ 429025.075157886429224, 7674934.364416922442615 ], [ 428206.612247931654565, 7673851.564153160899878 ] ] ] } },
{ "type": "Feature", "properties": { "fid": 459.0, "COMPR_M": 1363.9, "CLASSE": "06 - Acima do limite", "CD_FAZ": " 400568", "TALHOES": "2, 3, 9", "FAZ_tAL": "404059002, 404059003, 400568009", "ID_LINHA": 15446 }, "geometry": { "type": "MultiLineString", "coordinates": [ [ [ 429031.808499818202108, 7674938.297254775650799 ], [ 428209.662326474150177, 7673850.624151302501559 ] ] ] } },
{ "type": "Feature", "properties": { "fid": 460.0, "COMPR_M": 1370.01, "CLASSE": "06 - Acima do limite", "CD_FAZ": " 400568", "TALHOES": "2, 3, 9", "FAZ_tAL": "404059002, 404059003, 400568009", "ID_LINHA": 15447 }, "geometry": { "type": "MultiLineString", "coordinates": [ [ [ 429038.541841750848107, 7674942.230092630721629 ], [ 428212.71240501513239, 7673849.684149444103241 ] ] ] } },
{ "type": "Feature", "properties": { "fid": 461.0, "COMPR_M": 1376.12, "CLASSE": "06 - Acima do limite", "CD_FAZ": " 400568", "TALHOES": "2, 3, 9", "FAZ_tAL": "404059002, 404059003, 400568009", "ID_LINHA": 15448 }, "geometry": { "type": "MultiLineString", "coordinates": [ [ [ 429045.275183681282215, 7674946.162930487655103 ], [ 428215.762483555474319, 7673848.744147585704923 ] ] ] } },
{ "type": "Feature", "properties": { "fid": 462.0, "COMPR_M": 1382.23, "CLASSE": "06 - Acima do limite", "CD_FAZ": " 400568", "TALHOES": "2, 3, 9", "FAZ_tAL": "404059002, 404059003, 400568009", "ID_LINHA": 15449 }, "geometry": { "type": "MultiLineString", "coordinates": [ [ [ 429052.008525611949153, 7674950.09576834179461 ], [ 428218.812562096223701, 7673847.804145728237927 ] ] ] } },
{ "type": "Feature", "properties": { "fid": 463.0, "COMPR_M": 1388.34, "CLASSE": "06 - Acima do limite", "CD_FAZ": " 400568", "TALHOES": "2, 3, 9", "FAZ_tAL": "404059002, 404059003, 400568009", "ID_LINHA": 15450 }, "geometry": { "type": "MultiLineString", "coordinates": [ [ [ 429058.741867546224967, 7674954.028606196865439 ], [ 428221.862640636973083, 7673846.864143868908286 ] ] ] } },
{ "type": "Feature", "properties": { "fid": 464.0, "COMPR_M": 1394.45, "CLASSE": "06 - Acima do limite", "CD_FAZ": " 400568", "TALHOES": "2, 3, 9", "FAZ_tAL": "404059002, 404059003, 400568009", "ID_LINHA": 15451 }, "geometry": { "type": "MultiLineString", "coordinates": [ [ [ 429065.475209476891905, 7674957.961444052867591 ], [ 428224.912719177547842, 7673845.924142012372613 ] ] ] } },
{ "type": "Feature", "properties": { "fid": 465.0, "COMPR_M": 1400.56, "CLASSE": "06 - Acima do limite", "CD_FAZ": " 400568", "TALHOES": "2, 3, 9", "FAZ_tAL": "404059002, 404059003, 400568009", "ID_LINHA": 15452 }, "geometry": { "type": "MultiLineString", "coordinates": [ [ [ 429072.208551408548374, 7674961.894281908869743 ], [ 428227.96279771666741, 7673844.984140153974295 ] ] ] } },
{ "type": "Feature", "properties": { "fid": 466.0, "COMPR_M": 1406.67, "CLASSE": "06 - Acima do limite", "CD_FAZ": " 400568", "TALHOES": "2, 3, 9", "FAZ_tAL": "404059002, 404059003, 400568009", "ID_LINHA": 15453 }, "geometry": { "type": "MultiLineString", "coordinates": [ [ [ 429078.941893340495881, 7674965.827119761146605 ], [ 428231.012876259046607, 7673844.044138295575976 ] ] ] } },
{ "type": "Feature", "properties": { "fid": 467.0, "COMPR_M": 1412.78, "CLASSE": "06 - Acima do limite", "CD_FAZ": " 400568", "TALHOES": "2, 3, 9", "FAZ_tAL": "404059002, 404059003, 400568009", "ID_LINHA": 15454 }, "geometry": { "type": "MultiLineString", "coordinates": [ [ [ 429085.675235272792634, 7674969.75995761808008 ], [ 428234.062954799970612, 7673843.104136439040303 ] ] ] } },
{ "type": "Feature", "properties": { "fid": 468.0, "COMPR_M": 1418.89, "CLASSE": "06 - Acima do limite", "CD_FAZ": " 400568", "TALHOES": "2, 3, 9", "FAZ_tAL": "404059002, 404059003, 400568009", "ID_LINHA": 15455 }, "geometry": { "type": "MultiLineString", "coordinates": [ [ [ 429092.408577203343157, 7674973.692795472219586 ], [ 428237.11303334007971, 7673842.164134580641985 ] ] ] } },
{ "type": "Feature", "properties": { "fid": 469.0, "COMPR_M": 1423.39, "CLASSE": "06 - Acima do limite", "CD_FAZ": " 400568", "TALHOES": "2, 3, 9", "FAZ_tAL": "404059002, 404059003, 400568009", "ID_LINHA": 15456 }, "geometry": { "type": "MultiLineString", "coordinates": [ [ [ 429098.171401594299823, 7674976.341669648885727 ], [ 428240.163111881469376, 7673841.224132722243667 ] ] ] } },
{ "type": "Feature", "properties": { "fid": 470.0, "COMPR_M": 1426.12, "CLASSE": "06 - Acima do limite", "CD_FAZ": " 400568", "TALHOES": "2, 3, 9", "FAZ_tAL": "404059002, 404059003, 400568009", "ID_LINHA": 15457 }, "geometry": { "type": "MultiLineString", "coordinates": [ [ [ 429102.869695728004444, 7674977.582204328849912 ], [ 428243.213190421345644, 7673840.284130865707994 ] ] ] } },
{ "type": "Feature", "properties": { "fid": 471.0, "COMPR_M": 1428.86, "CLASSE": "06 - Acima do limite", "CD_FAZ": " 400568", "TALHOES": "2, 3, 9", "FAZ_tAL": "404059002, 404059003, 400568009", "ID_LINHA": 15458 }, "geometry": { "type": "MultiLineString", "coordinates": [ [ [ 429107.567989861709066, 7674978.822739005088806 ], [ 428246.26326896250248, 7673839.344129006378353 ] ] ] } },
{ "type": "Feature", "properties": { "fid": 472.0, "COMPR_M": 1431.59, "CLASSE": "06 - Acima do limite", "CD_FAZ": " 400568", "TALHOES": "2, 3, 9", "FAZ_tAL": "404059002, 404059003, 400568009", "ID_LINHA": 15459 }, "geometry": { "type": "MultiLineString", "coordinates": [ [ [ 429112.266283992736135, 7674980.063273683190346 ], [ 428249.313347502902616, 7673838.404127147980034 ] ] ] } },
{ "type": "Feature", "properties": { "fid": 473.0, "COMPR_M": 1434.33, "CLASSE": "06 - Acima do limite", "CD_FAZ": " 400568", "TALHOES": "2, 3, 9", "FAZ_tAL": "404059002, 404059003, 400568009", "ID_LINHA": 15460 }, "geometry": { "type": "MultiLineString", "coordinates": [ [ [ 429116.964578126382548, 7674981.30380835942924 ], [ 428252.363426043826621, 7673837.464125291444361 ] ] ] } },
{ "type": "Feature", "properties": { "fid": 474.0, "COMPR_M": 1437.06, "CLASSE": "06 - Acima do limite", "CD_FAZ": " 400568", "TALHOES": "2, 3, 9", "FAZ_tAL": "404059002, 404059003, 400568009", "ID_LINHA": 15461 }, "geometry": { "type": "MultiLineString", "coordinates": [ [ [ 429121.662872261367738, 7674982.54434303753078 ], [ 428255.413504583993927, 7673836.524123433046043 ] ] ] } },
{ "type": "Feature", "properties": { "fid": 475.0, "COMPR_M": 1439.79, "CLASSE": "06 - Acima do limite", "CD_FAZ": " 400568", "TALHOES": "2, 3, 9", "FAZ_tAL": "404059002, 404059003, 400568009", "ID_LINHA": 15462 }, "geometry": { "type": "MultiLineString", "coordinates": [ [ [ 429126.361166392976884, 7674983.784877713769674 ], [ 428258.463583124743309, 7673835.584121573716402 ] ] ] } },
{ "type": "Feature", "properties": { "fid": 476.0, "COMPR_M": 1442.11, "CLASSE": "06 - Acima do limite", "CD_FAZ": " 400568", "TALHOES": "2, 3, 9", "FAZ_tAL": "404059002, 404059003, 400568009", "ID_LINHA": 15463 }, "geometry": { "type": "MultiLineString", "coordinates": [ [ [ 429130.805671212961897, 7674984.689657244831324 ], [ 428261.51366166601656, 7673834.644119719043374 ] ] ] } },
{ "type": "Feature", "properties": { "fid": 477.0, "COMPR_M": 1443.85, "CLASSE": "06 - Acima do limite", "CD_FAZ": " 400568", "TALHOES": "2, 3, 9", "FAZ_tAL": "404059002, 404059003, 400568009", "ID_LINHA": 15464 }, "geometry": { "type": "MultiLineString", "coordinates": [ [ [ 429134.908423715620302, 7674985.142309384420514 ], [ 428264.563740206533112, 7673833.704117859713733 ] ] ] } },
{ "type": "Feature", "properties": { "fid": 478.0, "COMPR_M": 1445.6, "CLASSE": "06 - Acima do limite", "CD_FAZ": " 400568", "TALHOES": "2, 3, 9", "FAZ_tAL": "404059002, 404059003, 400568009", "ID_LINHA": 15465 }, "geometry": { "type": "MultiLineString", "coordinates": [ [ [ 429139.011176217871252, 7674985.594961524009705 ], [ 428267.61381874763174, 7673832.764116001315415 ] ] ] } },
{ "type": "Feature", "properties": { "fid": 479.0, "COMPR_M": 1447.35, "CLASSE": "06 - Acima do limite", "CD_FAZ": " 400568", "TALHOES": "2, 3, 9", "FAZ_tAL": "404059002, 404059003, 400568009", "ID_LINHA": 15466 }, "geometry": { "type": "MultiLineString", "coordinates": [ [ [ 429143.113928720471449, 7674986.047613663598895 ], [ 428270.663897287973668, 7673831.824114141985774 ] ] ] } }
]
}
