{
"type": "FeatureCollection",
"name": " 400458",
"crs": { "type": "name", "properties": { "name": "urn:ogc:def:crs:EPSG::32722" } },
"xy_coordinate_resolution": 1e-15,
"features": [
{ "type": "Feature", "properties": { "fid": 1.0, "COMPR_M": 169.52, "CLASSE": "02 - Curta", "CD_FAZ": " 400458", "TALHOES": "1", "FAZ_tAL": "400530001, 400458001", "ID_LINHA": 29124 }, "geometry": { "type": "MultiLineString", "coordinates": [ [ [ 414413.95927273464622, 7653621.795509337447584 ], [ 414413.560848534631077, 7653567.524989662691951 ], [ 414411.430233659804799, 7653516.301993135362864 ], [ 414407.589147374208551, 7653464.711618730798364 ], [ 414406.278686228266452, 7653452.585371570661664 ] ] ] } },
{ "type": "Feature", "properties": { "fid": 253.0, "COMPR_M": 170.93, "CLASSE": "02 - Curta", "CD_FAZ": " 400458", "TALHOES": "1", "FAZ_tAL": "400530001, 400458001", "ID_LINHA": 29375 }, "geometry": { "type": "MultiLineString", "coordinates": [ [ [ 414338.267070157453418, 7653651.793691869825125 ], [ 414339.028106056153774, 7653617.887185310944915 ], [ 414338.575413694721647, 7653569.434291016310453 ], [ 414336.546066790178884, 7653520.645919729955494 ], [ 414333.599982803862076, 7653481.076494693756104 ] ] ] } },
{ "type": "Feature", "properties": { "fid": 254.0, "COMPR_M": 170.99, "CLASSE": "02 - Curta", "CD_FAZ": " 400458", "TALHOES": "1", "FAZ_tAL": "400530001, 400458001", "ID_LINHA": 29376 }, "geometry": { "type": "MultiLineString", "coordinates": [ [ [ 414335.239382055879105, 7653652.993619171902537 ], [ 414336.027791529428214, 7653617.86753492616117 ], [ 414335.575996302126441, 7653569.510663075372577 ], [ 414333.550700114690699, 7653520.819676792249084 ], [ 414330.676597749756183, 7653482.21705087274313 ] ] ] } },
{ "type": "Feature", "properties": { "fid": 255.0, "COMPR_M": 171.02, "CLASSE": "02 - Curta", "CD_FAZ": " 400458", "TALHOES": "1", "FAZ_tAL": "400530001, 400458001", "ID_LINHA": 29377 }, "geometry": { "type": "MultiLineString", "coordinates": [ [ [ 414332.211693952442147, 7653654.193546472117305 ], [ 414333.027477005613036, 7653617.847884546034038 ], [ 414332.576578909764066, 7653569.587035126984119 ], [ 414330.55533344228752, 7653520.993433855473995 ], [ 414327.755301785946358, 7653483.385666036978364 ] ] ] } },
{ "type": "Feature", "properties": { "fid": 256.0, "COMPR_M": 171.03, "CLASSE": "02 - Curta", "CD_FAZ": " 400458", "TALHOES": "1", "FAZ_tAL": "400530001, 400458001", "ID_LINHA": 29378 }, "geometry": { "type": "MultiLineString", "coordinates": [ [ [ 414329.184005849121604, 7653655.393473772332072 ], [ 414330.027162480575498, 7653617.828234158456326 ], [ 414329.577161515539046, 7653569.663407184183598 ], [ 414327.559966766450088, 7653521.167190917767584 ], [ 414324.835172001679894, 7653484.569944372400641 ] ] ] } },
{ "type": "Feature", "properties": { "fid": 257.0, "COMPR_M": 171.04, "CLASSE": "02 - Curta", "CD_FAZ": " 400458", "TALHOES": "1", "FAZ_tAL": "400530001, 400458001", "ID_LINHA": 29379 }, "geometry": { "type": "MultiLineString", "coordinates": [ [ [ 414326.156317747256253, 7653656.593401074409485 ], [ 414327.026847951929085, 7653617.808583776466548 ], [ 414326.577744120906573, 7653569.739779236726463 ], [ 414324.564600091835018, 7653521.340947982855141 ], [ 414321.915042220614851, 7653485.754222708754241 ] ] ] } },
{ "type": "Feature", "properties": { "fid": 258.0, "COMPR_M": 171.06, "CLASSE": "02 - Curta", "CD_FAZ": " 400458", "TALHOES": "1", "FAZ_tAL": "400530001, 400458001", "ID_LINHA": 29380 }, "geometry": { "type": "MultiLineString", "coordinates": [ [ [ 414323.128629643470049, 7653657.793328376486897 ], [ 414324.026533423399087, 7653617.788933394476771 ], [ 414323.578326724411454, 7653569.816151291131973 ], [ 414321.569233415648341, 7653521.514705047011375 ], [ 414318.994912435417064, 7653486.938501043245196 ] ] ] } },
{ "type": "Feature", "properties": { "fid": 259.0, "COMPR_M": 171.07, "CLASSE": "02 - Curta", "CD_FAZ": " 400458", "TALHOES": "1", "FAZ_tAL": "400530001, 400458001", "ID_LINHA": 29381 }, "geometry": { "type": "MultiLineString", "coordinates": [ [ [ 414320.100941540440544, 7653658.993255676701665 ], [ 414321.026218902436085, 7653617.769283009693027 ], [ 414320.578909335425124, 7653569.892523345537484 ], [ 414318.573866738763172, 7653521.6884621148929 ], [ 414316.075037711998448, 7653488.126205131411552 ] ] ] } },
{ "type": "Feature", "properties": { "fid": 260.0, "COMPR_M": 171.07, "CLASSE": "02 - Curta", "CD_FAZ": " 400458", "TALHOES": "1", "FAZ_tAL": "400530001, 400458001", "ID_LINHA": 29382 }, "geometry": { "type": "MultiLineString", "coordinates": [ [ [ 414317.073253434267826, 7653660.193182976916432 ], [ 414318.025904378329869, 7653617.749632624909282 ], [ 414317.579491938755382, 7653569.968895402736962 ], [ 414315.578500069619622, 7653521.862219176255167 ], [ 414313.155602377664763, 7653489.319810770452023 ] ] ] } },
{ "type": "Feature", "properties": { "fid": 261.0, "COMPR_M": 171.07, "CLASSE": "02 - Curta", "CD_FAZ": " 400458", "TALHOES": "1", "FAZ_tAL": "400530001, 400458001", "ID_LINHA": 29383 }, "geometry": { "type": "MultiLineString", "coordinates": [ [ [ 414314.045565334788989, 7653661.3931102771312 ], [ 414315.025589854456484, 7653617.729982243850827 ], [ 414314.580074547498953, 7653570.045267453417182 ], [ 414312.583133392385207, 7653522.035976235754788 ], [ 414310.236167046066839, 7653490.513416409492493 ] ] ] } },
{ "type": "Feature", "properties": { "fid": 339.0, "COMPR_M": 176.65, "CLASSE": "02 - Curta", "CD_FAZ": " 400458", "TALHOES": "1", "FAZ_tAL": "400530001, 400458001", "ID_LINHA": 29461 }, "geometry": { "type": "MultiLineString", "coordinates": [ [ [ 414072.046473899274133, 7653757.301706809550524 ], [ 414074.5995571888634, 7653735.368300870060921 ], [ 414077.962475509790238, 7653695.888779979199171 ], [ 414080.104031275492162, 7653656.162522141821682 ], [ 414081.001056889363099, 7653616.197252351790667 ], [ 414080.67281816387549, 7653581.064969378523529 ] ] ] } },
{ "type": "Feature", "properties": { "fid": 340.0, "COMPR_M": 176.75, "CLASSE": "02 - Curta", "CD_FAZ": " 400458", "TALHOES": "1", "FAZ_tAL": "400530001, 400458001", "ID_LINHA": 29462 }, "geometry": { "type": "MultiLineString", "coordinates": [ [ [ 414068.880149256787263, 7653758.556578267365694 ], [ 414071.6143168292474, 7653735.067486686632037 ], [ 414074.969338126073126, 7653695.680674150586128 ], [ 414077.105844132485799, 7653656.048090211115777 ], [ 414078.000742362812161, 7653616.177601972594857 ], [ 414077.683558326563798, 7653582.228532328270376 ] ] ] } },
{ "type": "Feature", "properties": { "fid": 341.0, "COMPR_M": 176.85, "CLASSE": "02 - Curta", "CD_FAZ": " 400458", "TALHOES": "1", "FAZ_tAL": "400530001, 400458001", "ID_LINHA": 29463 }, "geometry": { "type": "MultiLineString", "coordinates": [ [ [ 414065.71382461063331, 7653759.811449727043509 ], [ 414068.629076464741956, 7653734.766672513447702 ], [ 414071.976200739387423, 7653695.472568321973085 ], [ 414074.10765698866453, 7653655.93365827947855 ], [ 414075.000427839811891, 7653616.157951587811112 ], [ 414074.694318939000368, 7653583.394283609464765 ] ] ] } },
{ "type": "Feature", "properties": { "fid": 342.0, "COMPR_M": 176.95, "CLASSE": "02 - Curta", "CD_FAZ": " 400458", "TALHOES": "1", "FAZ_tAL": "400530001, 400458001", "ID_LINHA": 29464 }, "geometry": { "type": "MultiLineString", "coordinates": [ [ [ 414062.547499965352472, 7653761.066321185790002 ], [ 414065.64383609732613, 7653734.465858336538076 ], [ 414068.983063353109173, 7653695.264462493360043 ], [ 414071.109469846531283, 7653655.81922635063529 ], [ 414072.000113313668407, 7653616.138301203027368 ], [ 414071.705079544219188, 7653584.560034893453121 ] ] ] } },
{ "type": "Feature", "properties": { "fid": 343.0, "COMPR_M": 177.05, "CLASSE": "02 - Curta", "CD_FAZ": " 400458", "TALHOES": "1", "FAZ_tAL": "400530001, 400458001", "ID_LINHA": 29465 }, "geometry": { "type": "MultiLineString", "coordinates": [ [ [ 414059.381175319023896, 7653762.321192643605173 ], [ 414062.658595734974369, 7653734.165044158697128 ], [ 414065.98992596718017, 7653695.056356661021709 ], [ 414068.111282706202473, 7653655.704794423654675 ], [ 414068.999798784265295, 7653616.118650821968913 ], [ 414068.715840151999146, 7653585.725786175578833 ] ] ] } },
{ "type": "Feature", "properties": { "fid": 344.0, "COMPR_M": 177.15, "CLASSE": "02 - Curta", "CD_FAZ": " 400458", "TALHOES": "1", "FAZ_tAL": "400530001, 400458001", "ID_LINHA": 29466 }, "geometry": { "type": "MultiLineString", "coordinates": [ [ [ 414056.214850677526556, 7653763.576064101420343 ], [ 414059.673355367733166, 7653733.86422998458147 ], [ 414062.996788580901921, 7653694.848250833339989 ], [ 414065.113095566397533, 7653655.590362494811416 ], [ 414065.999484259693418, 7653616.099000440910459 ], [ 414065.726600761117879, 7653586.891537460498512 ] ] ] } },
{ "type": "Feature", "properties": { "fid": 345.0, "COMPR_M": 177.25, "CLASSE": "02 - Curta", "CD_FAZ": " 400458", "TALHOES": "1", "FAZ_tAL": "400530001, 400458001", "ID_LINHA": 29467 }, "geometry": { "type": "MultiLineString", "coordinates": [ [ [ 414053.04852603294421, 7653764.830935560166836 ], [ 414056.688115002121776, 7653733.563415806740522 ], [ 414060.003651192993857, 7653694.640145003795624 ], [ 414062.114908425020985, 7653655.475930565036833 ], [ 414062.999169733957388, 7653616.079350057989359 ], [ 414062.737361367617268, 7653588.057288745418191 ] ] ] } },
{ "type": "Feature", "properties": { "fid": 346.0, "COMPR_M": 177.35, "CLASSE": "02 - Curta", "CD_FAZ": " 400458", "TALHOES": "1", "FAZ_tAL": "400530001, 400458001", "ID_LINHA": 29468 }, "geometry": { "type": "MultiLineString", "coordinates": [ [ [ 414049.882201385917142, 7653766.085807019844651 ], [ 414053.702874636393972, 7653733.262601630762219 ], [ 414057.010513811314013, 7653694.432039171457291 ], [ 414059.116721280151978, 7653655.361498636193573 ], [ 414059.998855211015325, 7653616.059699672274292 ], [ 414059.748121977434494, 7653589.22304002661258 ] ] ] } },
{ "type": "Feature", "properties": { "fid": 347.0, "COMPR_M": 177.45, "CLASSE": "02 - Curta", "CD_FAZ": " 400458", "TALHOES": "1", "FAZ_tAL": "400530001, 400458001", "ID_LINHA": 29469 }, "geometry": { "type": "MultiLineString", "coordinates": [ [ [ 414046.715876743139233, 7653767.340678475797176 ], [ 414050.717634274973534, 7653732.961787453852594 ], [ 414054.017376421485096, 7653694.223933342844248 ], [ 414056.118534144945443, 7653655.247066707350314 ], [ 414056.998540683533065, 7653616.040049290284514 ], [ 414056.758882587892003, 7653590.388791307806969 ] ] ] } },
{ "type": "Feature", "properties": { "fid": 348.0, "COMPR_M": 177.55, "CLASSE": "02 - Curta", "CD_FAZ": " 400458", "TALHOES": "1", "FAZ_tAL": "400530001, 400458001", "ID_LINHA": 29470 }, "geometry": { "type": "MultiLineString", "coordinates": [ [ [ 414043.54955210123444, 7653768.595549936406314 ], [ 414047.732393909362145, 7653732.660973276011646 ], [ 414051.024239036545623, 7653694.01582751236856 ], [ 414053.120347001007758, 7653655.132634777575731 ], [ 414053.99822615692392, 7653616.020398903638124 ], [ 414053.769643198349513, 7653591.554542590864003 ] ] ] } },
{ "type": "Feature", "properties": { "fid": 349.0, "COMPR_M": 177.64, "CLASSE": "02 - Curta", "CD_FAZ": " 400458", "TALHOES": "1", "FAZ_tAL": "400530001, 400458001", "ID_LINHA": 29471 }, "geometry": { "type": "MultiLineString", "coordinates": [ [ [ 414040.383227458223701, 7653769.850421391427517 ], [ 414044.747153538803104, 7653732.360159100964665 ], [ 414048.031101653294172, 7653693.807721687480807 ], [ 414050.122159856196959, 7653655.018202845007181 ], [ 414050.997911635029595, 7653616.000748524442315 ], [ 414050.78040380612947, 7653592.720293875783682 ] ] ] } },
{ "type": "Feature", "properties": { "fid": 350.0, "COMPR_M": 177.76, "CLASSE": "02 - Curta", "CD_FAZ": " 400458", "TALHOES": "1", "FAZ_tAL": "400530001, 400458001", "ID_LINHA": 29472 }, "geometry": { "type": "MultiLineString", "coordinates": [ [ [ 414037.185164717724547, 7653771.117871230468154 ], [ 414041.761913177906536, 7653732.059344924986362 ], [ 414045.037964265793562, 7653693.599615855142474 ], [ 414047.123972723085899, 7653654.903770919889212 ], [ 414047.997597109351773, 7653615.98109813965857 ], [ 414047.79116441460792, 7653593.886045159772038 ] ] ] } },
{ "type": "Feature", "properties": { "fid": 351.0, "COMPR_M": 177.89, "CLASSE": "02 - Curta", "CD_FAZ": " 400458", "TALHOES": "1", "FAZ_tAL": "400530001, 400458001", "ID_LINHA": 29473 }, "geometry": { "type": "MultiLineString", "coordinates": [ [ [ 414033.965105807117652, 7653772.394038545899093 ], [ 414038.776672813575715, 7653731.758530747145414 ], [ 414042.044826881145127, 7653693.391510030254722 ], [ 414044.125785579206422, 7653654.789338989183307 ], [ 414044.997282585827634, 7653615.961447754874825 ], [ 414044.801925020467024, 7653595.051796443760395 ] ] ] } },
{ "type": "Feature", "properties": { "fid": 352.0, "COMPR_M": 178.02, "CLASSE": "02 - Curta", "CD_FAZ": " 400458", "TALHOES": "1", "FAZ_tAL": "400530001, 400458001", "ID_LINHA": 29474 }, "geometry": { "type": "MultiLineString", "coordinates": [ [ [ 414030.745046895928681, 7653773.670205861330032 ], [ 414035.791432446218096, 7653731.457716571167111 ], [ 414039.051689494983293, 7653693.183404196985066 ], [ 414041.127598435734399, 7653654.674907060340047 ], [ 414041.996968061022926, 7653615.941797370091081 ], [ 414041.812685628945474, 7653596.217547726817429 ] ] ] } },
{ "type": "Feature", "properties": { "fid": 353.0, "COMPR_M": 178.14, "CLASSE": "02 - Curta", "CD_FAZ": " 400458", "TALHOES": "1", "FAZ_tAL": "400530001, 400458001", "ID_LINHA": 29475 }, "geometry": { "type": "MultiLineString", "coordinates": [ [ [ 414027.524987988115754, 7653774.946373176760972 ], [ 414032.806192079908215, 7653731.156902395188808 ], [ 414036.058552107831929, 7653692.975298367440701 ], [ 414038.129411298665218, 7653654.56047513242811 ], [ 414038.996653534471989, 7653615.922146989032626 ], [ 414038.823446236725431, 7653597.383299009874463 ] ] ] } },
{ "type": "Feature", "properties": { "fid": 354.0, "COMPR_M": 178.23, "CLASSE": "02 - Curta", "CD_FAZ": " 400458", "TALHOES": "1", "FAZ_tAL": "400530001, 400458001", "ID_LINHA": 29476 }, "geometry": { "type": "MultiLineString", "coordinates": [ [ [ 414024.304929080302827, 7653776.222540490329266 ], [ 414029.820951719360892, 7653730.856088215485215 ], [ 414033.065414720331319, 7653692.767192536965013 ], [ 414035.131224152864888, 7653654.44604319985956 ], [ 414035.99633900669869, 7653615.902496609836817 ], [ 414035.834584960597567, 7653598.589520999230444 ] ] ] } },
{ "type": "Feature", "properties": { "fid": 355.0, "COMPR_M": 178.29, "CLASSE": "02 - Curta", "CD_FAZ": " 400458", "TALHOES": "1", "FAZ_tAL": "400530001, 400458001", "ID_LINHA": 29477 }, "geometry": { "type": "MultiLineString", "coordinates": [ [ [ 414021.084870167949703, 7653777.498707804828882 ], [ 414026.835711347986944, 7653730.555274040438235 ], [ 414030.072277336439583, 7653692.559086710214615 ], [ 414032.133037013409194, 7653654.331611276604235 ], [ 414032.996024482999928, 7653615.882846226915717 ], [ 414032.845956696197391, 7653599.820682818070054 ] ] ] } },
{ "type": "Feature", "properties": { "fid": 356.0, "COMPR_M": 178.35, "CLASSE": "02 - Curta", "CD_FAZ": " 400458", "TALHOES": "1", "FAZ_tAL": "400530001, 400458001", "ID_LINHA": 29478 }, "geometry": { "type": "MultiLineString", "coordinates": [ [ [ 414017.864811255596578, 7653778.774875123053789 ], [ 414023.850470982899424, 7653730.254459862597287 ], [ 414027.079139948938973, 7653692.350980875082314 ], [ 414029.134849873778876, 7653654.21717934217304 ], [ 414029.995709958137013, 7653615.863195840269327 ], [ 414029.857328430283815, 7653601.051844636909664 ] ] ] } },
{ "type": "Feature", "properties": { "fid": 357.0, "COMPR_M": 178.41, "CLASSE": "02 - Curta", "CD_FAZ": " 400458", "TALHOES": "1", "FAZ_tAL": "400530001, 400458001", "ID_LINHA": 29479 }, "geometry": { "type": "MultiLineString", "coordinates": [ [ [ 414014.644752349879127, 7653780.051042435690761 ], [ 414020.865230620198417, 7653729.953645687550306 ], [ 414024.086002566386014, 7653692.142875047400594 ], [ 414026.136662729259115, 7653654.102747416123748 ], [ 414026.995395435369574, 7653615.843545457348228 ], [ 414026.868700166873168, 7653602.283006455749273 ] ] ] } },
{ "type": "Feature", "properties": { "fid": 376.0, "COMPR_M": 180.62, "CLASSE": "02 - Curta", "CD_FAZ": " 400458", "TALHOES": "1", "FAZ_tAL": "400530001, 400458001", "ID_LINHA": 29498 }, "geometry": { "type": "MultiLineString", "coordinates": [ [ [ 413953.174814675236121, 7653804.412685350514948 ], [ 413959.989429351699073, 7653759.944169535301626 ], [ 413964.145663683942985, 7653724.238176328130066 ], [ 413967.216392232629005, 7653688.188864285126328 ], [ 413969.171107049158309, 7653651.928540766239166 ], [ 413969.779881395690609, 7653624.805757878348231 ] ] ] } },
{ "type": "Feature", "properties": { "fid": 377.0, "COMPR_M": 180.79, "CLASSE": "02 - Curta", "CD_FAZ": " 400458", "TALHOES": "1", "FAZ_tAL": "400530001, 400458001", "ID_LINHA": 29499 }, "geometry": { "type": "MultiLineString", "coordinates": [ [ [ 413949.901989213714842, 7653805.709765000268817 ], [ 413957.0147874080576, 7653759.5523049114272 ], [ 413961.160423320427071, 7653723.937362150289118 ], [ 413964.223254844022449, 7653687.98075845465064 ], [ 413966.17291990556987, 7653651.814108839258552 ], [ 413966.753449295123573, 7653625.949726277962327 ] ] ] } },
{ "type": "Feature", "properties": { "fid": 378.0, "COMPR_M": 180.9, "CLASSE": "02 - Curta", "CD_FAZ": " 400458", "TALHOES": "1", "FAZ_tAL": "400530001, 400458001", "ID_LINHA": 29500 }, "geometry": { "type": "MultiLineString", "coordinates": [ [ [ 413946.629163750796579, 7653807.006844650022686 ], [ 413954.040145456790924, 7653759.160440292209387 ], [ 413958.175182953360491, 7653723.63654797617346 ], [ 413961.230117457685992, 7653687.772652624174953 ], [ 413963.17473276774399, 7653651.699676906690001 ], [ 413963.725504206318874, 7653627.161103047430515 ] ] ] } },
{ "type": "Feature", "properties": { "fid": 379.0, "COMPR_M": 180.95, "CLASSE": "02 - Curta", "CD_FAZ": " 400458", "TALHOES": "1", "FAZ_tAL": "400530001, 400458001", "ID_LINHA": 29501 }, "geometry": { "type": "MultiLineString", "coordinates": [ [ [ 413943.35633828578284, 7653808.303924301639199 ], [ 413951.06550350645557, 7653758.768575668334961 ], [ 413955.189942591940053, 7653723.335733800195158 ], [ 413958.236980069661513, 7653687.5645467992872 ], [ 413960.176545623631682, 7653651.585244983434677 ], [ 413960.69616999104619, 7653628.434369910508394 ] ] ] } },
{ "type": "Feature", "properties": { "fid": 395.0, "COMPR_M": 170.59, "CLASSE": "02 - Curta", "CD_FAZ": " 400458", "TALHOES": "1", "FAZ_tAL": "400530001, 400458001", "ID_LINHA": 29517 }, "geometry": { "type": "MultiLineString", "coordinates": [ [ [ 414356.433198778249789, 7653644.594128061085939 ], [ 414357.029993200907484, 7653618.005087610334158 ], [ 414356.571918056346476, 7653568.976058694534004 ], [ 414354.518266840430442, 7653519.603377349674702 ], [ 414351.140293117670808, 7653474.233157616108656 ] ] ] } },
{ "type": "Feature", "properties": { "fid": 396.0, "COMPR_M": 170.65, "CLASSE": "02 - Curta", "CD_FAZ": " 400458", "TALHOES": "1", "FAZ_tAL": "400530001, 400458001", "ID_LINHA": 29518 }, "geometry": { "type": "MultiLineString", "coordinates": [ [ [ 414353.405510672775563, 7653645.794055363163352 ], [ 414354.029678682738449, 7653617.985437223687768 ], [ 414353.572500663925894, 7653569.052430748939514 ], [ 414351.522900165757164, 7653519.777134411968291 ], [ 414348.216908067464828, 7653475.373713795095682 ] ] ] } },
{ "type": "Feature", "properties": { "fid": 397.0, "COMPR_M": 170.7, "CLASSE": "02 - Curta", "CD_FAZ": " 400458", "TALHOES": "1", "FAZ_tAL": "400530001, 400458001", "ID_LINHA": 29519 }, "geometry": { "type": "MultiLineString", "coordinates": [ [ [ 414350.377822572656441, 7653646.993982665240765 ], [ 414351.029364156827796, 7653617.965786840766668 ], [ 414350.573083269002382, 7653569.128802802413702 ], [ 414348.527533492888324, 7653519.950891473330557 ], [ 414345.293523014173843, 7653476.514269974082708 ] ] ] } },
{ "type": "Feature", "properties": { "fid": 398.0, "COMPR_M": 170.76, "CLASSE": "02 - Curta", "CD_FAZ": " 400458", "TALHOES": "1", "FAZ_tAL": "400530001, 400458001", "ID_LINHA": 29520 }, "geometry": { "type": "MultiLineString", "coordinates": [ [ [ 414347.350134469335899, 7653648.193909965455532 ], [ 414348.029049631208181, 7653617.946136454120278 ], [ 414347.5736658743117, 7653569.20517485588789 ], [ 414345.532166815944947, 7653520.124648538418114 ], [ 414342.370137958962005, 7653477.65482615493238 ] ] ] } },
{ "type": "Feature", "properties": { "fid": 399.0, "COMPR_M": 170.82, "CLASSE": "02 - Curta", "CD_FAZ": " 400458", "TALHOES": "1", "FAZ_tAL": "400530001, 400458001", "ID_LINHA": 29521 }, "geometry": { "type": "MultiLineString", "coordinates": [ [ [ 414344.32244636217365, 7653649.39383726939559 ], [ 414345.028735105064698, 7653617.926486071199179 ], [ 414344.574248481774703, 7653569.2815469102934 ], [ 414342.536800140223932, 7653520.298405600711703 ], [ 414339.446752908464987, 7653478.795382333919406 ] ] ] } },
{ "type": "Feature", "properties": { "fid": 400.0, "COMPR_M": 170.88, "CLASSE": "02 - Curta", "CD_FAZ": " 400458", "TALHOES": "1", "FAZ_tAL": "400530001, 400458001", "ID_LINHA": 29522 }, "geometry": { "type": "MultiLineString", "coordinates": [ [ [ 414341.294758261763491, 7653650.593764567747712 ], [ 414342.028420581191313, 7653617.906835686415434 ], [ 414341.574831088189967, 7653569.357918964698911 ], [ 414339.541433463571593, 7653520.47216266952455 ], [ 414336.523367851448711, 7653479.935938514769077 ] ] ] } },
{ "type": "Feature", "properties": { "fid": 401.0, "COMPR_M": 169.32, "CLASSE": "02 - Curta", "CD_FAZ": " 400458", "TALHOES": "1", "FAZ_tAL": "400530001, 400458001", "ID_LINHA": 29523 }, "geometry": { "type": "MultiLineString", "coordinates": [ [ [ 414432.001872526830994, 7653614.644902227446437 ], [ 414431.557352892472409, 7653567.066757337190211 ], [ 414429.402433714829385, 7653515.259450758807361 ], [ 414425.517186978599057, 7653463.075948836281896 ], [ 414423.636308976216242, 7653445.671395032666624 ] ] ] } },
{ "type": "Feature", "properties": { "fid": 434.0, "COMPR_M": 168.55, "CLASSE": "02 - Curta", "CD_FAZ": " 400458", "TALHOES": "1", "FAZ_tAL": "400530001, 400458001", "ID_LINHA": 29556 }, "geometry": { "type": "MultiLineString", "coordinates": [ [ [ 414482.815945342590567, 7653594.506370389834046 ], [ 414482.547448582830839, 7653565.768432418815792 ], [ 414480.323667184449732, 7653512.30558067932725 ], [ 414476.31329918699339, 7653458.44155082013458 ], [ 414472.849709600501228, 7653426.391502181068063 ] ] ] } },
{ "type": "Feature", "properties": { "fid": 435.0, "COMPR_M": 168.63, "CLASSE": "02 - Curta", "CD_FAZ": " 400458", "TALHOES": "1", "FAZ_tAL": "400530001, 400458001", "ID_LINHA": 29557 }, "geometry": { "type": "MultiLineString", "coordinates": [ [ [ 414479.82688223849982, 7653595.690989907830954 ], [ 414479.548031194543, 7653565.844804464839399 ], [ 414477.328300510242116, 7653512.479337744414806 ], [ 414473.325292586465366, 7653458.714162470772862 ], [ 414469.951540504349396, 7653427.495417974889278 ] ] ] } },
{ "type": "Feature", "properties": { "fid": 436.0, "COMPR_M": 168.7, "CLASSE": "02 - Curta", "CD_FAZ": " 400458", "TALHOES": "1", "FAZ_tAL": "400530001, 400458001", "ID_LINHA": 29558 }, "geometry": { "type": "MultiLineString", "coordinates": [ [ [ 414476.837819129810669, 7653596.875609429553151 ], [ 414476.548613796476275, 7653565.921176523901522 ], [ 414474.332933831261471, 7653512.653094811365008 ], [ 414470.337285983841866, 7653458.986774118617177 ], [ 414467.053371406393126, 7653428.599333770573139 ] ] ] } },
{ "type": "Feature", "properties": { "fid": 437.0, "COMPR_M": 168.78, "CLASSE": "02 - Curta", "CD_FAZ": " 400458", "TALHOES": "1", "FAZ_tAL": "400530001, 400458001", "ID_LINHA": 29559 }, "geometry": { "type": "MultiLineString", "coordinates": [ [ [ 414473.84875602228567, 7653598.060228948481381 ], [ 414473.549196406558622, 7653565.997548576444387 ], [ 414471.337567160197068, 7653512.82685187458992 ], [ 414467.349279387271963, 7653459.259385763667524 ], [ 414464.155202314665075, 7653429.70324956253171 ] ] ] } },
{ "type": "Feature", "properties": { "fid": 438.0, "COMPR_M": 168.85, "CLASSE": "02 - Curta", "CD_FAZ": " 400458", "TALHOES": "1", "FAZ_tAL": "400530001, 400458001", "ID_LINHA": 29560 }, "geometry": { "type": "MultiLineString", "coordinates": [ [ [ 414470.859692914236803, 7653599.244848469272256 ], [ 414470.54977901163511, 7653566.073920629918575 ], [ 414468.342200483661145, 7653513.000608934089541 ], [ 414464.361272784008179, 7653459.531997415237129 ], [ 414461.25703321583569, 7653430.807165360078216 ] ] ] } },
{ "type": "Feature", "properties": { "fid": 439.0, "COMPR_M": 168.93, "CLASSE": "02 - Curta", "CD_FAZ": " 400458", "TALHOES": "1", "FAZ_tAL": "400530001, 400458001", "ID_LINHA": 29561 }, "geometry": { "type": "MultiLineString", "coordinates": [ [ [ 414467.870629810087848, 7653600.429467987269163 ], [ 414467.550361617002636, 7653566.150292681530118 ], [ 414465.346833810384851, 7653513.174365999177098 ], [ 414461.37326617812505, 7653459.804609057493508 ], [ 414458.358864119276404, 7653431.911081155762076 ] ] ] } },
{ "type": "Feature", "properties": { "fid": 440.0, "COMPR_M": 169.0, "CLASSE": "02 - Curta", "CD_FAZ": " 400458", "TALHOES": "1", "FAZ_tAL": "400530001, 400458001", "ID_LINHA": 29562 }, "geometry": { "type": "MultiLineString", "coordinates": [ [ [ 414464.881566703901626, 7653601.614087508060038 ], [ 414464.55094422516413, 7653566.226664740592241 ], [ 414462.351467131695244, 7653513.34812305867672 ], [ 414458.385259580099955, 7653460.077220713719726 ], [ 414455.460695024230517, 7653433.014996949583292 ] ] ] } },
{ "type": "Feature", "properties": { "fid": 441.0, "COMPR_M": 169.04, "CLASSE": "02 - Curta", "CD_FAZ": " 400458", "TALHOES": "1", "FAZ_tAL": "400530001, 400458001", "ID_LINHA": 29563 }, "geometry": { "type": "MultiLineString", "coordinates": [ [ [ 414461.892503593815491, 7653602.798707030713558 ], [ 414461.551526832859963, 7653566.303036794066429 ], [ 414459.356100458826404, 7653513.521880122832954 ], [ 414455.397252983471844, 7653460.349832356907427 ], [ 414452.566262319276575, 7653434.153487144969404 ] ] ] } },
{ "type": "Feature", "properties": { "fid": 442.0, "COMPR_M": 169.07, "CLASSE": "02 - Curta", "CD_FAZ": " 400458", "TALHOES": "1", "FAZ_tAL": "400530001, 400458001", "ID_LINHA": 29564 }, "geometry": { "type": "MultiLineString", "coordinates": [ [ [ 414458.903440486988984, 7653603.983326548710465 ], [ 414458.552109436888713, 7653566.379408844746649 ], [ 414456.360733785899356, 7653513.695637186057866 ], [ 414452.409246379567776, 7653460.62244400754571 ], [ 414449.673235995229334, 7653435.304991159588099 ] ] ] } },
{ "type": "Feature", "properties": { "fid": 443.0, "COMPR_M": 169.1, "CLASSE": "02 - Curta", "CD_FAZ": " 400458", "TALHOES": "1", "FAZ_tAL": "400530001, 400458001", "ID_LINHA": 29565 }, "geometry": { "type": "MultiLineString", "coordinates": [ [ [ 414455.914377380802762, 7653605.167946068570018 ], [ 414455.552692042430863, 7653566.45578090287745 ], [ 414453.365367106802296, 7653513.869394253008068 ], [ 414449.421239778283052, 7653460.895055650733411 ], [ 414446.780209667631425, 7653436.456495177000761 ] ] ] } },
{ "type": "Feature", "properties": { "fid": 444.0, "COMPR_M": 169.13, "CLASSE": "02 - Curta", "CD_FAZ": " 400458", "TALHOES": "1", "FAZ_tAL": "400530001, 400458001", "ID_LINHA": 29566 }, "geometry": { "type": "MultiLineString", "coordinates": [ [ [ 414452.925314272637479, 7653606.352565587498248 ], [ 414452.553274649544619, 7653566.532152954488993 ], [ 414450.370000433642417, 7653514.043151311576366 ], [ 414446.433233182237018, 7653461.167667301371694 ], [ 414443.887183345039375, 7653437.607999192550778 ] ] ] } },
{ "type": "Feature", "properties": { "fid": 445.0, "COMPR_M": 169.16, "CLASSE": "02 - Curta", "CD_FAZ": " 400458", "TALHOES": "1", "FAZ_tAL": "400530001, 400458001", "ID_LINHA": 29567 }, "geometry": { "type": "MultiLineString", "coordinates": [ [ [ 414449.936251165054273, 7653607.537185110151768 ], [ 414449.553857252933085, 7653566.608525011688471 ], [ 414447.374633758328855, 7653514.216908378526568 ], [ 414443.445226578274742, 7653461.440278945490718 ], [ 414440.994157021516003, 7653438.759503208100796 ] ] ] } },
{ "type": "Feature", "properties": { "fid": 446.0, "COMPR_M": 169.18, "CLASSE": "02 - Curta", "CD_FAZ": " 400458", "TALHOES": "1", "FAZ_tAL": "400530001, 400458001", "ID_LINHA": 29568 }, "geometry": { "type": "MultiLineString", "coordinates": [ [ [ 414446.94718805688899, 7653608.72180463001132 ], [ 414446.554439863830339, 7653566.684897062368691 ], [ 414444.379267086915206, 7653514.390665442682803 ], [ 414440.457219977630302, 7653461.712890593335032 ], [ 414438.101130695722532, 7653439.911007223650813 ] ] ] } },
{ "type": "Feature", "properties": { "fid": 447.0, "COMPR_M": 169.21, "CLASSE": "02 - Curta", "CD_FAZ": " 400458", "TALHOES": "1", "FAZ_tAL": "400530001, 400458001", "ID_LINHA": 29569 }, "geometry": { "type": "MultiLineString", "coordinates": [ [ [ 414443.958124953263905, 7653609.906424148008227 ], [ 414443.555022470303811, 7653566.761269118636847 ], [ 414441.383900408109184, 7653514.564422505907714 ], [ 414437.469213379547, 7653461.985502244904637 ], [ 414435.208104368997738, 7653441.062511241063476 ] ] ] } },
{ "type": "Feature", "properties": { "fid": 448.0, "COMPR_M": 169.24, "CLASSE": "02 - Curta", "CD_FAZ": " 400458", "TALHOES": "1", "FAZ_tAL": "400530001, 400458001", "ID_LINHA": 29570 }, "geometry": { "type": "MultiLineString", "coordinates": [ [ [ 414440.969061845040414, 7653611.09104366786778 ], [ 414440.555605074332561, 7653566.837641173042357 ], [ 414438.388533737044781, 7653514.738179570063949 ], [ 414434.481206774828024, 7653462.258113896474242 ], [ 414432.315120355226099, 7653442.214406760409474 ] ] ] } },
{ "type": "Feature", "properties": { "fid": 449.0, "COMPR_M": 169.26, "CLASSE": "02 - Curta", "CD_FAZ": " 400458", "TALHOES": "1", "FAZ_tAL": "400530001, 400458001", "ID_LINHA": 29571 }, "geometry": { "type": "MultiLineString", "coordinates": [ [ [ 414437.979998740775045, 7653612.275663187727332 ], [ 414437.556187682552263, 7653566.914013231173158 ], [ 414435.393167062022258, 7653514.911936636082828 ], [ 414431.493200173485093, 7653462.530725546181202 ], [ 414429.422183229238726, 7653443.366736183874309 ] ] ] } },
{ "type": "Feature", "properties": { "fid": 450.0, "COMPR_M": 169.29, "CLASSE": "02 - Curta", "CD_FAZ": " 400458", "TALHOES": "1", "FAZ_tAL": "400530001, 400458001", "ID_LINHA": 29572 }, "geometry": { "type": "MultiLineString", "coordinates": [ [ [ 414434.990935632493347, 7653613.46028270944953 ], [ 414434.55677028640639, 7653566.990385280922055 ], [ 414432.39780038484605, 7653515.085693693719804 ], [ 414428.505193578661419, 7653462.803337194025517 ], [ 414426.529246103309561, 7653444.519065609201789 ] ] ] } },
{ "type": "Feature", "properties": { "fid": 451.0, "COMPR_M": 169.35, "CLASSE": "02 - Curta", "CD_FAZ": " 400458", "TALHOES": "1", "FAZ_tAL": "400530001, 400458001", "ID_LINHA": 29573 }, "geometry": { "type": "MultiLineString", "coordinates": [ [ [ 414429.012809416570235, 7653615.829521749168634 ], [ 414428.557935504650231, 7653567.143129389733076 ], [ 414426.407067037420347, 7653515.433207820169628 ], [ 414422.529180378478486, 7653463.348560485988855 ], [ 414420.743371853139251, 7653446.823724454268813 ] ] ] } },
{ "type": "Feature", "properties": { "fid": 452.0, "COMPR_M": 169.37, "CLASSE": "02 - Curta", "CD_FAZ": " 400458", "TALHOES": "1", "FAZ_tAL": "400530001, 400458001", "ID_LINHA": 29574 }, "geometry": { "type": "MultiLineString", "coordinates": [ [ [ 414426.023746312246658, 7653617.014141267165542 ], [ 414425.558518105885014, 7653567.219501445069909 ], [ 414423.411700361873955, 7653515.606964885257185 ], [ 414419.541173778299708, 7653463.62117213755846 ], [ 414417.850434728199616, 7653447.97605387866497 ] ] ] } },
{ "type": "Feature", "properties": { "fid": 453.0, "COMPR_M": 169.4, "CLASSE": "02 - Curta", "CD_FAZ": " 400458", "TALHOES": "1", "FAZ_tAL": "400530001, 400458001", "ID_LINHA": 29575 }, "geometry": { "type": "MultiLineString", "coordinates": [ [ [ 414423.034683206526097, 7653618.198760787025094 ], [ 414422.559100713231601, 7653567.295873497612774 ], [ 414420.416333684232086, 7653515.780721951276064 ], [ 414416.553167175501585, 7653463.893783785402775 ], [ 414414.957497604715172, 7653449.128383301198483 ] ] ] } },
{ "type": "Feature", "properties": { "fid": 454.0, "COMPR_M": 169.44, "CLASSE": "02 - Curta", "CD_FAZ": " 400458", "TALHOES": "1", "FAZ_tAL": "400530001, 400458001", "ID_LINHA": 29576 }, "geometry": { "type": "MultiLineString", "coordinates": [ [ [ 414420.014648939075414, 7653619.395654735155404 ], [ 414419.559683319472242, 7653567.37224555388093 ], [ 414417.420967012410983, 7653515.95447901263833 ], [ 414413.565160573343746, 7653464.166395429521799 ], [ 414412.064560478669591, 7653450.28071272559464 ] ] ] } },
{ "type": "Feature", "properties": { "fid": 455.0, "COMPR_M": 169.48, "CLASSE": "02 - Curta", "CD_FAZ": " 400458", "TALHOES": "1", "FAZ_tAL": "400530001, 400458001", "ID_LINHA": 29577 }, "geometry": { "type": "MultiLineString", "coordinates": [ [ [ 414416.986960838490631, 7653620.595582036301494 ], [ 414416.560265927924775, 7653567.448617611080408 ], [ 414414.425600335816853, 7653516.128236075863242 ], [ 414410.577153975144029, 7653464.439007079228759 ], [ 414409.171623354079202, 7653451.433042148128152 ] ] ] } },
{ "type": "Feature", "properties": { "fid": 456.0, "COMPR_M": 169.57, "CLASSE": "02 - Curta", "CD_FAZ": " 400458", "TALHOES": "1", "FAZ_tAL": "400530001, 400458001", "ID_LINHA": 29578 }, "geometry": { "type": "MultiLineString", "coordinates": [ [ [ 414410.931584632257, 7653622.995436638593674 ], [ 414410.561431138892658, 7653567.601361716166139 ], [ 414408.434866989555303, 7653516.475750208832324 ], [ 414404.601140772632789, 7653464.984230380505323 ], [ 414403.385749107808806, 7653453.737700993195176 ] ] ] } },
{ "type": "Feature", "properties": { "fid": 457.0, "COMPR_M": 169.61, "CLASSE": "02 - Curta", "CD_FAZ": " 400458", "TALHOES": "1", "FAZ_tAL": "400530001, 400458001", "ID_LINHA": 29579 }, "geometry": { "type": "MultiLineString", "coordinates": [ [ [ 414407.90389652538579, 7653624.195363942533731 ], [ 414407.562013744027354, 7653567.677733773365617 ], [ 414405.43950031127315, 7653516.649507267400622 ], [ 414400.49281198089011, 7653454.890030417591333 ] ] ] } },
{ "type": "Feature", "properties": { "fid": 458.0, "COMPR_M": 169.66, "CLASSE": "02 - Curta", "CD_FAZ": " 400458", "TALHOES": "1", "FAZ_tAL": "400530001, 400458001", "ID_LINHA": 29580 }, "geometry": { "type": "MultiLineString", "coordinates": [ [ [ 414404.876208420610055, 7653625.395291242748499 ], [ 414404.562596353353001, 7653567.75410582870245 ], [ 414402.444133639510255, 7653516.823264333419502 ], [ 414397.599295982217882, 7653456.037003260105848 ] ] ] } },
{ "type": "Feature", "properties": { "fid": 459.0, "COMPR_M": 169.72, "CLASSE": "02 - Curta", "CD_FAZ": " 400458", "TALHOES": "1", "FAZ_tAL": "400530001, 400458001", "ID_LINHA": 29581 }, "geometry": { "type": "MultiLineString", "coordinates": [ [ [ 414401.848520320607349, 7653626.595218542963266 ], [ 414401.563178962212987, 7653567.830477880313993 ], [ 414399.448766962974332, 7653516.997021393850446 ], [ 414394.704378133872524, 7653457.171004224568605 ] ] ] } },
{ "type": "Feature", "properties": { "fid": 460.0, "COMPR_M": 169.78, "CLASSE": "02 - Curta", "CD_FAZ": " 400458", "TALHOES": "1", "FAZ_tAL": "400530001, 400458001", "ID_LINHA": 29582 }, "geometry": { "type": "MultiLineString", "coordinates": [ [ [ 414398.820832216762938, 7653627.795145845040679 ], [ 414398.563761567347683, 7653567.906849936582148 ], [ 414396.453400286962278, 7653517.170778457075357 ], [ 414391.809460284479428, 7653458.30500518437475 ] ] ] } },
{ "type": "Feature", "properties": { "fid": 461.0, "COMPR_M": 169.84, "CLASSE": "02 - Curta", "CD_FAZ": " 400458", "TALHOES": "1", "FAZ_tAL": "400530001, 400458001", "ID_LINHA": 29583 }, "geometry": { "type": "MultiLineString", "coordinates": [ [ [ 414395.793144114257302, 7653628.995073147118092 ], [ 414395.564344170736149, 7653567.983221990987659 ], [ 414393.458033615490422, 7653517.344535520300269 ], [ 414388.9145424378803, 7653459.439006149768829 ] ] ] } },
{ "type": "Feature", "properties": { "fid": 462.0, "COMPR_M": 169.9, "CLASSE": "02 - Curta", "CD_FAZ": " 400458", "TALHOES": "1", "FAZ_tAL": "400530001, 400458001", "ID_LINHA": 29584 }, "geometry": { "type": "MultiLineString", "coordinates": [ [ [ 414392.76545601192629, 7653630.195000445470214 ], [ 414393.033767509507015, 7653618.240892206318676 ], [ 414392.564926779596135, 7653568.059594042599201 ], [ 414390.462666937906761, 7653517.518292589113116 ], [ 414386.019624588196166, 7653460.573007112368941 ] ] ] } },
{ "type": "Feature", "properties": { "fid": 463.0, "COMPR_M": 169.96, "CLASSE": "02 - Curta", "CD_FAZ": " 400458", "TALHOES": "1", "FAZ_tAL": "400530001, 400458001", "ID_LINHA": 29585 }, "geometry": { "type": "MultiLineString", "coordinates": [ [ [ 414389.737767911690753, 7653631.394927748478949 ], [ 414390.033452986506745, 7653618.221241816878319 ], [ 414389.565509383333847, 7653568.135966098867357 ], [ 414387.467300262884237, 7653517.692049650475383 ], [ 414383.124706742644776, 7653461.707008072175086 ] ] ] } },
{ "type": "Feature", "properties": { "fid": 464.0, "COMPR_M": 170.02, "CLASSE": "02 - Curta", "CD_FAZ": " 400458", "TALHOES": "1", "FAZ_tAL": "400530001, 400458001", "ID_LINHA": 29586 }, "geometry": { "type": "MultiLineString", "coordinates": [ [ [ 414386.710079808952287, 7653632.594855047762394 ], [ 414387.033138459082693, 7653618.201591440476477 ], [ 414386.566091994580347, 7653568.212338151410222 ], [ 414384.471933589025866, 7653517.86580671556294 ], [ 414380.229788892669603, 7653462.841009036637843 ] ] ] } },
{ "type": "Feature", "properties": { "fid": 465.0, "COMPR_M": 170.08, "CLASSE": "02 - Curta", "CD_FAZ": " 400458", "TALHOES": "1", "FAZ_tAL": "400530001, 400458001", "ID_LINHA": 29587 }, "geometry": { "type": "MultiLineString", "coordinates": [ [ [ 414383.682391701615416, 7653633.794782351702452 ], [ 414384.032823930610903, 7653618.1819410584867 ], [ 414383.56667459878372, 7653568.2887102086097 ], [ 414381.476566915691365, 7653518.039563775993884 ], [ 414377.334871046827175, 7653463.975009997375309 ] ] ] } },
{ "type": "Feature", "properties": { "fid": 466.0, "COMPR_M": 170.14, "CLASSE": "02 - Curta", "CD_FAZ": " 400458", "TALHOES": "1", "FAZ_tAL": "400530001, 400458001", "ID_LINHA": 29588 }, "geometry": { "type": "MultiLineString", "coordinates": [ [ [ 414380.654703601147048, 7653634.994709651917219 ], [ 414381.032509404409211, 7653618.162290672771633 ], [ 414380.567257205839269, 7653568.365082261152565 ], [ 414378.481200238224119, 7653518.213320842012763 ], [ 414374.439953201217577, 7653465.109010959044099 ] ] ] } },
{ "type": "Feature", "properties": { "fid": 467.0, "COMPR_M": 170.2, "CLASSE": "02 - Curta", "CD_FAZ": " 400458", "TALHOES": "1", "FAZ_tAL": "400530001, 400458001", "ID_LINHA": 29589 }, "geometry": { "type": "MultiLineString", "coordinates": [ [ [ 414377.627015497360844, 7653636.194636953994632 ], [ 414378.032194882980548, 7653618.142640290781856 ], [ 414377.56783981306944, 7653568.441454316489398 ], [ 414375.485833560698666, 7653518.38707790337503 ], [ 414371.545035349845421, 7653466.243011923506856 ] ] ] } },
{ "type": "Feature", "properties": { "fid": 468.0, "COMPR_M": 170.26, "CLASSE": "02 - Curta", "CD_FAZ": " 400458", "TALHOES": "1", "FAZ_tAL": "400530001, 400458001", "ID_LINHA": 29590 }, "geometry": { "type": "MultiLineString", "coordinates": [ [ [ 414374.599327394389547, 7653637.394564252346754 ], [ 414375.031880356546026, 7653618.122989911586046 ], [ 414374.568422420532443, 7653568.517826370894909 ], [ 414372.490466886316426, 7653518.560834964737296 ], [ 414368.650117502606008, 7653467.377012886106968 ] ] ] } },
{ "type": "Feature", "properties": { "fid": 469.0, "COMPR_M": 170.33, "CLASSE": "02 - Curta", "CD_FAZ": " 400458", "TALHOES": "1", "FAZ_tAL": "400530001, 400458001", "ID_LINHA": 29591 }, "geometry": { "type": "MultiLineString", "coordinates": [ [ [ 414371.571639292233158, 7653638.594491553492844 ], [ 414372.031565829762258, 7653618.103339523077011 ], [ 414371.569005022232886, 7653568.594198426231742 ], [ 414369.495100213738624, 7653518.734592031687498 ], [ 414365.755199656938203, 7653468.511013846844435 ] ] ] } },
{ "type": "Feature", "properties": { "fid": 470.0, "COMPR_M": 170.38, "CLASSE": "02 - Curta", "CD_FAZ": " 400458", "TALHOES": "1", "FAZ_tAL": "400530001, 400458001", "ID_LINHA": 29592 }, "geometry": { "type": "MultiLineString", "coordinates": [ [ [ 414368.543951190134976, 7653639.794418854638934 ], [ 414369.031251303153113, 7653618.083689136430621 ], [ 414368.569587625504937, 7653568.670570475980639 ], [ 414366.499733541102614, 7653518.908349093049765 ], [ 414362.832707835477777, 7653469.655816123820841 ] ] ] } },
{ "type": "Feature", "properties": { "fid": 471.0, "COMPR_M": 170.43, "CLASSE": "02 - Curta", "CD_FAZ": " 400458", "TALHOES": "1", "FAZ_tAL": "400530001, 400458001", "ID_LINHA": 29593 }, "geometry": { "type": "MultiLineString", "coordinates": [ [ [ 414365.516263083496597, 7653640.994346158578992 ], [ 414366.030936783296056, 7653618.064038759097457 ], [ 414365.570170238846913, 7653568.746942532248795 ], [ 414363.50436686037574, 7653519.082106157205999 ], [ 414359.909655272960663, 7653470.800838052295148 ] ] ] } },
{ "type": "Feature", "properties": { "fid": 472.0, "COMPR_M": 170.48, "CLASSE": "02 - Curta", "CD_FAZ": " 400458", "TALHOES": "1", "FAZ_tAL": "400530001, 400458001", "ID_LINHA": 29594 }, "geometry": { "type": "MultiLineString", "coordinates": [ [ [ 414362.488574982970022, 7653642.194273458793759 ], [ 414363.030622253194451, 7653618.044388371519744 ], [ 414362.570752846484538, 7653568.82331458479166 ], [ 414360.50900018872926, 7653519.255863217636943 ], [ 414356.986602709046565, 7653471.945859981700778 ] ] ] } },
{ "type": "Feature", "properties": { "fid": 473.0, "COMPR_M": 170.54, "CLASSE": "02 - Curta", "CD_FAZ": " 400458", "TALHOES": "1", "FAZ_tAL": "400530001, 400458001", "ID_LINHA": 29595 }, "geometry": { "type": "MultiLineString", "coordinates": [ [ [ 414359.460886880580802, 7653643.394200760871172 ], [ 414360.030307731940411, 7653618.024737987667322 ], [ 414359.571335448999889, 7653568.899686637334526 ], [ 414357.513633516326081, 7653519.4296202827245 ], [ 414354.063550146413036, 7653473.090881910175085 ] ] ] } }
]
}
