{
"type": "FeatureCollection",
"name": " 400530",
"crs": { "type": "name", "properties": { "name": "urn:ogc:def:crs:EPSG::32722" } },
"xy_coordinate_resolution": 1e-15,
"features": [
{ "type": "Feature", "properties": { "fid": 31.0, "COMPR_M": 110.02, "CLASSE": "02 - Curta", "CD_FAZ": " 400530", "TALHOES": "3, 2", "FAZ_tAL": "400458003, 400530002", "ID_LINHA": 29154 }, "geometry": { "type": "MultiLineString", "coordinates": [ [ [ 413111.579867136315443, 7654067.312125252559781 ], [ 413116.997709478309844, 7654028.968814545311034 ], [ 413121.7941580908373, 7654000.001450460404158 ], [ 413129.749185559223406, 7653958.86280925385654 ] ] ] } },
{ "type": "Feature", "properties": { "fid": 37.0, "COMPR_M": 75.78, "CLASSE": "01 - Muito curta", "CD_FAZ": " 400530", "TALHOES": "3, 2", "FAZ_tAL": "400458003, 400530002", "ID_LINHA": 29159 }, "geometry": { "type": "MultiLineString", "coordinates": [ [ [ 413087.332065690017771, 7654045.279768153093755 ], [ 413095.202495065692347, 7653995.315136348828673 ], [ 413099.828381325758528, 7653970.567549131810665 ] ] ] } },
{ "type": "Feature", "properties": { "fid": 38.0, "COMPR_M": 81.28, "CLASSE": "01 - Muito curta", "CD_FAZ": " 400530", "TALHOES": "3, 2", "FAZ_tAL": "400458003, 400530002", "ID_LINHA": 29160 }, "geometry": { "type": "MultiLineString", "coordinates": [ [ [ 413089.772540863603354, 7654049.332433450967073 ], [ 413098.157124292629305, 7653995.835837915539742 ], [ 413103.136379386647604, 7653969.197796490974724 ] ] ] } },
{ "type": "Feature", "properties": { "fid": 39.0, "COMPR_M": 85.91, "CLASSE": "01 - Muito curta", "CD_FAZ": " 400530", "TALHOES": "3, 2", "FAZ_tAL": "400458003, 400530002", "ID_LINHA": 29161 }, "geometry": { "type": "MultiLineString", "coordinates": [ [ [ 413092.337224878254347, 7654052.533774990588427 ], [ 413101.111753512755968, 7653996.3565394859761 ], [ 413106.444377451320179, 7653967.828043848276138 ] ] ] } },
{ "type": "Feature", "properties": { "fid": 40.0, "COMPR_M": 89.9, "CLASSE": "01 - Muito curta", "CD_FAZ": " 400530", "TALHOES": "3, 2", "FAZ_tAL": "400458003, 400530002", "ID_LINHA": 29162 }, "geometry": { "type": "MultiLineString", "coordinates": [ [ [ 413094.980312486237381, 7654055.212345228530467 ], [ 413104.066382742661517, 7653996.877241051755846 ], [ 413109.746746786462609, 7653966.572144438512623 ] ] ] } },
{ "type": "Feature", "properties": { "fid": 41.0, "COMPR_M": 93.54, "CLASSE": "01 - Muito curta", "CD_FAZ": " 400530", "TALHOES": "3, 2", "FAZ_tAL": "400458003, 400530002", "ID_LINHA": 29163 }, "geometry": { "type": "MultiLineString", "coordinates": [ [ [ 413097.699583426932804, 7654057.59910739492625 ], [ 413102.175662946596276, 7654026.660632692277431 ], [ 413107.021011961158365, 7653997.397942619398236 ], [ 413113.061513156571891, 7653965.377951093018055 ] ] ] } },
{ "type": "Feature", "properties": { "fid": 42.0, "COMPR_M": 96.96, "CLASSE": "01 - Muito curta", "CD_FAZ": " 400530", "TALHOES": "3, 2", "FAZ_tAL": "400458003, 400530002", "ID_LINHA": 29164 }, "geometry": { "type": "MultiLineString", "coordinates": [ [ [ 413100.445111499459017, 7654059.780495461076498 ], [ 413105.140072253416292, 7654027.122269066050649 ], [ 413109.975641190772876, 7653997.918644187040627 ], [ 413116.376279522723053, 7653964.183757750317454 ] ] ] } },
{ "type": "Feature", "properties": { "fid": 43.0, "COMPR_M": 100.23, "CLASSE": "02 - Curta", "CD_FAZ": " 400530", "TALHOES": "3, 2", "FAZ_tAL": "400458003, 400530002", "ID_LINHA": 29165 }, "geometry": { "type": "MultiLineString", "coordinates": [ [ [ 413103.210749396472238, 7654061.804591602645814 ], [ 413108.104481554939412, 7654027.583905432373285 ], [ 413112.930270413518883, 7653998.439345756545663 ], [ 413119.691045889630914, 7653962.989564405754209 ] ] ] } },
{ "type": "Feature", "properties": { "fid": 44.0, "COMPR_M": 103.53, "CLASSE": "02 - Curta", "CD_FAZ": " 400530", "TALHOES": "3, 2", "FAZ_tAL": "400458003, 400530002", "ID_LINHA": 29166 }, "geometry": { "type": "MultiLineString", "coordinates": [ [ [ 413105.993856020388193, 7654063.692053461447358 ], [ 413111.068890867638402, 7654028.045541802421212 ], [ 413115.884899642085657, 7653998.960047322325408 ], [ 413123.039145158720203, 7653961.636034743860364 ] ] ] } },
{ "type": "Feature", "properties": { "fid": 45.0, "COMPR_M": 106.74, "CLASSE": "02 - Curta", "CD_FAZ": " 400530", "TALHOES": "3, 2", "FAZ_tAL": "400458003, 400530002", "ID_LINHA": 29167 }, "geometry": { "type": "MultiLineString", "coordinates": [ [ [ 413108.791533740586601, 7654065.465545339509845 ], [ 413114.033300173003227, 7654028.507178174331784 ], [ 413118.839528868498746, 7653999.480748889036477 ], [ 413126.394165359204635, 7653960.249421998858452 ] ] ] } },
{ "type": "Feature", "properties": { "fid": 46.0, "COMPR_M": 113.13, "CLASSE": "02 - Curta", "CD_FAZ": " 400530", "TALHOES": "3, 2", "FAZ_tAL": "400458003, 400530002", "ID_LINHA": 29168 }, "geometry": { "type": "MultiLineString", "coordinates": [ [ [ 413114.390810371260159, 7654068.981858940795064 ], [ 413119.962118786934298, 7654029.430450910702348 ], [ 413124.748787314281799, 7654000.522152023389935 ], [ 413133.104205752722919, 7653957.47619650978595 ] ] ] } },
{ "type": "Feature", "properties": { "fid": 47.0, "COMPR_M": 116.2, "CLASSE": "02 - Curta", "CD_FAZ": " 400530", "TALHOES": "3, 2", "FAZ_tAL": "400458003, 400530002", "ID_LINHA": 29169 }, "geometry": { "type": "MultiLineString", "coordinates": [ [ [ 413117.20728746871464, 7654070.60830866638571 ], [ 413122.926528089505155, 7654029.89208727888763 ], [ 413127.703416535572615, 7654001.042853591032326 ], [ 413136.459225945116486, 7653956.089583767578006 ] ] ] } },
{ "type": "Feature", "properties": { "fid": 48.0, "COMPR_M": 119.24, "CLASSE": "02 - Curta", "CD_FAZ": " 400530", "TALHOES": "3, 2", "FAZ_tAL": "400458003, 400530002", "ID_LINHA": 29170 }, "geometry": { "type": "MultiLineString", "coordinates": [ [ [ 413120.026014862931333, 7654072.217157422564924 ], [ 413125.890937394695356, 7654030.353723652660847 ], [ 413130.658045762625989, 7654001.56355515960604 ], [ 413139.814246146241203, 7653954.702971020713449 ] ] ] } },
{ "type": "Feature", "properties": { "fid": 49.0, "COMPR_M": 122.28, "CLASSE": "02 - Curta", "CD_FAZ": " 400530", "TALHOES": "3, 2", "FAZ_tAL": "400458003, 400530002", "ID_LINHA": 29171 }, "geometry": { "type": "MultiLineString", "coordinates": [ [ [ 413122.844742249173578, 7654073.826006182469428 ], [ 413128.85534670308698, 7654030.815360020846128 ], [ 413133.612674988922663, 7654002.084256729111075 ], [ 413143.167628146125935, 7653953.324189119040966 ] ] ] } },
{ "type": "Feature", "properties": { "fid": 50.0, "COMPR_M": 125.32, "CLASSE": "02 - Curta", "CD_FAZ": " 400530", "TALHOES": "3, 2", "FAZ_tAL": "400458003, 400530002", "ID_LINHA": 29172 }, "geometry": { "type": "MultiLineString", "coordinates": [ [ [ 413125.663800177630037, 7654075.432269584387541 ], [ 413131.819756013515871, 7654031.27699638903141 ], [ 413136.567304215044715, 7654002.604958293959498 ], [ 413146.520933317719027, 7653951.94577445089817 ] ] ] } },
{ "type": "Feature", "properties": { "fid": 51.0, "COMPR_M": 128.35, "CLASSE": "02 - Curta", "CD_FAZ": " 400530", "TALHOES": "3, 2", "FAZ_tAL": "400458003, 400530002", "ID_LINHA": 29173 }, "geometry": { "type": "MultiLineString", "coordinates": [ [ [ 413128.483195129956584, 7654077.03589690476656 ], [ 413134.784165319229942, 7654031.738632760941982 ], [ 413139.521933441632427, 7654003.125659863464534 ], [ 413149.874238495016471, 7653950.56735978089273 ] ] ] } },
{ "type": "Feature", "properties": { "fid": 52.0, "COMPR_M": 131.38, "CLASSE": "02 - Curta", "CD_FAZ": " 400530", "TALHOES": "3, 2", "FAZ_tAL": "400458003, 400530002", "ID_LINHA": 29174 }, "geometry": { "type": "MultiLineString", "coordinates": [ [ [ 413131.30259007983841, 7654078.639524228870869 ], [ 413137.748574625526089, 7654032.200269132852554 ], [ 413142.476562666066457, 7654003.64636143296957 ], [ 413153.227543666784186, 7653949.188945114612579 ] ] ] } },
{ "type": "Feature", "properties": { "fid": 53.0, "COMPR_M": 134.42, "CLASSE": "02 - Curta", "CD_FAZ": " 400530", "TALHOES": "3, 2", "FAZ_tAL": "400458003, 400530002", "ID_LINHA": 29175 }, "geometry": { "type": "MultiLineString", "coordinates": [ [ [ 413134.121275789279025, 7654080.24869901034981 ], [ 413140.7129839285044, 7654032.661905501037836 ], [ 413145.431191887706518, 7654004.167062996886671 ], [ 413150.801978605566546, 7653975.434403941035271 ], [ 413156.58084883907577, 7653947.810530447401106 ] ] ] } },
{ "type": "Feature", "properties": { "fid": 54.0, "COMPR_M": 137.52, "CLASSE": "02 - Curta", "CD_FAZ": " 400530", "TALHOES": "3, 2", "FAZ_tAL": "400458003, 400530002", "ID_LINHA": 29176 }, "geometry": { "type": "MultiLineString", "coordinates": [ [ [ 413136.934154334419873, 7654081.903295360505581 ], [ 413143.677393236779608, 7654033.123541874811053 ], [ 413148.385821111267433, 7654004.687764560803771 ], [ 413153.744995366258081, 7653976.017229916527867 ], [ 413159.962674040580168, 7653946.420392295345664 ] ] ] } },
{ "type": "Feature", "properties": { "fid": 55.0, "COMPR_M": 140.58, "CLASSE": "02 - Curta", "CD_FAZ": " 400530", "TALHOES": "3, 2", "FAZ_tAL": "400458003, 400530002", "ID_LINHA": 29177 }, "geometry": { "type": "MultiLineString", "coordinates": [ [ [ 413139.747032885323279, 7654083.557891705073416 ], [ 413146.641802540980279, 7654033.585178242996335 ], [ 413151.340450337855145, 7654005.208466126583517 ], [ 413156.688012129568961, 7653976.600055898539722 ], [ 413163.347636475984473, 7653945.077627812512219 ] ] ] } },
{ "type": "Feature", "properties": { "fid": 56.0, "COMPR_M": 143.62, "CLASSE": "02 - Curta", "CD_FAZ": " 400530", "TALHOES": "3, 2", "FAZ_tAL": "400458003, 400530002", "ID_LINHA": 29178 }, "geometry": { "type": "MultiLineString", "coordinates": [ [ [ 413142.559911432093941, 7654085.212488053366542 ], [ 413149.606211851118132, 7654034.046814608387649 ], [ 413154.295079563045874, 7654005.729167693294585 ], [ 413159.631028890260495, 7653977.182881868444383 ], [ 413166.729296035890002, 7653943.749292220920324 ] ] ] } },
{ "type": "Feature", "properties": { "fid": 57.0, "COMPR_M": 146.65, "CLASSE": "02 - Curta", "CD_FAZ": " 400530", "TALHOES": "3, 2", "FAZ_tAL": "400458003, 400530002", "ID_LINHA": 29179 }, "geometry": { "type": "MultiLineString", "coordinates": [ [ [ 413145.373684004531242, 7654086.860091620124876 ], [ 413152.570621156599373, 7654034.508450979366899 ], [ 413157.249708788003772, 7654006.249869265593588 ], [ 413162.574045648798347, 7653977.765707856975496 ], [ 413170.11095559928799, 7653942.420956627465785 ] ] ] } },
{ "type": "Feature", "properties": { "fid": 58.0, "COMPR_M": 149.68, "CLASSE": "02 - Curta", "CD_FAZ": " 400530", "TALHOES": "3, 2", "FAZ_tAL": "400458003, 400530002", "ID_LINHA": 29180 }, "geometry": { "type": "MultiLineString", "coordinates": [ [ [ 413148.187995234038681, 7654088.503482069820166 ], [ 413155.535030463943258, 7654034.970087351277471 ], [ 413160.204338011506479, 7654006.770570833235979 ], [ 413165.517062409373466, 7653978.34853383153677 ], [ 413173.492615153663792, 7653941.09262103587389 ] ] ] } },
{ "type": "Feature", "properties": { "fid": 59.0, "COMPR_M": 152.71, "CLASSE": "02 - Curta", "CD_FAZ": " 400530", "TALHOES": "3, 2", "FAZ_tAL": "400458003, 400530002", "ID_LINHA": 29181 }, "geometry": { "type": "MultiLineString", "coordinates": [ [ [ 413151.002306455047801, 7654090.146872522309422 ], [ 413158.499439766048454, 7654035.431723721325397 ], [ 413163.158967236871831, 7654007.291272395290434 ], [ 413168.460079172509722, 7653978.931359808892012 ], [ 413176.874274714209605, 7653939.764285447075963 ] ] ] } },
{ "type": "Feature", "properties": { "fid": 60.0, "COMPR_M": 155.75, "CLASSE": "02 - Curta", "CD_FAZ": " 400530", "TALHOES": "3, 2", "FAZ_tAL": "400458003, 400530002", "ID_LINHA": 29182 }, "geometry": { "type": "MultiLineString", "coordinates": [ [ [ 413153.828347016591579, 7654091.7971122097224 ], [ 413161.463849076651968, 7654035.893360091373324 ], [ 413166.113596465380397, 7654007.811973970383406 ], [ 413171.403095933608711, 7653979.514185786247253 ], [ 413180.255934276967309, 7653938.435949854552746 ] ] ] } },
{ "type": "Feature", "properties": { "fid": 61.0, "COMPR_M": 158.78, "CLASSE": "02 - Curta", "CD_FAZ": " 400530", "TALHOES": "3, 2", "FAZ_tAL": "400458003, 400530002", "ID_LINHA": 29183 }, "geometry": { "type": "MultiLineString", "coordinates": [ [ [ 413156.663114890572615, 7654093.446920842863619 ], [ 413160.388368446612731, 7654064.044281516224146 ], [ 413169.068225689115934, 7654008.332675533369184 ], [ 413174.346112691389862, 7653980.09701176546514 ], [ 413183.637593838619068, 7653937.107614263892174 ] ] ] } },
{ "type": "Feature", "properties": { "fid": 62.0, "COMPR_M": 161.81, "CLASSE": "02 - Curta", "CD_FAZ": " 400530", "TALHOES": "3, 2", "FAZ_tAL": "400458003, 400530002", "ID_LINHA": 29184 }, "geometry": { "type": "MultiLineString", "coordinates": [ [ [ 413159.498664491344243, 7654095.089712157845497 ], [ 413163.360775883425958, 7654064.451098928228021 ], [ 413172.022854909359012, 7654008.853377103805542 ], [ 413177.289129455690272, 7653980.679837744683027 ], [ 413187.019253399106674, 7653935.779278671368957 ] ] ] } },
{ "type": "Feature", "properties": { "fid": 63.0, "COMPR_M": 164.83, "CLASSE": "02 - Curta", "CD_FAZ": " 400530", "TALHOES": "3, 2", "FAZ_tAL": "400458003, 400530002", "ID_LINHA": 29185 }, "geometry": { "type": "MultiLineString", "coordinates": [ [ [ 413162.334214095957577, 7654096.732503479346633 ], [ 413166.333183327049483, 7654064.857916336506605 ], [ 413174.9774841380422, 7654009.374078673310578 ], [ 413180.2321462140535, 7653981.262663718312979 ], [ 413190.400912956567481, 7653934.45094308257103 ] ] ] } },
{ "type": "Feature", "properties": { "fid": 64.0, "COMPR_M": 167.88, "CLASSE": "02 - Curta", "CD_FAZ": " 400530", "TALHOES": "3, 2", "FAZ_tAL": "400458003, 400530002", "ID_LINHA": 29186 }, "geometry": { "type": "MultiLineString", "coordinates": [ [ [ 413165.17212628829293, 7654098.354086769744754 ], [ 413169.305590764852241, 7654065.264733742922544 ], [ 413177.932113363989629, 7654009.894780239090323 ], [ 413183.175162978295702, 7653981.845489694736898 ], [ 413193.791319204843603, 7653933.084396838210523 ] ] ] } },
{ "type": "Feature", "properties": { "fid": 65.0, "COMPR_M": 170.88, "CLASSE": "02 - Curta", "CD_FAZ": " 400530", "TALHOES": "3, 2", "FAZ_tAL": "400458003, 400530002", "ID_LINHA": 29187 }, "geometry": { "type": "MultiLineString", "coordinates": [ [ [ 413168.015691830776632, 7654099.924922183156013 ], [ 413172.277998203411698, 7654065.671551150269806 ], [ 413180.886742588365451, 7654010.415481805801392 ], [ 413186.118179739860352, 7653982.42831567581743 ], [ 413197.182773451262619, 7653931.713272329419851 ] ] ] } },
{ "type": "Feature", "properties": { "fid": 66.0, "COMPR_M": 173.88, "CLASSE": "02 - Curta", "CD_FAZ": " 400530", "TALHOES": "3, 2", "FAZ_tAL": "400458003, 400530002", "ID_LINHA": 29188 }, "geometry": { "type": "MultiLineString", "coordinates": [ [ [ 413170.859257377393078, 7654101.495757598429918 ], [ 413175.250405638187658, 7654066.078368563205004 ], [ 413183.841371813323349, 7654010.936183374375105 ], [ 413189.06119650072651, 7653983.01114165596664 ], [ 413200.574227696692105, 7653930.342147823423147 ] ] ] } },
{ "type": "Feature", "properties": { "fid": 67.0, "COMPR_M": 176.88, "CLASSE": "02 - Curta", "CD_FAZ": " 400530", "TALHOES": "3, 2", "FAZ_tAL": "400458003, 400530002", "ID_LINHA": 29189 }, "geometry": { "type": "MultiLineString", "coordinates": [ [ [ 413173.702822923543863, 7654103.066593017429113 ], [ 413178.222813077620231, 7654066.485185975208879 ], [ 413186.796001036826055, 7654011.456884938292205 ], [ 413192.004213262815028, 7653983.593967633321881 ], [ 413203.975004157749936, 7653928.96725445613265 ] ] ] } },
{ "type": "Feature", "properties": { "fid": 68.0, "COMPR_M": 179.9, "CLASSE": "02 - Curta", "CD_FAZ": " 400530", "TALHOES": "3, 2", "FAZ_tAL": "400458003, 400530002", "ID_LINHA": 29190 }, "geometry": { "type": "MultiLineString", "coordinates": [ [ [ 413176.546388465387281, 7654104.637428432703018 ], [ 413181.195220519322902, 7654066.892003379762173 ], [ 413189.750630263471976, 7654011.977586505003273 ], [ 413194.947230019723065, 7653984.176793606951833 ], [ 413207.403258343809284, 7653927.581252170726657 ] ] ] } },
{ "type": "Feature", "properties": { "fid": 69.0, "COMPR_M": 182.92, "CLASSE": "02 - Curta", "CD_FAZ": " 400530", "TALHOES": "3, 2", "FAZ_tAL": "400458003, 400530002", "ID_LINHA": 29191 }, "geometry": { "type": "MultiLineString", "coordinates": [ [ [ 413179.389954010082874, 7654106.208263851702213 ], [ 413184.1676279543899, 7654067.298820795491338 ], [ 413192.705259487265721, 7654012.498288077302277 ], [ 413197.890246785071213, 7653984.75961958616972 ], [ 413203.619762556394562, 7653957.371667888015509 ], [ 413210.831512535107322, 7653926.195249882526696 ] ] ] } },
{ "type": "Feature", "properties": { "fid": 70.0, "COMPR_M": 185.91, "CLASSE": "02 - Curta", "CD_FAZ": " 400530", "TALHOES": "3, 2", "FAZ_tAL": "400458003, 400530002", "ID_LINHA": 29192 }, "geometry": { "type": "MultiLineString", "coordinates": [ [ [ 413182.233519555011299, 7654107.779099266976118 ], [ 413187.140035391668789, 7654067.705638201907277 ], [ 413195.659888707683422, 7654013.018989643082023 ], [ 413200.833263547101524, 7653985.342445563524961 ], [ 413206.550419268896803, 7653958.013576753437519 ], [ 413214.252225417410955, 7653924.840030930936337 ] ] ] } },
{ "type": "Feature", "properties": { "fid": 71.0, "COMPR_M": 188.85, "CLASSE": "02 - Curta", "CD_FAZ": " 400530", "TALHOES": "3, 2", "FAZ_tAL": "400458003, 400530002", "ID_LINHA": 29193 }, "geometry": { "type": "MultiLineString", "coordinates": [ [ [ 413185.077085100812837, 7654109.349934684112668 ], [ 413190.112442836340051, 7654068.112455609254539 ], [ 413198.614517935202457, 7654013.539691208861768 ], [ 413209.481075986172073, 7653958.655485619790852 ], [ 413217.660954308579676, 7653923.533730216324329 ] ] ] } },
{ "type": "Feature", "properties": { "fid": 72.0, "COMPR_M": 188.4, "CLASSE": "02 - Curta", "CD_FAZ": " 400530", "TALHOES": "3, 2", "FAZ_tAL": "400458003, 400530002", "ID_LINHA": 29194 }, "geometry": { "type": "MultiLineString", "coordinates": [ [ [ 413188.296405550383497, 7654107.547768630087376 ], [ 413193.084850269951858, 7654068.519273016601801 ], [ 413201.569147162605077, 7654014.060392778366804 ], [ 413212.411732704145834, 7653959.297394478693604 ], [ 413221.069683200097643, 7653922.227429500781 ] ] ] } },
{ "type": "Feature", "properties": { "fid": 73.0, "COMPR_M": 188.49, "CLASSE": "02 - Curta", "CD_FAZ": " 400530", "TALHOES": "3, 2", "FAZ_tAL": "400458003, 400530002, 400028003", "ID_LINHA": 29195 }, "geometry": { "type": "MultiLineString", "coordinates": [ [ [ 413191.454388690413907, 7654106.296203060075641 ], [ 413196.057257709500846, 7654068.926090434193611 ], [ 413204.523776388494298, 7654014.581094346009195 ], [ 413215.34238942025695, 7653959.93930334225297 ], [ 413224.478412088647019, 7653920.921128787100315 ] ] ] } },
{ "type": "Feature", "properties": { "fid": 74.0, "COMPR_M": 188.59, "CLASSE": "02 - Curta", "CD_FAZ": " 400530", "TALHOES": "3, 2", "FAZ_tAL": "400458003, 400530002, 400028003", "ID_LINHA": 29196 }, "geometry": { "type": "MultiLineString", "coordinates": [ [ [ 413194.612371832539793, 7654105.044637490063906 ], [ 413199.029665150679648, 7654069.332907835021615 ], [ 413207.478405608970206, 7654015.101795915514231 ], [ 413218.273046133166645, 7653960.58121220767498 ], [ 413227.887140979524702, 7653919.614828074350953 ] ] ] } },
{ "type": "Feature", "properties": { "fid": 75.0, "COMPR_M": 188.69, "CLASSE": "02 - Curta", "CD_FAZ": " 400530", "TALHOES": "3, 2", "FAZ_tAL": "400458003, 400530002, 400028003", "ID_LINHA": 29197 }, "geometry": { "type": "MultiLineString", "coordinates": [ [ [ 413197.770354971464258, 7654103.793071920052171 ], [ 413202.002072589239106, 7654069.73972525075078 ], [ 413210.433034835907165, 7654015.622497482225299 ], [ 413221.203702848870307, 7653961.223121068440378 ], [ 413231.295869868830778, 7653918.308527358807623 ] ] ] } },
{ "type": "Feature", "properties": { "fid": 76.0, "COMPR_M": 188.79, "CLASSE": "02 - Curta", "CD_FAZ": " 400530", "TALHOES": "3, 2", "FAZ_tAL": "400458003, 400530002, 400028003", "ID_LINHA": 29198 }, "geometry": { "type": "MultiLineString", "coordinates": [ [ [ 413200.928338109923061, 7654102.541506350040436 ], [ 413204.974480027274694, 7654070.14654266089201 ], [ 413213.387664057430811, 7654016.143199047073722 ], [ 413224.134359565912746, 7653961.86502993106842 ], [ 413234.70459876244422, 7653917.002226643264294 ] ] ] } },
{ "type": "Feature", "properties": { "fid": 77.0, "COMPR_M": 188.89, "CLASSE": "02 - Curta", "CD_FAZ": " 400530", "TALHOES": "3, 2", "FAZ_tAL": "400458003, 400530002, 400028003", "ID_LINHA": 29199 }, "geometry": { "type": "MultiLineString", "coordinates": [ [ [ 413204.08632124972064, 7654101.289940780028701 ], [ 413207.946887466183398, 7654070.553360067307949 ], [ 413216.342293286754284, 7654016.663900615647435 ], [ 413227.0650162830716, 7653962.506938797421753 ], [ 413238.113327654369641, 7653915.695925930514932 ] ] ] } },
{ "type": "Feature", "properties": { "fid": 78.0, "COMPR_M": 188.99, "CLASSE": "02 - Curta", "CD_FAZ": " 400530", "TALHOES": "3, 2", "FAZ_tAL": "400458003, 400530002, 400028003", "ID_LINHA": 29200 }, "geometry": { "type": "MultiLineString", "coordinates": [ [ [ 413207.244304389692843, 7654100.038375210016966 ], [ 413210.919294903869741, 7654070.960177475586534 ], [ 413219.296922511945013, 7654017.184602180495858 ], [ 413229.995672996388748, 7653963.148847658187151 ], [ 413241.522225292166695, 7653914.388936394825578 ] ] ] } },
{ "type": "Feature", "properties": { "fid": 79.0, "COMPR_M": 189.11, "CLASSE": "02 - Curta", "CD_FAZ": " 400530", "TALHOES": "3, 2", "FAZ_tAL": "400458003, 400530002, 400028003", "ID_LINHA": 29201 }, "geometry": { "type": "MultiLineString", "coordinates": [ [ [ 413210.402287531760521, 7654098.786809640005231 ], [ 413217.787625896977261, 7654044.664451116696 ], [ 413222.25155173370149, 7654017.705303750000894 ], [ 413232.926329714420717, 7653963.790756518952549 ], [ 413244.937413276464213, 7653913.056269891560078 ] ] ] } },
{ "type": "Feature", "properties": { "fid": 80.0, "COMPR_M": 189.25, "CLASSE": "02 - Curta", "CD_FAZ": " 400530", "TALHOES": "3, 2", "FAZ_tAL": "400458003, 400530002, 400028003", "ID_LINHA": 29202 }, "geometry": { "type": "MultiLineString", "coordinates": [ [ [ 413213.571049580583349, 7654097.530972193926573 ], [ 413220.752035205019638, 7654045.126087488606572 ], [ 413230.263431160070468, 7653991.17070534080267 ], [ 413235.856986433209386, 7653964.432665383443236 ], [ 413248.375829947297461, 7653911.714539147913456 ] ] ] } },
{ "type": "Feature", "properties": { "fid": 81.0, "COMPR_M": 189.38, "CLASSE": "02 - Curta", "CD_FAZ": " 400530", "TALHOES": "3, 2", "FAZ_tAL": "400458003, 400530002, 400028003", "ID_LINHA": 29203 }, "geometry": { "type": "MultiLineString", "coordinates": [ [ [ 413216.756893436191604, 7654096.268364920280874 ], [ 413223.716444510500878, 7654045.587723856791854 ], [ 413233.206447918433696, 7653991.753531318157911 ], [ 413238.787643143499736, 7653965.074574247002602 ], [ 413251.81940646469593, 7653910.370794938877225 ] ] ] } },
{ "type": "Feature", "properties": { "fid": 82.0, "COMPR_M": 189.51, "CLASSE": "02 - Curta", "CD_FAZ": " 400530", "TALHOES": "3, 2", "FAZ_tAL": "400458003, 400530002, 400028003", "ID_LINHA": 29204 }, "geometry": { "type": "MultiLineString", "coordinates": [ [ [ 413219.942737296165433, 7654095.00575764477253 ], [ 413226.680853818543255, 7654046.049360224977136 ], [ 413236.149464682035614, 7653992.336357299238443 ], [ 413247.635093559802044, 7653939.868464375846088 ], [ 413255.262982988497242, 7653909.027050729840994 ] ] ] } },
{ "type": "Feature", "properties": { "fid": 83.0, "COMPR_M": 189.63, "CLASSE": "02 - Curta", "CD_FAZ": " 400530", "TALHOES": "3, 2", "FAZ_tAL": "400458003, 400530002, 400028003", "ID_LINHA": 29205 }, "geometry": { "type": "MultiLineString", "coordinates": [ [ [ 413223.128581155906431, 7654093.743150371126831 ], [ 413229.645263125887141, 7654046.510996596887708 ], [ 413239.092481441679411, 7653992.919183276593685 ], [ 413250.554361986753065, 7653940.560123936273158 ], [ 413258.706559510144871, 7653907.683306520804763 ] ] ] } },
{ "type": "Feature", "properties": { "fid": 84.0, "COMPR_M": 189.76, "CLASSE": "02 - Curta", "CD_FAZ": " 400530", "TALHOES": "3, 2", "FAZ_tAL": "400458003, 400530002, 400028003", "ID_LINHA": 29206 }, "geometry": { "type": "MultiLineString", "coordinates": [ [ [ 413226.314425015472807, 7654092.480543093755841 ], [ 413232.609672433231026, 7654046.972632967866957 ], [ 413242.03549820324406, 7653993.50200925488025 ], [ 413253.473630414402578, 7653941.251783503219485 ], [ 413262.150136033131275, 7653906.339562309905887 ] ] ] } },
{ "type": "Feature", "properties": { "fid": 85.0, "COMPR_M": 189.91, "CLASSE": "02 - Curta", "CD_FAZ": " 400530", "TALHOES": "3, 2", "FAZ_tAL": "400458003, 400530002, 400028003", "ID_LINHA": 29207 }, "geometry": { "type": "MultiLineString", "coordinates": [ [ [ 413229.500268869451247, 7654091.21793582290411 ], [ 413235.574081739294343, 7654047.434269336983562 ], [ 413244.978514966089278, 7653994.084835229441524 ], [ 413256.392898846766911, 7653941.943443068303168 ], [ 413265.598097425303422, 7653904.978779958561063 ] ] ] } },
{ "type": "Feature", "properties": { "fid": 86.0, "COMPR_M": 190.08, "CLASSE": "02 - Curta", "CD_FAZ": " 400530", "TALHOES": "3, 2", "FAZ_tAL": "400458003, 400530002, 400028003", "ID_LINHA": 29208 }, "geometry": { "type": "MultiLineString", "coordinates": [ [ [ 413232.686112734489143, 7654089.955328545533121 ], [ 413238.538491045241244, 7654047.895905703306198 ], [ 413247.921531728236005, 7653994.667661212384701 ], [ 413259.312167278607376, 7653942.635102636180818 ], [ 413269.051894874428399, 7653903.595320634543896 ] ] ] } },
{ "type": "Feature", "properties": { "fid": 87.0, "COMPR_M": 190.25, "CLASSE": "02 - Curta", "CD_FAZ": " 400530", "TALHOES": "3, 2", "FAZ_tAL": "400458003, 400530002, 400028003", "ID_LINHA": 29209 }, "geometry": { "type": "MultiLineString", "coordinates": [ [ [ 413235.871956590621267, 7654088.692721272818744 ], [ 413241.502900351246353, 7654048.357542073354125 ], [ 413250.864548486482818, 7653995.250487186014652 ], [ 413262.231435708526988, 7653943.326762201264501 ], [ 413272.505692330829334, 7653902.211861306801438 ] ] ] } },
{ "type": "Feature", "properties": { "fid": 88.0, "COMPR_M": 190.42, "CLASSE": "02 - Curta", "CD_FAZ": " 400530", "TALHOES": "3, 2", "FAZ_tAL": "400458003, 400530002, 400028003", "ID_LINHA": 29210 }, "geometry": { "type": "MultiLineString", "coordinates": [ [ [ 413239.057800446578767, 7654087.430113999173045 ], [ 413244.467309657833539, 7654048.81917844992131 ], [ 413253.807565251889173, 7653995.833313161507249 ], [ 413265.150704138563015, 7653944.018421766348183 ], [ 413275.95948978344677, 7653900.828401982784271 ] ] ] } },
{ "type": "Feature", "properties": { "fid": 89.0, "COMPR_M": 190.59, "CLASSE": "02 - Curta", "CD_FAZ": " 400530", "TALHOES": "3, 2", "FAZ_tAL": "400458003, 400530002, 400028003", "ID_LINHA": 29211 }, "geometry": { "type": "MultiLineString", "coordinates": [ [ [ 413242.243644306901842, 7654086.167506723664701 ], [ 413247.431718965759501, 7654049.280814817175269 ], [ 413256.750582006701734, 7653996.416139142587781 ], [ 413268.069972567376681, 7653944.710081328637898 ], [ 413279.413287239440251, 7653899.444942656904459 ] ] ] } },
{ "type": "Feature", "properties": { "fid": 90.0, "COMPR_M": 190.76, "CLASSE": "02 - Curta", "CD_FAZ": " 400530", "TALHOES": "3, 2", "FAZ_tAL": "400458003, 400530002, 400028003", "ID_LINHA": 29212 }, "geometry": { "type": "MultiLineString", "coordinates": [ [ [ 413245.429488163092174, 7654084.904899450019002 ], [ 413250.396128269087058, 7654049.742451188154519 ], [ 413259.693598770129029, 7653996.998965123668313 ], [ 413270.989240994967986, 7653945.401740894652903 ], [ 413282.867084688972682, 7653898.061483331024647 ] ] ] } },
{ "type": "Feature", "properties": { "fid": 91.0, "COMPR_M": 190.9, "CLASSE": "02 - Curta", "CD_FAZ": " 400530", "TALHOES": "3, 2", "FAZ_tAL": "400458003, 400530002, 400028003", "ID_LINHA": 29213 }, "geometry": { "type": "MultiLineString", "coordinates": [ [ [ 413248.615332023589872, 7654083.642292174510658 ], [ 413253.360537577653304, 7654050.204087555408478 ], [ 413262.636615532857832, 7653997.58179109916091 ], [ 413273.908509422675706, 7653946.093400461599231 ], [ 413286.319734227494337, 7653896.710375294089317 ] ] ] } },
{ "type": "Feature", "properties": { "fid": 92.0, "COMPR_M": 191.02, "CLASSE": "02 - Curta", "CD_FAZ": " 400530", "TALHOES": "3, 2", "FAZ_tAL": "400458003, 400530002, 400028003", "ID_LINHA": 29214 }, "geometry": { "type": "MultiLineString", "coordinates": [ [ [ 413251.801175879314542, 7654082.379684901796281 ], [ 413256.324946882901713, 7654050.665723924525082 ], [ 413265.579632294247858, 7653998.164617075584829 ], [ 413276.827777855098248, 7653946.785060027614236 ], [ 413289.777183178579435, 7653895.382735850289464 ] ] ] } },
{ "type": "Feature", "properties": { "fid": 93.0, "COMPR_M": 191.13, "CLASSE": "02 - Curta", "CD_FAZ": " 400530", "TALHOES": "3, 2", "FAZ_tAL": "400458003, 400530002", "ID_LINHA": 29215 }, "geometry": { "type": "MultiLineString", "coordinates": [ [ [ 413254.987019741325639, 7654081.117077628150582 ], [ 413259.289356189488899, 7654051.127360293641686 ], [ 413268.522649054299109, 7653998.747443051077425 ], [ 413279.747046286938712, 7653947.476719596423209 ], [ 413293.234632129780948, 7653894.055096408352256 ] ] ] } },
{ "type": "Feature", "properties": { "fid": 94.0, "COMPR_M": 191.25, "CLASSE": "02 - Curta", "CD_FAZ": " 400530", "TALHOES": "3, 2", "FAZ_tAL": "400458003, 400530002", "ID_LINHA": 29216 }, "geometry": { "type": "MultiLineString", "coordinates": [ [ [ 413258.172863597923424, 7654079.854470352642238 ], [ 413262.253765497414861, 7654051.588996659964323 ], [ 413271.465665812953375, 7653999.33026903308928 ], [ 413282.666314712318126, 7653948.168379151262343 ], [ 413296.692081080924254, 7653892.727456964552402 ] ] ] } },
{ "type": "Feature", "properties": { "fid": 95.0, "COMPR_M": 191.37, "CLASSE": "02 - Curta", "CD_FAZ": " 400530", "TALHOES": "3, 2", "FAZ_tAL": "400458003, 400530002", "ID_LINHA": 29217 }, "geometry": { "type": "MultiLineString", "coordinates": [ [ [ 413261.358707456209231, 7654078.591863078996539 ], [ 413269.525619331630878, 7654026.036528829485178 ], [ 413274.408682575565763, 7653999.913095015101135 ], [ 413285.585583141772076, 7653948.860038720071316 ], [ 413300.149530032766052, 7653891.399817522615194 ] ] ] } },
{ "type": "Feature", "properties": { "fid": 96.0, "COMPR_M": 191.47, "CLASSE": "02 - Curta", "CD_FAZ": " 400530", "TALHOES": "3, 2", "FAZ_tAL": "400458003, 400530002", "ID_LINHA": 29218 }, "geometry": { "type": "MultiLineString", "coordinates": [ [ [ 413264.562821391271427, 7654077.322015043348074 ], [ 413272.480248558393214, 7654026.557230392470956 ], [ 413277.351699337479658, 7654000.495920989662409 ], [ 413288.504851571924519, 7653949.551698285154998 ], [ 413303.606978985364549, 7653890.072178077884018 ] ] ] } },
{ "type": "Feature", "properties": { "fid": 97.0, "COMPR_M": 191.57, "CLASSE": "02 - Curta", "CD_FAZ": " 400530", "TALHOES": "3, 2", "FAZ_tAL": "400458003, 400530002", "ID_LINHA": 29219 }, "geometry": { "type": "MultiLineString", "coordinates": [ [ [ 413267.780648672371171, 7654076.046732164919376 ], [ 413275.434877779800445, 7654027.077931957319379 ], [ 413285.678150604828261, 7653975.345116056501865 ], [ 413297.403560723352712, 7653925.835492466576397 ], [ 413307.064427940640599, 7653888.744538635015488 ] ] ] } }
]
}
