{
"type": "FeatureCollection",
"name": " 400457",
"crs": { "type": "name", "properties": { "name": "urn:ogc:def:crs:EPSG::32722" } },
"xy_coordinate_resolution": 1e-15,
"features": [
{ "type": "Feature", "properties": { "fid": 130.0, "COMPR_M": 35.66, "CLASSE": "01 - Muito curta", "CD_FAZ": " 400457", "TALHOES": "3", "FAZ_tAL": "400458003, 400457003", "ID_LINHA": 129373 }, "geometry": { "type": "MultiLineString", "coordinates": [ [ [ 413153.310529853391927, 7653520.603740924037993 ], [ 413149.595073390053585, 7653509.038216479122639 ], [ 413141.449814879451878, 7653486.991040304303169 ] ] ] } },
{ "type": "Feature", "properties": { "fid": 23.0, "COMPR_M": 424.51, "CLASSE": "03 - Média", "CD_FAZ": " 400457", "TALHOES": "2, 4", "FAZ_tAL": "400458002, 400457004", "ID_LINHA": 129825 }, "geometry": { "type": "MultiLineString", "coordinates": [ [ [ 412924.379380958154798, 7654041.163027646020055 ], [ 412920.20922142395284, 7653926.209378942847252 ], [ 412912.741799647163134, 7653742.960502597503364 ], [ 412911.37082867056597, 7653693.846382791176438 ], [ 412910.057805836782791, 7653617.042065819725394 ] ] ] } },
{ "type": "Feature", "properties": { "fid": 24.0, "COMPR_M": 424.79, "CLASSE": "03 - Média", "CD_FAZ": " 400457", "TALHOES": "2, 4", "FAZ_tAL": "400458002, 400457004", "ID_LINHA": 129826 }, "geometry": { "type": "MultiLineString", "coordinates": [ [ [ 412921.427333509898745, 7654042.621490241028368 ], [ 412917.211450152855832, 7653926.324996465817094 ], [ 412909.743498705793172, 7653743.061579681932926 ], [ 412908.371498588239774, 7653693.91015874966979 ], [ 412907.080791284097359, 7653618.22231281362474 ] ] ] } },
{ "type": "Feature", "properties": { "fid": 25.0, "COMPR_M": 424.89, "CLASSE": "03 - Média", "CD_FAZ": " 400457", "TALHOES": "2, 4", "FAZ_tAL": "400458002, 400457004", "ID_LINHA": 129827 }, "geometry": { "type": "MultiLineString", "coordinates": [ [ [ 412918.469104104093276, 7654043.901360860094428 ], [ 412914.213678881758824, 7653926.440613994374871 ], [ 412906.745197762560565, 7653743.162656762637198 ], [ 412905.372168499045074, 7653693.973934710025787 ], [ 412904.103776729200035, 7653619.402559808455408 ] ] ] } },
{ "type": "Feature", "properties": { "fid": 26.0, "COMPR_M": 424.94, "CLASSE": "03 - Média", "CD_FAZ": " 400457", "TALHOES": "2, 4", "FAZ_tAL": "400458002, 400457004", "ID_LINHA": 129828 }, "geometry": { "type": "MultiLineString", "coordinates": [ [ [ 412915.508751018962357, 7654045.136937763541937 ], [ 412911.215907611418515, 7653926.556231517344713 ], [ 412903.746896818047389, 7653743.263733849860728 ], [ 412902.37283841293538, 7653694.037710674107075 ], [ 412901.126762173429597, 7653620.582806807011366 ] ] ] } },
{ "type": "Feature", "properties": { "fid": 27.0, "COMPR_M": 424.98, "CLASSE": "03 - Média", "CD_FAZ": " 400457", "TALHOES": "2, 4", "FAZ_tAL": "400458002, 400457004", "ID_LINHA": 129829 }, "geometry": { "type": "MultiLineString", "coordinates": [ [ [ 412912.547580907354131, 7654046.348084178753197 ], [ 412908.218136341776699, 7653926.671849040314555 ], [ 412900.748595877550542, 7653743.364810932427645 ], [ 412899.373508327233139, 7653694.101486636325717 ], [ 412898.149747618183028, 7653621.763053804636002 ] ] ] } },
{ "type": "Feature", "properties": { "fid": 28.0, "COMPR_M": 424.99, "CLASSE": "03 - Média", "CD_FAZ": " 400457", "TALHOES": "2, 4", "FAZ_tAL": "400458002, 400457004", "ID_LINHA": 129830 }, "geometry": { "type": "MultiLineString", "coordinates": [ [ [ 412909.585721117502544, 7654047.538607276976109 ], [ 412905.220365072251298, 7653926.787466559559107 ], [ 412897.750294933153782, 7653743.465888015925884 ], [ 412896.374178239959292, 7653694.165262598544359 ], [ 412895.172733069397509, 7653622.943300798535347 ] ] ] } },
{ "type": "Feature", "properties": { "fid": 29.0, "COMPR_M": 424.98, "CLASSE": "03 - Média", "CD_FAZ": " 400457", "TALHOES": "2, 4", "FAZ_tAL": "400458002, 400457004", "ID_LINHA": 129831 }, "geometry": { "type": "MultiLineString", "coordinates": [ [ [ 412906.623324409709312, 7654048.713074861094356 ], [ 412902.222593800048344, 7653926.903084089979529 ], [ 412894.751993991434574, 7653743.566965100355446 ], [ 412893.374848149134777, 7653694.229038562625647 ], [ 412892.195718511706218, 7653624.123547794297338 ] ] ] } },
{ "type": "Feature", "properties": { "fid": 30.0, "COMPR_M": 424.96, "CLASSE": "03 - Média", "CD_FAZ": " 400457", "TALHOES": "2, 4", "FAZ_tAL": "400458002, 400457004", "ID_LINHA": 129832 }, "geometry": { "type": "MultiLineString", "coordinates": [ [ [ 412903.660575133864768, 7654049.876998879946768 ], [ 412899.224822533258703, 7653927.018701610155404 ], [ 412891.753693046513945, 7653743.668042182922363 ], [ 412890.375518065993674, 7653694.292814522981644 ], [ 412889.218703957216348, 7653625.303794790059328 ] ] ] } }
]
}
