{
"type": "FeatureCollection",
"name": " 403973",
"crs": { "type": "name", "properties": { "name": "urn:ogc:def:crs:EPSG::32722" } },
"xy_coordinate_resolution": 1e-15,
"features": [
{ "type": "Feature", "properties": { "fid": 117.0, "COMPR_M": 689.28, "CLASSE": "04 - Longa", "CD_FAZ": " 403973", "TALHOES": "2, 1", "FAZ_tAL": "403971002, 403973001", "ID_LINHA": 241237 }, "geometry": { "type": "MultiLineString", "coordinates": [ [ [ 416095.234288483741693, 7621735.766360314562917 ], [ 416091.749782335187774, 7621695.182967061176896 ], [ 416090.113330933265388, 7621655.539745656773448 ], [ 416090.063241091847885, 7621617.718930879607797 ], [ 416091.307413821981754, 7621581.397410878911614 ], [ 416093.760806927806698, 7621544.932921804487705 ], [ 416097.731365717540029, 7621506.811868779361248 ], [ 416103.400634909863584, 7621468.046464429236948 ], [ 416110.400625951588154, 7621430.817612841725349 ], [ 416118.26746804418508, 7621395.821664658375084 ], [ 416126.966739859082736, 7621362.064823862165213 ], [ 416136.657331387395971, 7621328.706710348837078 ], [ 416147.395262341364287, 7621295.556355819106102 ], [ 416159.424482113507111, 7621262.006237467750907 ], [ 416173.184807887300849, 7621227.409008022397757 ], [ 416188.674911165377125, 7621192.451034424826503 ], [ 416205.155249212286435, 7621158.863391472026706 ], [ 416221.993728390370961, 7621127.355798952281475 ], [ 416239.534435242123436, 7621096.850581986829638 ], [ 416251.534594273893163, 7621077.450125486589968 ] ] ] } },
{ "type": "Feature", "properties": { "fid": 118.0, "COMPR_M": 687.52, "CLASSE": "04 - Longa", "CD_FAZ": " 403973", "TALHOES": "2, 1", "FAZ_tAL": "403971002, 403973001", "ID_LINHA": 241238 }, "geometry": { "type": "MultiLineString", "coordinates": [ [ [ 416091.779996090743225, 7621730.603855630382895 ], [ 416088.755082037241664, 7621695.373245800845325 ], [ 416087.113412903971039, 7621655.603624241426587 ], [ 416087.063173061178531, 7621617.669550346210599 ], [ 416088.31086396612227, 7621581.245323206298053 ], [ 416090.77126024197787, 7621544.676746861077845 ], [ 416094.753946882206947, 7621506.439255179837346 ], [ 416100.4410334363929, 7621467.552019046619534 ], [ 416107.462065475760028, 7621430.211262715049088 ], [ 416115.350740762136411, 7621395.118188722990453 ], [ 416124.073073956998996, 7621361.271860063076019 ], [ 416133.789207750756759, 7621327.825821912847459 ], [ 416144.555589578812942, 7621294.587633274495602 ], [ 416156.617869062407408, 7621260.945309672504663 ], [ 416170.418578525015619, 7621226.246544566005468 ], [ 416185.955846916185692, 7621191.182129023596644 ], [ 416202.484888374397997, 7621157.49522640183568 ], [ 416219.369812442047987, 7621125.900727776810527 ], [ 416236.95773399877362, 7621095.313399249687791 ], [ 416249.907805719762109, 7621074.377234794199467 ] ] ] } },
{ "type": "Feature", "properties": { "fid": 119.0, "COMPR_M": 685.76, "CLASSE": "04 - Longa", "CD_FAZ": " 403973", "TALHOES": "2, 1", "FAZ_tAL": "403971002, 403973001", "ID_LINHA": 241239 }, "geometry": { "type": "MultiLineString", "coordinates": [ [ [ 416088.325703697220888, 7621725.441350942477584 ], [ 416085.7603817388881, 7621695.563524543307722 ], [ 416084.113494872697629, 7621655.667502824217081 ], [ 416084.063105030276347, 7621617.620169812813401 ], [ 416085.314314108574763, 7621581.093235533684492 ], [ 416087.781713552190922, 7621544.42057191580534 ], [ 416091.776528048154432, 7621506.066641583107412 ], [ 416097.481431962398347, 7621467.057573664933443 ], [ 416104.523504999931902, 7621429.604912593960762 ], [ 416112.434013482474256, 7621394.41471279412508 ], [ 416121.179408055730164, 7621360.478896264918149 ], [ 416130.921084112778772, 7621326.944933477789164 ], [ 416141.715916815854143, 7621293.618910729885101 ], [ 416153.811256010900252, 7621259.884381878189743 ], [ 416167.65234916342888, 7621225.08408110961318 ], [ 416183.23678266571369, 7621189.913223620504141 ], [ 416199.814527538139373, 7621156.127061335369945 ], [ 416216.745896495820489, 7621124.445656603202224 ], [ 416234.381032758043148, 7621093.776216518133879 ], [ 416248.281017165107187, 7621071.304344097152352 ] ] ] } },
{ "type": "Feature", "properties": { "fid": 120.0, "COMPR_M": 683.99, "CLASSE": "04 - Longa", "CD_FAZ": " 403973", "TALHOES": "2, 1", "FAZ_tAL": "403971002, 403973001", "ID_LINHA": 241240 }, "geometry": { "type": "MultiLineString", "coordinates": [ [ [ 416084.871411302534398, 7621720.278846258297563 ], [ 416082.76568143942859, 7621695.753803282044828 ], [ 416081.113576842704788, 7621655.73138140887022 ], [ 416081.063036999839824, 7621617.570789277553558 ], [ 416082.31776425143471, 7621580.941147862002254 ], [ 416084.792166866362095, 7621544.164396971464157 ], [ 416088.799109213403426, 7621505.694027988240123 ], [ 416094.521830487181433, 7621466.563128283247352 ], [ 416101.584944524685852, 7621428.998562468215823 ], [ 416109.517286201938987, 7621393.711236858740449 ], [ 416118.28574215399567, 7621359.68593246396631 ], [ 416128.052960475441068, 7621326.0640450399369 ], [ 416138.876244052487891, 7621292.650188185274601 ], [ 416151.004642959043849, 7621258.823454083874822 ], [ 416164.886119801783934, 7621223.921617653220892 ], [ 416180.517718416638672, 7621188.644318221136928 ], [ 416197.144166701415088, 7621154.758896268904209 ], [ 416214.121980547788553, 7621122.990585429593921 ], [ 416231.804331515450031, 7621092.239033780992031 ], [ 416246.654228609346319, 7621068.231453399173915 ] ] ] } },
{ "type": "Feature", "properties": { "fid": 121.0, "COMPR_M": 682.23, "CLASSE": "04 - Longa", "CD_FAZ": " 403973", "TALHOES": "2, 1", "FAZ_tAL": "403971002, 403973001", "ID_LINHA": 241241 }, "geometry": { "type": "MultiLineString", "coordinates": [ [ [ 416081.417118908662815, 7621715.116341572254896 ], [ 416079.770981142879464, 7621695.944082023575902 ], [ 416078.113658811431378, 7621655.795259989798069 ], [ 416078.062968967889901, 7621617.521408744156361 ], [ 416079.321214395284187, 7621580.78906018845737 ], [ 416081.80262017797213, 7621543.908222025260329 ], [ 416085.821690378710628, 7621505.321414390578866 ], [ 416091.56222901417641, 7621466.06868290156126 ], [ 416098.646384048799518, 7621428.392212344333529 ], [ 416106.600558922509663, 7621393.007760928943753 ], [ 416115.392076252494007, 7621358.892968666739762 ], [ 416125.184836837463081, 7621325.183156603947282 ], [ 416136.036571289412677, 7621291.681465642526746 ], [ 416148.198029906197917, 7621257.762526288628578 ], [ 416162.119890440138988, 7621222.759154196828604 ], [ 416177.798654165701009, 7621187.375412819907069 ], [ 416194.473805864341557, 7621153.390731197781861 ], [ 416211.498064601270016, 7621121.535514255985618 ], [ 416229.227630272856914, 7621090.701851043850183 ], [ 416245.027440054458566, 7621065.158562702126801 ] ] ] } },
{ "type": "Feature", "properties": { "fid": 122.0, "COMPR_M": 680.47, "CLASSE": "04 - Longa", "CD_FAZ": " 403973", "TALHOES": "2, 1", "FAZ_tAL": "403971002, 403973001", "ID_LINHA": 241242 }, "geometry": { "type": "MultiLineString", "coordinates": [ [ [ 416077.962826514267363, 7621709.953836888074875 ], [ 416076.776280844642315, 7621696.134360769763589 ], [ 416075.113740781438537, 7621655.859138575382531 ], [ 416075.062900939024985, 7621617.472028208896518 ], [ 416076.324664536863565, 7621580.636972516775131 ], [ 416078.813073492841795, 7621543.652047079987824 ], [ 416082.844271543435752, 7621504.948800794780254 ], [ 416088.602627538668457, 7621465.574237521737814 ], [ 416095.7078235722729, 7621427.785862218588591 ], [ 416103.683831642149016, 7621392.304284999147058 ], [ 416112.498410350468475, 7621358.100004868581891 ], [ 416122.316713200125378, 7621324.302268167957664 ], [ 416133.196898525871802, 7621290.712743098847568 ], [ 416145.391416855622083, 7621256.701598493382335 ], [ 416159.353661078494042, 7621221.596690737642348 ], [ 416175.079589915403631, 7621186.106507416814566 ], [ 416191.803445027442649, 7621152.022566132247448 ], [ 416208.874148652947042, 7621120.080443080514669 ], [ 416226.65092902968172, 7621089.164668310433626 ], [ 416243.400651499105152, 7621062.085672007873654 ] ] ] } },
{ "type": "Feature", "properties": { "fid": 123.0, "COMPR_M": 678.71, "CLASSE": "04 - Longa", "CD_FAZ": " 403973", "TALHOES": "2, 1", "FAZ_tAL": "403971002, 403973001", "ID_LINHA": 241243 }, "geometry": { "type": "MultiLineString", "coordinates": [ [ [ 416074.508534120104741, 7621704.791332202032208 ], [ 416073.781580546637997, 7621696.324639509432018 ], [ 416072.11382275284268, 7621655.923017155379057 ], [ 416072.062832908006385, 7621617.422647673636675 ], [ 416073.328114681411535, 7621580.484884845092893 ], [ 416075.823526805033907, 7621543.395872135646641 ], [ 416079.866852708044462, 7621504.576187199912965 ], [ 416085.643026065372396, 7621465.079792138189077 ], [ 416092.769263096386567, 7621427.179512094706297 ], [ 416100.767104361555539, 7621391.600809066556394 ], [ 416109.604744448675774, 7621357.307041067630053 ], [ 416119.448589562671259, 7621323.421379731036723 ], [ 416130.357225761981681, 7621289.744020556099713 ], [ 416142.584803802717943, 7621255.640670701861382 ], [ 416156.587431716790888, 7621220.434227279387414 ], [ 416172.360525665862951, 7621184.837602015584707 ], [ 416189.133084190194495, 7621150.654401062056422 ], [ 416206.250232706137467, 7621118.625371908769011 ], [ 416224.074227787263226, 7621087.627485570497811 ], [ 416241.773862943868153, 7621059.012781309895217 ] ] ] } },
{ "type": "Feature", "properties": { "fid": 124.0, "COMPR_M": 674.17, "CLASSE": "04 - Longa", "CD_FAZ": " 403973", "TALHOES": "2, 1", "FAZ_tAL": "403971002, 403973001", "ID_LINHA": 241244 }, "geometry": { "type": "MultiLineString", "coordinates": [ [ [ 416071.054241726174951, 7621699.628827515058219 ], [ 416069.11390472156927, 7621655.986895740032196 ], [ 416069.062764877395239, 7621617.373267140239477 ], [ 416070.331564824329689, 7621580.332797171548009 ], [ 416072.833980117284227, 7621543.139697190374136 ], [ 416076.889433874050155, 7621504.203573603183031 ], [ 416082.683424591494258, 7621464.585346755571663 ], [ 416089.830702620442025, 7621426.573161968961358 ], [ 416097.850377082126215, 7621390.897333133965731 ], [ 416106.711078546999488, 7621356.514077271334827 ], [ 416116.580465924693272, 7621322.540491292253137 ], [ 416127.517553000361659, 7621288.775298013351858 ], [ 416139.778190751443617, 7621254.579742907546461 ], [ 416153.821202355087735, 7621219.271763823926449 ], [ 416169.641461414401419, 7621183.568696612492204 ], [ 416186.462723353120964, 7621149.286235993728042 ], [ 416203.626316758105531, 7621117.170300731435418 ], [ 416221.497526546823792, 7621086.090302837081254 ], [ 416238.689859424892347, 7621058.295745685696602 ] ] ] } },
{ "type": "Feature", "properties": { "fid": 125.0, "COMPR_M": 665.9, "CLASSE": "04 - Longa", "CD_FAZ": " 403973", "TALHOES": "2, 1", "FAZ_tAL": "403971002, 403973001", "ID_LINHA": 241245 }, "geometry": { "type": "MultiLineString", "coordinates": [ [ [ 416067.706322897400241, 7621694.625300115905702 ], [ 416066.113986690994352, 7621656.050774323754013 ], [ 416066.062696847307961, 7621617.323886606842279 ], [ 416067.335014968935866, 7621580.18070949986577 ], [ 416069.844433430174831, 7621542.883522245101631 ], [ 416073.912015040055849, 7621503.830960007384419 ], [ 416079.723823117790744, 7621464.090901374816895 ], [ 416086.892142143798992, 7621425.966811845079064 ], [ 416094.933649801765569, 7621390.193857203237712 ], [ 416103.817412644857541, 7621355.721113469451666 ], [ 416113.712342286657076, 7621321.659602858126163 ], [ 416124.677880237577483, 7621287.806575468741357 ], [ 416136.971577699121553, 7621253.51881511323154 ], [ 416151.054972994606942, 7621218.109300369396806 ], [ 416166.922397166257724, 7621182.2997912093997 ], [ 416183.792362514999695, 7621147.918070927262306 ], [ 416201.00240081094671, 7621115.715229557827115 ], [ 416218.920825303823221, 7621084.553120102733374 ], [ 416233.551702318305615, 7621060.899625825695693 ] ] ] } },
{ "type": "Feature", "properties": { "fid": 126.0, "COMPR_M": 657.81, "CLASSE": "04 - Longa", "CD_FAZ": " 403973", "TALHOES": "2, 1", "FAZ_tAL": "403971002, 403973001", "ID_LINHA": 241246 }, "geometry": { "type": "MultiLineString", "coordinates": [ [ [ 416064.506352371303365, 7621689.842884223908186 ], [ 416063.114068660419434, 7621656.114652907475829 ], [ 416063.062628816289362, 7621617.274506071582437 ], [ 416064.338465111213736, 7621580.028621828183532 ], [ 416066.854886743123643, 7621542.627347301691771 ], [ 416070.934596204140689, 7621503.45834640879184 ], [ 416076.764221642923076, 7621463.596455994993448 ], [ 416083.953581668494735, 7621425.360461719334126 ], [ 416092.016922521230299, 7621389.490381268784404 ], [ 416100.923746743588708, 7621354.928149671293795 ], [ 416110.84421864990145, 7621320.7787144202739 ], [ 416121.838207474444062, 7621286.837852924130857 ], [ 416134.164964649127796, 7621252.457887317985296 ], [ 416148.288743632205296, 7621216.946836911141872 ], [ 416164.203332914970815, 7621181.030885808169842 ], [ 416181.122001677867956, 7621146.54990585707128 ], [ 416198.378484863322228, 7621114.260158384218812 ], [ 416216.344124061521143, 7621083.015937367454171 ], [ 416228.393313408014365, 7621063.53621438331902 ] ] ] } },
{ "type": "Feature", "properties": { "fid": 127.0, "COMPR_M": 649.4, "CLASSE": "04 - Longa", "CD_FAZ": " 403973", "TALHOES": "2, 1", "FAZ_tAL": "403971002, 403973001", "ID_LINHA": 241247 }, "geometry": { "type": "MultiLineString", "coordinates": [ [ [ 416061.306381845613942, 7621685.060468334704638 ], [ 416060.114150629844517, 7621656.178531490266323 ], [ 416060.062560785096139, 7621617.225125538185239 ], [ 416061.341915253840853, 7621579.876534152776003 ], [ 416063.865340055315755, 7621542.371172353625298 ], [ 416067.95717737020459, 7621503.085732813924551 ], [ 416073.804620168928523, 7621463.102010613307357 ], [ 416081.015021191211417, 7621424.754111593589187 ], [ 416089.100195241044275, 7621388.786905338987708 ], [ 416098.030080841155723, 7621354.135185872204602 ], [ 416107.976095012505539, 7621319.897825984284282 ], [ 416118.998534710961394, 7621285.869130381383002 ], [ 416131.358351595466956, 7621251.396959522739053 ], [ 416145.522514269105159, 7621215.784373455680907 ], [ 416161.484268664964475, 7621179.761980406939983 ], [ 416178.451640841551125, 7621145.18174079246819 ], [ 416195.754568915814161, 7621112.805087210610509 ], [ 416213.767422819975764, 7621081.478754632174969 ], [ 416223.063130535243545, 7621066.450539366342127 ] ] ] } },
{ "type": "Feature", "properties": { "fid": 128.0, "COMPR_M": 640.88, "CLASSE": "04 - Longa", "CD_FAZ": " 403973", "TALHOES": "2, 1", "FAZ_tAL": "403971002, 403973001", "ID_LINHA": 241248 }, "geometry": { "type": "MultiLineString", "coordinates": [ [ [ 416058.106411319691688, 7621680.278052443638444 ], [ 416057.114232599909883, 7621656.242410074919462 ], [ 416057.062492755649146, 7621617.175745004788041 ], [ 416058.345365397515707, 7621579.724446482956409 ], [ 416060.875793368206359, 7621542.114997410215437 ], [ 416064.979758534929715, 7621502.713119218125939 ], [ 416070.845018694410101, 7621462.607565233483911 ], [ 416078.076460716489237, 7621424.14776146877557 ], [ 416086.183467960683629, 7621388.083429407328367 ], [ 416095.136414938257076, 7621353.342222073115408 ], [ 416105.107971374411136, 7621319.016937546432018 ], [ 416116.158861947711557, 7621284.900407836772501 ], [ 416128.5517385447165, 7621250.336031728424132 ], [ 416142.756284908566158, 7621214.621909998357296 ], [ 416158.765204413793981, 7621178.49307500757277 ], [ 416175.781280004885048, 7621143.813575726002455 ], [ 416193.130652970459778, 7621111.350016036070883 ], [ 416217.673353526741266, 7621069.461209196597338 ] ] ] } },
{ "type": "Feature", "properties": { "fid": 129.0, "COMPR_M": 632.54, "CLASSE": "04 - Longa", "CD_FAZ": " 403973", "TALHOES": "2, 1", "FAZ_tAL": "403971002, 403973001", "ID_LINHA": 241249 }, "geometry": { "type": "MultiLineString", "coordinates": [ [ [ 416054.906440792197827, 7621675.495636554434896 ], [ 416054.114314570033457, 7621656.306288660503924 ], [ 416054.062424723408185, 7621617.126364467665553 ], [ 416055.348815540783107, 7621579.572358807548881 ], [ 416057.886246680456679, 7621541.858822466805577 ], [ 416062.002339700935408, 7621502.340505620464683 ], [ 416067.88541722134687, 7621462.113119849935174 ], [ 416075.137900241068564, 7621423.541411345824599 ], [ 416083.26674068137072, 7621387.379953473806381 ], [ 416092.242749038210604, 7621352.54925827216357 ], [ 416102.239847736957017, 7621318.13604911416769 ], [ 416113.319189184054267, 7621283.931685294024646 ], [ 416125.745125492976513, 7621249.275103934109211 ], [ 416139.990055546048097, 7621213.459446540102363 ], [ 416156.046140164602548, 7621177.224169606342912 ], [ 416173.110919167113025, 7621142.445410657674074 ], [ 416190.506737022660673, 7621109.894944861531258 ], [ 416212.379093780124094, 7621072.317457867786288 ] ] ] } },
{ "type": "Feature", "properties": { "fid": 130.0, "COMPR_M": 624.11, "CLASSE": "04 - Longa", "CD_FAZ": " 403973", "TALHOES": "2, 1", "FAZ_tAL": "403971002, 403973001", "ID_LINHA": 241250 }, "geometry": { "type": "MultiLineString", "coordinates": [ [ [ 416051.706470267148688, 7621670.713220663368702 ], [ 416051.114396539400332, 7621656.370167243294418 ], [ 416051.062356694194023, 7621617.07698393240571 ], [ 416052.352265684399754, 7621579.420271137729287 ], [ 416054.896699993347283, 7621541.602647521533072 ], [ 416059.024920866359025, 7621501.967892022803426 ], [ 416064.925815747119486, 7621461.618674469180405 ], [ 416072.199339763727039, 7621422.935061219148338 ], [ 416080.350013401242904, 7621386.676477544009686 ], [ 416089.349083136359695, 7621351.756294473074377 ], [ 416099.371724098862614, 7621317.255160676315427 ], [ 416110.479516421968583, 7621282.962962749414146 ], [ 416122.93851244088728, 7621248.214176140725613 ], [ 416137.223826185509097, 7621212.296983083710074 ], [ 416153.327075914130546, 7621175.955264204181731 ], [ 416170.440558330272324, 7621141.077245587483048 ], [ 416187.88282107503619, 7621108.439873686060309 ], [ 416207.038285659509711, 7621075.248960511758924 ] ] ] } },
{ "type": "Feature", "properties": { "fid": 131.0, "COMPR_M": 615.98, "CLASSE": "04 - Longa", "CD_FAZ": " 403973", "TALHOES": "2, 1", "FAZ_tAL": "403971002, 403973001", "ID_LINHA": 241251 }, "geometry": { "type": "MultiLineString", "coordinates": [ [ [ 416048.506499741808511, 7621665.930804774165154 ], [ 416048.114478508883622, 7621656.434045823290944 ], [ 416048.062288663466461, 7621617.027603400871158 ], [ 416049.35571582778357, 7621579.268183464184403 ], [ 416051.907153306237888, 7621541.346472574397922 ], [ 416056.04750203108415, 7621501.595278427004814 ], [ 416061.966214272426441, 7621461.124229086562991 ], [ 416069.260779287666082, 7621422.328711096197367 ], [ 416077.433286120183766, 7621385.9730016104877 ], [ 416086.455417234625202, 7621350.963330675847828 ], [ 416096.50360046204878, 7621316.374272240325809 ], [ 416107.639843658194877, 7621281.994240207597613 ], [ 416120.131899389089085, 7621247.153248345479369 ], [ 416134.457596823573112, 7621211.134519629180431 ], [ 416150.608011664415244, 7621174.686358800157905 ], [ 416167.770197493606247, 7621139.709080517292023 ], [ 416185.258905128226615, 7621106.984802513383329 ], [ 416201.940476623829454, 7621077.973716352134943 ] ] ] } },
{ "type": "Feature", "properties": { "fid": 132.0, "COMPR_M": 607.9, "CLASSE": "04 - Longa", "CD_FAZ": " 403973", "TALHOES": "2, 1", "FAZ_tAL": "403971002, 403973001", "ID_LINHA": 241252 }, "geometry": { "type": "MultiLineString", "coordinates": [ [ [ 416045.306529213674366, 7621661.148388884961605 ], [ 416045.062220633204561, 7621616.97822286374867 ], [ 416046.359165970759932, 7621579.116095791570842 ], [ 416048.917606619128492, 7621541.090297630988061 ], [ 416053.070083195867483, 7621501.222664831206203 ], [ 416059.006612797849812, 7621460.629783706739545 ], [ 416066.322218812827487, 7621421.722360970452428 ], [ 416074.516558839532081, 7621385.269525676965714 ], [ 416083.561751333123539, 7621350.170366875827312 ], [ 416093.635476824594662, 7621315.493383802473545 ], [ 416104.800170895294286, 7621281.025517662987113 ], [ 416117.325286338280421, 7621246.092320553958416 ], [ 416131.691367460996844, 7621209.972056172788143 ], [ 416147.888947412837297, 7621173.417453397996724 ], [ 416165.099836656590924, 7621138.340915452688932 ], [ 416182.634989180951379, 7621105.529731340706348 ], [ 416196.915686002699658, 7621080.694030093029141 ] ] ] } },
{ "type": "Feature", "properties": { "fid": 133.0, "COMPR_M": 599.73, "CLASSE": "03 - Média", "CD_FAZ": " 403973", "TALHOES": "2, 1", "FAZ_tAL": "403971002, 403973001", "ID_LINHA": 241253 }, "geometry": { "type": "MultiLineString", "coordinates": [ [ [ 416042.114398609148338, 7621656.377689903602004 ], [ 416042.062152603408322, 7621616.928842331282794 ], [ 416043.36261611408554, 7621578.964008120819926 ], [ 416045.928059932077304, 7621540.834122687578201 ], [ 416050.092664361931384, 7621500.850051234476268 ], [ 416056.047011323447805, 7621460.135338323190808 ], [ 416063.383658335311338, 7621421.116010847501457 ], [ 416071.599831558705773, 7621384.566049749031663 ], [ 416080.668085431098007, 7621349.377403077669442 ], [ 416090.767353187024128, 7621314.612495366483927 ], [ 416101.960498133325018, 7621280.056795119307935 ], [ 416114.518673285725527, 7621245.031392759643495 ], [ 416128.925138100341428, 7621208.80959271453321 ], [ 416145.169883163878694, 7621172.148547995835543 ], [ 416162.429475818527862, 7621136.972750384360552 ], [ 416180.011073233094066, 7621104.0746601652354 ], [ 416191.844342598400544, 7621083.495304242707789 ] ] ] } },
{ "type": "Feature", "properties": { "fid": 134.0, "COMPR_M": 591.71, "CLASSE": "03 - Média", "CD_FAZ": " 403973", "TALHOES": "2, 1", "FAZ_tAL": "403971002, 403973001", "ID_LINHA": 241254 }, "geometry": { "type": "MultiLineString", "coordinates": [ [ [ 416039.108446180121973, 7621651.885237691923976 ], [ 416039.0620845707017, 7621616.879461796954274 ], [ 416040.366066255839542, 7621578.81192044634372 ], [ 416042.93851324293064, 7621540.577947741374373 ], [ 416047.115245527355, 7621500.477437637746334 ], [ 416053.087409848580137, 7621459.640892943367362 ], [ 416060.44509786053095, 7621420.50966072268784 ], [ 416068.683104279567488, 7621383.862573817372322 ], [ 416077.774419529305305, 7621348.584439277648926 ], [ 416087.899229549570009, 7621313.731606928631663 ], [ 416099.12082536960952, 7621279.088072577491403 ], [ 416111.712060233578086, 7621243.970464965328574 ], [ 416126.158908738347236, 7621207.647129257209599 ], [ 416142.450818913639523, 7621170.879642594605684 ], [ 416159.759114982618485, 7621135.604585316963494 ], [ 416177.387157286168076, 7621102.619588991627097 ], [ 416186.707284451054875, 7621086.410863552242517 ] ] ] } },
{ "type": "Feature", "properties": { "fid": 135.0, "COMPR_M": 583.98, "CLASSE": "03 - Média", "CD_FAZ": " 403973", "TALHOES": "2, 1", "FAZ_tAL": "403971002, 403973001", "ID_LINHA": 241255 }, "geometry": { "type": "MultiLineString", "coordinates": [ [ [ 416036.102493749232963, 7621647.392785480245948 ], [ 416036.062016541138291, 7621616.830081263557076 ], [ 416037.369516400503926, 7621578.659832773730159 ], [ 416039.94896655716002, 7621540.321772796101868 ], [ 416044.137826691498049, 7621500.104824043810368 ], [ 416050.12780837516766, 7621459.146447562612593 ], [ 416057.50653738429537, 7621419.903310596942902 ], [ 416065.766376998857595, 7621383.159097883850336 ], [ 416074.880753627629019, 7621347.791475480422378 ], [ 416085.031105911300983, 7621312.850718492642045 ], [ 416096.281152606825344, 7621278.119350033812225 ], [ 416108.90544718230376, 7621242.909537168219686 ], [ 416123.392679376353044, 7621206.484665799885988 ], [ 416139.731754662236199, 7621169.610737193375826 ], [ 416157.088754145079292, 7621134.236420245841146 ], [ 416174.763241337379441, 7621101.164517818018794 ], [ 416181.710843727574684, 7621089.081873711198568 ] ] ] } },
{ "type": "Feature", "properties": { "fid": 136.0, "COMPR_M": 576.3, "CLASSE": "03 - Média", "CD_FAZ": " 403973", "TALHOES": "2, 1", "FAZ_tAL": "403971002, 403973001", "ID_LINHA": 241256 }, "geometry": { "type": "MultiLineString", "coordinates": [ [ [ 416033.09654132113792, 7621642.90033326856792 ], [ 416033.061948509945069, 7621616.780700729228556 ], [ 416034.372966543538496, 7621578.50774510204792 ], [ 416036.959419869352132, 7621540.06559784989804 ], [ 416041.16040785756195, 7621499.732210446149111 ], [ 416047.168206901871599, 7621458.652002179995179 ], [ 416054.567976908758283, 7621419.296960471197963 ], [ 416062.84964971797308, 7621382.455621953122318 ], [ 416071.987087725487072, 7621346.998511680401862 ], [ 416082.162982274428941, 7621311.969830054789782 ], [ 416093.441479843691923, 7621277.150627488270402 ], [ 416106.098834129981697, 7621241.848609372973442 ], [ 416120.626450014940929, 7621205.3222023434937 ], [ 416137.012690413452219, 7621168.341831792145967 ], [ 416154.418393307714723, 7621132.868255180306733 ], [ 416176.742468337120954, 7621091.70407516695559 ] ] ] } },
{ "type": "Feature", "properties": { "fid": 137.0, "COMPR_M": 568.59, "CLASSE": "03 - Média", "CD_FAZ": " 403973", "TALHOES": "2, 1", "FAZ_tAL": "403971002, 403973001", "ID_LINHA": 241257 }, "geometry": { "type": "MultiLineString", "coordinates": [ [ [ 416030.090588891936932, 7621638.407881058752537 ], [ 416030.061880479275715, 7621616.731320193968713 ], [ 416031.376416686922312, 7621578.355657428503036 ], [ 416033.969873181544244, 7621539.80942290648818 ], [ 416038.182989022985566, 7621499.359596848487854 ], [ 416044.208605426771101, 7621458.157556801103055 ], [ 416051.629416432522703, 7621418.690610347315669 ], [ 416059.932922438834794, 7621381.752146020531654 ], [ 416069.09342182421824, 7621346.205547882243991 ], [ 416079.294858636858407, 7621311.088941617868841 ], [ 416090.601807080733124, 7621276.181904947385192 ], [ 416103.292221078067087, 7621240.787681579589844 ], [ 416117.860220653470606, 7621204.159738888964057 ], [ 416134.293626163387671, 7621167.072926389053464 ], [ 416151.748032471281476, 7621131.500090113840997 ], [ 416171.758654259028845, 7621094.35312619805336 ] ] ] } },
{ "type": "Feature", "properties": { "fid": 138.0, "COMPR_M": 560.79, "CLASSE": "03 - Média", "CD_FAZ": " 403973", "TALHOES": "2, 1", "FAZ_tAL": "403971002, 403973001", "ID_LINHA": 241258 }, "geometry": { "type": "MultiLineString", "coordinates": [ [ [ 416027.084636462968774, 7621633.915428847074509 ], [ 416027.061812449072022, 7621616.68193965870887 ], [ 416028.379866829956882, 7621578.203569758683443 ], [ 416030.980326494434848, 7621539.553247958421707 ], [ 416035.205570188467391, 7621498.986983252689242 ], [ 416041.249003952485509, 7621457.663111416622996 ], [ 416048.690855955588631, 7621418.084260223433375 ], [ 416057.016195158124901, 7621381.048670088872313 ], [ 416066.199755922425538, 7621345.412584081292152 ], [ 416076.426734999287874, 7621310.208053182810545 ], [ 416087.762134316028096, 7621275.213182401843369 ], [ 416100.485608026385307, 7621239.726753788068891 ], [ 416115.093991291359998, 7621202.997275430709124 ], [ 416131.574561912799254, 7621165.804020987823606 ], [ 416149.077671634382568, 7621130.131925048306584 ], [ 416166.741120080580004, 7621097.080677941441536 ] ] ] } },
{ "type": "Feature", "properties": { "fid": 139.0, "COMPR_M": 553.13, "CLASSE": "03 - Média", "CD_FAZ": " 403973", "TALHOES": "2, 1", "FAZ_tAL": "403971002, 403973001", "ID_LINHA": 241259 }, "geometry": { "type": "MultiLineString", "coordinates": [ [ [ 416024.078684033476748, 7621629.422976637259126 ], [ 416024.061744418577291, 7621616.63255912438035 ], [ 416025.38331697328249, 7621578.051482085138559 ], [ 416027.990779807907529, 7621539.297073016874492 ], [ 416032.228151353192516, 7621498.614369656890631 ], [ 416038.289402478258125, 7621457.168666038662195 ], [ 416045.752295480575413, 7621417.477910097688437 ], [ 416054.099467878462747, 7621380.345194155350327 ], [ 416063.30609002080746, 7621344.619620284065604 ], [ 416073.55861136096064, 7621309.327164747752249 ], [ 416084.922461553651374, 7621274.244459858164191 ], [ 416097.678994974354282, 7621238.665825992822647 ], [ 416112.327761929889675, 7621201.834811970591545 ], [ 416128.855497662851121, 7621164.535115584731102 ], [ 416146.407310797134414, 7621128.763759979046881 ], [ 416161.910435596597381, 7621099.754837391898036 ] ] ] } },
{ "type": "Feature", "properties": { "fid": 140.0, "COMPR_M": 545.65, "CLASSE": "03 - Média", "CD_FAZ": " 403973", "TALHOES": "2, 1", "FAZ_tAL": "403971002, 403973001", "ID_LINHA": 241260 }, "geometry": { "type": "MultiLineString", "coordinates": [ [ [ 416021.072731602238491, 7621624.93052442651242 ], [ 416022.386767116375268, 7621577.899394412524998 ], [ 416025.001233120739926, 7621539.040898071601987 ], [ 416029.250732518616132, 7621498.241756060160697 ], [ 416035.329801004962064, 7621456.674220655113459 ], [ 416042.813735004921909, 7621416.87155997287482 ], [ 416051.182740597985685, 7621379.641718225553632 ], [ 416060.412424117443152, 7621343.826656484976411 ], [ 416070.69048772403039, 7621308.446276308968663 ], [ 416082.082788790808991, 7621273.275737315416336 ], [ 416094.872381922672503, 7621237.604898197576404 ], [ 416109.56153256772086, 7621200.672348515130579 ], [ 416126.13643341237912, 7621163.266210181638598 ], [ 416143.736949959478807, 7621127.395594908855855 ], [ 416157.16051860479638, 7621102.277867440134287 ] ] ] } },
{ "type": "Feature", "properties": { "fid": 141.0, "COMPR_M": 538.47, "CLASSE": "03 - Média", "CD_FAZ": " 403973", "TALHOES": "2, 1", "FAZ_tAL": "403971002, 403973001", "ID_LINHA": 241261 }, "geometry": { "type": "MultiLineString", "coordinates": [ [ [ 416018.06677917385241, 7621620.438072215765715 ], [ 416019.390217259060591, 7621577.747306739911437 ], [ 416022.011686432932038, 7621538.784723126329482 ], [ 416026.273313684097957, 7621497.869142465293407 ], [ 416032.370199530443642, 7621456.179775273427367 ], [ 416039.875174527871422, 7621416.265209847129881 ], [ 416048.266013317857869, 7621378.938242293894291 ], [ 416057.518758217454888, 7621343.033692684024572 ], [ 416067.822364086343441, 7621307.565387872979045 ], [ 416079.243116028956138, 7621272.307014768943191 ], [ 416092.065768871223554, 7621236.543970403261483 ], [ 416106.79530320619233, 7621199.509885060600936 ], [ 416123.41736916184891, 7621161.99730478413403 ], [ 416141.066589123336598, 7621126.027429841458797 ], [ 416152.554863949480932, 7621104.530958684161305 ] ] ] } },
{ "type": "Feature", "properties": { "fid": 142.0, "COMPR_M": 531.16, "CLASSE": "03 - Média", "CD_FAZ": " 403973", "TALHOES": "2, 1", "FAZ_tAL": "403971002, 403973001", "ID_LINHA": 241262 }, "geometry": { "type": "MultiLineString", "coordinates": [ [ [ 416015.079062944278121, 7621615.972874348051846 ], [ 416016.393667402793653, 7621577.595219068229198 ], [ 416019.022139746404719, 7621538.528548180125654 ], [ 416023.295894849463366, 7621497.496528867632151 ], [ 416029.410598056158051, 7621455.685329891741276 ], [ 416036.93661405344028, 7621415.65885972417891 ], [ 416045.349286038195714, 7621378.23476636223495 ], [ 416054.625092315720394, 7621342.240728885866702 ], [ 416064.954240448016208, 7621306.684499438852072 ], [ 416076.403443263960071, 7621271.338292229920626 ], [ 416089.259155819425359, 7621235.483042608946562 ], [ 416104.029073845245875, 7621198.347421603277326 ], [ 416120.698304911493324, 7621160.728399382904172 ], [ 416138.396228286146652, 7621124.659264773130417 ], [ 416147.875116028881166, 7621106.92269073985517 ] ] ] } },
{ "type": "Feature", "properties": { "fid": 143.0, "COMPR_M": 524.0, "CLASSE": "03 - Média", "CD_FAZ": " 403973", "TALHOES": "2, 1", "FAZ_tAL": "403971002, 403973001", "ID_LINHA": 241263 }, "geometry": { "type": "MultiLineString", "coordinates": [ [ [ 416012.2234912023996, 7621611.705168887972832 ], [ 416013.397117546119262, 7621577.443131394684315 ], [ 416016.032593059877399, 7621538.272373234853148 ], [ 416020.318476014246698, 7621497.123915269970894 ], [ 416026.450996581930667, 7621455.190884510055184 ], [ 416033.998053577030078, 7621415.052509598433971 ], [ 416042.432558757602237, 7621377.531290428712964 ], [ 416051.731426413462032, 7621341.447765087708831 ], [ 416062.086116810329258, 7621305.803610998205841 ], [ 416073.563770502572879, 7621270.369569686241448 ], [ 416086.452542767277919, 7621234.422114814631641 ], [ 416101.262844484299421, 7621197.18495814781636 ], [ 416117.979240661836229, 7621159.459493976086378 ], [ 416135.725867448549252, 7621123.291099706664681 ], [ 416143.174831919372082, 7621109.35284941829741 ] ] ] } },
{ "type": "Feature", "properties": { "fid": 144.0, "COMPR_M": 516.72, "CLASSE": "03 - Média", "CD_FAZ": " 403973", "TALHOES": "2, 1", "FAZ_tAL": "403971002, 403973001", "ID_LINHA": 241264 }, "geometry": { "type": "MultiLineString", "coordinates": [ [ [ 416009.367919459124096, 7621607.43746343255043 ], [ 416010.400567688513547, 7621577.291043721139431 ], [ 416013.043046372011304, 7621538.016198290511966 ], [ 416017.3410571803106, 7621496.751301674172282 ], [ 416023.491395107877906, 7621454.696439129300416 ], [ 416031.059493101842236, 7621414.446159476414323 ], [ 416039.515831477474421, 7621376.827814497984946 ], [ 416048.837760512076784, 7621340.654801287688315 ], [ 416059.217993173224386, 7621304.922722563147545 ], [ 416070.724097739439458, 7621269.400847136974335 ], [ 416083.645929715421516, 7621233.36118702031672 ], [ 416098.496615122014191, 7621196.022494690492749 ], [ 416115.260176412179135, 7621158.190588576719165 ], [ 416133.055506611824967, 7621121.922934636473656 ], [ 416138.418709966354072, 7621111.887489981018007 ] ] ] } },
{ "type": "Feature", "properties": { "fid": 145.0, "COMPR_M": 509.44, "CLASSE": "03 - Média", "CD_FAZ": " 403973", "TALHOES": "2, 1", "FAZ_tAL": "403971002, 403973001", "ID_LINHA": 241265 }, "geometry": { "type": "MultiLineString", "coordinates": [ [ [ 416006.512347717827652, 7621603.169757976196706 ], [ 416007.404017832537647, 7621577.138956049457192 ], [ 416010.053499684785493, 7621537.760023343376815 ], [ 416014.363638345035724, 7621496.378688078373671 ], [ 416020.531793633243069, 7621454.201993748545647 ], [ 416028.120932624675333, 7621413.839809348806739 ], [ 416036.599104196415283, 7621376.124338567256927 ], [ 416045.944094610807952, 7621339.861837487667799 ], [ 416056.349869536818005, 7621304.041834129020572 ], [ 416067.884424976480659, 7621268.432124596089125 ], [ 416080.839316663797945, 7621232.300259226933122 ], [ 416095.730385760369245, 7621194.860031232237816 ], [ 416112.541112160659395, 7621156.921683174557984 ], [ 416133.660543580423109, 7621114.425956016406417 ] ] ] } },
{ "type": "Feature", "properties": { "fid": 146.0, "COMPR_M": 502.18, "CLASSE": "03 - Média", "CD_FAZ": " 403973", "TALHOES": "2, 1", "FAZ_tAL": "403971002, 403973001", "ID_LINHA": 241266 }, "geometry": { "type": "MultiLineString", "coordinates": [ [ [ 416003.656775975134224, 7621598.902052519842982 ], [ 416004.407467976212502, 7621576.986868379637599 ], [ 416007.063952996919397, 7621537.503848399966955 ], [ 416011.386219509819057, 7621496.006074480712414 ], [ 416017.572192159481347, 7621453.707548366859555 ], [ 416025.182372148847207, 7621413.233459224924445 ], [ 416033.682376917102374, 7621375.420862633734941 ], [ 416043.050428708433174, 7621339.068873690441251 ], [ 416053.481745898374356, 7621303.160945689305663 ], [ 416065.04475221253233, 7621267.463402054272592 ], [ 416078.032703611883335, 7621231.239331431686878 ], [ 416092.964156399306376, 7621193.697567775845528 ], [ 416109.822047911118716, 7621155.652777772396803 ], [ 416128.914352692547254, 7621116.942013902589679 ] ] ] } },
{ "type": "Feature", "properties": { "fid": 147.0, "COMPR_M": 495.09, "CLASSE": "03 - Média", "CD_FAZ": " 403973", "TALHOES": "2, 1", "FAZ_tAL": "403971002, 403973001", "ID_LINHA": 241267 }, "geometry": { "type": "MultiLineString", "coordinates": [ [ [ 416000.801204233663157, 7621594.634347064420581 ], [ 416001.410918118897825, 7621576.834780706092715 ], [ 416004.074406308995094, 7621537.247673455625772 ], [ 416008.408800675882958, 7621495.633460884913802 ], [ 416014.612590685253963, 7621453.213102985173464 ], [ 416022.243811672902666, 7621412.627109102904797 ], [ 416030.765649636858143, 7621374.717386703938246 ], [ 416040.156762806873303, 7621338.27590989228338 ], [ 416050.613622260570992, 7621302.280057253316045 ], [ 416062.205079449515324, 7621266.494679511524737 ], [ 416075.226090559619479, 7621230.178403636440635 ], [ 416090.19792703690473, 7621192.535104317590594 ], [ 416107.102983660355676, 7621154.383872371166945 ], [ 416124.295763326925226, 7621119.344242529012263 ] ] ] } },
{ "type": "Feature", "properties": { "fid": 148.0, "COMPR_M": 488.12, "CLASSE": "03 - Média", "CD_FAZ": " 403973", "TALHOES": "2, 1", "FAZ_tAL": "403971002, 403973001", "ID_LINHA": 241268 }, "geometry": { "type": "MultiLineString", "coordinates": [ [ [ 415997.945562739856541, 7621590.368677882477641 ], [ 415998.414368262630887, 7621576.682693032547832 ], [ 416001.084859622409567, 7621536.991498509421945 ], [ 416005.431381840608083, 7621495.260847289115191 ], [ 416011.652989211783279, 7621452.718657601624727 ], [ 416019.305251196958125, 7621412.020758975297213 ], [ 416027.848922355740797, 7621374.01391077414155 ], [ 416037.263096904847771, 7621337.482946093194187 ], [ 416047.745498623407912, 7621301.399168817326427 ], [ 416059.365406687371433, 7621265.525956964120269 ], [ 416072.419477506889962, 7621229.117475843057036 ], [ 416087.431697675143369, 7621191.372640864923596 ], [ 416104.38391941098962, 7621153.114966968074441 ], [ 416119.811189198400825, 7621121.673522746190429 ] ] ] } },
{ "type": "Feature", "properties": { "fid": 149.0, "COMPR_M": 481.13, "CLASSE": "03 - Média", "CD_FAZ": " 403973", "TALHOES": "2, 1", "FAZ_tAL": "403971002, 403973001", "ID_LINHA": 241269 }, "geometry": { "type": "MultiLineString", "coordinates": [ [ [ 415995.08932689379435, 7621586.120359811000526 ], [ 415998.095312935765833, 7621536.735323563218117 ], [ 416002.453963006671984, 7621494.888233692385256 ], [ 416008.693387735169381, 7621452.224212219938636 ], [ 416016.366690720955376, 7621411.414408850483596 ], [ 416024.93219507636968, 7621373.310434838756919 ], [ 416034.369431003578939, 7621336.689982292242348 ], [ 416044.877374985604547, 7621300.518280379474163 ], [ 416056.525733922841027, 7621264.557234422303736 ], [ 416069.612864456605166, 7621228.056548047810793 ], [ 416084.665468313265592, 7621190.210177404806018 ], [ 416101.664855160983279, 7621151.846061568707228 ], [ 416115.307375375530683, 7621124.042014298029244 ] ] ] } },
{ "type": "Feature", "properties": { "fid": 150.0, "COMPR_M": 474.1, "CLASSE": "03 - Média", "CD_FAZ": " 403973", "TALHOES": "2, 1", "FAZ_tAL": "403971002, 403973001", "ID_LINHA": 241270 }, "geometry": { "type": "MultiLineString", "coordinates": [ [ [ 415992.233091048663482, 7621581.872041736729443 ], [ 415995.105766247783322, 7621536.479148618876934 ], [ 415999.476544171338901, 7621494.515620097517967 ], [ 416005.733786262571812, 7621451.729766841046512 ], [ 416013.428130244894419, 7621410.808058724738657 ], [ 416022.015467796125449, 7621372.606958908960223 ], [ 416031.475765101902653, 7621335.897018492221832 ], [ 416042.009251348325051, 7621299.63739194534719 ], [ 416053.686061161221005, 7621263.588511879555881 ], [ 416066.806251403875649, 7621226.995620254427195 ], [ 416081.899238952144515, 7621189.047713946551085 ], [ 416098.945790910394862, 7621150.577156165614724 ], [ 416110.787990577111486, 7621126.442240176722407 ] ] ] } },
{ "type": "Feature", "properties": { "fid": 151.0, "COMPR_M": 467.09, "CLASSE": "03 - Média", "CD_FAZ": " 403973", "TALHOES": "2, 1", "FAZ_tAL": "403971002, 403973001", "ID_LINHA": 241271 }, "geometry": { "type": "MultiLineString", "coordinates": [ [ [ 415989.376855203823652, 7621577.62372366618365 ], [ 415992.116219559102319, 7621536.222973674535751 ], [ 415996.499125335365534, 7621494.143006498925388 ], [ 416002.774184788228013, 7621451.235321457497776 ], [ 416010.489569768833462, 7621410.201708602719009 ], [ 416019.098740516230464, 7621371.903482977300882 ], [ 416028.582099200342782, 7621335.104054693132639 ], [ 416039.141127710463479, 7621298.756503507494926 ], [ 416050.846388396515977, 7621262.619789336808026 ], [ 416063.999638352717739, 7621225.934692459180951 ], [ 416079.133009589626454, 7621187.885250492021441 ], [ 416096.226726660388522, 7621149.308250764384866 ], [ 416106.278586929256562, 7621128.822124034166336 ] ] ] } },
{ "type": "Feature", "properties": { "fid": 152.0, "COMPR_M": 460.21, "CLASSE": "03 - Média", "CD_FAZ": " 403973", "TALHOES": "2, 1", "FAZ_tAL": "403971002, 403973001", "ID_LINHA": 241272 }, "geometry": { "type": "MultiLineString", "coordinates": [ [ [ 415986.601648976095021, 7621573.495927710086107 ], [ 415989.126672873098869, 7621535.966798730194569 ], [ 415993.521706501429435, 7621493.770392904058099 ], [ 415999.814583313360345, 7621450.740876078605652 ], [ 416007.55100929341279, 7621409.595358478836715 ], [ 416016.182013235462364, 7621371.200007043778896 ], [ 416025.688433298259042, 7621334.311090894043446 ], [ 416036.273004072543699, 7621297.875615072436631 ], [ 416048.006715635361616, 7621261.651066793128848 ], [ 416061.193025301210582, 7621224.873764666728675 ], [ 416076.366780227050185, 7621186.722787033766508 ], [ 416093.50766240991652, 7621148.039345363155007 ], [ 416101.773215744004119, 7621131.193789560347795 ] ] ] } },
{ "type": "Feature", "properties": { "fid": 153.0, "COMPR_M": 453.59, "CLASSE": "03 - Média", "CD_FAZ": " 403973", "TALHOES": "2, 1", "FAZ_tAL": "403971002, 403973001", "ID_LINHA": 241273 }, "geometry": { "type": "MultiLineString", "coordinates": [ [ [ 415983.86839340539882, 7621569.430528467521071 ], [ 415986.137126185698435, 7621535.710623784922063 ], [ 415990.544287668075413, 7621493.397779306396842 ], [ 415996.854981839249376, 7621450.24643069691956 ], [ 416004.612448815896641, 7621408.989008352160454 ], [ 416013.265285956440493, 7621370.496531113050878 ], [ 416022.794767396408133, 7621333.518127094954252 ], [ 416033.404880436544772, 7621296.99472663551569 ], [ 416045.16704287182074, 7621260.68234424944967 ], [ 416058.38641224935418, 7621223.812836872413754 ], [ 416073.600550867035054, 7621185.56032357737422 ], [ 416090.78859816014301, 7621146.770439960062504 ], [ 416097.36032432486536, 7621133.376977313309908 ] ] ] } },
{ "type": "Feature", "properties": { "fid": 154.0, "COMPR_M": 446.86, "CLASSE": "03 - Média", "CD_FAZ": " 403973", "TALHOES": "2, 1", "FAZ_tAL": "403971002, 403973001", "ID_LINHA": 241274 }, "geometry": { "type": "MultiLineString", "coordinates": [ [ [ 415981.135137834178749, 7621565.365129230543971 ], [ 415983.147579498996492, 7621535.454448841512203 ], [ 415987.566868833440822, 7621493.025165708735585 ], [ 415993.895380365313031, 7621449.751985315233469 ], [ 416001.67388834169833, 7621408.38265822827816 ], [ 416010.348558675788809, 7621369.793055181391537 ], [ 416019.901101493393071, 7621332.725163296796381 ], [ 416030.536756798566785, 7621296.113838197663426 ], [ 416042.327370108570904, 7621259.713621703907847 ], [ 416055.579799197847024, 7621222.751909078098834 ], [ 416070.834321503760293, 7621184.397860122844577 ], [ 416088.069533909088932, 7621145.50153455697 ], [ 416092.893411118537188, 7621135.670263808220625 ] ] ] } },
{ "type": "Feature", "properties": { "fid": 155.0, "COMPR_M": 440.0, "CLASSE": "03 - Média", "CD_FAZ": " 403973", "TALHOES": "2, 1", "FAZ_tAL": "403971002, 403973001", "ID_LINHA": 241275 }, "geometry": { "type": "MultiLineString", "coordinates": [ [ [ 415978.401882264530286, 7621561.29972998984158 ], [ 415980.158032810257282, 7621535.198273895308375 ], [ 415984.589449998107739, 7621492.652552113868296 ], [ 415990.935778890852816, 7621449.257539931684732 ], [ 415998.73532786546275, 7621407.776308103464544 ], [ 416007.431831394962501, 7621369.089579248800874 ], [ 416017.007435593171977, 7621331.932199497707188 ], [ 416027.66863316053059, 7621295.232949762605131 ], [ 416039.48769734549569, 7621258.74489916022867 ], [ 416052.773186145932414, 7621221.690981281921268 ], [ 416068.068092143745162, 7621183.235396662726998 ], [ 416088.370612096681725, 7621138.077448023483157 ] ] ] } },
{ "type": "Feature", "properties": { "fid": 156.0, "COMPR_M": 433.15, "CLASSE": "03 - Média", "CD_FAZ": " 403973", "TALHOES": "2, 1", "FAZ_tAL": "403971002, 403973001", "ID_LINHA": 241276 }, "geometry": { "type": "MultiLineString", "coordinates": [ [ [ 415975.668626693775877, 7621557.234330751001835 ], [ 415977.168486124137416, 7621534.94209895003587 ], [ 415981.612031162716448, 7621492.279938517138362 ], [ 415987.976177417207509, 7621448.763094549998641 ], [ 415995.79676738922717, 7621407.169957976788282 ], [ 416004.515104115183931, 7621368.386103319004178 ], [ 416014.113769691088237, 7621331.139235698617995 ], [ 416024.800509523134679, 7621294.35206132568419 ], [ 416036.648024582653306, 7621257.776176616549492 ], [ 416049.96657309361035, 7621220.630053486675024 ], [ 416065.301862782333046, 7621182.07293320633471 ], [ 416083.854353621194605, 7621140.471302313730121 ] ] ] } },
{ "type": "Feature", "properties": { "fid": 157.0, "COMPR_M": 426.43, "CLASSE": "03 - Média", "CD_FAZ": " 403973", "TALHOES": "2, 1", "FAZ_tAL": "403971002, 403973001", "ID_LINHA": 241277 }, "geometry": { "type": "MultiLineString", "coordinates": [ [ [ 415972.935371123312507, 7621553.168931509368122 ], [ 415974.178939436736982, 7621534.685924004763365 ], [ 415978.63461232802365, 7621491.90732492133975 ], [ 415985.016575942980126, 7621448.268649170175195 ], [ 415992.858206914213952, 7621406.563607852905989 ], [ 416001.598376833833754, 7621367.682627385482192 ], [ 416011.22010378917912, 7621330.346271901391447 ], [ 416021.932385885738768, 7621293.471172889694571 ], [ 416033.808351819461677, 7621256.807454072870314 ], [ 416047.159960042277817, 7621219.569125695154071 ], [ 416062.535633419582155, 7621180.910469750873744 ], [ 416079.433859686425421, 7621142.774652515538037 ] ] ] } },
{ "type": "Feature", "properties": { "fid": 227.0, "COMPR_M": 693.81, "CLASSE": "04 - Longa", "CD_FAZ": " 403973", "TALHOES": "2, 1", "FAZ_tAL": "403971002, 403973001", "ID_LINHA": 241343 }, "geometry": { "type": "MultiLineString", "coordinates": [ [ [ 416102.771391451533418, 7621747.030701878480613 ], [ 416101.25000214879401, 7621735.69226622954011 ], [ 416097.739182930556126, 7621694.802409577183425 ], [ 416096.113166994648054, 7621655.41198849119246 ], [ 416096.063377152662724, 7621617.81769194919616 ], [ 416097.300513535388745, 7621581.701586224138737 ], [ 416099.739900302723981, 7621545.445271697826684 ], [ 416103.686203387798741, 7621507.557095969095826 ], [ 416109.319837858784012, 7621469.035355190746486 ], [ 416116.277746904524975, 7621432.030313089489937 ], [ 416124.10092260374222, 7621397.228616518899798 ], [ 416132.754071661853231, 7621363.650751460343599 ], [ 416142.393578663351946, 7621330.468487221747637 ], [ 416153.074607867980376, 7621297.493800906464458 ], [ 416165.03770821809303, 7621264.128093055449426 ], [ 416178.717266610998195, 7621229.733934935182333 ], [ 416194.113039667252451, 7621194.98884523101151 ], [ 416210.495970887481235, 7621161.599721606820822 ], [ 416227.241560284979641, 7621130.265941299498081 ], [ 416244.687837724457495, 7621099.924947456456721 ], [ 416254.788171385356691, 7621083.59590688161552 ] ] ] } },
{ "type": "Feature", "properties": { "fid": 228.0, "COMPR_M": 696.11, "CLASSE": "04 - Longa", "CD_FAZ": " 403973", "TALHOES": "2, 1", "FAZ_tAL": "403971002, 403973001", "ID_LINHA": 241344 }, "geometry": { "type": "MultiLineString", "coordinates": [ [ [ 416106.557527259225026, 7621752.689152766019106 ], [ 416104.232878740003798, 7621735.364278979599476 ], [ 416100.733883229317144, 7621694.612130837514997 ], [ 416099.113085024000611, 7621655.348109906539321 ], [ 416099.063445183332078, 7621617.867072484456003 ], [ 416100.297063392936252, 7621581.85367389768362 ], [ 416102.729446989949793, 7621545.701446640305221 ], [ 416106.663622220570687, 7621507.929709564894438 ], [ 416112.279439333477058, 7621469.529800571501255 ], [ 416119.216307379654609, 7621432.636663216166198 ], [ 416127.017649883171543, 7621397.932092451490462 ], [ 416135.647737563820556, 7621364.443715259432793 ], [ 416145.261702300631441, 7621331.349375657737255 ], [ 416155.914280631404836, 7621298.462523449212313 ], [ 416167.844321270124055, 7621265.189020847901702 ], [ 416181.483495971187949, 7621230.896398389711976 ], [ 416196.832103917957284, 7621196.257750633172691 ], [ 416213.166331722808536, 7621162.967886673286557 ], [ 416229.865476232487708, 7621131.721012474037707 ], [ 416247.264538968680426, 7621101.462130192667246 ], [ 416256.414959940011613, 7621086.668797577731311 ] ] ] } },
{ "type": "Feature", "properties": { "fid": 229.0, "COMPR_M": 698.4, "CLASSE": "04 - Longa", "CD_FAZ": " 403973", "TALHOES": "2, 1", "FAZ_tAL": "403971002, 403973001", "ID_LINHA": 241345 }, "geometry": { "type": "MultiLineString", "coordinates": [ [ [ 416110.343663067847956, 7621758.347603646107018 ], [ 416107.21575533086434, 7621735.036291724070907 ], [ 416103.728583527670708, 7621694.421852093189955 ], [ 416102.113003055332229, 7621655.284231323748827 ], [ 416102.063513213885017, 7621617.916453018784523 ], [ 416103.293613249552436, 7621582.005761571228504 ], [ 416105.71899367775768, 7621545.957621585577726 ], [ 416109.641041056020185, 7621508.302323163487017 ], [ 416115.239040807646234, 7621470.024245955049992 ], [ 416122.154867854085751, 7621433.243013338185847 ], [ 416129.934377164463513, 7621398.63556838221848 ], [ 416138.541403465322219, 7621365.236679058521986 ], [ 416148.129825938551221, 7621332.230264097452164 ], [ 416158.753953394363634, 7621299.431245993822813 ], [ 416170.650934321223758, 7621266.249948645010591 ], [ 416184.249725332017988, 7621232.058861849829555 ], [ 416199.551168166799471, 7621197.526656031608582 ], [ 416215.836692560988013, 7621164.336051740683615 ], [ 416232.489392179530114, 7621133.176083650439978 ], [ 416249.841240210342221, 7621102.999312927015126 ], [ 416258.041748494259082, 7621089.741688271984458 ] ] ] } },
{ "type": "Feature", "properties": { "fid": 230.0, "COMPR_M": 700.69, "CLASSE": "04 - Longa", "CD_FAZ": " 403973", "TALHOES": "2, 1", "FAZ_tAL": "403971002, 403973001", "ID_LINHA": 241346 }, "geometry": { "type": "MultiLineString", "coordinates": [ [ [ 416114.129798876179848, 7621764.00605452992022 ], [ 416110.19863192201592, 7621734.708304470404983 ], [ 416106.723283824918326, 7621694.231573352590203 ], [ 416105.112921085383277, 7621655.220352740958333 ], [ 416105.063581244263332, 7621617.965833553113043 ], [ 416106.290163105237298, 7621582.157849241048098 ], [ 416108.708540364983492, 7621546.213796533644199 ], [ 416112.618459890887607, 7621508.674936760216951 ], [ 416118.198642281349748, 7621470.518691334873438 ], [ 416125.09342833183473, 7621433.849363463930786 ], [ 416132.85110444406746, 7621399.339044313877821 ], [ 416141.435069367755204, 7621366.029642857611179 ], [ 416150.997949575830717, 7621333.111152532510459 ], [ 416161.593626156914979, 7621300.399968536570668 ], [ 416173.457547373254783, 7621267.310876436531544 ], [ 416187.015954695467371, 7621233.221325307153165 ], [ 416202.270232417562511, 7621198.795561433769763 ], [ 416218.507053398119751, 7621165.704216808080673 ], [ 416235.11330812680535, 7621134.631154822185636 ], [ 416252.417941452004015, 7621104.536495663225651 ], [ 416259.668537049903534, 7621092.814578970894217 ] ] ] } },
{ "type": "Feature", "properties": { "fid": 231.0, "COMPR_M": 702.98, "CLASSE": "04 - Longa", "CD_FAZ": " 403973", "TALHOES": "2, 1", "FAZ_tAL": "403971002, 403973001", "ID_LINHA": 241347 }, "geometry": { "type": "MultiLineString", "coordinates": [ [ [ 416117.915934683405794, 7621769.664505414664745 ], [ 416113.181508511421271, 7621734.380317215807736 ], [ 416109.717984123795759, 7621694.041294611990452 ], [ 416108.112839116773102, 7621655.156474156305194 ], [ 416108.063649275107309, 7621618.015214087441564 ], [ 416109.286712963192258, 7621582.309936914592981 ], [ 416111.698087050812319, 7621546.469971476122737 ], [ 416115.595878725755028, 7621509.047550356015563 ], [ 416121.158243755926378, 7621471.013136716559529 ], [ 416128.031988807604648, 7621434.455713590607047 ], [ 416135.767831724137068, 7621400.042520247399807 ], [ 416144.328735268965829, 7621366.822606656700373 ], [ 416153.866073211771436, 7621333.9920409694314 ], [ 416164.433298920455854, 7621301.368691077455878 ], [ 416176.264160424878355, 7621268.371804231777787 ], [ 416189.782184056937695, 7621234.383788762614131 ], [ 416204.989296667161398, 7621200.064466835930943 ], [ 416221.177414234844036, 7621167.072381876409054 ], [ 416237.737224074138794, 7621136.086225997656584 ], [ 416261.295325604500249, 7621095.887469666078687 ] ] ] } },
{ "type": "Feature", "properties": { "fid": 232.0, "COMPR_M": 705.38, "CLASSE": "04 - Longa", "CD_FAZ": " 403973", "TALHOES": "2, 1", "FAZ_tAL": "403971002, 403973001", "ID_LINHA": 241348 }, "geometry": { "type": "MultiLineString", "coordinates": [ [ [ 416121.767638421733864, 7621775.420948798768222 ], [ 416116.164385103154927, 7621734.05232996493578 ], [ 416112.712684421625454, 7621693.851015870459378 ], [ 416111.112757144903298, 7621655.092595572583377 ], [ 416111.063717305718455, 7621618.064594621770084 ], [ 416112.283262819575612, 7621582.46202458627522 ], [ 416114.687633739376906, 7621546.726146421395242 ], [ 416118.57329756062245, 7621509.42016395367682 ], [ 416124.117845228640363, 7621471.507582096382976 ], [ 416130.970549283316359, 7621435.062063714489341 ], [ 416138.684559004730545, 7621400.745996179059148 ], [ 416147.222401170351077, 7621367.615570457652211 ], [ 416156.734196851029992, 7621334.872929407283664 ], [ 416167.2729716822505, 7621302.337413622066379 ], [ 416179.070773476851173, 7621269.432732028886676 ], [ 416192.548413417651318, 7621235.546252222731709 ], [ 416207.708360917458776, 7621201.333372239023447 ], [ 416223.847775071801152, 7621168.44054694660008 ], [ 416240.361140022403561, 7621137.541297172196209 ], [ 416262.922114160610363, 7621098.960360363125801 ] ] ] } },
{ "type": "Feature", "properties": { "fid": 233.0, "COMPR_M": 708.32, "CLASSE": "04 - Longa", "CD_FAZ": " 403973", "TALHOES": "2, 1", "FAZ_tAL": "403971002, 403973001", "ID_LINHA": 241349 }, "geometry": { "type": "MultiLineString", "coordinates": [ [ [ 416125.94698724267073, 7621781.667063894681633 ], [ 416124.529257469926961, 7621773.834663357585669 ], [ 416119.147261694422923, 7621733.72434270940721 ], [ 416115.70738471968798, 7621693.660737130790949 ], [ 416114.112675176991615, 7621655.028716990724206 ], [ 416114.063785335514694, 7621618.113975157029927 ], [ 416115.279812676250003, 7621582.614112258888781 ], [ 416117.677180426660925, 7621546.982321366667747 ], [ 416121.550716394849587, 7621509.792777547612786 ], [ 416127.077446704206523, 7621472.002027478069067 ], [ 416133.909109759726562, 7621435.668413838371634 ], [ 416141.6012862843927, 7621401.449472108855844 ], [ 416150.116067072027363, 7621368.408534253947437 ], [ 416159.602320487669203, 7621335.753817842341959 ], [ 416170.112644445616752, 7621303.306136166676879 ], [ 416181.877386529173236, 7621270.493659820407629 ], [ 416195.314642780344002, 7621236.708715679123998 ], [ 416210.427425167814363, 7621202.602277641184628 ], [ 416226.518135908409022, 7621169.808712012134492 ], [ 416242.985055968805682, 7621138.996368346735835 ], [ 416264.5489027161384, 7621102.033251060172915 ] ] ] } },
{ "type": "Feature", "properties": { "fid": 234.0, "COMPR_M": 711.26, "CLASSE": "04 - Longa", "CD_FAZ": " 403973", "TALHOES": "2, 1", "FAZ_tAL": "403971002, 403973001", "ID_LINHA": 241350 }, "geometry": { "type": "MultiLineString", "coordinates": [ [ [ 416130.128037500719074, 7621787.922578768804669 ], [ 416127.493495234462898, 7621773.367766802199185 ], [ 416122.130138285341673, 7621733.396355457603931 ], [ 416118.702085017343052, 7621693.470458392053843 ], [ 416117.112593207100872, 7621654.964838407933712 ], [ 416117.063853367057163, 7621618.163355691358447 ], [ 416118.276362532691564, 7621582.766199929639697 ], [ 416120.666727113886736, 7621547.238496314734221 ], [ 416124.528135229775216, 7621510.165391145274043 ], [ 416130.037048178550322, 7621472.496472861617804 ], [ 416136.847670235438272, 7621436.274763963185251 ], [ 416144.5180135651608, 7621402.152948040515184 ], [ 416153.00973297515884, 7621369.201498053967953 ], [ 416162.470444126229268, 7621336.6347062792629 ], [ 416172.952317208633758, 7621304.274858709424734 ], [ 416184.683999579807278, 7621271.554587616585195 ], [ 416198.080872142454609, 7621237.871179133653641 ], [ 416213.146489418926649, 7621203.871183043345809 ], [ 416229.188496745890006, 7621171.176877083256841 ], [ 416245.608971916022711, 7621140.451439518481493 ], [ 416266.175691271200776, 7621105.106141755357385 ] ] ] } },
{ "type": "Feature", "properties": { "fid": 235.0, "COMPR_M": 714.21, "CLASSE": "04 - Longa", "CD_FAZ": " 403973", "TALHOES": "2, 1", "FAZ_tAL": "403971002, 403973001", "ID_LINHA": 241351 }, "geometry": { "type": "MultiLineString", "coordinates": [ [ [ 416134.309327136783395, 7621794.179416108876467 ], [ 416130.45773300062865, 7621772.900870245881379 ], [ 416125.113014875852969, 7621733.068368202075362 ], [ 416121.696785315929446, 7621693.280179649591446 ], [ 416120.112511237268336, 7621654.900959823280573 ], [ 416120.063921397144441, 7621618.212736224755645 ], [ 416121.272912390064448, 7621582.918287604115903 ], [ 416123.656273801112548, 7621547.494671255350113 ], [ 416127.50555406534113, 7621510.5380047429353 ], [ 416132.996649652486667, 7621472.990918243303895 ], [ 416139.786230711149983, 7621436.881114087998867 ], [ 416147.434740845055785, 7621402.856423972174525 ], [ 416155.903398875787389, 7621369.994461853057146 ], [ 416165.338567762169987, 7621337.515594716183841 ], [ 416175.791989971883595, 7621305.243581252172589 ], [ 416187.490612632769626, 7621272.615515407174826 ], [ 416200.847101503750309, 7621239.033642590045929 ], [ 416215.865553669398651, 7621205.140088443644345 ], [ 416231.858857582963537, 7621172.545042148791254 ], [ 416248.23288786347257, 7621141.906510693021119 ], [ 416267.802479826495983, 7621108.179032450541854 ] ] ] } },
{ "type": "Feature", "properties": { "fid": 236.0, "COMPR_M": 717.15, "CLASSE": "04 - Longa", "CD_FAZ": " 403973", "TALHOES": "2, 1", "FAZ_tAL": "403971002, 403973001", "ID_LINHA": 241352 }, "geometry": { "type": "MultiLineString", "coordinates": [ [ [ 416138.490616772149224, 7621800.436253448948264 ], [ 416133.421970764931757, 7621772.433973690494895 ], [ 416128.095891467295587, 7621732.740380948409438 ], [ 416124.691485612827819, 7621693.089900905266404 ], [ 416123.1124292674358, 7621654.837081238627434 ], [ 416123.063989428337663, 7621618.262116758152843 ], [ 416124.269462247262709, 7621583.070375274866819 ], [ 416126.645820489036851, 7621547.750846203416586 ], [ 416130.482972898986191, 7621510.910618336871266 ], [ 416135.956251127179712, 7621473.485363624058664 ], [ 416142.72479118622141, 7621437.487464213743806 ], [ 416150.35146812471794, 7621403.559899907559156 ], [ 416158.797064777347259, 7621370.787425654008985 ], [ 416168.206691402068827, 7621338.396483153104782 ], [ 416178.63166273542447, 7621306.21230379678309 ], [ 416190.29722568532452, 7621273.676443204283714 ], [ 416203.613330865104217, 7621240.196106046438217 ], [ 416218.584617919288576, 7621206.408993848599494 ], [ 416234.529218420269899, 7621173.913207218050957 ], [ 416250.856803809758276, 7621143.361581868492067 ], [ 416269.42926838126732, 7621111.251923149451613 ] ] ] } },
{ "type": "Feature", "properties": { "fid": 237.0, "COMPR_M": 720.1, "CLASSE": "04 - Longa", "CD_FAZ": " 403973", "TALHOES": "2, 1", "FAZ_tAL": "403971002, 403973001", "ID_LINHA": 241353 }, "geometry": { "type": "MultiLineString", "coordinates": [ [ [ 416142.67190640734043, 7621806.693090789020061 ], [ 416136.386208529467694, 7621771.967077134177089 ], [ 416131.078768057748675, 7621732.412393697537482 ], [ 416127.68618591199629, 7621692.899622164666653 ], [ 416126.112347298243549, 7621654.773202656768262 ], [ 416126.064057458017487, 7621618.311497292481363 ], [ 416127.266012103413232, 7621583.222462948411703 ], [ 416129.635367175738793, 7621548.007021147757769 ], [ 416133.460391732689459, 7621511.283231934532523 ], [ 416138.915852600825019, 7621473.979809006676078 ], [ 416145.663351663912181, 7621438.0938143376261 ], [ 416153.268195405544247, 7621404.263375835493207 ], [ 416161.690730679780245, 7621371.580389451235533 ], [ 416171.074815038649831, 7621339.2773715890944 ], [ 416181.471335498557892, 7621307.181026339530945 ], [ 416193.103838736191392, 7621274.737370998598635 ], [ 416206.379560226458125, 7621241.358569504693151 ], [ 416221.303682169294916, 7621207.677899247035384 ], [ 416237.199579257227015, 7621175.281372284516692 ], [ 416253.480719758139458, 7621144.816653043031693 ], [ 416271.056056936853565, 7621114.324813845567405 ] ] ] } },
{ "type": "Feature", "properties": { "fid": 238.0, "COMPR_M": 723.4, "CLASSE": "04 - Longa", "CD_FAZ": " 403973", "TALHOES": "2, 1", "FAZ_tAL": "403971002, 403973001", "ID_LINHA": 241354 }, "geometry": { "type": "MultiLineString", "coordinates": [ [ [ 416147.075621547119226, 7621813.282763283699751 ], [ 416139.350446295517031, 7621771.500180579721928 ], [ 416134.061644649133086, 7621732.084406442940235 ], [ 416130.680886210058816, 7621692.709343424998224 ], [ 416129.112265328469221, 7621654.709324074909091 ], [ 416129.064125488745049, 7621618.360877829603851 ], [ 416130.262561960611492, 7621583.374550621956587 ], [ 416132.624913863022812, 7621548.263196092098951 ], [ 416136.43781056907028, 7621511.655845531262457 ], [ 416141.875454075285234, 7621474.474254389293492 ], [ 416148.601912139623892, 7621438.700164462439716 ], [ 416156.184922686778009, 7621404.966851769015193 ], [ 416164.584396581049077, 7621372.373353250324726 ], [ 416173.942938675871119, 7621340.158260025084019 ], [ 416184.311008261982352, 7621308.149748884141445 ], [ 416195.910451788106002, 7621275.798298792913556 ], [ 416209.145789588394109, 7621242.521032961085439 ], [ 416224.022746419301257, 7621208.946804649196565 ], [ 416239.869940094999038, 7621176.649537352845073 ], [ 416256.104635705414694, 7621146.271724216639996 ], [ 416272.694612417253666, 7621117.419931448996067 ] ] ] } },
{ "type": "Feature", "properties": { "fid": 239.0, "COMPR_M": 727.07, "CLASSE": "04 - Longa", "CD_FAZ": " 403973", "TALHOES": "2, 1", "FAZ_tAL": "403971002, 403973001", "ID_LINHA": 241355 }, "geometry": { "type": "MultiLineString", "coordinates": [ [ [ 416151.710520124644972, 7621820.218376224860549 ], [ 416149.185669588565361, 7621808.992782225832343 ], [ 416142.314684059820138, 7621771.033284023404121 ], [ 416137.044521238771267, 7621731.756419191136956 ], [ 416133.675586507713888, 7621692.519064681604505 ], [ 416132.112183358694892, 7621654.645445490255952 ], [ 416132.064193520054687, 7621618.410258362069726 ], [ 416133.259111816762015, 7621583.526638293638825 ], [ 416135.614460549782962, 7621548.519371036440134 ], [ 416139.415229403413832, 7621512.028459126129746 ], [ 416144.83505554794101, 7621474.968699768185616 ], [ 416151.540472615277395, 7621439.306514585390687 ], [ 416159.101649965799879, 7621405.670327700674534 ], [ 416167.478062483132817, 7621373.166317049413919 ], [ 416176.811062313849106, 7621341.039148461073637 ], [ 416187.150681024999358, 7621309.1184714268893 ], [ 416198.717064838972874, 7621276.8592265881598 ], [ 416211.912018951028585, 7621243.683496417477727 ], [ 416226.741810670064297, 7621210.215710051357746 ], [ 416242.54030093178153, 7621178.017702422104776 ], [ 416258.728551650885493, 7621147.726795390248299 ], [ 416274.353455355099868, 7621120.553370649926364 ] ] ] } },
{ "type": "Feature", "properties": { "fid": 240.0, "COMPR_M": 730.73, "CLASSE": "04 - Longa", "CD_FAZ": " 403973", "TALHOES": "2, 1", "FAZ_tAL": "403971002, 403973001", "ID_LINHA": 241356 }, "geometry": { "type": "MultiLineString", "coordinates": [ [ [ 416156.345418705430347, 7621827.153989162296057 ], [ 416152.126431441283785, 7621808.396190471947193 ], [ 416145.278921826276928, 7621770.566387469880283 ], [ 416140.027397830621339, 7621731.42843193653971 ], [ 416136.670286805718206, 7621692.328785942867398 ], [ 416135.112101388978772, 7621654.581566905602813 ], [ 416135.06426155049121, 7621618.459638896398246 ], [ 416136.255661673378199, 7621583.678725966252387 ], [ 416138.604007237765472, 7621548.775545981712639 ], [ 416142.392648238514084, 7621512.401072723791003 ], [ 416147.794657024031039, 7621475.463145149871707 ], [ 416154.479033090989105, 7621439.912864711135626 ], [ 416162.018377246626187, 7621406.373803631402552 ], [ 416170.371728384809103, 7621373.959280846640468 ], [ 416179.679185951710679, 7621341.920036896131933 ], [ 416189.99035378760891, 7621310.087193971499801 ], [ 416201.523677891469561, 7621277.920154381543398 ], [ 416214.67824831220787, 7621244.845959877595305 ], [ 416229.46087492024526, 7621211.48461545445025 ], [ 416245.210661769495346, 7621179.385867487639189 ], [ 416261.352467599790543, 7621149.181866562925279 ], [ 416276.012298291374464, 7621123.686809850856662 ] ] ] } },
{ "type": "Feature", "properties": { "fid": 241.0, "COMPR_M": 734.4, "CLASSE": "04 - Longa", "CD_FAZ": " 403973", "TALHOES": "2, 1", "FAZ_tAL": "403971002, 403973001", "ID_LINHA": 241357 }, "geometry": { "type": "MultiLineString", "coordinates": [ [ [ 416160.98031728330534, 7621834.089602100662887 ], [ 416155.067193295340985, 7621807.799598718993366 ], [ 416148.243159590987489, 7621770.099490913562477 ], [ 416143.010274421540089, 7621731.100444683805108 ], [ 416139.664987103897147, 7621692.138507200405002 ], [ 416138.112019419204444, 7621654.517688322812319 ], [ 416138.06432958075311, 7621618.509019430726767 ], [ 416139.252211530983914, 7621583.830813638865948 ], [ 416141.593553924467415, 7621549.031720929779112 ], [ 416145.370067072333768, 7621512.773686319589615 ], [ 416150.754258498316631, 7621475.957590530626476 ], [ 416157.417593567282893, 7621440.519214836880565 ], [ 416164.93510452657938, 7621407.077279563993216 ], [ 416173.26539428671822, 7621374.752244645729661 ], [ 416182.547309587651398, 7621342.800925333052874 ], [ 416192.830026549869217, 7621311.055916514247656 ], [ 416204.330290942336433, 7621278.981082173995674 ], [ 416217.444477674202062, 7621246.008423330262303 ], [ 416232.179939169785939, 7621212.753520857542753 ], [ 416247.881022605404723, 7621180.754032555967569 ], [ 416263.976383545610588, 7621150.636937741190195 ], [ 416277.671141230734065, 7621126.820249052718282 ] ] ] } },
{ "type": "Feature", "properties": { "fid": 242.0, "COMPR_M": 738.06, "CLASSE": "04 - Longa", "CD_FAZ": " 403973", "TALHOES": "2, 1", "FAZ_tAL": "403971002, 403973001", "ID_LINHA": 241358 }, "geometry": { "type": "MultiLineString", "coordinates": [ [ [ 416165.615215862344485, 7621841.025215037167072 ], [ 416158.007955149398185, 7621807.203006964176893 ], [ 416151.207397356512956, 7621769.632594358175993 ], [ 416145.993151012691669, 7621730.772457430139184 ], [ 416142.659687402425334, 7621691.94822845980525 ], [ 416141.111937449546531, 7621654.453809739090502 ], [ 416141.06439761078218, 7621618.558399965055287 ], [ 416142.248761387018021, 7621583.982901310548186 ], [ 416144.583100612566341, 7621549.287895870395005 ], [ 416148.347485906095244, 7621513.146299918182194 ], [ 416153.713859971496277, 7621476.452035915106535 ], [ 416160.356154043634888, 7621441.125564961694181 ], [ 416167.851831807580311, 7621407.780755497515202 ], [ 416176.159060187404975, 7621375.545208446681499 ], [ 416185.415433226909954, 7621343.681813770905137 ], [ 416195.66969931370113, 7621312.024639057926834 ], [ 416207.136903994134627, 7621280.042009969241917 ], [ 416220.210707035381347, 7621247.170886788517237 ], [ 416234.899003420083318, 7621214.022426258772612 ], [ 416250.551383442303631, 7621182.122197622433305 ], [ 416266.6002994942246, 7621152.092008912935853 ], [ 416279.329984168580268, 7621129.953688250854611 ] ] ] } },
{ "type": "Feature", "properties": { "fid": 243.0, "COMPR_M": 742.36, "CLASSE": "04 - Longa", "CD_FAZ": " 403973", "TALHOES": "2, 1", "FAZ_tAL": "403971002, 403973001", "ID_LINHA": 241359 }, "geometry": { "type": "MultiLineString", "coordinates": [ [ [ 416170.624110170057975, 7621848.520471204072237 ], [ 416160.948717002174817, 7621806.606415210291743 ], [ 416154.171635121572763, 7621769.165697803720832 ], [ 416148.976027603494003, 7621730.444470174610615 ], [ 416145.654387699847575, 7621691.757949718274176 ], [ 416144.111855479888618, 7621654.389931157231331 ], [ 416144.064465641975403, 7621618.607780497521162 ], [ 416145.245311244041659, 7621584.13498898409307 ], [ 416147.572647299966775, 7621549.544070816598833 ], [ 416151.32490474259248, 7621513.518913513049483 ], [ 416156.673461445549037, 7621476.946481293067336 ], [ 416163.294714518007822, 7621441.731915086507797 ], [ 416170.768559086485766, 7621408.484231425449252 ], [ 416179.052726090303622, 7621376.338172243908048 ], [ 416188.283556864131242, 7621344.562702208757401 ], [ 416198.50937207712559, 7621312.993361601606011 ], [ 416209.943517046922352, 7621281.102937762625515 ], [ 416222.976936397259124, 7621248.333350244909525 ], [ 416237.618067671137396, 7621215.291331658139825 ], [ 416253.221744279377162, 7621183.490362691693008 ], [ 416269.224215442314744, 7621153.547080087475479 ], [ 416280.988827105495147, 7621133.087127452716231 ] ] ] } },
{ "type": "Feature", "properties": { "fid": 244.0, "COMPR_M": 746.91, "CLASSE": "04 - Longa", "CD_FAZ": " 403973", "TALHOES": "2, 1", "FAZ_tAL": "403971002, 403973001", "ID_LINHA": 241360 }, "geometry": { "type": "MultiLineString", "coordinates": [ [ [ 416175.780739812122192, 7621856.236796960234642 ], [ 416171.930742960365023, 7621841.76162926107645 ], [ 416163.889478856290225, 7621806.009823460131884 ], [ 416157.135872886225116, 7621768.698801248334348 ], [ 416151.958904194529168, 7621730.116482924669981 ], [ 416148.649087998899631, 7621691.567670978605747 ], [ 416147.111773510230705, 7621654.326052573509514 ], [ 416147.064533673634287, 7621618.657161032781005 ], [ 416148.241861099435482, 7621584.287076657637954 ], [ 416150.562193986726925, 7621549.800245763733983 ], [ 416154.302323577110656, 7621513.891527107916772 ], [ 416159.633062919718213, 7621477.440926676616073 ], [ 416166.233274995000102, 7621442.338265210390091 ], [ 416173.685286367079243, 7621409.187707358971238 ], [ 416181.946391992096324, 7621377.131136042997241 ], [ 416191.151680502051022, 7621345.443590643815696 ], [ 416201.349044840200804, 7621313.962084144353867 ], [ 416212.750130098720547, 7621282.163865556940436 ], [ 416225.743165758438408, 7621249.495813703164458 ], [ 416240.337131920270622, 7621216.560237059369683 ], [ 416255.892105116159655, 7621184.858527759090066 ], [ 416271.848131387960166, 7621155.002151262946427 ], [ 416282.647670044214465, 7621136.220566654577851 ] ] ] } },
{ "type": "Feature", "properties": { "fid": 245.0, "COMPR_M": 751.46, "CLASSE": "04 - Longa", "CD_FAZ": " 403973", "TALHOES": "2, 1", "FAZ_tAL": "403971002, 403973001", "ID_LINHA": 241361 }, "geometry": { "type": "MultiLineString", "coordinates": [ [ [ 416180.937369454535656, 7621863.953122710809112 ], [ 416174.84487749094842, 7621841.046651282347739 ], [ 416166.830240710463841, 7621805.413231702521443 ], [ 416160.100110651052091, 7621768.23190469481051 ], [ 416154.941780785215087, 7621729.788495671004057 ], [ 416151.643788296903949, 7621691.377392236143351 ], [ 416150.111691541271284, 7621654.262173989787698 ], [ 416150.064601702499203, 7621618.706541568040848 ], [ 416151.238410957157612, 7621584.439164329320192 ], [ 416153.55174067360349, 7621550.056420708075166 ], [ 416157.279742411745246, 7621514.264140704646707 ], [ 416162.59266439412022, 7621477.935372055508196 ], [ 416169.171835470653605, 7621442.94461533613503 ], [ 416176.602013647498097, 7621409.891183290630579 ], [ 416184.840057892783079, 7621377.924099842086434 ], [ 416194.019804138632026, 7621346.32447908166796 ], [ 416204.188717602868564, 7621314.930806688964367 ], [ 416215.556743151508272, 7621283.22479335218668 ], [ 416228.509395120257977, 7621250.658277159556746 ], [ 416243.056196170742624, 7621217.829142462462187 ], [ 416258.562465953757055, 7621186.226692827418447 ], [ 416274.472047335759271, 7621156.457222437486053 ], [ 416284.306512982642744, 7621139.354005856439471 ] ] ] } },
{ "type": "Feature", "properties": { "fid": 246.0, "COMPR_M": 756.01, "CLASSE": "04 - Longa", "CD_FAZ": " 403973", "TALHOES": "2, 1", "FAZ_tAL": "403971002, 403973001", "ID_LINHA": 241362 }, "geometry": { "type": "MultiLineString", "coordinates": [ [ [ 416186.093999097123742, 7621871.669448464177549 ], [ 416177.759012021240778, 7621840.331673311069608 ], [ 416169.771002561959904, 7621804.816639949567616 ], [ 416163.064348417450674, 7621767.765008138492703 ], [ 416157.924657376250252, 7621729.460508415475488 ], [ 416154.638488594559021, 7621691.187113492749631 ], [ 416153.111609571031295, 7621654.198295405134559 ], [ 416153.064669733168557, 7621618.755922103300691 ], [ 416154.234960814646911, 7621584.591251999139786 ], [ 416156.541287361120339, 7621550.312595652416348 ], [ 416160.25716124632163, 7621514.636754304170609 ], [ 416165.55226586869685, 7621478.42981743812561 ], [ 416172.1103959470056, 7621443.550965460017323 ], [ 416179.518740927102044, 7621410.594659225083888 ], [ 416187.733723795623519, 7621378.717063643969595 ], [ 416196.887927776551805, 7621347.205367518588901 ], [ 416207.028390365187079, 7621315.899529232643545 ], [ 416218.363356202607974, 7621284.285721146501601 ], [ 416231.275624482077546, 7621251.820740615017712 ], [ 416245.775260420632549, 7621219.0980478618294 ], [ 416261.232826790947001, 7621187.594857895746827 ], [ 416277.095963283092715, 7621157.91229360923171 ], [ 416285.965355918859132, 7621142.487445055507123 ] ] ] } },
{ "type": "Feature", "properties": { "fid": 247.0, "COMPR_M": 761.27, "CLASSE": "04 - Longa", "CD_FAZ": " 403973", "TALHOES": "2, 1", "FAZ_tAL": "403971002, 403973001", "ID_LINHA": 241363 }, "geometry": { "type": "MultiLineString", "coordinates": [ [ [ 416191.663395826239139, 7621880.003434494137764 ], [ 416180.67314655194059, 7621839.616695333272219 ], [ 416172.711764416133519, 7621804.220048196613789 ], [ 416166.028586182044819, 7621767.298111581243575 ], [ 416160.907533966121264, 7621729.132521163672209 ], [ 416157.633188892388716, 7621690.996834754943848 ], [ 416156.111527601489797, 7621654.13441682420671 ], [ 416156.064737763605081, 7621618.805302637629211 ], [ 416157.231510669807903, 7621584.743339674547315 ], [ 416159.530834048637189, 7621550.568770595826209 ], [ 416163.234580082294997, 7621515.009367898106575 ], [ 416168.511867343448102, 7621478.924262820743024 ], [ 416175.04895642271731, 7621444.157315583899617 ], [ 416182.435468207753729, 7621411.298135154880583 ], [ 416190.627389696019236, 7621379.510027440264821 ], [ 416199.756051414529793, 7621348.086255952715874 ], [ 416209.868063128436916, 7621316.868251776322722 ], [ 416221.169969253998715, 7621285.346648941747844 ], [ 416234.041853843897115, 7621252.983204072341323 ], [ 416248.494324671919458, 7621220.366953266784549 ], [ 416263.903187627729494, 7621188.963022962212563 ], [ 416279.719879230600782, 7621159.367364784702659 ], [ 416287.624198857578449, 7621145.620884258300066 ] ] ] } },
{ "type": "Feature", "properties": { "fid": 248.0, "COMPR_M": 766.82, "CLASSE": "04 - Longa", "CD_FAZ": " 403973", "TALHOES": "2, 1", "FAZ_tAL": "403971002, 403973001", "ID_LINHA": 241364 }, "geometry": { "type": "MultiLineString", "coordinates": [ [ [ 416197.409237284096889, 7621888.601450541056693 ], [ 416192.545577915210743, 7621872.583004368469119 ], [ 416183.587281081127003, 7621838.901717361062765 ], [ 416175.652526269026566, 7621803.623456440865993 ], [ 416168.992823947570287, 7621766.831215024925768 ], [ 416163.890410557738505, 7621728.804533909074962 ], [ 416160.627889190567657, 7621690.806556013412774 ], [ 416159.111445631366223, 7621654.070538239553571 ], [ 416159.064805795846041, 7621618.854683171957731 ], [ 416160.228060528053902, 7621584.895427346229553 ], [ 416162.520380736212246, 7621550.824945540167391 ], [ 416166.211998916289303, 7621515.381981493905187 ], [ 416171.471468817035202, 7621479.418708200566471 ], [ 416177.98751689970959, 7621444.763665708713233 ], [ 416185.352195488172583, 7621412.001611086539924 ], [ 416193.521055597229861, 7621380.30299124121666 ], [ 416202.624175051751081, 7621348.967144392430782 ], [ 416212.707735892559867, 7621317.836974319070578 ], [ 416223.976582305680495, 7621286.40757673792541 ], [ 416236.808083205716684, 7621254.145667526870966 ], [ 416251.213388921343721, 7621221.635858668014407 ], [ 416266.573548464803025, 7621190.331188032403588 ], [ 416282.343795178225264, 7621160.822435958310962 ], [ 416289.283041795250028, 7621148.754323456436396 ] ] ] } },
{ "type": "Feature", "properties": { "fid": 249.0, "COMPR_M": 772.38, "CLASSE": "04 - Longa", "CD_FAZ": " 403973", "TALHOES": "2, 1", "FAZ_tAL": "403971002, 403973001", "ID_LINHA": 241365 }, "geometry": { "type": "MultiLineString", "coordinates": [ [ [ 416203.155078743118793, 7621897.199466587975621 ], [ 416195.431353595340624, 7621871.76140315644443 ], [ 416186.50141561269993, 7621838.186739385128021 ], [ 416178.593288123200182, 7621803.026864688843489 ], [ 416171.957061711931601, 7621766.364318470470607 ], [ 416166.873287148890086, 7621728.476546654477715 ], [ 416163.622589488397352, 7621690.616277270950377 ], [ 416162.111363660544157, 7621654.006659654900432 ], [ 416162.064873825293034, 7621618.904063709080219 ], [ 416163.224610384611879, 7621585.047515018843114 ], [ 416165.509927423088811, 7621551.081120487302542 ], [ 416169.189417750400025, 7621515.754595089703798 ], [ 416174.431070291437209, 7621479.913153583183885 ], [ 416180.926077375363093, 7621445.37001583352685 ], [ 416188.268922768416815, 7621412.705087019130588 ], [ 416196.4147215000703, 7621381.095955040305853 ], [ 416205.492298689030576, 7621349.848032825626433 ], [ 416215.547408655693289, 7621318.805696861818433 ], [ 416226.783195357129443, 7621287.468504529446363 ], [ 416239.574312566779554, 7621255.308130986988544 ], [ 416253.932453170767985, 7621222.904764069244266 ], [ 416269.243909302109387, 7621191.699353098869324 ], [ 416290.941884732805192, 7621151.88776265643537 ] ] ] } },
{ "type": "Feature", "properties": { "fid": 250.0, "COMPR_M": 778.3, "CLASSE": "04 - Longa", "CD_FAZ": " 403973", "TALHOES": "2, 1", "FAZ_tAL": "403971002, 403973001", "ID_LINHA": 241366 }, "geometry": { "type": "MultiLineString", "coordinates": [ [ [ 416209.110301775392145, 7621906.1107989968732 ], [ 416198.317129273433238, 7621870.939801948145032 ], [ 416189.415550144040026, 7621837.471761411055923 ], [ 416181.534049976151437, 7621802.430272933095694 ], [ 416174.921299477806315, 7621765.897421915084124 ], [ 416169.85616373969242, 7621728.148559402674437 ], [ 416166.617289787041955, 7621690.425998531281948 ], [ 416165.111281692399643, 7621653.942781073972583 ], [ 416165.064941854565404, 7621618.953444239683449 ], [ 416166.221160241635516, 7621585.199602691456676 ], [ 416168.499474110780284, 7621551.337295431643724 ], [ 416172.166836585733108, 7621516.127208687365055 ], [ 416177.390671764849685, 7621480.407598963007331 ], [ 416183.864637850376312, 7621445.976365958340466 ], [ 416191.185650047147647, 7621413.408562950789928 ], [ 416199.308387401048094, 7621381.888918837532401 ], [ 416208.360422326950356, 7621350.728921262547374 ], [ 416218.387081417778973, 7621319.774419406428933 ], [ 416229.589808409509715, 7621288.529432323761284 ], [ 416242.340541929239407, 7621256.470594445243478 ], [ 416256.651517421589233, 7621224.173669474199414 ], [ 416271.914270139008295, 7621193.067518167197704 ], [ 416292.600727670127526, 7621155.021201860159636 ] ] ] } },
{ "type": "Feature", "properties": { "fid": 251.0, "COMPR_M": 784.99, "CLASSE": "04 - Longa", "CD_FAZ": " 403973", "TALHOES": "2, 1", "FAZ_tAL": "403971002, 403973001", "ID_LINHA": 241367 }, "geometry": { "type": "MultiLineString", "coordinates": [ [ [ 416215.506360344355926, 7621915.681793013587594 ], [ 416210.827959203277715, 7621901.81828532461077 ], [ 416201.202904954378027, 7621870.118200736120343 ], [ 416192.329684674507007, 7621836.756783433258533 ], [ 416184.474811829102691, 7621801.833681179210544 ], [ 416177.885537243273575, 7621765.430525364354253 ], [ 416172.839040330785792, 7621727.820572149008512 ], [ 416169.611990084755234, 7621690.235719787888229 ], [ 416168.111199721693993, 7621653.878902489319444 ], [ 416168.065009887621272, 7621619.002824774943292 ], [ 416169.2177100982517, 7621585.351690363138914 ], [ 416171.489020797773264, 7621551.593470377847552 ], [ 416175.144255420542322, 7621516.499822283163667 ], [ 416180.350273239659145, 7621480.902044345624745 ], [ 416186.803198326728307, 7621446.582716083154082 ], [ 416194.102377327042632, 7621414.112038881517947 ], [ 416202.202053303597495, 7621382.68188263848424 ], [ 416211.228545964928344, 7621351.609809702262282 ], [ 416221.226754180097487, 7621320.743141952902079 ], [ 416232.396421461482532, 7621289.59036011993885 ], [ 416245.106771290302277, 7621257.633057897910476 ], [ 416259.370581671886612, 7621225.442574873566628 ], [ 416274.584630976198241, 7621194.435683235526085 ], [ 416294.25957060843939, 7621158.15464106015861 ] ] ] } },
{ "type": "Feature", "properties": { "fid": 252.0, "COMPR_M": 791.67, "CLASSE": "04 - Longa", "CD_FAZ": " 403973", "TALHOES": "2, 1", "FAZ_tAL": "403971002, 403973001", "ID_LINHA": 241368 }, "geometry": { "type": "MultiLineString", "coordinates": [ [ [ 416221.902418916637544, 7621925.252787034958601 ], [ 416213.685184443660546, 7621900.902653334662318 ], [ 416204.088680634042248, 7621869.296599524095654 ], [ 416195.243819205963518, 7621836.041805459186435 ], [ 416187.415573683392722, 7621801.237089425325394 ], [ 416180.849775007576682, 7621764.963628807105124 ], [ 416175.821916921529919, 7621727.492584895342588 ], [ 416172.606690383399837, 7621690.045441046357155 ], [ 416171.111117752909195, 7621653.815023904666305 ], [ 416171.065077915904112, 7621619.05220530834049 ], [ 416172.21425995399477, 7621585.503778034821153 ], [ 416174.478567485406529, 7621551.849645323120058 ], [ 416178.121674255409744, 7621516.872435878962278 ], [ 416183.309874712023884, 7621481.396489726379514 ], [ 416189.741758801741526, 7621447.189066208899021 ], [ 416197.019104607345071, 7621414.815514812245965 ], [ 416205.095719205681235, 7621383.474846437573433 ], [ 416214.096669601567555, 7621352.490698136389256 ], [ 416224.0664269446861, 7621321.711864493787289 ], [ 416235.203034513280727, 7621290.651287911459804 ], [ 416247.873000652645715, 7621258.795521354302764 ], [ 416262.08964592218399, 7621226.711480272933841 ], [ 416277.254991812922526, 7621195.803848302923143 ], [ 416295.918413545296062, 7621161.28808025829494 ] ] ] } },
{ "type": "Feature", "properties": { "fid": 253.0, "COMPR_M": 798.93, "CLASSE": "04 - Longa", "CD_FAZ": " 403973", "TALHOES": "2, 1", "FAZ_tAL": "403971002, 403973001", "ID_LINHA": 241369 }, "geometry": { "type": "MultiLineString", "coordinates": [ [ [ 416228.627430906170048, 7621935.316023448482156 ], [ 416216.542409683810547, 7621899.987021347507834 ], [ 416206.974456313124392, 7621868.474998312070966 ], [ 416198.157953733985778, 7621835.326827481389046 ], [ 416190.356335536343977, 7621800.640497673302889 ], [ 416183.814012773451395, 7621764.49673224799335 ], [ 416178.804793513205368, 7621727.164597641676664 ], [ 416175.601390680298209, 7621689.855162305757403 ], [ 416174.11103578354232, 7621653.751145321875811 ], [ 416174.06514594721375, 7621619.10158584266901 ], [ 416175.210809811425861, 7621585.655865708366036 ], [ 416177.468114172515925, 7621552.10582026746124 ], [ 416181.099093089578673, 7621517.245049476623535 ], [ 416186.269476187881082, 7621481.890935108065605 ], [ 416192.680319277453236, 7621447.795416333712637 ], [ 416199.935831888054963, 7621415.518990745767951 ], [ 416207.989385107299313, 7621384.267810236662626 ], [ 416216.964793240767904, 7621353.371586574241519 ], [ 416226.906099707586691, 7621322.680587038397789 ], [ 416238.009647565195337, 7621291.712215708568692 ], [ 416250.6392300130683, 7621259.957984814420342 ], [ 416264.808710172597785, 7621227.980385676026344 ], [ 416279.925352649937849, 7621197.172013370320201 ], [ 416297.57725648250198, 7621164.421519462019205 ] ] ] } },
{ "type": "Feature", "properties": { "fid": 254.0, "COMPR_M": 806.84, "CLASSE": "04 - Longa", "CD_FAZ": " 403973", "TALHOES": "2, 1", "FAZ_tAL": "403971002, 403973001", "ID_LINHA": 241370 }, "geometry": { "type": "MultiLineString", "coordinates": [ [ [ 416235.724060264532454, 7621945.935344143770635 ], [ 416229.453698246914428, 7621928.864598613232374 ], [ 416219.399634925532155, 7621899.071389358490705 ], [ 416209.860231994243804, 7621867.653397103771567 ], [ 416201.07208826567512, 7621834.611849507316947 ], [ 416193.297097390051931, 7621800.043905917555094 ], [ 416186.778250537579879, 7621764.029835695400834 ], [ 416181.787670101854019, 7621726.836610389873385 ], [ 416178.596090980106965, 7621689.664883565157652 ], [ 416177.110953813593369, 7621653.687266739085317 ], [ 416177.065213978406973, 7621619.150966376066208 ], [ 416178.207359668565914, 7621585.807953380048275 ], [ 416180.457660858926829, 7621552.361995212733746 ], [ 416184.076511924504302, 7621517.617663074284792 ], [ 416189.229077661992051, 7621482.385380487889051 ], [ 416195.618879753106739, 7621448.401766457594931 ], [ 416202.852559169288725, 7621416.222466675564647 ], [ 416210.883051009092014, 7621385.060774033889174 ], [ 416219.832916877465323, 7621354.252475010231137 ], [ 416229.74577247077832, 7621323.649309583008289 ], [ 416240.816260616877116, 7621292.773143502883613 ], [ 416253.405459375469945, 7621261.120448268018663 ], [ 416267.52777442173101, 7621229.249291079118848 ], [ 416282.595713487186003, 7621198.540178438648582 ], [ 416299.236099420173559, 7621167.554958662949502 ] ] ] } },
{ "type": "Feature", "properties": { "fid": 255.0, "COMPR_M": 814.8, "CLASSE": "04 - Longa", "CD_FAZ": " 403973", "TALHOES": "2, 1", "FAZ_tAL": "403971002, 403973001", "ID_LINHA": 241371 }, "geometry": { "type": "MultiLineString", "coordinates": [ [ [ 416242.853676286293194, 7621956.604025730863214 ], [ 416232.283470714173745, 7621927.86761580593884 ], [ 416222.25686016632244, 7621898.155757371336222 ], [ 416212.746007673500571, 7621866.831795891746879 ], [ 416203.986222796491347, 7621833.896871533244848 ], [ 416196.237859243061393, 7621799.447314163669944 ], [ 416189.742488304560538, 7621763.562939140945673 ], [ 416184.77054669347126, 7621726.508623134344816 ], [ 416181.59079127694713, 7621689.474604822695255 ], [ 416180.110871843644418, 7621653.623388154432178 ], [ 416180.065282008785289, 7621619.200346915051341 ], [ 416181.203909524716437, 7621585.960041053593159 ], [ 416183.447207546036225, 7621552.618170156143606 ], [ 416187.053930757450871, 7621517.990276670083404 ], [ 416192.188679136219434, 7621482.879825871437788 ], [ 416198.557440230797511, 7621449.008116582408547 ], [ 416205.769286449649371, 7621416.925942607223988 ], [ 416213.77671691053547, 7621385.853737832978368 ], [ 416222.701040514104534, 7621355.133363446220756 ], [ 416232.585445233562496, 7621324.618032125756145 ], [ 416243.62287366820965, 7621293.834071299061179 ], [ 416256.171688737114891, 7621262.282911728136241 ], [ 416270.246838671620935, 7621230.518196478486061 ], [ 416285.266074324725196, 7621199.908343506976962 ], [ 416300.894942358892877, 7621170.688397862017155 ] ] ] } },
{ "type": "Feature", "properties": { "fid": 256.0, "COMPR_M": 823.96, "CLASSE": "04 - Longa", "CD_FAZ": " 403973", "TALHOES": "2, 1", "FAZ_tAL": "403971002, 403973001", "ID_LINHA": 241372 }, "geometry": { "type": "MultiLineString", "coordinates": [ [ [ 416250.682637763442472, 7621968.319200418889523 ], [ 416235.113243179162964, 7621926.870632998645306 ], [ 416225.114085407461971, 7621897.240125384181738 ], [ 416215.631783353572246, 7621866.010194678790867 ], [ 416206.900357327715028, 7621833.181893558241427 ], [ 416199.178621094848495, 7621798.850722409784794 ], [ 416192.706726069096476, 7621763.096042585559189 ], [ 416187.75342328537954, 7621726.180635880678892 ], [ 416184.585491575358901, 7621689.284326081164181 ], [ 416183.110789874452166, 7621653.559509573504329 ], [ 416183.065350039687473, 7621619.249727444723248 ], [ 416184.200459381972905, 7621586.112128723412752 ], [ 416186.436754235182889, 7621552.874345103278756 ], [ 416190.0313495931332, 7621518.362890265882015 ], [ 416195.148280610679649, 7621483.374271254986525 ], [ 416201.496000705868937, 7621449.614466706290841 ], [ 416208.686013728496619, 7621417.629418540745974 ], [ 416216.670382812037133, 7621386.646701633930206 ], [ 416225.569164152082521, 7621356.014251883141696 ], [ 416235.425117996695917, 7621325.586754666641355 ], [ 416246.429486720531713, 7621294.894999091513455 ], [ 416258.937918097479269, 7621263.44537518452853 ], [ 416272.965902922849637, 7621231.787101881578565 ], [ 416287.936435160518158, 7621201.276508575305343 ], [ 416302.581226212729234, 7621173.873671052977443 ] ] ] } },
{ "type": "Feature", "properties": { "fid": 257.0, "COMPR_M": 833.11, "CLASSE": "04 - Longa", "CD_FAZ": " 403973", "TALHOES": "2, 1", "FAZ_tAL": "403971002, 403973001", "ID_LINHA": 241373 }, "geometry": { "type": "MultiLineString", "coordinates": [ [ [ 416258.51159924181411, 7621980.034375107847154 ], [ 416248.236106767784804, 7621953.896073594689369 ], [ 416237.943015643628314, 7621925.873650195077062 ], [ 416227.971310648368672, 7621896.324493393301964 ], [ 416218.51755903364392, 7621865.188593469560146 ], [ 416209.814491858705878, 7621832.466915583238006 ], [ 416202.119382949895225, 7621798.254130654036999 ], [ 416195.670963834505528, 7621762.629146027378738 ], [ 416190.736299876240082, 7621725.852648628875613 ], [ 416187.580191873421427, 7621689.094047341495752 ], [ 416186.110707903921138, 7621653.495630987919867 ], [ 416186.06541807029862, 7621619.299107981845737 ], [ 416187.197009238239843, 7621586.264216398820281 ], [ 416189.426300922350492, 7621553.130520046688616 ], [ 416193.008768428815529, 7621518.735503863543272 ], [ 416198.107882084674202, 7621483.868716633878648 ], [ 416204.434561182220932, 7621450.220816830173135 ], [ 416211.602741009090096, 7621418.332894473336637 ], [ 416219.564048714528326, 7621387.439665431156754 ], [ 416228.437287790060509, 7621356.89514032099396 ], [ 416238.264790759421885, 7621326.55547720938921 ], [ 416249.236099772504531, 7621295.955926883034408 ], [ 416261.704147459764499, 7621264.607838639989495 ], [ 416275.684967172855977, 7621233.056007282808423 ], [ 416290.606795998523012, 7621202.644673641771078 ], [ 416304.273962944047526, 7621177.071133272722363 ] ] ] } },
{ "type": "Feature", "properties": { "fid": 258.0, "COMPR_M": 839.27, "CLASSE": "04 - Longa", "CD_FAZ": " 403973", "TALHOES": "2, 1", "FAZ_tAL": "403971002, 403973001", "ID_LINHA": 241374 }, "geometry": { "type": "MultiLineString", "coordinates": [ [ [ 416265.425416713114828, 7621988.895802237093449 ], [ 416251.040483964141458, 7621952.829953445121646 ], [ 416240.772788111062255, 7621924.876667389646173 ], [ 416230.828535888867918, 7621895.408861408941448 ], [ 416221.403334712551441, 7621864.366992259398103 ], [ 416212.728626388241537, 7621831.751937605440617 ], [ 416205.060144801740535, 7621797.657538902945817 ], [ 416198.635201600205619, 7621762.162249473854899 ], [ 416193.719176466751378, 7621725.524661373347044 ], [ 416190.574892171774991, 7621688.903768599964678 ], [ 416189.110625934088603, 7621653.43175240419805 ], [ 416189.06548609957099, 7621619.348488517105579 ], [ 416190.193559095554519, 7621586.41630407050252 ], [ 416192.415847608877812, 7621553.386694992892444 ], [ 416195.986187263217289, 7621519.108117459341884 ], [ 416201.067483558203094, 7621484.36316201556474 ], [ 416207.373121657990851, 7621450.827166955918074 ], [ 416214.51946828950895, 7621419.036370404064655 ], [ 416222.457714615156874, 7621388.232629232108593 ], [ 416231.305411428096704, 7621357.776028756052256 ], [ 416241.104463523020968, 7621327.524199757725 ], [ 416252.04271282418631, 7621297.016854678280652 ], [ 416264.470376822107937, 7621265.770302096381783 ], [ 416278.404031423619017, 7621234.324912685900927 ], [ 416293.277156835538335, 7621204.012838709168136 ], [ 416305.966699673444964, 7621180.268595494329929 ] ] ] } },
{ "type": "Feature", "properties": { "fid": 259.0, "COMPR_M": 833.32, "CLASSE": "04 - Longa", "CD_FAZ": " 403973", "TALHOES": "2, 1", "FAZ_tAL": "403971002, 403973001", "ID_LINHA": 241375 }, "geometry": { "type": "MultiLineString", "coordinates": [ [ [ 416267.706013824790716, 7621986.563838032074273 ], [ 416253.844861161895096, 7621951.763833297416568 ], [ 416243.602560576749966, 7621923.879684583283961 ], [ 416233.685761129774619, 7621894.493229418992996 ], [ 416224.289110392855946, 7621863.545391047373414 ], [ 416215.642760919348802, 7621831.036959629505873 ], [ 416208.000906656845473, 7621797.060947147198021 ], [ 416201.599439365381841, 7621761.695352918468416 ], [ 416196.702053058834281, 7621725.196674121543765 ], [ 416193.569592469721101, 7621688.713489856570959 ], [ 416192.110543964954559, 7621653.367873821407557 ], [ 416192.065554131171666, 7621619.397869048640132 ], [ 416193.190108951937873, 7621586.568391744978726 ], [ 416195.405394295463338, 7621553.642869938164949 ], [ 416198.963606097677257, 7621519.48073105700314 ], [ 416204.027085032546893, 7621484.857607398182154 ], [ 416210.311682133702561, 7621451.433517081663013 ], [ 416217.43619557103375, 7621419.739846333861351 ], [ 416225.351380516716745, 7621389.025593029335141 ], [ 416234.173535066074692, 7621358.656917192973197 ], [ 416243.94413628563052, 7621328.49292229861021 ], [ 416254.84932587610092, 7621298.077782472595572 ], [ 416267.236606183694676, 7621266.932765552774072 ], [ 416281.123095674440265, 7621235.593818087130785 ], [ 416295.947517672728281, 7621205.381003777496517 ], [ 416307.659436401561834, 7621183.46605771780014 ] ] ] } },
{ "type": "Feature", "properties": { "fid": 260.0, "COMPR_M": 827.36, "CLASSE": "04 - Longa", "CD_FAZ": " 403973", "TALHOES": "2, 1", "FAZ_tAL": "403971002, 403973001", "ID_LINHA": 241376 }, "geometry": { "type": "MultiLineString", "coordinates": [ [ [ 416269.986610934662167, 7621984.231873825192451 ], [ 416256.649238358950242, 7621950.697713145986199 ], [ 416246.432333041448146, 7621922.882701777853072 ], [ 416236.542986370972358, 7621893.577597431838512 ], [ 416227.174886072578374, 7621862.72378983721137 ], [ 416218.556895449699368, 7621830.321981657296419 ], [ 416210.941668510029558, 7621796.464355394244194 ], [ 416204.563677129452117, 7621761.228456364013255 ], [ 416199.684929648588877, 7621724.868686869740486 ], [ 416196.564292767317966, 7621688.523211117833853 ], [ 416195.110461996519007, 7621653.303995238617063 ], [ 416195.065622162015643, 7621619.447249583899975 ], [ 416196.18665880872868, 7621586.720479415729642 ], [ 416198.394940984086134, 7621553.899044882506132 ], [ 416201.941024931496941, 7621519.853344652801752 ], [ 416206.986686507123522, 7621485.3520527780056 ], [ 416213.250242610112764, 7621452.039867207407951 ], [ 416220.352922850404866, 7621420.443322267383337 ], [ 416228.245046419091523, 7621389.81855683028698 ], [ 416237.041658703412395, 7621359.53780562710017 ], [ 416246.783809047890827, 7621329.461644841358066 ], [ 416257.655938927724492, 7621299.138710267841816 ], [ 416270.002835545339622, 7621268.09522901289165 ], [ 416283.84215992334066, 7621236.862723488360643 ], [ 416298.617878509568982, 7621206.74916884675622 ], [ 416309.352173130377196, 7621186.663519936613739 ] ] ] } },
{ "type": "Feature", "properties": { "fid": 261.0, "COMPR_M": 821.4, "CLASSE": "04 - Longa", "CD_FAZ": " 403973", "TALHOES": "2, 1", "FAZ_tAL": "403971002, 403973001", "ID_LINHA": 241377 }, "geometry": { "type": "MultiLineString", "coordinates": [ [ [ 416272.267208044650033, 7621981.899909617379308 ], [ 416259.453615555248689, 7621949.631593000143766 ], [ 416249.262105507659726, 7621921.885718969628215 ], [ 416239.400211612635758, 7621892.661965442821383 ], [ 416230.060661751078442, 7621861.902188627049327 ], [ 416221.471029980457388, 7621829.607003681361675 ], [ 416213.882430363213643, 7621795.867763640359044 ], [ 416207.527914895094, 7621760.761559808626771 ], [ 416202.667806240031496, 7621724.540699614211917 ], [ 416199.558993064565584, 7621688.332932375371456 ], [ 416198.110380025522318, 7621653.240116655826569 ], [ 416198.065690192684997, 7621619.496630117297173 ], [ 416199.183208665228449, 7621586.872567085549235 ], [ 416201.384487670788076, 7621554.155219827778637 ], [ 416204.918443768052384, 7621520.225958248600364 ], [ 416209.946287981234491, 7621485.846498161554337 ], [ 416216.188803087163251, 7621452.6462173294276 ], [ 416223.269650130881928, 7621421.146798198111355 ], [ 416231.138712320418563, 7621390.611520627513528 ], [ 416239.90978234144859, 7621360.418694065883756 ], [ 416249.623481812304817, 7621330.430367385968566 ], [ 416260.462551978998818, 7621300.199638064019382 ], [ 416272.769064906984568, 7621269.257692467421293 ], [ 416286.561224173638038, 7621238.131628891453147 ], [ 416301.288239345885813, 7621208.117333913221955 ], [ 416311.044909860473126, 7621189.860982159152627 ] ] ] } },
{ "type": "Feature", "properties": { "fid": 326.0, "COMPR_M": 691.52, "CLASSE": "04 - Longa", "CD_FAZ": " 403973", "TALHOES": "2, 1", "FAZ_tAL": "403971002, 403973001", "ID_LINHA": 241442 }, "geometry": { "type": "MultiLineString", "coordinates": [ [ [ 416098.985255642211996, 7621741.372250994667411 ], [ 416094.744482634065207, 7621694.992688318714499 ], [ 416093.113248964597005, 7621655.475867073982954 ], [ 416093.063309122342616, 7621617.76831141486764 ], [ 416094.303963678830769, 7621581.549498551525176 ], [ 416096.750353615614586, 7621545.189096752554178 ], [ 416100.708784551010467, 7621507.184482373297215 ], [ 416106.360236384905875, 7621468.540909809991717 ], [ 416113.339186427358072, 7621431.423962966538966 ], [ 416121.184195323439781, 7621396.525140589103103 ], [ 416129.860405760700814, 7621362.857787659391761 ], [ 416139.525455024675466, 7621329.587598785758018 ], [ 416150.234935104905162, 7621296.525078361853957 ], [ 416162.231095166294836, 7621263.067165261134505 ], [ 416175.95103724882938, 7621228.57147148065269 ], [ 416191.393975417246111, 7621193.719939827919006 ], [ 416207.82561004976742, 7621160.231556538492441 ], [ 416224.61764433758799, 7621128.810870125889778 ], [ 416242.111136483610608, 7621098.387764720246196 ], [ 416253.161382828839123, 7621080.52301618643105 ] ] ] } }
]
}
