{
"type": "FeatureCollection",
"name": " 403937",
"crs": { "type": "name", "properties": { "name": "urn:ogc:def:crs:EPSG::32722" } },
"xy_coordinate_resolution": 1e-15,
"features": [
{ "type": "Feature", "properties": { "fid": 2169.0, "COMPR_M": 53.09, "CLASSE": "01 - Muito curta", "CD_FAZ": " 403937", "TALHOES": "8, 6", "FAZ_tAL": "400456008, 403937006", "ID_LINHA": 127933 }, "geometry": { "type": "MultiLineString", "coordinates": [ [ [ 428913.1425197632052, 7624485.761853871867061 ], [ 428933.641112871933728, 7624436.808645809069276 ] ] ] } },
{ "type": "Feature", "properties": { "fid": 2170.0, "COMPR_M": 225.91, "CLASSE": "02 - Curta", "CD_FAZ": " 403937", "TALHOES": "8, 6", "FAZ_tAL": "400456008, 403937006", "ID_LINHA": 127934 }, "geometry": { "type": "MultiLineString", "coordinates": [ [ [ 428918.764802241465077, 7624480.073925564065576 ], [ 428949.571471940202173, 7624406.925709137693048 ], [ 428958.14488201943459, 7624387.829749582335353 ], [ 428966.841561298002489, 7624372.390997938811779 ], [ 428972.208029092696961, 7624364.925859529525042 ], [ 428978.458306495740544, 7624357.830017539672554 ], [ 428985.71913537645014, 7624351.298204999417067 ], [ 428993.961706471163779, 7624345.599511451087892 ], [ 429002.875430720858276, 7624340.924584733322263 ], [ 429017.096948534133844, 7624335.829553164541721 ], [ 429031.907740549184382, 7624333.104237362742424 ], [ 429041.889274280692916, 7624332.710407750681043 ], [ 429051.808393539628014, 7624333.589034808799624 ], [ 429060.680256860563532, 7624335.681741850450635 ] ] ] } },
{ "type": "Feature", "properties": { "fid": 2171.0, "COMPR_M": 212.5, "CLASSE": "02 - Curta", "CD_FAZ": " 403937", "TALHOES": "8, 6", "FAZ_tAL": "400456008, 403937006", "ID_LINHA": 127935 }, "geometry": { "type": "MultiLineString", "coordinates": [ [ [ 428924.391683159105014, 7624474.381345121189952 ], [ 428952.330235953966621, 7624408.104362698271871 ], [ 428960.835562666645274, 7624389.15688116941601 ], [ 428969.350205056311097, 7624374.037298776209354 ], [ 428974.559785950812511, 7624366.789925493299961 ], [ 428980.596252914168872, 7624359.936386847868562 ], [ 428987.581999645626638, 7624353.651753388345242 ], [ 428995.511132266605273, 7624348.170039253309369 ], [ 429004.115935444482602, 7624343.65738027729094 ], [ 429017.878008267842233, 7624338.727209232747555 ], [ 429027.395525733649265, 7624336.70418109651655 ], [ 429037.016482610022649, 7624335.756003817543387 ], [ 429046.60005062376149, 7624335.971066811122 ], [ 429058.299431765568443, 7624338.127020925283432 ] ] ] } },
{ "type": "Feature", "properties": { "fid": 2172.0, "COMPR_M": 199.09, "CLASSE": "02 - Curta", "CD_FAZ": " 403937", "TALHOES": "8, 6", "FAZ_tAL": "400456008, 403937006", "ID_LINHA": 127936 }, "geometry": { "type": "MultiLineString", "coordinates": [ [ [ 428930.024411876162048, 7624468.682848603464663 ], [ 428956.682252160273492, 7624405.559890624135733 ], [ 428963.526243314903695, 7624390.48401274997741 ], [ 428971.858848814445082, 7624375.683599612675607 ], [ 428976.911542807938531, 7624368.653991460800171 ], [ 428982.734199334285222, 7624362.042756155133247 ], [ 428989.444863914861344, 7624356.005301777273417 ], [ 428997.060558062919881, 7624350.740567054599524 ], [ 429005.356440166244283, 7624346.390175823122263 ], [ 429018.659068002016284, 7624341.624865302816033 ], [ 429027.857672413636465, 7624339.669537553563714 ], [ 429037.13470911415061, 7624338.755031293258071 ], [ 429046.335172952036373, 7624338.961094122380018 ], [ 429055.918606668012217, 7624340.572299998253584 ] ] ] } },
{ "type": "Feature", "properties": { "fid": 2173.0, "COMPR_M": 185.61, "CLASSE": "02 - Curta", "CD_FAZ": " 403937", "TALHOES": "8, 6", "FAZ_tAL": "400456008, 403937006", "ID_LINHA": 127937 }, "geometry": { "type": "MultiLineString", "coordinates": [ [ [ 428935.664231569506228, 7624462.977178314700723 ], [ 428959.437683471653145, 7624406.746332073584199 ], [ 428966.216923961415887, 7624391.811144333332777 ], [ 428974.367492572346237, 7624377.329900448210537 ], [ 428979.263299666112289, 7624370.518057425506413 ], [ 428984.872145753528457, 7624364.149125464260578 ], [ 428991.307728183397558, 7624358.358850162476301 ], [ 428998.609983858768828, 7624353.311094858683646 ], [ 429006.596944890916348, 7624349.12297136709094 ], [ 429015.073773680953309, 7624345.825908923521638 ], [ 429023.862654346507043, 7624343.456666130572557 ], [ 429032.79029831441585, 7624342.06458780169487 ], [ 429041.686655234429054, 7624341.712690033018589 ], [ 429053.464923851075582, 7624343.092409208416939 ] ] ] } },
{ "type": "Feature", "properties": { "fid": 2174.0, "COMPR_M": 172.09, "CLASSE": "02 - Curta", "CD_FAZ": " 403937", "TALHOES": "8, 6", "FAZ_tAL": "400456008, 403937006", "ID_LINHA": 127938 }, "geometry": { "type": "MultiLineString", "coordinates": [ [ [ 428941.312378205242567, 7624457.263083855621517 ], [ 428962.193114782625344, 7624407.93277352489531 ], [ 428968.907604608801194, 7624393.138275915756822 ], [ 428976.876136331353337, 7624378.976201286539435 ], [ 428981.615056524518877, 7624372.3821233920753 ], [ 428987.010092173062731, 7624366.255494772456586 ], [ 428993.170592452632263, 7624360.712398553267121 ], [ 429000.159409654093906, 7624355.881622662767768 ], [ 429007.837449613725767, 7624351.855766913853586 ], [ 429016.009048643056303, 7624348.677530653774738 ], [ 429024.486530910886358, 7624346.392204277217388 ], [ 429033.084484235616401, 7624345.051371278241277 ], [ 429041.619115554145537, 7624344.713450793176889 ], [ 429050.968850196222775, 7624345.656056863255799 ] ] ] } },
{ "type": "Feature", "properties": { "fid": 2179.0, "COMPR_M": 88.84, "CLASSE": "01 - Muito curta", "CD_FAZ": " 403937", "TALHOES": "8, 6", "FAZ_tAL": "400456008, 403937006", "ID_LINHA": 127942 }, "geometry": { "type": "MultiLineString", "coordinates": [ [ [ 428975.444610571954399, 7624422.732323177158833 ], [ 428983.440892419021111, 7624404.457347840070724 ], [ 428988.38793123268988, 7624394.720939028076828 ], [ 428993.791335675807204, 7624386.134779153391719 ], [ 428999.837770689628087, 7624378.893710618838668 ], [ 429006.808418419619557, 7624373.012524986639619 ], [ 429015.280477954423986, 7624368.252540183253586 ], [ 429024.907545872614719, 7624364.806113847531378 ], [ 429034.00426104455255, 7624363.079913371242583 ] ] ] } },
{ "type": "Feature", "properties": { "fid": 2180.0, "COMPR_M": 103.13, "CLASSE": "02 - Curta", "CD_FAZ": " 403937", "TALHOES": "8, 6", "FAZ_tAL": "400456008, 403937006", "ID_LINHA": 127943 }, "geometry": { "type": "MultiLineString", "coordinates": [ [ [ 428969.72064138908172, 7624428.523125482723117 ], [ 428979.12193797796499, 7624406.675104950554669 ], [ 428985.769732529122848, 7624393.255627566948533 ], [ 428991.354560603620484, 7624384.383598041720688 ], [ 428997.699824269628152, 7624376.787341311573982 ], [ 429005.101229701598641, 7624370.543758342042565 ], [ 429014.039973230392206, 7624365.519744638353586 ], [ 429024.126486137975007, 7624361.908457780256867 ], [ 429031.092699169064872, 7624360.427032742649317 ], [ 429037.19623151794076, 7624359.801529495045543 ] ] ] } },
{ "type": "Feature", "properties": { "fid": 2181.0, "COMPR_M": 117.19, "CLASSE": "02 - Curta", "CD_FAZ": " 403937", "TALHOES": "8, 6", "FAZ_tAL": "400456008, 403937006", "ID_LINHA": 127944 }, "geometry": { "type": "MultiLineString", "coordinates": [ [ [ 428964.012644339643884, 7624434.297769169323146 ], [ 428974.793171310331672, 7624409.03542441688478 ], [ 428981.380987105658278, 7624395.070538874715567 ], [ 428988.917785530094989, 7624382.632416928187013 ], [ 428995.56187784881331, 7624374.680971999652684 ], [ 429003.394040983635932, 7624368.074991695582867 ], [ 429009.500904107815586, 7624364.39683588873595 ], [ 429016.225274355267175, 7624361.345839970745146 ], [ 429026.982037166482769, 7624358.134356869384646 ], [ 429034.26122792402748, 7624356.998505193740129 ], [ 429040.189416252251249, 7624356.727312911301851 ] ] ] } },
{ "type": "Feature", "properties": { "fid": 2182.0, "COMPR_M": 131.08, "CLASSE": "02 - Curta", "CD_FAZ": " 403937", "TALHOES": "8, 6", "FAZ_tAL": "400456008, 403937006", "ID_LINHA": 127945 }, "geometry": { "type": "MultiLineString", "coordinates": [ [ [ 428958.319010061677545, 7624440.057882383465767 ], [ 428972.045563533320092, 7624407.830924635753036 ], [ 428978.722499839845113, 7624393.679868457838893 ], [ 428986.481010455056094, 7624380.881235818378627 ], [ 428993.423931429628283, 7624372.574602693319321 ], [ 429001.686852265789639, 7624365.606225050985813 ], [ 429008.106900274928194, 7624361.738956627435982 ], [ 429015.137292457395233, 7624358.548883745446801 ], [ 429022.564366670965683, 7624356.113145643845201 ], [ 429030.168405811302364, 7624354.496319830417633 ], [ 429037.725841628271155, 7624353.750168660655618 ], [ 429043.035857886425219, 7624353.803812073543668 ] ] ] } },
{ "type": "Feature", "properties": { "fid": 2183.0, "COMPR_M": 144.86, "CLASSE": "02 - Curta", "CD_FAZ": " 403937", "TALHOES": "8, 6", "FAZ_tAL": "400456008, 403937006", "ID_LINHA": 127946 }, "geometry": { "type": "MultiLineString", "coordinates": [ [ [ 428952.638554089877289, 7624445.804663420654833 ], [ 428969.297955755784642, 7624406.626424852758646 ], [ 428976.064012573449872, 7624392.289198045618832 ], [ 428984.044235381996259, 7624379.130054708570242 ], [ 428991.285985010792501, 7624370.46823338419199 ], [ 428996.896320989762899, 7624365.419495327398181 ], [ 429003.258261244744062, 7624361.022678263485432 ], [ 429010.318459060741588, 7624357.321358002722263 ], [ 429017.879598569590598, 7624354.380774118006229 ], [ 429025.734284038713668, 7624352.263280572369695 ], [ 429033.672856079821941, 7624351.024938235059381 ], [ 429045.781868157209828, 7624350.983461488038301 ] ] ] } },
{ "type": "Feature", "properties": { "fid": 2184.0, "COMPR_M": 158.51, "CLASSE": "02 - Curta", "CD_FAZ": " 403937", "TALHOES": "8, 6", "FAZ_tAL": "400456008, 403937006", "ID_LINHA": 127947 }, "geometry": { "type": "MultiLineString", "coordinates": [ [ [ 428946.970079544174951, 7624451.539323132485151 ], [ 428966.550347977841739, 7624405.421925069764256 ], [ 428973.405525307869539, 7624390.898527629673481 ], [ 428981.607460308121517, 7624377.378873595967889 ], [ 428989.148038593062665, 7624368.361864078789949 ], [ 428995.033456721168477, 7624363.065946943126619 ], [ 429001.708835448371246, 7624358.452150462195277 ], [ 429009.077954337466508, 7624354.588562458753586 ], [ 429016.944323606730904, 7624351.529152385890484 ], [ 429025.110407474916428, 7624349.327742428518832 ], [ 429033.378670158272143, 7624348.038154756650329 ], [ 429041.551575872232206, 7624347.714211558923125 ], [ 429048.41007865127176, 7624348.284099772572517 ] ] ] } },
{ "type": "Feature", "properties": { "fid": 25.0, "COMPR_M": 53.09, "CLASSE": "01 - Muito curta", "CD_FAZ": " 403937", "TALHOES": "8, 6", "FAZ_tAL": "400456008, 403937006", "ID_LINHA": 231161 }, "geometry": { "type": "MultiLineString", "coordinates": [ [ [ 428913.1425197632052, 7624485.761853871867061 ], [ 428933.641112871933728, 7624436.808645809069276 ] ] ] } },
{ "type": "Feature", "properties": { "fid": 26.0, "COMPR_M": 225.91, "CLASSE": "02 - Curta", "CD_FAZ": " 403937", "TALHOES": "8, 6", "FAZ_tAL": "400456008, 403937006", "ID_LINHA": 231162 }, "geometry": { "type": "MultiLineString", "coordinates": [ [ [ 428918.764802241465077, 7624480.073925564065576 ], [ 428949.571471940202173, 7624406.925709137693048 ], [ 428958.14488201943459, 7624387.829749582335353 ], [ 428966.841561298002489, 7624372.390997938811779 ], [ 428972.208029092696961, 7624364.925859529525042 ], [ 428978.458306495740544, 7624357.830017539672554 ], [ 428985.71913537645014, 7624351.298204999417067 ], [ 428993.961706471163779, 7624345.599511451087892 ], [ 429002.875430720858276, 7624340.924584733322263 ], [ 429017.096948534133844, 7624335.829553164541721 ], [ 429031.907740549184382, 7624333.104237362742424 ], [ 429041.889274280692916, 7624332.710407750681043 ], [ 429051.808393539628014, 7624333.589034808799624 ], [ 429060.680256860563532, 7624335.681741850450635 ] ] ] } },
{ "type": "Feature", "properties": { "fid": 27.0, "COMPR_M": 212.5, "CLASSE": "02 - Curta", "CD_FAZ": " 403937", "TALHOES": "8, 6", "FAZ_tAL": "400456008, 403937006", "ID_LINHA": 231163 }, "geometry": { "type": "MultiLineString", "coordinates": [ [ [ 428924.391683159105014, 7624474.381345121189952 ], [ 428952.330235953966621, 7624408.104362698271871 ], [ 428960.835562666645274, 7624389.15688116941601 ], [ 428969.350205056311097, 7624374.037298776209354 ], [ 428974.559785950812511, 7624366.789925493299961 ], [ 428980.596252914168872, 7624359.936386847868562 ], [ 428987.581999645626638, 7624353.651753388345242 ], [ 428995.511132266605273, 7624348.170039253309369 ], [ 429004.115935444482602, 7624343.65738027729094 ], [ 429017.878008267842233, 7624338.727209232747555 ], [ 429027.395525733649265, 7624336.70418109651655 ], [ 429037.016482610022649, 7624335.756003817543387 ], [ 429046.60005062376149, 7624335.971066811122 ], [ 429058.299431765568443, 7624338.127020925283432 ] ] ] } },
{ "type": "Feature", "properties": { "fid": 28.0, "COMPR_M": 199.09, "CLASSE": "02 - Curta", "CD_FAZ": " 403937", "TALHOES": "8, 6", "FAZ_tAL": "400456008, 403937006", "ID_LINHA": 231164 }, "geometry": { "type": "MultiLineString", "coordinates": [ [ [ 428930.024411876162048, 7624468.682848603464663 ], [ 428956.682252160273492, 7624405.559890624135733 ], [ 428963.526243314903695, 7624390.48401274997741 ], [ 428971.858848814445082, 7624375.683599612675607 ], [ 428976.911542807938531, 7624368.653991460800171 ], [ 428982.734199334285222, 7624362.042756155133247 ], [ 428989.444863914861344, 7624356.005301777273417 ], [ 428997.060558062919881, 7624350.740567054599524 ], [ 429005.356440166244283, 7624346.390175823122263 ], [ 429018.659068002016284, 7624341.624865302816033 ], [ 429027.857672413636465, 7624339.669537553563714 ], [ 429037.13470911415061, 7624338.755031293258071 ], [ 429046.335172952036373, 7624338.961094122380018 ], [ 429055.918606668012217, 7624340.572299998253584 ] ] ] } },
{ "type": "Feature", "properties": { "fid": 29.0, "COMPR_M": 185.61, "CLASSE": "02 - Curta", "CD_FAZ": " 403937", "TALHOES": "8, 6", "FAZ_tAL": "400456008, 403937006", "ID_LINHA": 231165 }, "geometry": { "type": "MultiLineString", "coordinates": [ [ [ 428935.664231569506228, 7624462.977178314700723 ], [ 428959.437683471653145, 7624406.746332073584199 ], [ 428966.216923961415887, 7624391.811144333332777 ], [ 428974.367492572346237, 7624377.329900448210537 ], [ 428979.263299666112289, 7624370.518057425506413 ], [ 428984.872145753528457, 7624364.149125464260578 ], [ 428991.307728183397558, 7624358.358850162476301 ], [ 428998.609983858768828, 7624353.311094858683646 ], [ 429006.596944890916348, 7624349.12297136709094 ], [ 429015.073773680953309, 7624345.825908923521638 ], [ 429023.862654346507043, 7624343.456666130572557 ], [ 429032.79029831441585, 7624342.06458780169487 ], [ 429041.686655234429054, 7624341.712690033018589 ], [ 429053.464923851075582, 7624343.092409208416939 ] ] ] } },
{ "type": "Feature", "properties": { "fid": 30.0, "COMPR_M": 172.09, "CLASSE": "02 - Curta", "CD_FAZ": " 403937", "TALHOES": "8, 6", "FAZ_tAL": "400456008, 403937006", "ID_LINHA": 231166 }, "geometry": { "type": "MultiLineString", "coordinates": [ [ [ 428941.312378205242567, 7624457.263083855621517 ], [ 428962.193114782625344, 7624407.93277352489531 ], [ 428968.907604608801194, 7624393.138275915756822 ], [ 428976.876136331353337, 7624378.976201286539435 ], [ 428981.615056524518877, 7624372.3821233920753 ], [ 428987.010092173062731, 7624366.255494772456586 ], [ 428993.170592452632263, 7624360.712398553267121 ], [ 429000.159409654093906, 7624355.881622662767768 ], [ 429007.837449613725767, 7624351.855766913853586 ], [ 429016.009048643056303, 7624348.677530653774738 ], [ 429024.486530910886358, 7624346.392204277217388 ], [ 429033.084484235616401, 7624345.051371278241277 ], [ 429041.619115554145537, 7624344.713450793176889 ], [ 429050.968850196222775, 7624345.656056863255799 ] ] ] } },
{ "type": "Feature", "properties": { "fid": 35.0, "COMPR_M": 88.84, "CLASSE": "01 - Muito curta", "CD_FAZ": " 403937", "TALHOES": "8, 6", "FAZ_tAL": "400456008, 403937006", "ID_LINHA": 231170 }, "geometry": { "type": "MultiLineString", "coordinates": [ [ [ 428975.444610571954399, 7624422.732323177158833 ], [ 428983.440892419021111, 7624404.457347840070724 ], [ 428988.38793123268988, 7624394.720939028076828 ], [ 428993.791335675807204, 7624386.134779153391719 ], [ 428999.837770689628087, 7624378.893710618838668 ], [ 429006.808418419619557, 7624373.012524986639619 ], [ 429015.280477954423986, 7624368.252540183253586 ], [ 429024.907545872614719, 7624364.806113847531378 ], [ 429034.00426104455255, 7624363.079913371242583 ] ] ] } },
{ "type": "Feature", "properties": { "fid": 36.0, "COMPR_M": 103.13, "CLASSE": "02 - Curta", "CD_FAZ": " 403937", "TALHOES": "8, 6", "FAZ_tAL": "400456008, 403937006", "ID_LINHA": 231171 }, "geometry": { "type": "MultiLineString", "coordinates": [ [ [ 428969.72064138908172, 7624428.523125482723117 ], [ 428979.12193797796499, 7624406.675104950554669 ], [ 428985.769732529122848, 7624393.255627566948533 ], [ 428991.354560603620484, 7624384.383598041720688 ], [ 428997.699824269628152, 7624376.787341311573982 ], [ 429005.101229701598641, 7624370.543758342042565 ], [ 429014.039973230392206, 7624365.519744638353586 ], [ 429024.126486137975007, 7624361.908457780256867 ], [ 429031.092699169064872, 7624360.427032742649317 ], [ 429037.19623151794076, 7624359.801529495045543 ] ] ] } },
{ "type": "Feature", "properties": { "fid": 37.0, "COMPR_M": 117.19, "CLASSE": "02 - Curta", "CD_FAZ": " 403937", "TALHOES": "8, 6", "FAZ_tAL": "400456008, 403937006", "ID_LINHA": 231172 }, "geometry": { "type": "MultiLineString", "coordinates": [ [ [ 428964.012644339643884, 7624434.297769169323146 ], [ 428974.793171310331672, 7624409.03542441688478 ], [ 428981.380987105658278, 7624395.070538874715567 ], [ 428988.917785530094989, 7624382.632416928187013 ], [ 428995.56187784881331, 7624374.680971999652684 ], [ 429003.394040983635932, 7624368.074991695582867 ], [ 429009.500904107815586, 7624364.39683588873595 ], [ 429016.225274355267175, 7624361.345839970745146 ], [ 429026.982037166482769, 7624358.134356869384646 ], [ 429034.26122792402748, 7624356.998505193740129 ], [ 429040.189416252251249, 7624356.727312911301851 ] ] ] } },
{ "type": "Feature", "properties": { "fid": 38.0, "COMPR_M": 131.08, "CLASSE": "02 - Curta", "CD_FAZ": " 403937", "TALHOES": "8, 6", "FAZ_tAL": "400456008, 403937006", "ID_LINHA": 231173 }, "geometry": { "type": "MultiLineString", "coordinates": [ [ [ 428958.319010061677545, 7624440.057882383465767 ], [ 428972.045563533320092, 7624407.830924635753036 ], [ 428978.722499839845113, 7624393.679868457838893 ], [ 428986.481010455056094, 7624380.881235818378627 ], [ 428993.423931429628283, 7624372.574602693319321 ], [ 429001.686852265789639, 7624365.606225050985813 ], [ 429008.106900274928194, 7624361.738956627435982 ], [ 429015.137292457395233, 7624358.548883745446801 ], [ 429022.564366670965683, 7624356.113145643845201 ], [ 429030.168405811302364, 7624354.496319830417633 ], [ 429037.725841628271155, 7624353.750168660655618 ], [ 429043.035857886425219, 7624353.803812073543668 ] ] ] } },
{ "type": "Feature", "properties": { "fid": 39.0, "COMPR_M": 144.86, "CLASSE": "02 - Curta", "CD_FAZ": " 403937", "TALHOES": "8, 6", "FAZ_tAL": "400456008, 403937006", "ID_LINHA": 231174 }, "geometry": { "type": "MultiLineString", "coordinates": [ [ [ 428952.638554089877289, 7624445.804663420654833 ], [ 428969.297955755784642, 7624406.626424852758646 ], [ 428976.064012573449872, 7624392.289198045618832 ], [ 428984.044235381996259, 7624379.130054708570242 ], [ 428991.285985010792501, 7624370.46823338419199 ], [ 428996.896320989762899, 7624365.419495327398181 ], [ 429003.258261244744062, 7624361.022678263485432 ], [ 429010.318459060741588, 7624357.321358002722263 ], [ 429017.879598569590598, 7624354.380774118006229 ], [ 429025.734284038713668, 7624352.263280572369695 ], [ 429033.672856079821941, 7624351.024938235059381 ], [ 429045.781868157209828, 7624350.983461488038301 ] ] ] } },
{ "type": "Feature", "properties": { "fid": 40.0, "COMPR_M": 158.51, "CLASSE": "02 - Curta", "CD_FAZ": " 403937", "TALHOES": "8, 6", "FAZ_tAL": "400456008, 403937006", "ID_LINHA": 231175 }, "geometry": { "type": "MultiLineString", "coordinates": [ [ [ 428946.970079544174951, 7624451.539323132485151 ], [ 428966.550347977841739, 7624405.421925069764256 ], [ 428973.405525307869539, 7624390.898527629673481 ], [ 428981.607460308121517, 7624377.378873595967889 ], [ 428989.148038593062665, 7624368.361864078789949 ], [ 428995.033456721168477, 7624363.065946943126619 ], [ 429001.708835448371246, 7624358.452150462195277 ], [ 429009.077954337466508, 7624354.588562458753586 ], [ 429016.944323606730904, 7624351.529152385890484 ], [ 429025.110407474916428, 7624349.327742428518832 ], [ 429033.378670158272143, 7624348.038154756650329 ], [ 429041.551575872232206, 7624347.714211558923125 ], [ 429048.41007865127176, 7624348.284099772572517 ] ] ] } }
]
}
