{
"type": "FeatureCollection",
"name": " 403930",
"crs": { "type": "name", "properties": { "name": "urn:ogc:def:crs:EPSG::32722" } },
"xy_coordinate_resolution": 1e-15,
"features": [
{ "type": "Feature", "properties": { "fid": 737.0, "COMPR_M": 48.42, "CLASSE": "01 - Muito curta", "CD_FAZ": " 403930", "TALHOES": "2, 4", "FAZ_tAL": "403883002, 403930004", "ID_LINHA": 211078 }, "geometry": { "type": "MultiLineString", "coordinates": [ [ [ 430765.802629771584179, 7627437.278932427987456 ], [ 430720.174936062307097, 7627421.116264505311847 ] ] ] } },
{ "type": "Feature", "properties": { "fid": 942.0, "COMPR_M": 230.39, "CLASSE": "02 - Curta", "CD_FAZ": " 403930", "TALHOES": "2, 4", "FAZ_tAL": "403883002, 403930004", "ID_LINHA": 211283 }, "geometry": { "type": "MultiLineString", "coordinates": [ [ [ 430740.68747437314596, 7626798.713576673530042 ], [ 430708.788527707220055, 7626795.706920053809881 ], [ 430683.765875985845923, 7626794.19627583026886 ], [ 430659.704807788715698, 7626793.418988661840558 ], [ 430629.113835969124921, 7626793.358233605511487 ], [ 430600.208601152466144, 7626794.223656582646072 ], [ 430572.95319511834532, 7626795.830815916880965 ], [ 430541.177556220500264, 7626798.632596429437399 ], [ 430510.972403807740193, 7626802.179096978157759 ] ] ] } },
{ "type": "Feature", "properties": { "fid": 943.0, "COMPR_M": 231.1, "CLASSE": "02 - Curta", "CD_FAZ": " 403930", "TALHOES": "2, 4", "FAZ_tAL": "403883002, 403930004", "ID_LINHA": 211284 }, "geometry": { "type": "MultiLineString", "coordinates": [ [ [ 430740.58671971061267, 7626795.683823404833674 ], [ 430709.012867556943092, 7626792.715282732620835 ], [ 430683.903665256220847, 7626791.199409119784832 ], [ 430659.761323245533276, 7626790.419492390006781 ], [ 430629.070088216918521, 7626790.358528750017285 ], [ 430600.0736572323367, 7626791.22667343635112 ], [ 430572.735823512426578, 7626792.838685318827629 ], [ 430540.86917392956093, 7626795.648476182483137 ], [ 430510.163310635834932, 7626799.260465176776052 ] ] ] } },
{ "type": "Feature", "properties": { "fid": 944.0, "COMPR_M": 231.81, "CLASSE": "02 - Curta", "CD_FAZ": " 403930", "TALHOES": "2, 4", "FAZ_tAL": "403883002, 403930004", "ID_LINHA": 211285 }, "geometry": { "type": "MultiLineString", "coordinates": [ [ [ 430740.485965046857018, 7626792.654070131480694 ], [ 430709.237207406491507, 7626789.723645405843854 ], [ 430684.041454526770394, 7626788.202542407438159 ], [ 430659.817838701535948, 7626787.419996117241681 ], [ 430629.026340464188252, 7626787.358823893591762 ], [ 430599.938713311625179, 7626788.229690290987492 ], [ 430572.518451906333212, 7626789.846554720774293 ], [ 430540.560791637399234, 7626792.664355933666229 ], [ 430509.354217464104295, 7626796.341833375394344 ] ] ] } },
{ "type": "Feature", "properties": { "fid": 945.0, "COMPR_M": 232.52, "CLASSE": "02 - Curta", "CD_FAZ": " 403930", "TALHOES": "2, 4", "FAZ_tAL": "403883002, 403930004", "ID_LINHA": 211286 }, "geometry": { "type": "MultiLineString", "coordinates": [ [ [ 430740.385210383217782, 7626789.624316860921681 ], [ 430709.461547257145867, 7626786.732008082792163 ], [ 430684.179243797494564, 7626785.205675698816776 ], [ 430659.874354158178903, 7626784.420499842613935 ], [ 430628.982592712156475, 7626784.35911903809756 ], [ 430599.803769390971866, 7626785.232707145623863 ], [ 430572.301080300298054, 7626786.854424120858312 ], [ 430540.252409345295746, 7626789.680235682986677 ], [ 430508.545124292024411, 7626793.423201575875282 ] ] ] } },
{ "type": "Feature", "properties": { "fid": 946.0, "COMPR_M": 233.23, "CLASSE": "02 - Curta", "CD_FAZ": " 403930", "TALHOES": "2, 4", "FAZ_tAL": "403883002, 403930004", "ID_LINHA": 211287 }, "geometry": { "type": "MultiLineString", "coordinates": [ [ [ 430740.28445572045166, 7626786.594563591293991 ], [ 430709.685887106345035, 7626783.740370758809149 ], [ 430684.31703306781128, 7626782.208808984607458 ], [ 430659.930869614065159, 7626781.421003567054868 ], [ 430628.93884495832026, 7626781.359414183534682 ], [ 430599.668825469096191, 7626782.235723999328911 ], [ 430572.083708693564404, 7626783.862293520011008 ], [ 430539.94402705389075, 7626786.696115434169769 ], [ 430507.736031120759435, 7626790.504569778218865 ] ] ] } },
{ "type": "Feature", "properties": { "fid": 947.0, "COMPR_M": 233.95, "CLASSE": "02 - Curta", "CD_FAZ": " 403930", "TALHOES": "2, 4", "FAZ_tAL": "403883002, 403930004", "ID_LINHA": 211288 }, "geometry": { "type": "MultiLineString", "coordinates": [ [ [ 430740.183701055822894, 7626783.564810322597623 ], [ 430709.910226956009865, 7626780.74873343296349 ], [ 430684.454822338826489, 7626779.211942277848721 ], [ 430659.987385070533492, 7626778.42150729522109 ], [ 430628.895097207743675, 7626778.359709329903126 ], [ 430599.533881549257785, 7626779.23874085303396 ], [ 430571.866337087994907, 7626780.870162922888994 ], [ 430539.635644762485754, 7626783.711995184421539 ], [ 430506.926937948330306, 7626787.585937976837158 ] ] ] } },
{ "type": "Feature", "properties": { "fid": 948.0, "COMPR_M": 234.66, "CLASSE": "02 - Curta", "CD_FAZ": " 403930", "TALHOES": "2, 4", "FAZ_tAL": "403883002, 403930004", "ID_LINHA": 211289 }, "geometry": { "type": "MultiLineString", "coordinates": [ [ [ 430740.082946393289603, 7626780.535057052969933 ], [ 430710.134566806198563, 7626777.757096111774445 ], [ 430684.592611609434243, 7626776.215075565502048 ], [ 430660.043900526943617, 7626775.422011021524668 ], [ 430628.85134945466416, 7626775.360004473477602 ], [ 430599.39893762889551, 7626776.241757707670331 ], [ 430571.648965482483618, 7626777.878032322973013 ], [ 430539.327262471197173, 7626780.727874936535954 ], [ 430506.117844776890706, 7626784.667306173592806 ] ] ] } },
{ "type": "Feature", "properties": { "fid": 949.0, "COMPR_M": 235.37, "CLASSE": "02 - Curta", "CD_FAZ": " 403930", "TALHOES": "2, 4", "FAZ_tAL": "403883002, 403930004", "ID_LINHA": 211290 }, "geometry": { "type": "MultiLineString", "coordinates": [ [ [ 430739.982191729533952, 7626777.50530378241092 ], [ 430710.358906655572355, 7626774.765458788722754 ], [ 430684.730400878819637, 7626773.21820885501802 ], [ 430660.100415981956758, 7626772.422514747828245 ], [ 430628.80760170170106, 7626772.360299617052078 ], [ 430599.263993707892951, 7626773.24477456137538 ], [ 430564.735662916617002, 7626775.394328391179442 ], [ 430532.808863560261671, 7626778.403421505354345 ], [ 430505.308751604927238, 7626781.748674373142421 ] ] ] } },
{ "type": "Feature", "properties": { "fid": 950.0, "COMPR_M": 236.1, "CLASSE": "02 - Curta", "CD_FAZ": " 403930", "TALHOES": "2, 4", "FAZ_tAL": "403883002, 403930004", "ID_LINHA": 211291 }, "geometry": { "type": "MultiLineString", "coordinates": [ [ [ 430739.881437066011131, 7626774.475550513714552 ], [ 430710.583246505470015, 7626771.773821465671062 ], [ 430684.868190149078146, 7626770.221342144533992 ], [ 430660.15693143819226, 7626769.423018474131823 ], [ 430628.763853950134944, 7626769.3605947624892 ], [ 430599.129049787647091, 7626770.247791413217783 ], [ 430564.499015608394984, 7626772.403661410324275 ], [ 430532.48363764421083, 7626775.421090492978692 ], [ 430504.478001254901756, 7626778.832932207733393 ] ] ] } },
{ "type": "Feature", "properties": { "fid": 951.0, "COMPR_M": 236.85, "CLASSE": "02 - Curta", "CD_FAZ": " 403930", "TALHOES": "2, 4", "FAZ_tAL": "403883002, 403930004", "ID_LINHA": 211292 }, "geometry": { "type": "MultiLineString", "coordinates": [ [ [ 430739.780682402546518, 7626771.445797242224216 ], [ 430710.807586354436353, 7626768.782184141688049 ], [ 430685.005979420850053, 7626767.224475436843932 ], [ 430652.173091972596012, 7626766.307176796719432 ], [ 430621.124201644910499, 7626766.50196373462677 ], [ 430591.834448828478344, 7626767.599147060886025 ], [ 430564.26236830058042, 7626769.412994428537786 ], [ 430532.158411729033105, 7626772.438759480603039 ], [ 430503.629927375586703, 7626775.919501454569399 ] ] ] } },
{ "type": "Feature", "properties": { "fid": 952.0, "COMPR_M": 237.6, "CLASSE": "02 - Curta", "CD_FAZ": " 403930", "TALHOES": "2, 4", "FAZ_tAL": "403883002, 403930004", "ID_LINHA": 211293 }, "geometry": { "type": "MultiLineString", "coordinates": [ [ [ 430739.679927739314735, 7626768.416043970733881 ], [ 430711.031926204625051, 7626765.790546817705035 ], [ 430685.143768692039885, 7626764.227608724497259 ], [ 430652.203679219412152, 7626763.30730533786118 ], [ 430621.056815340998583, 7626763.502697901800275 ], [ 430591.678088713204488, 7626764.603205876424909 ], [ 430564.025720990553964, 7626766.422327445819974 ], [ 430531.833185813331511, 7626769.456428464502096 ], [ 430502.781853496504482, 7626773.006070701405406 ] ] ] } },
{ "type": "Feature", "properties": { "fid": 953.0, "COMPR_M": 238.35, "CLASSE": "02 - Curta", "CD_FAZ": " 403930", "TALHOES": "2, 4", "FAZ_tAL": "403883002, 403930004", "ID_LINHA": 211294 }, "geometry": { "type": "MultiLineString", "coordinates": [ [ [ 430739.579173075500876, 7626765.386290701106191 ], [ 430711.256266054639127, 7626762.798909494653344 ], [ 430676.849923480476718, 7626760.882492978125811 ], [ 430652.234266466577537, 7626760.307433878071606 ], [ 430620.989429037261289, 7626760.50343207269907 ], [ 430591.521728600666393, 7626761.607264692895114 ], [ 430563.789073682855815, 7626763.431660464033484 ], [ 430531.507959897920955, 7626766.474097450263798 ], [ 430501.933779617771506, 7626770.092639946378767 ] ] ] } }
]
}
