{
"type": "FeatureCollection",
"name": " 403894",
"crs": { "type": "name", "properties": { "name": "urn:ogc:def:crs:EPSG::32722" } },
"xy_coordinate_resolution": 1e-15,
"features": [
{ "type": "Feature", "properties": { "fid": 298.0, "COMPR_M": 664.26, "CLASSE": "04 - Longa", "CD_FAZ": " 403894", "TALHOES": "2, 7", "FAZ_tAL": "403690002, 403894007", "ID_LINHA": 217623 }, "geometry": { "type": "MultiLineString", "coordinates": [ [ [ 412209.390210703597404, 7622228.333099283277988 ], [ 412258.65766340342816, 7622262.024101389572024 ], [ 412280.817951492790598, 7622278.338852845132351 ], [ 412299.108292568998877, 7622292.596925570629537 ], [ 412328.138630991219543, 7622317.210668643005192 ], [ 412384.063843099866062, 7622368.96796134673059 ], [ 412404.89113904646365, 7622386.466128933243454 ], [ 412423.00660987070296, 7622400.38734689168632 ], [ 412443.525482757773716, 7622414.649472018703818 ], [ 412466.65286346123321, 7622428.838042506948113 ], [ 412492.504104909312446, 7622442.431896183639765 ], [ 412510.797264044522308, 7622450.681151270866394 ], [ 412538.380212135787588, 7622461.165239325724542 ], [ 412556.774331940687262, 7622466.954243842512369 ], [ 412575.149981668102555, 7622471.841073865070939 ], [ 412593.495882525574416, 7622475.868836563080549 ], [ 412611.809697545424569, 7622479.074606869369745 ], [ 412630.091748241044115, 7622481.487818188965321 ], [ 412648.343766423058696, 7622483.130766816437244 ], [ 412666.571885521174408, 7622484.018988674506545 ], [ 412684.794307279516943, 7622484.160686001181602 ], [ 412702.893931610975415, 7622483.561735035851598 ], [ 412720.660953573358711, 7622482.260566158220172 ], [ 412737.987239876645617, 7622480.31559591088444 ], [ 412754.843382037943229, 7622477.787830619141459 ], [ 412771.215621289855335, 7622474.73620783817023 ], [ 412793.094437633524649, 7622469.735225804150105 ] ] ] } },
{ "type": "Feature", "properties": { "fid": 299.0, "COMPR_M": 684.14, "CLASSE": "04 - Longa", "CD_FAZ": " 403894", "TALHOES": "2, 7", "FAZ_tAL": "403690002, 403894007", "ID_LINHA": 217624 }, "geometry": { "type": "MultiLineString", "coordinates": [ [ [ 412212.409946125641, 7622226.729466881603003 ], [ 412239.868259651586413, 7622245.18779178429395 ], [ 412263.255942628369667, 7622261.634374219924212 ], [ 412285.314654005109333, 7622277.991027539595962 ], [ 412303.526330320397392, 7622292.305258871987462 ], [ 412330.144399262731895, 7622314.97976038698107 ], [ 412386.040363413689192, 7622366.711073953658342 ], [ 412406.76847907283809, 7622384.126051125116646 ], [ 412424.781410559429787, 7622397.968534596264362 ], [ 412445.171054948703386, 7622412.140905110165477 ], [ 412468.140634669805877, 7622426.232733825221658 ], [ 412493.804769408598077, 7622439.72825875133276 ], [ 412521.084827651095111, 7622451.633107193745673 ], [ 412539.346300142235123, 7622458.324837764725089 ], [ 412557.609843029058538, 7622464.072741003707051 ], [ 412575.856870534014888, 7622468.925360086373985 ], [ 412594.075941017654259, 7622472.925273610278964 ], [ 412612.264440621482208, 7622476.109104779548943 ], [ 412630.422381481854245, 7622478.505931511521339 ], [ 412648.55116757977521, 7622480.137786130420864 ], [ 412666.656548235332593, 7622481.02002676948905 ], [ 412684.756185118108988, 7622481.160770308226347 ], [ 412702.734172619180754, 7622480.56584139727056 ], [ 412720.383250390877947, 7622479.273305838927627 ], [ 412737.596612159279175, 7622477.341006387025118 ], [ 412754.345212416374125, 7622474.82936261035502 ], [ 412778.567898430395871, 7622470.103008599951863 ], [ 412794.104165484779514, 7622466.395348278805614 ], [ 412815.493118750455324, 7622460.42645962908864 ] ] ] } },
{ "type": "Feature", "properties": { "fid": 300.0, "COMPR_M": 704.22, "CLASSE": "04 - Longa", "CD_FAZ": " 403894", "TALHOES": "2, 7", "FAZ_tAL": "403690002, 403894007", "ID_LINHA": 217625 }, "geometry": { "type": "MultiLineString", "coordinates": [ [ [ 412215.427602522016969, 7622225.126938547939062 ], [ 412262.151744929025881, 7622257.146450415253639 ], [ 412284.442742167972028, 7622273.557533422484994 ], [ 412302.864263716968708, 7622287.9179469011724 ], [ 412332.150167536106892, 7622312.74885212816298 ], [ 412370.637669532035943, 7622348.774379845708609 ], [ 412392.850547549373005, 7622368.650045985355973 ], [ 412414.369326565298252, 7622386.317701305262744 ], [ 412433.037548761814833, 7622400.226478496566415 ], [ 412454.128867689461913, 7622414.330073427408934 ], [ 412477.823937649198342, 7622428.18830525688827 ], [ 412504.086354567902163, 7622441.208851292729378 ], [ 412531.245960345491767, 7622452.283121556974947 ], [ 412549.379705877974629, 7622458.451750345528126 ], [ 412567.507254537951667, 7622463.708720537833869 ], [ 412585.613605009682942, 7622468.099078375846148 ], [ 412603.691133135114796, 7622471.661940466612577 ], [ 412621.739806211611722, 7622474.429995757527649 ], [ 412639.759063851321116, 7622476.428273297846317 ], [ 412657.752371395356022, 7622477.675325809046626 ], [ 412684.718062957283109, 7622478.160854613408446 ], [ 412702.574413628142793, 7622477.569947752170265 ], [ 412720.105547210550867, 7622476.286045517772436 ], [ 412737.205984440573957, 7622474.366416865959764 ], [ 412761.991021336871199, 7622470.425265874713659 ], [ 412777.918830028153025, 7622467.17396111227572 ], [ 412800.900429111090489, 7622461.499839011579752 ], [ 412822.791289969871286, 7622455.024500610306859 ], [ 412837.760638021805789, 7622449.995404455810785 ] ] ] } },
{ "type": "Feature", "properties": { "fid": 301.0, "COMPR_M": 698.75, "CLASSE": "04 - Longa", "CD_FAZ": " 403894", "TALHOES": "2, 7", "FAZ_tAL": "403690002, 403894007", "ID_LINHA": 217626 }, "geometry": { "type": "MultiLineString", "coordinates": [ [ [ 412218.445258918800391, 7622223.524410215206444 ], [ 412266.765167737496085, 7622256.767606474459171 ], [ 412286.255137505824678, 7622271.166873710229993 ], [ 412304.742249290458858, 7622285.578457564115524 ], [ 412334.155935807153583, 7622310.517943870276213 ], [ 412372.674925079569221, 7622346.572189318016171 ], [ 412394.806054354470689, 7622366.374917825683951 ], [ 412416.215309190971311, 7622383.952795501798391 ], [ 412434.772345897275954, 7622397.778800726868212 ], [ 412455.725084388221148, 7622411.789798177778721 ], [ 412479.252567200048361, 7622425.550083761103451 ], [ 412505.319622882059775, 7622438.473813839256763 ], [ 412532.278095854097046, 7622449.466041069477797 ], [ 412550.280254334094934, 7622455.589900718070567 ], [ 412568.278218351595569, 7622460.809285853989422 ], [ 412586.256868440948892, 7622465.168674731627107 ], [ 412604.208365304511972, 7622468.70669393800199 ], [ 412622.132362776435912, 7622471.455625511705875 ], [ 412640.027994389820378, 7622473.440191524103284 ], [ 412657.898366238281596, 7622474.678722931072116 ], [ 412684.679940796457231, 7622475.160938920453191 ], [ 412702.414654635824263, 7622474.574054108932614 ], [ 412719.827844029176049, 7622473.298785200342536 ], [ 412736.815356724429876, 7622471.391827344894409 ], [ 412761.441147984820418, 7622467.475975737906992 ], [ 412777.269761625968385, 7622464.244913630187511 ], [ 412800.113185061782133, 7622458.604883896186948 ], [ 412814.742304157407489, 7622454.391292504034936 ], [ 412835.758406924956944, 7622447.523924837820232 ] ] ] } },
{ "type": "Feature", "properties": { "fid": 645.0, "COMPR_M": 40.54, "CLASSE": "01 - Muito curta", "CD_FAZ": " 403894", "TALHOES": "1, 7", "FAZ_tAL": "403994001, 403894007", "ID_LINHA": 217969 }, "geometry": { "type": "MultiLineString", "coordinates": [ [ [ 412565.048815346090123, 7622038.109041384421289 ], [ 412594.929451969044749, 7622065.4855199418962 ] ] ] } },
{ "type": "Feature", "properties": { "fid": 646.0, "COMPR_M": 49.93, "CLASSE": "01 - Muito curta", "CD_FAZ": " 403894", "TALHOES": "1, 7", "FAZ_tAL": "403994001, 403894007", "ID_LINHA": 217970 }, "geometry": { "type": "MultiLineString", "coordinates": [ [ [ 412562.2404451132752, 7622039.636572492308915 ], [ 412598.962039640930016, 7622073.44058302976191 ] ] ] } },
{ "type": "Feature", "properties": { "fid": 647.0, "COMPR_M": 59.31, "CLASSE": "01 - Muito curta", "CD_FAZ": " 403894", "TALHOES": "1, 7", "FAZ_tAL": "403994001, 403894007", "ID_LINHA": 217971 }, "geometry": { "type": "MultiLineString", "coordinates": [ [ [ 412559.432074882613961, 7622041.164103602990508 ], [ 412579.745578572794329, 7622059.467799225822091 ], [ 412602.989287436241284, 7622081.385112170130014 ] ] ] } },
{ "type": "Feature", "properties": { "fid": 648.0, "COMPR_M": 68.58, "CLASSE": "01 - Muito curta", "CD_FAZ": " 403894", "TALHOES": "1, 7", "FAZ_tAL": "403994001, 403894007", "ID_LINHA": 217972 }, "geometry": { "type": "MultiLineString", "coordinates": [ [ [ 412556.623704652127344, 7622042.691634709946811 ], [ 412577.706147396878805, 7622061.667974038980901 ], [ 412606.966440239280928, 7622089.230819202959538 ] ] ] } },
{ "type": "Feature", "properties": { "fid": 649.0, "COMPR_M": 77.66, "CLASSE": "01 - Muito curta", "CD_FAZ": " 403894", "TALHOES": "1, 7", "FAZ_tAL": "403994001, 403894007", "ID_LINHA": 217973 }, "geometry": { "type": "MultiLineString", "coordinates": [ [ [ 412553.814978238020558, 7622044.219359551556408 ], [ 412575.666716221661773, 7622063.868148851208389 ], [ 412610.847486482933164, 7622096.88693736307323 ] ] ] } },
{ "type": "Feature", "properties": { "fid": 650.0, "COMPR_M": 86.45, "CLASSE": "01 - Muito curta", "CD_FAZ": " 403894", "TALHOES": "1, 7", "FAZ_tAL": "403994001, 403894007", "ID_LINHA": 217974 }, "geometry": { "type": "MultiLineString", "coordinates": [ [ [ 412551.001526284962893, 7622045.749654715880752 ], [ 412570.048901527072303, 7622062.766821902245283 ], [ 412614.590244364459068, 7622104.270254848524928 ] ] ] } },
{ "type": "Feature", "properties": { "fid": 654.0, "COMPR_M": 117.62, "CLASSE": "02 - Curta", "CD_FAZ": " 403894", "TALHOES": "1, 7", "FAZ_tAL": "403994001, 403894007", "ID_LINHA": 217978 }, "geometry": { "type": "MultiLineString", "coordinates": [ [ [ 412539.743788461259101, 7622051.87297298014164 ], [ 412561.934558360604569, 7622071.607545990496874 ], [ 412604.846024898870382, 7622111.673707406967878 ], [ 412617.030562059080694, 7622122.037336491979659 ], [ 412627.59319508948829, 7622129.921102825552225 ] ] ] } },
{ "type": "Feature", "properties": { "fid": 655.0, "COMPR_M": 124.34, "CLASSE": "02 - Curta", "CD_FAZ": " 403894", "TALHOES": "1, 7", "FAZ_tAL": "403994001, 403894007", "ID_LINHA": 217979 }, "geometry": { "type": "MultiLineString", "coordinates": [ [ [ 412536.925243791367393, 7622053.406038178130984 ], [ 412559.905972568492871, 7622073.817727010697126 ], [ 412605.434118333971128, 7622116.196573240682483 ], [ 412619.63808591524139, 7622127.879157572984695 ], [ 412630.299897694610991, 7622135.260599877685308 ] ] ] } },
{ "type": "Feature", "properties": { "fid": 656.0, "COMPR_M": 130.69, "CLASSE": "02 - Curta", "CD_FAZ": " 403894", "TALHOES": "1, 7", "FAZ_tAL": "403994001, 403894007", "ID_LINHA": 217980 }, "geometry": { "type": "MultiLineString", "coordinates": [ [ [ 412534.106699121650308, 7622054.939103377051651 ], [ 412557.877386777079664, 7622076.027908032760024 ], [ 412592.698524226027075, 7622108.735612179152668 ], [ 412606.000789376907051, 7622120.661076597869396 ], [ 412620.009486538707279, 7622131.899182097986341 ], [ 412632.810783570457716, 7622140.213810363784432 ] ] ] } },
{ "type": "Feature", "properties": { "fid": 657.0, "COMPR_M": 136.72, "CLASSE": "02 - Curta", "CD_FAZ": " 403894", "TALHOES": "1, 7", "FAZ_tAL": "403994001, 403894007", "ID_LINHA": 217981 }, "geometry": { "type": "MultiLineString", "coordinates": [ [ [ 412531.288154451409355, 7622056.472168572247028 ], [ 412552.315784751146566, 7622075.012187967076898 ], [ 412590.661268678552005, 7622110.937802706845105 ], [ 412606.553086972038727, 7622125.070476556196809 ], [ 412622.496931579604279, 7622137.339957529678941 ], [ 412635.144127566716634, 7622144.816784979775548 ] ] ] } },
{ "type": "Feature", "properties": { "fid": 658.0, "COMPR_M": 142.47, "CLASSE": "02 - Curta", "CD_FAZ": " 403894", "TALHOES": "1, 7", "FAZ_tAL": "403994001, 403894007", "ID_LINHA": 217982 }, "geometry": { "type": "MultiLineString", "coordinates": [ [ [ 412528.466556800354738, 7622058.006894351914525 ], [ 412550.298639959364664, 7622077.232815455645323 ], [ 412588.624013130553067, 7622113.13999323733151 ], [ 412604.621064436098095, 7622127.365591047331691 ], [ 412614.202584829588886, 7622135.052707036957145 ], [ 412622.892851435055491, 7622141.215678874403238 ], [ 412630.687299572920892, 7622145.898605171591043 ], [ 412637.324088557390496, 7622149.117181801237166 ] ] ] } },
{ "type": "Feature", "properties": { "fid": 659.0, "COMPR_M": 148.03, "CLASSE": "02 - Curta", "CD_FAZ": " 403894", "TALHOES": "1, 7", "FAZ_tAL": "403994001, 403894007", "ID_LINHA": 217983 }, "geometry": { "type": "MultiLineString", "coordinates": [ [ [ 412525.642912052688189, 7622059.542733585461974 ], [ 412548.281495167757384, 7622079.453442944213748 ], [ 412589.400178478681482, 7622117.932214362546802 ], [ 412605.192298388923518, 7622131.7449856325984 ], [ 412614.685084465367254, 7622139.155618984252214 ], [ 412623.327837804448791, 7622145.060896728187799 ], [ 412631.137618611799553, 7622149.526473720557988 ], [ 412639.390363610407803, 7622153.193311009556055 ] ] ] } },
{ "type": "Feature", "properties": { "fid": 660.0, "COMPR_M": 153.46, "CLASSE": "02 - Curta", "CD_FAZ": " 403894", "TALHOES": "1, 7", "FAZ_tAL": "403994001, 403894007", "ID_LINHA": 217984 }, "geometry": { "type": "MultiLineString", "coordinates": [ [ [ 412522.819267304497771, 7622061.078572822734714 ], [ 412549.763043610204477, 7622084.86863211914897 ], [ 412590.149737215775531, 7622122.670193700119853 ], [ 412605.766521898913197, 7622136.077803349122405 ], [ 412615.191248009330593, 7622143.220312794670463 ], [ 412623.812133999308571, 7622148.879555029794574 ], [ 412631.675206439860631, 7622153.142691277898848 ], [ 412641.375552227720618, 7622157.109481466934085 ] ] ] } },
{ "type": "Feature", "properties": { "fid": 661.0, "COMPR_M": 158.79, "CLASSE": "02 - Curta", "CD_FAZ": " 403894", "TALHOES": "1, 7", "FAZ_tAL": "403994001, 403894007", "ID_LINHA": 217985 }, "geometry": { "type": "MultiLineString", "coordinates": [ [ [ 412519.995622555725276, 7622062.614412060007453 ], [ 412547.73445781780174, 7622087.078813143074512 ], [ 412588.13831328850938, 7622124.896014450117946 ], [ 412603.889181871898472, 7622138.417881155386567 ], [ 412613.456450873462018, 7622145.667990563437343 ], [ 412624.356611584313214, 7622152.675322191789746 ], [ 412634.365856582240667, 7622157.645689356140792 ], [ 412643.295876454387326, 7622160.897694297134876 ] ] ] } },
{ "type": "Feature", "properties": { "fid": 662.0, "COMPR_M": 164.03, "CLASSE": "02 - Curta", "CD_FAZ": " 403894", "TALHOES": "1, 7", "FAZ_tAL": "403994001, 403894007", "ID_LINHA": 217986 }, "geometry": { "type": "MultiLineString", "coordinates": [ [ [ 412517.169203809637111, 7622064.151760131120682 ], [ 412545.705872026795987, 7622089.288994163274765 ], [ 412586.126889361185022, 7622127.121835196390748 ], [ 412604.505537000542972, 7622142.732403516769409 ], [ 412614.038207320612855, 7622149.728186626918614 ], [ 412624.972781369811855, 7622156.451491156592965 ], [ 412635.348554334370419, 7622161.285498681478202 ], [ 412645.162317381356843, 7622164.579611847177148 ] ] ] } },
{ "type": "Feature", "properties": { "fid": 663.0, "COMPR_M": 169.22, "CLASSE": "02 - Curta", "CD_FAZ": " 403894", "TALHOES": "1, 7", "FAZ_tAL": "403994001, 403894007", "ID_LINHA": 217987 }, "geometry": { "type": "MultiLineString", "coordinates": [ [ [ 412514.340455268044025, 7622065.690375428646803 ], [ 412540.212916005810257, 7622088.335952900350094 ], [ 412584.115465432521887, 7622129.347655946388841 ], [ 412602.659554375335574, 7622145.09730931930244 ], [ 412614.664990487275645, 7622153.758513422682881 ], [ 412625.672785669914447, 7622160.210869573056698 ], [ 412636.523782165371813, 7622164.940911998972297 ], [ 412646.987586466420908, 7622168.180309938266873 ] ] ] } },
{ "type": "Feature", "properties": { "fid": 664.0, "COMPR_M": 174.35, "CLASSE": "02 - Curta", "CD_FAZ": " 403894", "TALHOES": "1, 7", "FAZ_tAL": "403994001, 403894007", "ID_LINHA": 217988 }, "geometry": { "type": "MultiLineString", "coordinates": [ [ [ 412511.511706725228578, 7622067.228990726172924 ], [ 412538.1957712151343, 7622090.556580391712487 ], [ 412584.894668646389619, 7622134.078104751184583 ], [ 412603.331582657527179, 7622149.399805959314108 ], [ 412615.346754308149684, 7622157.762272989377379 ], [ 412626.472548439574894, 7622163.957240995019674 ], [ 412637.887276803725399, 7622168.60387865267694 ], [ 412648.777582957118284, 7622171.711425975896418 ] ] ] } },
{ "type": "Feature", "properties": { "fid": 665.0, "COMPR_M": 179.44, "CLASSE": "02 - Curta", "CD_FAZ": " 403894", "TALHOES": "1, 7", "FAZ_tAL": "403994001, 403894007", "ID_LINHA": 217989 }, "geometry": { "type": "MultiLineString", "coordinates": [ [ [ 412508.682958181248978, 7622068.7676060218364 ], [ 412536.178626423352398, 7622092.777207877486944 ], [ 412582.899533020623494, 7622136.318544484674931 ], [ 412601.519748961902224, 7622151.790989114902914 ], [ 412613.750537609215826, 7622160.302548240870237 ], [ 412625.171883939241525, 7622166.660878423601389 ], [ 412636.921188797103241, 7622171.444280214607716 ], [ 412650.537454729201272, 7622175.183115150779486 ] ] ] } },
{ "type": "Feature", "properties": { "fid": 666.0, "COMPR_M": 184.49, "CLASSE": "02 - Curta", "CD_FAZ": " 403894", "TALHOES": "1, 7", "FAZ_tAL": "403994001, 403894007", "ID_LINHA": 217990 }, "geometry": { "type": "MultiLineString", "coordinates": [ [ [ 412505.851149666064885, 7622070.307885702699423 ], [ 412534.161481632385403, 7622094.997835366055369 ], [ 412580.904397395381238, 7622138.558984220027924 ], [ 412591.850346869439818, 7622147.962496995925903 ], [ 412602.261479631357361, 7622156.08730505220592 ], [ 412614.550365628383588, 7622164.315086875110865 ], [ 412626.17991766956402, 7622170.440143251791596 ], [ 412638.534002940403298, 7622175.128637289628386 ], [ 412652.271724634163547, 7622178.604299670085311 ] ] ] } },
{ "type": "Feature", "properties": { "fid": 667.0, "COMPR_M": 189.51, "CLASSE": "02 - Curta", "CD_FAZ": " 403894", "TALHOES": "1, 7", "FAZ_tAL": "403994001, 403894007", "ID_LINHA": 217991 }, "geometry": { "type": "MultiLineString", "coordinates": [ [ [ 412503.017297262209468, 7622071.849277095869184 ], [ 412532.144336842990015, 7622097.218462855555117 ], [ 412578.909261770604644, 7622140.799423954449594 ], [ 412589.944353793805931, 7622150.279284331947565 ], [ 412600.486678940593265, 7622158.506117349490523 ], [ 412613.006737567251548, 7622166.887675518169999 ], [ 412624.946649354533292, 7622173.175180705264211 ], [ 412637.6334544850979, 7622177.990486916154623 ], [ 412653.979558164544869, 7622181.973333294503391 ] ] ] } },
{ "type": "Feature", "properties": { "fid": 668.0, "COMPR_M": 194.5, "CLASSE": "02 - Curta", "CD_FAZ": " 403894", "TALHOES": "2, 1, 7", "FAZ_tAL": "403690002, 403994001, 403894007", "ID_LINHA": 217992 }, "geometry": { "type": "MultiLineString", "coordinates": [ [ [ 412500.183444860565942, 7622073.390668486244977 ], [ 412530.127192051790189, 7622099.439090345054865 ], [ 412576.914126145187765, 7622143.039863688871264 ], [ 412590.747801685705781, 7622154.798425820656121 ], [ 412601.312870923778974, 7622162.801734944805503 ], [ 412613.942213122500107, 7622170.912482966668904 ], [ 412626.20566650951514, 7622176.9970877841115 ], [ 412639.489929746778216, 7622181.685463165864348 ], [ 412655.665347842383198, 7622185.298881141468883 ] ] ] } },
{ "type": "Feature", "properties": { "fid": 669.0, "COMPR_M": 199.47, "CLASSE": "02 - Curta", "CD_FAZ": " 403894", "TALHOES": "2, 1, 7", "FAZ_tAL": "403690002, 403994001, 403894007", "ID_LINHA": 217993 }, "geometry": { "type": "MultiLineString", "coordinates": [ [ [ 412497.349592458223924, 7622074.932059878483415 ], [ 412528.110047261405271, 7622101.65971783734858 ], [ 412577.762833929911721, 7622147.792996753938496 ], [ 412588.870461658749264, 7622157.138503630645573 ], [ 412599.578073787735775, 7622165.249412711709738 ], [ 412614.972374515200499, 7622174.919041628018022 ], [ 412627.657726575154811, 7622180.828126178123057 ], [ 412641.519780548056588, 7622185.36299086548388 ], [ 412657.334878499503247, 7622188.592354902997613 ] ] ] } },
{ "type": "Feature", "properties": { "fid": 670.0, "COMPR_M": 204.42, "CLASSE": "02 - Curta", "CD_FAZ": " 403894", "TALHOES": "2, 1, 7", "FAZ_tAL": "403690002, 403994001, 403894007", "ID_LINHA": 217994 }, "geometry": { "type": "MultiLineString", "coordinates": [ [ [ 412494.511862465704326, 7622076.475560373626649 ], [ 412526.092902470612898, 7622103.880345322191715 ], [ 412575.786313614808023, 7622150.049884144216776 ], [ 412586.993121632549446, 7622159.478581439703703 ], [ 412597.843276651750784, 7622167.697090480476618 ], [ 412613.543744963943027, 7622177.557263124734163 ], [ 412626.559036896331236, 7622183.619930104352534 ], [ 412634.931809118483216, 7622186.576035797595978 ], [ 412643.718201594019774, 7622189.016837350092828 ], [ 412658.990727890632115, 7622191.858839714899659 ] ] ] } },
{ "type": "Feature", "properties": { "fid": 671.0, "COMPR_M": 209.35, "CLASSE": "02 - Curta", "CD_FAZ": " 403894", "TALHOES": "2, 1, 7", "FAZ_tAL": "403690002, 403994001, 403894007", "ID_LINHA": 217995 }, "geometry": { "type": "MultiLineString", "coordinates": [ [ [ 412491.672909790009726, 7622078.019725909456611 ], [ 412524.075757679995149, 7622106.100972809828818 ], [ 412573.80979329982074, 7622152.306771539151669 ], [ 412587.89169336942723, 7622164.016555750742555 ], [ 412598.81250365532469, 7622172.026999001391232 ], [ 412614.743119785212912, 7622181.579661278985441 ], [ 412628.26669810077874, 7622187.477555884048343 ], [ 412643.011312729504425, 7622191.93255112785846 ], [ 412660.623575843346771, 7622195.079949712380767 ] ] ] } },
{ "type": "Feature", "properties": { "fid": 672.0, "COMPR_M": 214.26, "CLASSE": "02 - Curta", "CD_FAZ": " 403894", "TALHOES": "2, 1, 7", "FAZ_tAL": "403690002, 403994001, 403894007", "ID_LINHA": 217996 }, "geometry": { "type": "MultiLineString", "coordinates": [ [ [ 412488.833957114373334, 7622079.563891446217895 ], [ 412518.686616859864444, 7622105.274384215474129 ], [ 412571.833272986288648, 7622154.563658934086561 ], [ 412586.045710744743701, 7622166.38146155513823 ], [ 412597.12075880379416, 7622174.504644819535315 ], [ 412613.376911549945362, 7622184.250760242342949 ], [ 412627.234562593104783, 7622190.294636371545494 ], [ 412636.147885390557349, 7622193.211474508047104 ], [ 412645.437104243901558, 7622195.571539437398314 ], [ 412662.247493285860401, 7622198.28344254847616 ] ] ] } },
{ "type": "Feature", "properties": { "fid": 673.0, "COMPR_M": 219.16, "CLASSE": "02 - Curta", "CD_FAZ": " 403894", "TALHOES": "2, 1, 7", "FAZ_tAL": "403690002, 403994001, 403894007", "ID_LINHA": 217997 }, "geometry": { "type": "MultiLineString", "coordinates": [ [ [ 412485.99490413069725, 7622081.108111546374857 ], [ 412516.680848588002846, 7622107.505292471498251 ], [ 412569.856752671534196, 7622156.820546329021454 ], [ 412584.199728118313942, 7622168.746367356739938 ], [ 412595.4290139520308, 7622176.982290639542043 ], [ 412603.744969194987789, 7622182.323207360692322 ], [ 412612.010703313862905, 7622186.921859203837812 ], [ 412626.202427085896488, 7622193.111716857179999 ], [ 412635.312374302127864, 7622196.092977342195809 ], [ 412644.793840811296832, 7622198.50194308348 ], [ 412663.85786333453143, 7622201.460210509598255 ] ] ] } },
{ "type": "Feature", "properties": { "fid": 674.0, "COMPR_M": 224.04, "CLASSE": "02 - Curta", "CD_FAZ": " 403894", "TALHOES": "2, 1, 7", "FAZ_tAL": "403690002, 403994001, 403894007", "ID_LINHA": 217998 }, "geometry": { "type": "MultiLineString", "coordinates": [ [ [ 412483.15085842058761, 7622082.655047291889787 ], [ 412514.675080315675586, 7622109.736200729385018 ], [ 412567.880232356837951, 7622159.077433720231056 ], [ 412582.353745492757298, 7622171.111273163929582 ], [ 412596.563696399738546, 7622181.352749427780509 ], [ 412605.015585872228257, 7622186.544335060752928 ], [ 412613.465903436415829, 7622190.993615284562111 ], [ 412628.22639673872618, 7622197.007894253358245 ], [ 412637.664961483620573, 7622199.860164284706116 ], [ 412647.441322316590231, 7622202.117481915280223 ], [ 412665.454658469418064, 7622204.610199317336082 ] ] ] } },
{ "type": "Feature", "properties": { "fid": 675.0, "COMPR_M": 228.92, "CLASSE": "02 - Curta", "CD_FAZ": " 403894", "TALHOES": "2, 1, 7", "FAZ_tAL": "403690002, 403994001, 403894007", "ID_LINHA": 217999 }, "geometry": { "type": "MultiLineString", "coordinates": [ [ [ 412480.306812711874954, 7622084.201983032748103 ], [ 412512.669312043231912, 7622111.967108987271786 ], [ 412565.903712042374536, 7622161.334321115165949 ], [ 412580.507762868073769, 7622173.47617896553129 ], [ 412594.918124211486429, 7622183.861316338181496 ], [ 412603.52781466266606, 7622189.149643743410707 ], [ 412612.165238935034722, 7622193.697252713143826 ], [ 412627.260308732744306, 7622199.84829581156373 ], [ 412636.893997672363184, 7622202.759598970413208 ], [ 412646.861263824393973, 7622205.061044868081808 ], [ 412657.06989714759402, 7622206.736673560924828 ], [ 412667.044396461104043, 7622207.746266536414623 ] ] ] } }
]
}
