{
"type": "FeatureCollection",
"name": " 403881",
"crs": { "type": "name", "properties": { "name": "urn:ogc:def:crs:EPSG::32722" } },
"xy_coordinate_resolution": 1e-15,
"features": [
{ "type": "Feature", "properties": { "fid": 21.0, "COMPR_M": 54.13, "CLASSE": "01 - Muito curta", "CD_FAZ": " 403881", "TALHOES": "2", "FAZ_tAL": "403879002, 403881002", "ID_LINHA": 207038 }, "geometry": { "type": "MultiLineString", "coordinates": [ [ [ 423285.730169748188928, 7622601.564305270090699 ], [ 423274.189135407214053, 7622595.539046611636877 ], [ 423260.102574046119116, 7622588.992376199923456 ], [ 423236.323416011466179, 7622579.620359795168042 ] ] ] } },
{ "type": "Feature", "properties": { "fid": 22.0, "COMPR_M": 44.89, "CLASSE": "01 - Muito curta", "CD_FAZ": " 403881", "TALHOES": "2", "FAZ_tAL": "403879002, 403881002", "ID_LINHA": 207039 }, "geometry": { "type": "MultiLineString", "coordinates": [ [ [ 423282.159176048066001, 7622603.043309915810823 ], [ 423258.88574793015141, 7622591.734784277155995 ], [ 423241.275934493518434, 7622584.62798469606787 ] ] ] } },
{ "type": "Feature", "properties": { "fid": 23.0, "COMPR_M": 33.56, "CLASSE": "01 - Muito curta", "CD_FAZ": " 403881", "TALHOES": "2", "FAZ_tAL": "403879002, 403881002", "ID_LINHA": 207040 }, "geometry": { "type": "MultiLineString", "coordinates": [ [ [ 423278.588258502888493, 7622604.522283023223281 ], [ 423264.66882037720643, 7622597.630643118172884 ], [ 423248.126086827483959, 7622590.50109878834337 ] ] ] } },
{ "type": "Feature", "properties": { "fid": 405.0, "COMPR_M": 1045.57, "CLASSE": "06 - Acima do limite", "CD_FAZ": " 403881", "TALHOES": "2", "FAZ_tAL": "403879002, 403881002", "ID_LINHA": 207422 }, "geometry": { "type": "MultiLineString", "coordinates": [ [ [ 423402.468139195640106, 7622553.21473824325949 ], [ 423381.929380133980885, 7622538.122632686048746 ], [ 423356.589044906781055, 7622521.353807817213237 ], [ 423338.93542318046093, 7622510.966970769688487 ], [ 423320.724444484745618, 7622501.405739150941372 ], [ 423302.13417294586543, 7622492.764501525089145 ], [ 423283.26238422410097, 7622485.020060857757926 ], [ 423264.12805512722116, 7622478.110623572021723 ], [ 423235.027277988381684, 7622469.203400603495538 ], [ 423215.421621079440229, 7622464.163921866565943 ], [ 423185.780620932637248, 7622457.822879489511251 ], [ 423155.957620509201661, 7622452.79540628939867 ], [ 423126.041916808520909, 7622448.917141283862293 ], [ 423096.135680887266062, 7622446.031809565611184 ], [ 423066.33227204112336, 7622443.986790164373815 ], [ 423036.737157426716294, 7622442.634406874887645 ], [ 422997.629906517977361, 7622441.682450159452856 ], [ 422958.808812036702875, 7622441.585426900535822 ], [ 422910.656627352116629, 7622442.559657054953277 ], [ 422862.902600511210039, 7622444.623909203335643 ], [ 422815.515778641100042, 7622447.642615335993469 ], [ 422759.099633782287128, 7622452.334790291264653 ], [ 422693.784739107650239, 7622459.003807932138443 ], [ 422646.845766979386099, 7622464.779661781154573 ], [ 422608.934468784718774, 7622470.532640056684613 ], [ 422580.281784232356586, 7622475.767513949424028 ], [ 422551.458685700083151, 7622481.976000493392348 ], [ 422522.458834847435355, 7622489.330776173621416 ], [ 422493.316767901880667, 7622497.995197721756995 ], [ 422464.033779593766667, 7622508.140414412133396 ], [ 422434.471772389370017, 7622520.023144071921706 ], [ 422414.302001999109052, 7622529.483732369728386 ], [ 422394.464131004991941, 7622540.567175379022956 ] ] ] } },
{ "type": "Feature", "properties": { "fid": 406.0, "COMPR_M": 1055.68, "CLASSE": "06 - Acima do limite", "CD_FAZ": " 403881", "TALHOES": "2", "FAZ_tAL": "403879002, 403881002", "ID_LINHA": 207423 }, "geometry": { "type": "MultiLineString", "coordinates": [ [ [ 423405.674663071578834, 7622551.886686696670949 ], [ 423383.659298005572055, 7622535.671559331938624 ], [ 423366.818897523568012, 7622524.286821518093348 ], [ 423340.403023657621816, 7622508.35031146556139 ], [ 423322.053559860680252, 7622498.715986363589764 ], [ 423303.343109824985731, 7622490.018753509968519 ], [ 423284.333107606740668, 7622482.217353453859687 ], [ 423265.089208792953286, 7622475.268601963296533 ], [ 423235.831594369199593, 7622466.313161488622427 ], [ 423216.125302263128106, 7622461.247557710856199 ], [ 423186.34135043428978, 7622454.875667180866003 ], [ 423156.392747000791132, 7622449.827034510672092 ], [ 423126.376521903090179, 7622445.935814891941845 ], [ 423096.380209629889578, 7622443.041759918443859 ], [ 423066.504149674787186, 7622440.991705629974604 ], [ 423036.844742708955891, 7622439.636322769336402 ], [ 422997.669426723208744, 7622438.682699297554791 ], [ 422958.78505124244839, 7622438.585511296987534 ], [ 422910.560254558222368, 7622439.56119748391211 ], [ 422862.739642086147796, 7622441.628328588791192 ], [ 422815.297135399072431, 7622444.650588662363589 ], [ 422758.822975779243279, 7622449.347570955753326 ], [ 422693.451377399615012, 7622456.022382622584701 ], [ 422646.440919604268856, 7622461.807095304131508 ], [ 422608.436605858907569, 7622467.574210261926055 ], [ 422570.077090706676245, 7622474.784289233386517 ], [ 422541.093096885830164, 7622481.378956746309996 ], [ 422511.929759769118391, 7622489.182256823405623 ], [ 422482.610957249475177, 7622498.361696723848581 ], [ 422453.161321932682768, 7622509.082299974747002 ], [ 422433.262570299208164, 7622517.277269890531898 ], [ 422412.940743097336963, 7622526.809820952825248 ], [ 422402.757058772374876, 7622532.223599338904023 ], [ 422388.906621918897144, 7622540.601779960095882 ] ] ] } },
{ "type": "Feature", "properties": { "fid": 407.0, "COMPR_M": 1065.84, "CLASSE": "06 - Acima do limite", "CD_FAZ": " 403881", "TALHOES": "2", "FAZ_tAL": "403879002, 403881002", "ID_LINHA": 207424 }, "geometry": { "type": "MultiLineString", "coordinates": [ [ [ 423408.881186942919157, 7622550.558635149151087 ], [ 423385.378696905216202, 7622533.212959527038038 ], [ 423368.44432242133189, 7622521.765032345429063 ], [ 423341.862666204804555, 7622505.729092366993427 ], [ 423323.374588400998618, 7622496.022115059196949 ], [ 423304.544235817273147, 7622487.269486210308969 ], [ 423285.41130544670159, 7622479.417616944760084 ], [ 423266.050362457463052, 7622472.426580347120762 ], [ 423236.622979087638669, 7622463.41922980453819 ], [ 423216.822955749928951, 7622458.329699479974806 ], [ 423186.907441701740026, 7622451.929515526629984 ], [ 423156.837278787861578, 7622446.860117707401514 ], [ 423126.711126998416148, 7622442.954488498158753 ], [ 423096.624738372222055, 7622440.051710269413888 ], [ 423066.670329763088375, 7622437.996277809143066 ], [ 423027.106931885587983, 7622436.314836386591196 ], [ 422987.943363791448064, 7622435.580940533429384 ], [ 422939.390446205157787, 7622435.836548645049334 ], [ 422891.261816688580438, 7622437.267245214432478 ], [ 422843.534544444526546, 7622439.735886194743216 ], [ 422796.178549670148641, 7622443.10624719504267 ], [ 422739.81016126513714, 7622448.149501784704626 ], [ 422683.748865288158413, 7622454.104952497407794 ], [ 422636.543076845817268, 7622460.166462937369943 ], [ 422598.355598430382088, 7622466.271866779774427 ], [ 422569.462167437071912, 7622471.847940633073449 ], [ 422540.369902273407206, 7622478.467334121465683 ], [ 422511.095499269780703, 7622486.300512477755547 ], [ 422481.65100107435137, 7622495.519337318837643 ], [ 422452.067879454465583, 7622506.288559903390706 ], [ 422421.859982573892921, 7622519.12963623739779 ], [ 422401.279270636499859, 7622529.611636374145746 ], [ 422383.313058769505005, 7622540.679050963371992 ] ] ] } },
{ "type": "Feature", "properties": { "fid": 408.0, "COMPR_M": 1075.96, "CLASSE": "06 - Acima do limite", "CD_FAZ": " 403881", "TALHOES": "2", "FAZ_tAL": "403879002, 403881002", "ID_LINHA": 207425 }, "geometry": { "type": "MultiLineString", "coordinates": [ [ [ 423412.078862342750654, 7622549.234248388558626 ], [ 423387.103355294908397, 7622530.758122948929667 ], [ 423370.082342530193273, 7622519.251587750390172 ], [ 423343.322308753908146, 7622503.107873269356787 ], [ 423324.711790610803291, 7622493.336480779573321 ], [ 423305.745361811714247, 7622484.520218914374709 ], [ 423286.489503292832524, 7622476.617880439385772 ], [ 423267.011516120051965, 7622469.584558730944991 ], [ 423237.420829642564058, 7622460.527144409716129 ], [ 423217.520609244471416, 7622455.411841248162091 ], [ 423187.468171205662657, 7622448.982303217053413 ], [ 423157.277107928995974, 7622443.892473415471613 ], [ 423127.045732096477877, 7622439.973162105306983 ], [ 423096.869267114147078, 7622437.061660626903176 ], [ 423066.839358623255976, 7622435.001021634787321 ], [ 423027.196810058492702, 7622433.316170663572848 ], [ 422987.966645028092898, 7622432.581020068377256 ], [ 422939.336755754076876, 7622432.837020153179765 ], [ 422891.138496901723556, 7622434.269773674197495 ], [ 422843.349275543703698, 7622436.741606773808599 ], [ 422795.939265611057635, 7622440.115801024250686 ], [ 422739.51578357355902, 7622445.163975496776402 ], [ 422683.404296001710463, 7622451.124799961224198 ], [ 422636.115750047727488, 7622457.197034743614495 ], [ 422597.830871059093624, 7622463.318079579621553 ], [ 422559.138561494881287, 7622471.000717993825674 ], [ 422529.878782716114074, 7622478.030947394669056 ], [ 422500.41745254577836, 7622486.343291699886322 ], [ 422470.800378977437504, 7622496.101483481936157 ], [ 422440.986318504845258, 7622507.498312562704086 ], [ 422420.586211437825114, 7622516.413121085613966 ], [ 422399.829311588255223, 7622526.98487910348922 ], [ 422389.454811361269094, 7622533.071541242301464 ], [ 422377.804704151931219, 7622540.815116757526994 ] ] ] } },
{ "type": "Feature", "properties": { "fid": 409.0, "COMPR_M": 1085.83, "CLASSE": "06 - Acima do limite", "CD_FAZ": " 403881", "TALHOES": "2", "FAZ_tAL": "403879002, 403881002", "ID_LINHA": 207426 }, "geometry": { "type": "MultiLineString", "coordinates": [ [ [ 423415.261603253195062, 7622547.916047072969377 ], [ 423397.160712872107979, 7622534.26543889939785 ], [ 423371.714065030682832, 7622516.733970869332552 ], [ 423353.935907958657481, 7622505.731984226033092 ], [ 423335.4596823254833, 7622495.443576339632273 ], [ 423316.52338340569986, 7622486.085925558581948 ], [ 423287.575175598263741, 7622473.821114829741418 ], [ 423267.965576850750949, 7622466.740058882161975 ], [ 423238.218680195393972, 7622457.63505900837481 ], [ 423218.218262733658776, 7622452.493983017280698 ], [ 423188.023538940935396, 7622446.034030249342322 ], [ 423157.716937067511026, 7622440.924829130992293 ], [ 423127.380337193375453, 7622436.991835713386536 ], [ 423097.113795858458616, 7622434.071610981598496 ], [ 423067.008387486741412, 7622432.005765458568931 ], [ 423027.286688227090053, 7622430.31750494427979 ], [ 422987.989926265436225, 7622429.581099599599838 ], [ 422939.283065302413888, 7622429.837491656653583 ], [ 422891.01517711696215, 7622431.272302130237222 ], [ 422843.164006645441987, 7622433.747327360324562 ], [ 422795.699981553072575, 7622437.125354859046638 ], [ 422739.223413105704822, 7622442.178254703059793 ], [ 422683.059726710489485, 7622448.14464742783457 ], [ 422635.688423248648178, 7622454.22760655824095 ], [ 422597.302680324180983, 7622460.364890899509192 ], [ 422558.494748067343608, 7622468.070586014539003 ], [ 422529.11811632203171, 7622475.128881309181452 ], [ 422499.547491476871073, 7622483.472154030576348 ], [ 422469.79115168430144, 7622493.276183968409896 ], [ 422439.850607323169243, 7622504.721515322104096 ], [ 422419.322497086948715, 7622513.692069541662931 ], [ 422408.856966397434007, 7622518.788086706772447 ], [ 422387.856986548518762, 7622530.530779478140175 ], [ 422372.587045102322008, 7622540.943129285238683 ] ] ] } },
{ "type": "Feature", "properties": { "fid": 410.0, "COMPR_M": 1095.66, "CLASSE": "06 - Acima do limite", "CD_FAZ": " 403881", "TALHOES": "2", "FAZ_tAL": "403879002, 403881002", "ID_LINHA": 207427 }, "geometry": { "type": "MultiLineString", "coordinates": [ [ [ 423418.444344159855973, 7622546.597845759242773 ], [ 423398.930466361169238, 7622531.842983724549413 ], [ 423373.339489925128873, 7622514.212181698530912 ], [ 423355.449992636044044, 7622503.141729973256588 ], [ 423336.85431553516537, 7622492.787190849892795 ], [ 423317.787932627252303, 7622483.36523428093642 ], [ 423288.653373438632116, 7622471.021378319710493 ], [ 423268.926730516541284, 7622463.898037266917527 ], [ 423239.016530748049263, 7622454.742973610758781 ], [ 423218.90988853177987, 7622449.574630716815591 ], [ 423188.584268446313217, 7622443.086817936040461 ], [ 423158.156766208587214, 7622437.957184837199748 ], [ 423127.714942289108876, 7622434.010509318672121 ], [ 423097.358324599801563, 7622431.081561338156462 ], [ 423067.180265122035053, 7622429.010680921375751 ], [ 423027.376566395396367, 7622427.318839218467474 ], [ 422988.013207502663136, 7622426.58117913454771 ], [ 422939.229374854825437, 7622426.837963167577982 ], [ 422890.891857327136677, 7622428.274830588139594 ], [ 422842.978737746365368, 7622430.753047944046557 ], [ 422795.460697495611385, 7622434.134908688254654 ], [ 422738.930039027531166, 7622439.192631166428328 ], [ 422673.280835935263894, 7622446.274719698354602 ], [ 422625.68646743602585, 7622452.67054002173245 ], [ 422587.089300166349858, 7622459.179125959053636 ], [ 422548.045528729970101, 7622467.369201818481088 ], [ 422518.486387948330957, 7622474.865991769358516 ], [ 422488.731378245574888, 7622483.712809680961072 ], [ 422458.79841199319344, 7622494.083250591531396 ], [ 422428.466899531311356, 7622506.276383832097054 ], [ 422407.495707497582771, 7622516.114175286144018 ], [ 422386.275078742008191, 7622527.980678117834032 ], [ 422375.725903785147239, 7622534.889699064195156 ], [ 422367.405273089243565, 7622541.044595627114177 ] ] ] } },
{ "type": "Feature", "properties": { "fid": 411.0, "COMPR_M": 1105.35, "CLASSE": "06 - Acima do limite", "CD_FAZ": " 403881", "TALHOES": "2", "FAZ_tAL": "403879002, 403881002", "ID_LINHA": 207428 }, "geometry": { "type": "MultiLineString", "coordinates": [ [ [ 423421.627085068030283, 7622545.279644442722201 ], [ 423400.695452545478474, 7622529.417002195492387 ], [ 423374.977510036260355, 7622511.698737107217312 ], [ 423356.978881266491953, 7622500.560417793691158 ], [ 423338.257134024170227, 7622490.135233135893941 ], [ 423319.052481850143522, 7622480.644543008878827 ], [ 423289.724096820049454, 7622468.218670913018286 ], [ 423269.887884180410765, 7622461.056015654467046 ], [ 423239.814381295931526, 7622451.850888213142753 ], [ 423219.61356971092755, 7622446.658266559243202 ], [ 423189.150359715567902, 7622440.140666285529733 ], [ 423158.591892700758763, 7622434.988813053816557 ], [ 423128.045485571958125, 7622431.028704611584544 ], [ 423097.602853344753385, 7622428.091511690057814 ], [ 423057.321210707363207, 7622425.487769009545445 ], [ 423017.579586194013245, 7622424.052246884442866 ], [ 422978.226993314514402, 7622423.531457448378205 ], [ 422929.458672906621359, 7622424.036141207441688 ], [ 422881.141159395221621, 7622425.694625763222575 ], [ 422833.247652108140755, 7622428.367973085492849 ], [ 422785.753726231982, 7622431.917958413250744 ], [ 422729.254587908508256, 7622437.141645753756166 ], [ 422672.92326560174115, 7622443.296097122132778 ], [ 422625.234495920827612, 7622449.704747192561626 ], [ 422586.536082730861381, 7622456.230537731200457 ], [ 422547.358480083872564, 7622464.448846157640219 ], [ 422517.691898568649776, 7622471.973034886643291 ], [ 422487.814300312427804, 7622480.856332074850798 ], [ 422457.744589957292192, 7622491.274273121729493 ], [ 422427.265924961131532, 7622503.527031784877181 ], [ 422406.134448603726923, 7622513.440263874828815 ], [ 422384.693170932296198, 7622525.430576759390533 ], [ 422374.028537063917611, 7622532.415215754881501 ], [ 422362.389220049662981, 7622541.13760045543313 ] ] ] } },
{ "type": "Feature", "properties": { "fid": 412.0, "COMPR_M": 1114.8, "CLASSE": "06 - Acima do limite", "CD_FAZ": " 403881", "TALHOES": "2", "FAZ_tAL": "403879002, 403881002", "ID_LINHA": 207429 }, "geometry": { "type": "MultiLineString", "coordinates": [ [ [ 423424.809800801042002, 7622543.961453557014465 ], [ 423402.460438729845919, 7622526.991020667366683 ], [ 423385.392982617137022, 7622515.000681469216943 ], [ 423358.492965942481533, 7622497.970163548365235 ], [ 423339.643581951851957, 7622487.474419867619872 ], [ 423320.317031071230303, 7622477.923851732164621 ], [ 423290.802294662222266, 7622465.418934406712651 ], [ 423270.849037846317515, 7622458.213994042947888 ], [ 423240.618697681697085, 7622448.960649104788899 ], [ 423220.311223204946145, 7622443.740408329293132 ], [ 423189.711089218501002, 7622437.193453976884484 ], [ 423159.036424487887416, 7622432.021896256133914 ], [ 423128.380090667982586, 7622428.047378218732774 ], [ 423097.847382085514255, 7622425.101462041959167 ], [ 423057.4682202723925, 7622422.491354274563491 ], [ 423017.652398153441027, 7622421.053118681535125 ], [ 422978.234312218963169, 7622420.531455943360925 ], [ 422929.390457066067029, 7622421.036908254958689 ], [ 422881.00482612370979, 7622422.697718244977295 ], [ 422833.050938659638632, 7622425.374424053356051 ], [ 422776.043563170242123, 7622429.732086252421141 ], [ 422719.578409694135189, 7622435.115155552513897 ], [ 422663.076553829945624, 7622441.479062970727682 ], [ 422615.134924713638611, 7622448.237525181844831 ], [ 422576.202570617955644, 7622455.167239889502525 ], [ 422536.776873221213464, 7622463.903713338077068 ], [ 422506.919143306382466, 7622471.893215438351035 ], [ 422476.845790495746769, 7622481.309328084811568 ], [ 422446.600667065242305, 7622492.319859562441707 ], [ 422415.501183678745292, 7622505.542524080723524 ], [ 422393.959902676695492, 7622516.514835784211755 ], [ 422383.127180128940381, 7622522.871135799214244 ], [ 422372.313268562313169, 7622529.952456945553422 ], [ 422357.664031056454405, 7622541.206740224733949 ] ] ] } },
{ "type": "Feature", "properties": { "fid": 413.0, "COMPR_M": 1124.24, "CLASSE": "06 - Acima do limite", "CD_FAZ": " 403881", "TALHOES": "2", "FAZ_tAL": "403879002, 403881002", "ID_LINHA": 207430 }, "geometry": { "type": "MultiLineString", "coordinates": [ [ [ 423427.992566881002858, 7622542.643241815268993 ], [ 423404.220657609694172, 7622524.561512786895037 ], [ 423387.073267825646326, 7622512.515238316729665 ], [ 423360.014452596660703, 7622495.384380329400301 ], [ 423341.046400443476159, 7622484.822462154552341 ], [ 423321.5815802924335, 7622475.203160457313061 ], [ 423291.887966971029527, 7622462.622168793343008 ], [ 423271.817284445569385, 7622455.374450661242008 ], [ 423241.410082401707768, 7622446.06671741604805 ], [ 423221.008876691688783, 7622440.822550097480416 ], [ 423190.271818718756549, 7622434.246241666376591 ], [ 423159.471550981048495, 7622429.053524469956756 ], [ 423128.714695767499506, 7622425.066051820293069 ], [ 423098.091910827846732, 7622422.111412399448454 ], [ 423057.615229836315848, 7622419.494939535856247 ], [ 423017.725210118864197, 7622418.053990479558706 ], [ 422978.24163112079259, 7622417.531454441137612 ], [ 422929.322241226444021, 7622418.037675304338336 ], [ 422880.868492856330704, 7622419.70081072486937 ], [ 422832.854225211893208, 7622422.380875024944544 ], [ 422775.784937806427479, 7622426.743251206353307 ], [ 422719.269642892002594, 7622432.131085049360991 ], [ 422662.704196342325304, 7622438.502250524237752 ], [ 422614.66226826683851, 7622445.274967482313514 ], [ 422575.615412478568032, 7622452.225194344297051 ], [ 422536.058267411368433, 7622460.990989178419113 ], [ 422506.089936251868494, 7622469.010046386159956 ], [ 422475.88583432539599, 7622478.46696867980063 ], [ 422445.501503932406195, 7622489.528304809704423 ], [ 422414.2173557538772, 7622502.830545315518975 ], [ 422392.509943629789632, 7622513.888078518211842 ], [ 422381.529355314443819, 7622520.330374039709568 ], [ 422370.58009828167269, 7622527.50142262596637 ], [ 422359.732398038206156, 7622535.525630811229348 ], [ 422352.942406610993203, 7622541.272862862795591 ] ] ] } },
{ "type": "Feature", "properties": { "fid": 414.0, "COMPR_M": 1133.67, "CLASSE": "06 - Acima do limite", "CD_FAZ": " 403881", "TALHOES": "2", "FAZ_tAL": "403879002, 403881002", "ID_LINHA": 207431 }, "geometry": { "type": "MultiLineString", "coordinates": [ [ [ 423431.167308769770898, 7622541.328353468328714 ], [ 423405.985643791267648, 7622522.135531262494624 ], [ 423388.747783333878033, 7622510.025815489701927 ], [ 423361.535939252236858, 7622492.798597116023302 ], [ 423342.44103365088813, 7622482.166076665744185 ], [ 423322.846129515732173, 7622472.482469180598855 ], [ 423292.966164812678471, 7622459.822432288900018 ], [ 423272.778438109788112, 7622452.532429048791528 ], [ 423242.207932952325791, 7622443.174632013775408 ], [ 423221.706530185474548, 7622437.904691868461668 ], [ 423190.827186456532218, 7622431.297968695871532 ], [ 423159.911380122008268, 7622426.085880184546113 ], [ 423129.049300863058306, 7622422.084725432097912 ], [ 423098.336439570528455, 7622419.121362751349807 ], [ 423057.762239405070432, 7622416.498524805530906 ], [ 423017.798022079048678, 7622415.05486227851361 ], [ 422978.248950024484657, 7622414.531452937051654 ], [ 422929.254025383736007, 7622415.038442350924015 ], [ 422880.73055204062257, 7622416.703972889110446 ], [ 422832.657511764322408, 7622419.387325990945101 ], [ 422775.526312447560485, 7622423.754416163079441 ], [ 422718.960876087890938, 7622429.147014546208084 ], [ 422662.331838855170645, 7622435.525438086129725 ], [ 422614.189611823938321, 7622442.31240978371352 ], [ 422575.035977679421194, 7622449.28165998775512 ], [ 422535.339661603211425, 7622458.078265024349093 ], [ 422505.250622299965471, 7622466.129726745188236 ], [ 422485.06306651775958, 7622472.286899250000715 ], [ 422464.778211769997142, 7622479.138192282989621 ], [ 422434.139498310105409, 7622490.850577598437667 ], [ 422412.953641406202223, 7622500.109493777155876 ], [ 422402.050671903241891, 7622505.418529626913369 ], [ 422379.947447506943718, 7622517.780272674746811 ], [ 422368.882731559278909, 7622525.026939319446683 ], [ 422357.869260470382869, 7622533.172252988442779 ], [ 422348.232651135534979, 7622541.328939286991954 ] ] ] } },
{ "type": "Feature", "properties": { "fid": 415.0, "COMPR_M": 1142.85, "CLASSE": "06 - Acima do limite", "CD_FAZ": " 403881", "TALHOES": "2", "FAZ_tAL": "403879002, 403881002", "ID_LINHA": 207432 }, "geometry": { "type": "MultiLineString", "coordinates": [ [ [ 423434.329550090653356, 7622540.01864250190556 ], [ 423416.165228046535049, 7622525.933891903609037 ], [ 423390.43383823428303, 7622507.544352013617754 ], [ 423363.064827886642888, 7622490.217284938320518 ], [ 423343.827481581771281, 7622479.505263394676149 ], [ 423324.118636157712899, 7622469.765590900555253 ], [ 423294.0443626526976, 7622457.02269578166306 ], [ 423273.739591775403824, 7622449.690407434478402 ], [ 423243.012249336286914, 7622440.284392908215523 ], [ 423212.076379185775295, 7622432.607598432339728 ], [ 423181.045560787955765, 7622426.461035499349236 ], [ 423150.016490786103532, 7622421.653495030477643 ], [ 423119.096621747186873, 7622418.005589958280325 ], [ 423088.363354377972428, 7622415.343066868372262 ], [ 423047.837525260983966, 7622413.043753545731306 ], [ 423007.938836307555903, 7622411.842627793550491 ], [ 422968.404823023884092, 7622411.53339746594429 ], [ 422919.4298585326178, 7622412.284500209614635 ], [ 422870.931455803394783, 7622414.167412691749632 ], [ 422813.329346230253577, 7622417.722348615527153 ], [ 422756.333053775597364, 7622422.462596897035837 ], [ 422690.451122022117488, 7622429.189554844982922 ], [ 422642.773275241779629, 7622435.057208888232708 ], [ 422603.952581957913935, 7622440.948875579982996 ], [ 422564.542781269003171, 7622448.357151818461716 ], [ 422524.587385116610676, 7622457.708054985851049 ], [ 422494.296587995719165, 7622466.254578880034387 ], [ 422463.77451723406557, 7622476.310977086424828 ], [ 422432.990765886206646, 7622488.078999748453498 ], [ 422411.679870270891115, 7622497.39297862444073 ], [ 422400.70136593724601, 7622502.738797513768077 ], [ 422378.365539698861539, 7622515.23017131537199 ], [ 422367.149561277939938, 7622522.575905000790954 ], [ 422356.006122906110249, 7622530.818875161930919 ], [ 422343.788927773013711, 7622541.332157630473375 ] ] ] } },
{ "type": "Feature", "properties": { "fid": 416.0, "COMPR_M": 377.88, "CLASSE": "03 - Média", "CD_FAZ": " 403881", "TALHOES": "2", "FAZ_tAL": "403879002, 403881002", "ID_LINHA": 207433 }, "geometry": { "type": "MultiLineString", "coordinates": [ [ [ 423440.654032729449682, 7622537.399220572784543 ], [ 423419.768055797670968, 7622521.135819696821272 ], [ 423402.630540270009078, 7622508.668356964364648 ], [ 423384.761547438451089, 7622496.588863529264927 ], [ 423366.107801191741601, 7622485.045718507841229 ], [ 423346.616747999447398, 7622474.192492410540581 ], [ 423326.639777180214878, 7622464.320395358838141 ], [ 423306.404259651317261, 7622455.479034930467606 ], [ 423285.95132224081317, 7622447.601610998623073 ], [ 423265.33807712525595, 7622440.629617489874363 ], [ 423244.607950442412402, 7622434.500222113914788 ], [ 423223.793462967325468, 7622429.149623099714518 ], [ 423192.514736731536686, 7622422.457392424345016 ], [ 423171.655324549879879, 7622418.795661570504308 ], [ 423140.428868167800829, 7622414.362583162263036 ], [ 423092.259966187819373, 7622409.625835505314171 ] ] ] } },
{ "type": "Feature", "properties": { "fid": 417.0, "COMPR_M": 370.55, "CLASSE": "03 - Média", "CD_FAZ": " 403881", "TALHOES": "2", "FAZ_tAL": "403879002, 403881002", "ID_LINHA": 207434 }, "geometry": { "type": "MultiLineString", "coordinates": [ [ [ 423443.816256769758184, 7622536.089516763575375 ], [ 423421.569469673500862, 7622518.736783593893051 ], [ 423404.349939174309839, 7622506.209757158532739 ], [ 423386.399567548302002, 7622494.075418934226036 ], [ 423367.629287847783417, 7622482.459935294464231 ], [ 423337.994857523590326, 7622466.434834383428097 ], [ 423317.748810863820836, 7622457.024026665836573 ], [ 423297.278956179972738, 7622448.623486259020865 ], [ 423276.615959836170077, 7622441.161864356137812 ], [ 423255.829012988833711, 7622434.584440542384982 ], [ 423234.958135410386603, 7622428.826325610280037 ], [ 423203.551871240139008, 7622421.582705159671605 ], [ 423182.601542519812938, 7622417.596338482573628 ], [ 423151.230087049421854, 7622412.735554188489914 ], [ 423130.391783061204478, 7622410.159898171201348 ], [ 423103.224761786230374, 7622407.499093908816576 ] ] ] } },
{ "type": "Feature", "properties": { "fid": 418.0, "COMPR_M": 375.58, "CLASSE": "03 - Média", "CD_FAZ": " 403881", "TALHOES": "2", "FAZ_tAL": "403879002, 403881002", "ID_LINHA": 207435 }, "geometry": { "type": "MultiLineString", "coordinates": [ [ [ 423446.978484964056406, 7622534.77981123700738 ], [ 423423.366590582940262, 7622516.334475358948112 ], [ 423406.079857044212986, 7622503.758683800697327 ], [ 423388.024992441292852, 7622491.553629765287042 ], [ 423369.143372523481958, 7622479.869681043550372 ], [ 423339.323972897953354, 7622463.745081599801779 ], [ 423318.949936860473827, 7622454.274759363383055 ], [ 423298.349679562496021, 7622445.820778855122626 ], [ 423277.577113501727581, 7622438.319842739030719 ], [ 423256.68627520033624, 7622431.709455206990242 ], [ 423235.698754559911322, 7622425.919002380222082 ], [ 423204.15086924622301, 7622418.642974480986595 ], [ 423183.120203098107595, 7622414.641439478844404 ], [ 423151.628636938345153, 7622409.762059392407537 ], [ 423130.726388159964699, 7622407.178571777418256 ], [ 423101.881729648681358, 7622404.371843343600631 ] ] ] } },
{ "type": "Feature", "properties": { "fid": 419.0, "COMPR_M": 378.73, "CLASSE": "03 - Média", "CD_FAZ": " 403881", "TALHOES": "2", "FAZ_tAL": "403879002, 403881002", "ID_LINHA": 207436 }, "geometry": { "type": "MultiLineString", "coordinates": [ [ [ 423450.137946343864314, 7622533.471251644194126 ], [ 423425.172297428536694, 7622513.938711387105286 ], [ 423407.79925595090026, 7622501.300084000453353 ], [ 423389.656714941433165, 7622489.036012887954712 ], [ 423370.672261155152228, 7622477.288368863984942 ], [ 423340.653088272141758, 7622461.05532880872488 ], [ 423320.151062853983603, 7622451.525492068380117 ], [ 423299.435351869440638, 7622443.02401324082166 ], [ 423278.545360103307758, 7622435.480299364775419 ], [ 423257.536857257597148, 7622428.832427062094212 ], [ 423236.445621675811708, 7622423.013342656195164 ], [ 423204.755451038479805, 7622415.704437009990215 ], [ 423183.638863670872524, 7622411.686540473252535 ], [ 423152.031673471152317, 7622406.789200475439429 ], [ 423131.060993253602646, 7622404.197245385497808 ], [ 423102.400597348576412, 7622401.405502745881677 ] ] ] } },
{ "type": "Feature", "properties": { "fid": 420.0, "COMPR_M": 381.73, "CLASSE": "03 - Média", "CD_FAZ": " 403881", "TALHOES": "2", "FAZ_tAL": "403879002, 403881002", "ID_LINHA": 207437 }, "geometry": { "type": "MultiLineString", "coordinates": [ [ [ 423453.282677279086784, 7622532.168792983517051 ], [ 423426.969418334134389, 7622511.536403152160347 ], [ 423409.529173821385484, 7622498.849010642617941 ], [ 423391.294735052855685, 7622486.522568292915821 ], [ 423372.186345828813501, 7622474.698114616796374 ], [ 423341.982203647377901, 7622458.365576021373272 ], [ 423321.359999732696451, 7622448.779744050465524 ], [ 423300.506075247656554, 7622440.221305838786066 ], [ 423279.506513766536955, 7622432.638277753256261 ], [ 423258.387439314101357, 7622425.955398923717439 ], [ 423237.198736752849072, 7622420.109346460551023 ], [ 423205.36003283422906, 7622412.7658995334059 ], [ 423184.157524251379073, 7622408.73164146579802 ], [ 423152.439196663792245, 7622403.816977459937334 ], [ 423131.391536539187655, 7622401.2154406812042 ], [ 423103.069407665112521, 7622398.452120559290051 ] ] ] } },
{ "type": "Feature", "properties": { "fid": 538.0, "COMPR_M": 415.57, "CLASSE": "03 - Média", "CD_FAZ": " 403881", "TALHOES": "2", "FAZ_tAL": "403879002, 403881002", "ID_LINHA": 207555 }, "geometry": { "type": "MultiLineString", "coordinates": [ [ [ 423437.491791410779115, 7622538.708931539207697 ], [ 423417.966641922830604, 7622523.534855799749494 ], [ 423392.114123441686388, 7622505.058908858336508 ], [ 423373.9561966676265, 7622493.291215309873223 ], [ 423354.999449134222232, 7622482.13812049292028 ], [ 423335.34471360873431, 7622471.818458471447229 ], [ 423315.346558877674397, 7622462.522561254911125 ], [ 423295.115086031495593, 7622454.219988379627466 ], [ 423274.693652507732622, 7622446.845907585695386 ], [ 423254.13452902820427, 7622440.340539623983204 ], [ 423223.101837165420875, 7622432.068975408561528 ], [ 423202.337123862409499, 7622427.458586908876896 ], [ 423171.172038821270689, 7622421.756516009569168 ], [ 423150.419527325604577, 7622418.680636120028794 ], [ 423119.399546755535994, 7622415.020882818847895 ], [ 423088.581124219694175, 7622412.350952968001366 ], [ 423050.975550933449995, 7622410.183457687497139 ] ] ] } },
{ "type": "Feature", "properties": { "fid": 542.0, "COMPR_M": 934.17, "CLASSE": "05 - Muito longa", "CD_FAZ": " 403881", "TALHOES": "2", "FAZ_tAL": "403879002, 403881002", "ID_LINHA": 207559 }, "geometry": { "type": "MultiLineString", "coordinates": [ [ [ 423370.165105256368406, 7622566.593741768039763 ], [ 423348.863652397645637, 7622551.976434925571084 ], [ 423332.627692823298275, 7622541.928478188812733 ], [ 423315.943002674903255, 7622532.637400984764099 ], [ 423298.819694297679234, 7622524.1756034148857 ], [ 423281.339224985917099, 7622516.538565566763282 ], [ 423263.535559793119319, 7622509.682221095077693 ], [ 423245.427408676943742, 7622503.557927423156798 ], [ 423227.048772468115203, 7622498.124254579655826 ], [ 423208.445086177845951, 7622493.342504169791937 ], [ 423180.173325904994272, 7622487.295002587139606 ], [ 423161.126373863953631, 7622483.951855938881636 ], [ 423132.333559608261567, 7622479.865329218097031 ], [ 423084.007957542024087, 7622475.185344856232405 ], [ 423054.969057656242512, 7622473.430404780432582 ], [ 423026.028393845248502, 7622472.298825029283762 ], [ 422987.663988942163996, 7622471.579986122436821 ], [ 422949.534656035364605, 7622471.684097174555063 ], [ 422911.620355303166434, 7622472.544252753257751 ], [ 422864.516888900077902, 7622474.58050824701786 ], [ 422827.043291231093463, 7622476.896986287087202 ], [ 422780.440194308350328, 7622480.542281983420253 ], [ 422724.827445338480175, 7622485.844354100525379 ], [ 422678.6461283894605, 7622490.95385380461812 ], [ 422641.670998443092685, 7622495.799601212143898 ], [ 422613.909840471984353, 7622500.117471469566226 ], [ 422586.114748922002036, 7622505.195413459092379 ], [ 422558.284999646421056, 7622511.189597849734128 ], [ 422530.403728639823385, 7622518.260344982147217 ], [ 422511.794410088506993, 7622523.648037865757942 ], [ 422483.842875167960301, 7622532.857196754775941 ], [ 422462.065891446080059, 7622541.065264110453427 ] ] ] } },
{ "type": "Feature", "properties": { "fid": 543.0, "COMPR_M": 946.44, "CLASSE": "05 - Muito longa", "CD_FAZ": " 403881", "TALHOES": "2", "FAZ_tAL": "403879002, 403881002", "ID_LINHA": 207560 }, "geometry": { "type": "MultiLineString", "coordinates": [ [ [ 423373.430467719677836, 7622565.241320937871933 ], [ 423358.502649629721418, 7622554.763792231678963 ], [ 423342.386399363866076, 7622544.318448160775006 ], [ 423325.798640254768543, 7622534.557942653074861 ], [ 423308.762406112567987, 7622525.613514250144362 ], [ 423291.331849886395503, 7622517.511426477693021 ], [ 423273.551129179191776, 7622510.214718528091908 ], [ 423255.477672141452786, 7622503.688818097114563 ], [ 423227.85308884899132, 7622495.23401547037065 ], [ 423209.142739667091519, 7622490.424645939841866 ], [ 423180.734055407345295, 7622484.347790276631713 ], [ 423161.604738864465617, 7622480.990173088386655 ], [ 423132.701528178527951, 7622476.887931670993567 ], [ 423103.641279797593597, 7622473.781139640137553 ], [ 423074.517452733940445, 7622471.528937365859747 ], [ 423016.487406758475117, 7622469.039169920608401 ], [ 422978.11720976018114, 7622468.531480014324188 ], [ 422939.981041160644963, 7622468.831362063065171 ], [ 422902.064736141415779, 7622469.871577383950353 ], [ 422854.956637716037221, 7622472.110573820769787 ], [ 422808.142468824982643, 7622475.270159995183349 ], [ 422761.589555784477852, 7622479.219764344394207 ], [ 422706.030340777884703, 7622484.819070726633072 ], [ 422659.773802119656466, 7622490.291181687265635 ], [ 422631.971539356047288, 7622494.197913132607937 ], [ 422604.124136154889129, 7622498.764124527573586 ], [ 422576.226323414419312, 7622504.147775245830417 ], [ 422548.274566182808485, 7622510.507299855351448 ], [ 422520.272364798933268, 7622517.999700309708714 ], [ 422501.570469290018082, 7622523.703496193513274 ], [ 422473.467564046324696, 7622533.439626345410943 ], [ 422454.099378305312712, 7622541.03948568366468 ] ] ] } },
{ "type": "Feature", "properties": { "fid": 544.0, "COMPR_M": 958.39, "CLASSE": "05 - Muito longa", "CD_FAZ": " 403881", "TALHOES": "2", "FAZ_tAL": "403879002, 403881002", "ID_LINHA": 207561 }, "geometry": { "type": "MultiLineString", "coordinates": [ [ [ 423376.680955028336029, 7622563.895060981623828 ], [ 423360.188704533386044, 7622552.282328750938177 ], [ 423343.965231339738239, 7622541.767303389497101 ], [ 423327.25828279950656, 7622531.936723556369543 ], [ 423310.091521486989222, 7622522.923761459067464 ], [ 423292.525164995517116, 7622514.758639903739095 ], [ 423274.636801486369222, 7622507.417952920310199 ], [ 423256.438825804681983, 7622500.846796484664083 ], [ 423228.650939401471987, 7622492.341930074617267 ], [ 423209.84642084868392, 7622487.508281784132123 ], [ 423181.294784908997826, 7622481.400577964261174 ], [ 423162.08310386352241, 7622478.028490232303739 ], [ 423133.069496751239058, 7622473.910534121096134 ], [ 423103.914186543261167, 7622470.793542494997382 ], [ 423074.710062384314369, 7622468.535101937130094 ], [ 423016.560218722675927, 7622466.040041718631983 ], [ 422978.124528663523961, 7622465.531478509306908 ], [ 422939.927350710029714, 7622465.831833567470312 ], [ 422901.954737312858924, 7622466.873587114736438 ], [ 422854.783130945463199, 7622469.115589508786798 ], [ 422807.912053094420116, 7622472.279014656320214 ], [ 422761.312897784984671, 7622476.23254500515759 ], [ 422705.706388529913966, 7622481.83660979103297 ], [ 422659.384880986181088, 7622487.316485438495874 ], [ 422631.525238414178602, 7622491.231283832341433 ], [ 422603.599408784357365, 7622495.810337323695421 ], [ 422575.611400144349318, 7622501.211426643654704 ], [ 422547.560549177753273, 7622507.593474163673818 ], [ 422519.433050845051184, 7622515.119380662217736 ], [ 422491.250562797067687, 7622523.942931381985545 ], [ 422472.419365775189362, 7622530.628602800890803 ], [ 422446.456129139405675, 7622541.013360068202019 ] ] ] } },
{ "type": "Feature", "properties": { "fid": 545.0, "COMPR_M": 970.08, "CLASSE": "05 - Muito longa", "CD_FAZ": " 403881", "TALHOES": "2", "FAZ_tAL": "403879002, 403881002", "ID_LINHA": 207562 }, "geometry": { "type": "MultiLineString", "coordinates": [ [ [ 423379.914867871324532, 7622562.555665696039796 ], [ 423361.863220040977467, 7622549.792905926704407 ], [ 423345.537221058853902, 7622539.211821230128407 ], [ 423328.717925347504206, 7622529.31550445780158 ], [ 423311.420636861294042, 7622520.234008667990565 ], [ 423293.734101874986663, 7622512.012891883030534 ], [ 423275.714999326737598, 7622504.618216415867209 ], [ 423257.399979469948448, 7622498.00477487500757 ], [ 423229.442324126081076, 7622489.447998384013772 ], [ 423210.544074341247324, 7622484.590423552319407 ], [ 423181.860876180289779, 7622478.454426320269704 ], [ 423162.561468857689761, 7622475.066807378083467 ], [ 423133.437465321039781, 7622470.933136573061347 ], [ 423104.187093288695905, 7622467.805945344269276 ], [ 423074.902672033174895, 7622465.541266512125731 ], [ 423016.633030682918616, 7622463.040913516655564 ], [ 422978.131847565528005, 7622462.531477004289627 ], [ 422930.345478853560053, 7622463.026169596239924 ], [ 422892.371694782166742, 7622464.244489103555679 ], [ 422845.201964537613094, 7622466.68440094217658 ], [ 422798.332106202375144, 7622470.020262699574232 ], [ 422751.739018654683605, 7622474.120015107095242 ], [ 422696.11827106657438, 7622479.873785091564059 ], [ 422649.696511190617457, 7622485.585378805175424 ], [ 422621.752114941074979, 7622489.713332970626652 ], [ 422593.727909406879917, 7622494.562184674665332 ], [ 422565.619080316682812, 7622500.292917462997139 ], [ 422537.437922144192271, 7622507.063650826923549 ], [ 422509.174147858167998, 7622515.037708475254476 ], [ 422490.285176911158487, 7622521.102359775453806 ], [ 422461.908861758478452, 7622531.432220523245633 ], [ 422439.090011419088114, 7622540.977319644764066 ] ] ] } },
{ "type": "Feature", "properties": { "fid": 546.0, "COMPR_M": 981.63, "CLASSE": "06 - Acima do limite", "CD_FAZ": " 403881", "TALHOES": "2", "FAZ_tAL": "403879002, 403881002", "ID_LINHA": 207563 }, "geometry": { "type": "MultiLineString", "coordinates": [ [ [ 423383.148827328695916, 7622561.216251108795404 ], [ 423363.543505243374966, 7622547.307462774217129 ], [ 423347.116053036705125, 7622536.66067645791918 ], [ 423330.177567898004781, 7622526.694285359233618 ], [ 423312.74975223466754, 7622517.544255882501602 ], [ 423294.927416981430724, 7622509.260105308145285 ], [ 423276.78572270704899, 7622501.815509006381035 ], [ 423258.35404019796988, 7622495.160275021567941 ], [ 423230.240174675302114, 7622486.555912988260388 ], [ 423211.235700139193796, 7622481.671071249991655 ], [ 423182.421605684095994, 7622475.50721400976181 ], [ 423163.0398338570958, 7622472.105124522000551 ], [ 423133.80543389194645, 7622467.955739024095237 ], [ 423104.46000003523659, 7622464.818348195403814 ], [ 423075.095281680347398, 7622462.54743108805269 ], [ 423045.812957338057458, 7622461.001297468319535 ], [ 423007.042326963855885, 7622459.834439726546407 ], [ 422968.538630808470771, 7622459.533371968194842 ], [ 422920.748966317623854, 7622460.266503613442183 ], [ 422882.777158626064193, 7622461.657515965402126 ], [ 422835.608213484112639, 7622464.290561446920037 ], [ 422788.743139256257564, 7622467.793671643361449 ], [ 422732.869422854040749, 7622472.959729487076402 ], [ 422677.214109612104949, 7622479.039567980915308 ], [ 422639.961691245494876, 7622483.921888457611203 ], [ 422611.918388769496232, 7622488.283752292394638 ], [ 422583.785424715781119, 7622493.423509251326323 ], [ 422555.55005681863986, 7622499.505162980407476 ], [ 422527.225771124300081, 7622506.688517457805574 ], [ 422498.819235494185705, 7622515.134063370525837 ], [ 422479.833629782893695, 7622521.546420272439718 ], [ 422451.272825349471532, 7622532.463390769436955 ], [ 422431.886303254577797, 7622540.941546387970448 ] ] ] } },
{ "type": "Feature", "properties": { "fid": 547.0, "COMPR_M": 992.78, "CLASSE": "06 - Acima do limite", "CD_FAZ": " 403881", "TALHOES": "2", "FAZ_tAL": "403879002, 403881002", "ID_LINHA": 207564 }, "geometry": { "type": "MultiLineString", "coordinates": [ [ [ 423386.382709134486504, 7622559.876868677325547 ], [ 423365.229560148902237, 7622544.825999295338988 ], [ 423348.694885015371256, 7622534.109531684778631 ], [ 423331.645168371207546, 7622524.077626053243876 ], [ 423314.070780776091851, 7622514.850384583696723 ], [ 423296.128542977618054, 7622506.51083801034838 ], [ 423277.871395015798043, 7622499.018743393942714 ], [ 423259.32228680071421, 7622492.320731644518673 ], [ 423231.038025227026083, 7622483.663827588781714 ], [ 423211.939381321310066, 7622478.754707090556622 ], [ 423182.98233518586494, 7622472.560001695528626 ], [ 423163.518198853649665, 7622469.143441670574248 ], [ 423134.173402461863589, 7622464.978341480717063 ], [ 423104.732906779565383, 7622461.830751044675708 ], [ 423075.287891328742262, 7622459.55359566397965 ], [ 423045.939492832461838, 7622458.003950975835323 ], [ 423007.098358795046806, 7622456.834951480850577 ], [ 422968.530267823429313, 7622456.533373560756445 ], [ 422920.666522078914568, 7622457.267628401517868 ], [ 422882.639217810239643, 7622458.660678122192621 ], [ 422835.411500037123915, 7622461.297012416645885 ], [ 422788.494021504651755, 7622464.804028874263167 ], [ 422732.568186611286364, 7622469.974889175966382 ], [ 422676.85653927695239, 7622476.06094541028142 ], [ 422639.534364446415566, 7622480.9524602657184 ], [ 422611.420525842404459, 7622485.32532249763608 ], [ 422583.19826657534577, 7622490.481463704258204 ], [ 422554.867425423231907, 7622496.583803250454366 ], [ 422526.431281742407009, 7622503.795560579746962 ], [ 422497.90215756255202, 7622512.277585759758949 ], [ 422469.274770955904387, 7622522.195532154291868 ], [ 422440.47664524463471, 7622533.769904304295778 ], [ 422425.109340930706821, 7622540.904909009113908 ] ] ] } },
{ "type": "Feature", "properties": { "fid": 548.0, "COMPR_M": 1003.82, "CLASSE": "06 - Acima do limite", "CD_FAZ": " 403881", "TALHOES": "2", "FAZ_tAL": "403879002, 403881002", "ID_LINHA": 207565 }, "geometry": { "type": "MultiLineString", "coordinates": [ [ [ 423389.616699626552872, 7622558.537441233173013 ], [ 423366.904075656901114, 7622542.336576469242573 ], [ 423350.273716996307485, 7622531.558386910706758 ], [ 423333.104810916760471, 7622521.456406954675913 ], [ 423315.399896150222048, 7622512.16063179448247 ], [ 423297.329668969963677, 7622503.761570712551475 ], [ 423278.942118390463293, 7622496.216035992838442 ], [ 423260.283440464816522, 7622489.478710029274225 ], [ 423231.84234161087079, 7622480.773588480427861 ], [ 423212.63703481014818, 7622475.836848859675229 ], [ 423183.537702921312302, 7622469.61172872595489 ], [ 423163.996563851309475, 7622466.181758819147944 ], [ 423134.541371033003088, 7622462.000943930819631 ], [ 423105.005813525582198, 7622458.843153899535537 ], [ 423075.480500976846088, 7622456.559760238043964 ], [ 423046.066028326749802, 7622455.006604479625821 ], [ 423007.154390631942078, 7622453.835463233292103 ], [ 422968.521904836234171, 7622453.533375153318048 ], [ 422920.584077841078397, 7622454.268753184936941 ], [ 422873.017973792972043, 7622456.115644803270698 ], [ 422825.796258736518212, 7622458.940204910002649 ], [ 422778.888442140771076, 7622462.609271723777056 ], [ 422722.974844522657804, 7622467.939931083470583 ], [ 422667.172486193478107, 7622474.223999816924334 ], [ 422629.728693497134373, 7622479.366439579986036 ], [ 422601.503962663933635, 7622483.994589993730187 ], [ 422573.151707061217166, 7622489.466032239608467 ], [ 422544.686125935986638, 7622495.942577531561255 ], [ 422516.101062287460081, 7622503.590978563763201 ], [ 422487.410738109610975, 7622512.573493757285178 ], [ 422468.226572686748113, 7622519.384508605115116 ], [ 422439.267443155637011, 7622531.024030128493905 ], [ 422418.460305971268099, 7622540.863421212881804 ] ] ] } },
{ "type": "Feature", "properties": { "fid": 549.0, "COMPR_M": 1014.54, "CLASSE": "06 - Acima do limite", "CD_FAZ": " 403881", "TALHOES": "2", "FAZ_tAL": "403879002, 403881002", "ID_LINHA": 207566 }, "geometry": { "type": "MultiLineString", "coordinates": [ [ [ 423392.848566697211936, 7622557.198893249966204 ], [ 423368.590130561497062, 7622539.855112986639142 ], [ 423351.852548970899079, 7622529.007242137566209 ], [ 423334.564453466853593, 7622518.835187861695886 ], [ 423316.729011526680551, 7622509.470879005268216 ], [ 423298.53860585030634, 7622501.015822695568204 ], [ 423280.020316235953942, 7622493.41629948373884 ], [ 423261.244594132294878, 7622486.636688416823745 ], [ 423232.633726330590434, 7622477.879656793549657 ], [ 423213.334688298869878, 7622472.918990631587803 ], [ 423184.103794189228211, 7622466.665577081032097 ], [ 423164.474928852170706, 7622463.220075962133706 ], [ 423134.909339604550041, 7622459.023546380922198 ], [ 423105.278720268048346, 7622455.85555674880743 ], [ 423075.673110625415575, 7622453.565924810245633 ], [ 423046.192563823540695, 7622452.009257985278964 ], [ 423007.210422465752345, 7622450.835974991321564 ], [ 422968.513541850144975, 7622450.533376746810973 ], [ 422920.501633604755625, 7622451.269877975806594 ], [ 422872.868936796614435, 7622453.119342505931854 ], [ 422825.588419990264811, 7622455.947408016771078 ], [ 422778.629816778935492, 7622459.620436681434512 ], [ 422722.66607771924464, 7622464.955860581248999 ], [ 422666.800128704519011, 7622471.247187376022339 ], [ 422629.276721982867457, 7622476.40064675360918 ], [ 422600.975771924946457, 7622481.041401313617826 ], [ 422572.536783789400943, 7622486.529683640226722 ], [ 422543.962931321992073, 7622493.030954912304878 ], [ 422515.266801782127004, 7622500.709234217181802 ], [ 422486.445352219860069, 7622509.732922149822116 ], [ 422457.529371193086263, 7622520.25944556761533 ], [ 422428.228838255105074, 7622532.712212 ], [ 422412.162568223313428, 7622540.813805844634771 ] ] ] } },
{ "type": "Feature", "properties": { "fid": 550.0, "COMPR_M": 1025.1, "CLASSE": "06 - Acima do limite", "CD_FAZ": " 403881", "TALHOES": "2", "FAZ_tAL": "403879002, 403881002", "ID_LINHA": 207567 }, "geometry": { "type": "MultiLineString", "coordinates": [ [ [ 423396.055091449175961, 7622555.870841338299215 ], [ 423378.480063359253109, 7622543.032305841334164 ], [ 423353.438223209755961, 7622526.460434749722481 ], [ 423336.016138083883561, 7622516.209408967755735 ], [ 423318.066213734215125, 7622506.785244727507234 ], [ 423299.731920959195122, 7622498.263036121614277 ], [ 423281.098514076555148, 7622490.61656297557056 ], [ 423262.198654861829709, 7622483.792188566178083 ], [ 423233.438042713212781, 7622474.989417686127126 ], [ 423214.026314101822209, 7622469.999638328328729 ], [ 423184.664523691521026, 7622463.718364765867591 ], [ 423155.073259582044557, 7622458.729967376217246 ], [ 423125.372706614551134, 7622454.87979406863451 ], [ 423095.646623399166856, 7622452.011908855289221 ], [ 423065.997063092538156, 7622449.977474155835807 ], [ 423036.521986865845975, 7622448.630575075745583 ], [ 422997.550866102566943, 7622447.681951874867082 ], [ 422958.856333628122229, 7622447.58525809738785 ], [ 422910.849372943455819, 7622448.556576197035611 ], [ 422863.225458187807817, 7622450.61522901058197 ], [ 422815.953065123700071, 7622453.626668678596616 ], [ 422759.652949783136137, 7622458.309228969737887 ], [ 422703.762675036035944, 7622463.941844152286649 ], [ 422657.051354195049498, 7622469.468307955190539 ], [ 422619.388832714583259, 7622474.900544472038746 ], [ 422590.961822221928742, 7622479.819243546575308 ], [ 422562.383059359970503, 7622485.645905695855618 ], [ 422533.658352433529217, 7622492.547299109399319 ], [ 422504.798394955869298, 7622500.689729182049632 ], [ 422475.813318889646325, 7622510.239475166425109 ], [ 422446.703938141057733, 7622521.366640590131283 ], [ 422426.96512390935095, 7622529.99116045422852 ], [ 422406.015247547649778, 7622540.745974384248257 ] ] ] } },
{ "type": "Feature", "properties": { "fid": 551.0, "COMPR_M": 1035.35, "CLASSE": "06 - Acima do limite", "CD_FAZ": " 403881", "TALHOES": "2", "FAZ_tAL": "403879002, 403881002", "ID_LINHA": 207568 }, "geometry": { "type": "MultiLineString", "coordinates": [ [ [ 423399.261590349720791, 7622554.542800134047866 ], [ 423380.204721745918505, 7622540.577469265088439 ], [ 423355.017055188072845, 7622523.909289975650609 ], [ 423337.47578063281253, 7622513.588189871050417 ], [ 423319.395329111255705, 7622504.095491936430335 ], [ 423300.940857836336363, 7622495.517288098111749 ], [ 423282.176711920066737, 7622487.816826464608312 ], [ 423263.159808524651453, 7622480.950166950002313 ], [ 423234.22942743357271, 7622472.095485995523632 ], [ 423214.729995281260926, 7622467.08327417075634 ], [ 423185.219891428307164, 7622460.770091792568564 ], [ 423155.513088719046209, 7622455.762323087081313 ], [ 423125.707311710168142, 7622451.898467680439353 ], [ 423095.891152142372448, 7622449.021859209984541 ], [ 423066.163243177405093, 7622446.982046343386173 ], [ 423036.629572146805003, 7622445.63249097019434 ], [ 422997.590386312629562, 7622444.682201018556952 ], [ 422958.832572833227459, 7622444.585342501290143 ], [ 422910.753000146127306, 7622445.558116624131799 ], [ 422863.06402935431106, 7622447.619569103233516 ], [ 422815.734421879344154, 7622450.634642008692026 ], [ 422759.376291780907195, 7622455.322009628638625 ], [ 422703.438722788006999, 7622460.959383208304644 ], [ 422656.662433066638187, 7622466.493611708283424 ], [ 422618.916176274418831, 7622471.937986774370074 ], [ 422580.865080701129045, 7622478.710303902626038 ], [ 422552.141317097062711, 7622484.897360229864717 ], [ 422523.258231780375354, 7622492.222420981153846 ], [ 422494.233845831884537, 7622500.851675328798592 ], [ 422465.087601628620178, 7622510.949391885660589 ], [ 422435.672746961470693, 7622522.772496117278934 ], [ 422415.663260897039436, 7622532.157643784768879 ], [ 422400.225753401056863, 7622540.664752015843987 ] ] ] } }
]
}
