{
"type": "FeatureCollection",
"name": " 403941",
"crs": { "type": "name", "properties": { "name": "urn:ogc:def:crs:EPSG::32722" } },
"xy_coordinate_resolution": 1e-15,
"features": [
{ "type": "Feature", "properties": { "fid": 45.0, "COMPR_M": 265.64, "CLASSE": "02 - Curta", "CD_FAZ": " 403941", "TALHOES": "1, 4", "FAZ_tAL": "403933001, 403941004", "ID_LINHA": 228988 }, "geometry": { "type": "MultiLineString", "coordinates": [ [ [ 416015.462865688488819, 7632249.778152605518699 ], [ 416010.599325746297836, 7631984.26201930642128 ] ] ] } },
{ "type": "Feature", "properties": { "fid": 51.0, "COMPR_M": 265.64, "CLASSE": "02 - Curta", "CD_FAZ": " 403941", "TALHOES": "1, 4", "FAZ_tAL": "403933001, 403941004", "ID_LINHA": 228994 }, "geometry": { "type": "MultiLineString", "coordinates": [ [ [ 416033.470413101604208, 7632250.025348013266921 ], [ 416028.606876812176779, 7631984.509414189495146 ] ] ] } },
{ "type": "Feature", "properties": { "fid": 52.0, "COMPR_M": 265.64, "CLASSE": "02 - Curta", "CD_FAZ": " 403941", "TALHOES": "1, 4", "FAZ_tAL": "403933001, 403941004", "ID_LINHA": 228995 }, "geometry": { "type": "MultiLineString", "coordinates": [ [ [ 416036.471671003673691, 7632250.066547246649861 ], [ 416031.608135324553587, 7631984.550646668300033 ] ] ] } },
{ "type": "Feature", "properties": { "fid": 53.0, "COMPR_M": 265.64, "CLASSE": "02 - Curta", "CD_FAZ": " 403941", "TALHOES": "1, 4", "FAZ_tAL": "403933001, 403941004", "ID_LINHA": 228996 }, "geometry": { "type": "MultiLineString", "coordinates": [ [ [ 416039.472928905743174, 7632250.107746481895447 ], [ 416034.609393835708033, 7631984.591879148036242 ] ] ] } },
{ "type": "Feature", "properties": { "fid": 54.0, "COMPR_M": 265.64, "CLASSE": "02 - Curta", "CD_FAZ": " 403941", "TALHOES": "1, 4", "FAZ_tAL": "403933001, 403941004", "ID_LINHA": 228997 }, "geometry": { "type": "MultiLineString", "coordinates": [ [ [ 416042.474186807812657, 7632250.148945717141032 ], [ 416037.61065234686248, 7631984.633111629635096 ] ] ] } },
{ "type": "Feature", "properties": { "fid": 55.0, "COMPR_M": 265.64, "CLASSE": "02 - Curta", "CD_FAZ": " 403941", "TALHOES": "1, 4", "FAZ_tAL": "403933001, 403941004", "ID_LINHA": 228998 }, "geometry": { "type": "MultiLineString", "coordinates": [ [ [ 416045.475444710580632, 7632250.190144951455295 ], [ 416040.611910856678151, 7631984.674344109371305 ] ] ] } },
{ "type": "Feature", "properties": { "fid": 56.0, "COMPR_M": 265.64, "CLASSE": "02 - Curta", "CD_FAZ": " 403941", "TALHOES": "1, 4", "FAZ_tAL": "403933001, 403941004", "ID_LINHA": 228999 }, "geometry": { "type": "MultiLineString", "coordinates": [ [ [ 416048.476702611311339, 7632250.231344186700881 ], [ 416043.613169369229581, 7631984.715576589107513 ] ] ] } },
{ "type": "Feature", "properties": { "fid": 57.0, "COMPR_M": 265.64, "CLASSE": "02 - Curta", "CD_FAZ": " 403941", "TALHOES": "1, 4", "FAZ_tAL": "403933001, 403941004", "ID_LINHA": 229000 }, "geometry": { "type": "MultiLineString", "coordinates": [ [ [ 416051.477960514777806, 7632250.272543421015143 ], [ 416046.614427879801951, 7631984.756809070706367 ] ] ] } },
{ "type": "Feature", "properties": { "fid": 58.0, "COMPR_M": 265.64, "CLASSE": "02 - Curta", "CD_FAZ": " 403941", "TALHOES": "1, 4", "FAZ_tAL": "403933001, 403941004", "ID_LINHA": 229001 }, "geometry": { "type": "MultiLineString", "coordinates": [ [ [ 416054.479218417021912, 7632250.313742655329406 ], [ 416049.615686391713098, 7631984.798041552305222 ] ] ] } },
{ "type": "Feature", "properties": { "fid": 62.0, "COMPR_M": 265.64, "CLASSE": "02 - Curta", "CD_FAZ": " 403941", "TALHOES": "1, 4", "FAZ_tAL": "403933001, 403941004", "ID_LINHA": 229005 }, "geometry": { "type": "MultiLineString", "coordinates": [ [ [ 416066.484250025241636, 7632250.478539592586458 ], [ 416061.620720436563715, 7631984.962971473112702 ] ] ] } },
{ "type": "Feature", "properties": { "fid": 63.0, "COMPR_M": 265.64, "CLASSE": "02 - Curta", "CD_FAZ": " 403941", "TALHOES": "1, 4", "FAZ_tAL": "403933001, 403941004", "ID_LINHA": 229006 }, "geometry": { "type": "MultiLineString", "coordinates": [ [ [ 416069.485507928242441, 7632250.519738828763366 ], [ 416064.6219789480092, 7631985.004203953780234 ] ] ] } }
]
}
