{
"type": "FeatureCollection",
"name": " 403987",
"crs": { "type": "name", "properties": { "name": "urn:ogc:def:crs:EPSG::32722" } },
"xy_coordinate_resolution": 1e-15,
"features": [
{ "type": "Feature", "properties": { "fid": 337.0, "COMPR_M": 323.2, "CLASSE": "03 - Média", "CD_FAZ": " 403987", "TALHOES": "1, 2", "FAZ_tAL": "403973001, 403987002", "ID_LINHA": 241453 }, "geometry": { "type": "MultiLineString", "coordinates": [ [ [ 416547.598335074144416, 7621700.980187298730016 ], [ 416545.698614194116089, 7621686.822165473364294 ], [ 416543.949527343153022, 7621666.450877137482166 ], [ 416543.100953513348941, 7621645.894079562276602 ], [ 416543.073513708251994, 7621625.175391570664942 ], [ 416543.786442193784751, 7621604.362649420276284 ], [ 416545.182356708042789, 7621583.615338505245745 ], [ 416547.321609759877902, 7621563.076521836221218 ], [ 416550.300457512610592, 7621542.70771702658385 ], [ 416554.12325782107655, 7621522.376481669023633 ], [ 416558.693287355010398, 7621502.046530352905393 ], [ 416563.910291019885335, 7621481.802357520908117 ], [ 416569.744000662001781, 7621461.720864268019795 ], [ 416576.185849564441014, 7621441.833459896966815 ], [ 416583.223052936606109, 7621422.206334407441318 ], [ 416590.885441498132423, 7621402.940989999100566 ], [ 416598.336053766543046, 7621386.12649223767221 ] ] ] } },
{ "type": "Feature", "properties": { "fid": 338.0, "COMPR_M": 316.64, "CLASSE": "03 - Média", "CD_FAZ": " 403987", "TALHOES": "1, 2", "FAZ_tAL": "403973001, 403987002", "ID_LINHA": 241454 }, "geometry": { "type": "MultiLineString", "coordinates": [ [ [ 416550.261309741064906, 7621698.268071681261063 ], [ 416548.681490784685593, 7621686.49417821969837 ], [ 416546.94422764191404, 7621666.260598395951092 ], [ 416546.100871544564143, 7621645.83020098041743 ], [ 416546.073581739794463, 7621625.224772103130817 ], [ 416546.78299204952782, 7621604.514737093821168 ], [ 416548.171903395093977, 7621583.871513452380896 ], [ 416550.299028594803531, 7621563.449135433882475 ], [ 416553.260058985557407, 7621543.202162407338619 ], [ 416557.061818297719583, 7621522.982831796631217 ], [ 416561.610014635021798, 7621502.750006282702088 ], [ 416566.803956921270583, 7621482.595321318134665 ], [ 416572.612124299281277, 7621462.601752703078091 ], [ 416579.025522325420752, 7621442.80218244343996 ], [ 416586.029665988637134, 7621423.267262203618884 ], [ 416593.651670861407183, 7621404.103453455492854 ], [ 416600.035777797806077, 7621389.695838627405465 ] ] ] } },
{ "type": "Feature", "properties": { "fid": 339.0, "COMPR_M": 310.08, "CLASSE": "03 - Média", "CD_FAZ": " 403987", "TALHOES": "1, 2", "FAZ_tAL": "403973001, 403987002", "ID_LINHA": 241455 }, "geometry": { "type": "MultiLineString", "coordinates": [ [ [ 416552.924284406122752, 7621695.555956060066819 ], [ 416551.66436737566255, 7621686.1661909641698 ], [ 416549.938927939743735, 7621666.070319656282663 ], [ 416549.100789575255476, 7621645.766322398558259 ], [ 416549.073649769299664, 7621625.27415263839066 ], [ 416549.779541907017119, 7621604.666824763640761 ], [ 416551.161450082901865, 7621584.127688398584723 ], [ 416553.276447429787368, 7621563.821749029681087 ], [ 416556.219660461414605, 7621543.696607789956033 ], [ 416560.00037877378054, 7621523.589181922376156 ], [ 416564.526741914800368, 7621503.453482216224074 ], [ 416569.697622823528945, 7621483.388285119086504 ], [ 416575.480247935280204, 7621463.482641139999032 ], [ 416581.865195090009365, 7621443.770904986187816 ], [ 416588.836279040377121, 7621424.328189998865128 ], [ 416596.417900222702883, 7621405.265916913747787 ], [ 416601.735501828952692, 7621393.265185014344752 ] ] ] } },
{ "type": "Feature", "properties": { "fid": 340.0, "COMPR_M": 303.51, "CLASSE": "03 - Média", "CD_FAZ": " 403987", "TALHOES": "1, 2", "FAZ_tAL": "403973001, 403987002", "ID_LINHA": 241456 }, "geometry": { "type": "MultiLineString", "coordinates": [ [ [ 416555.587259070831351, 7621692.843840443529189 ], [ 416552.933628237340599, 7621665.880040912888944 ], [ 416552.100707605481148, 7621645.70244381390512 ], [ 416552.073717801366001, 7621625.323533172719181 ], [ 416552.776091763691511, 7621604.81891243904829 ], [ 416554.150996770244092, 7621584.383863341063261 ], [ 416556.253866265004035, 7621564.194362623617053 ], [ 416559.179261935641989, 7621544.191053170710802 ], [ 416562.938939250016119, 7621524.195532044395804 ], [ 416567.443469194520731, 7621504.156958147883415 ], [ 416572.591288725438062, 7621484.181248918175697 ], [ 416578.348371574014891, 7621464.363529577851295 ], [ 416584.704867852968164, 7621444.739627530798316 ], [ 416591.642892092524562, 7621425.389117792248726 ], [ 416603.435225859167986, 7621396.834531403146684 ] ] ] } },
{ "type": "Feature", "properties": { "fid": 341.0, "COMPR_M": 296.95, "CLASSE": "02 - Curta", "CD_FAZ": " 403987", "TALHOES": "1, 2", "FAZ_tAL": "403973001, 403987002", "ID_LINHA": 241457 }, "geometry": { "type": "MultiLineString", "coordinates": [ [ [ 416558.250233737635426, 7621690.13172482419759 ], [ 416555.928328535228502, 7621665.68976217508316 ], [ 416555.100625635881443, 7621645.638565229251981 ], [ 416555.073785830754787, 7621625.372913707047701 ], [ 416555.77264162019128, 7621604.971000110730529 ], [ 416557.140543457062449, 7621584.640038285404444 ], [ 416559.231285098998342, 7621564.566976220346987 ], [ 416562.138863409403712, 7621544.685498552396894 ], [ 416565.877499725669622, 7621524.801882170140743 ], [ 416570.360196475463454, 7621504.860434079542756 ], [ 416575.484954626939725, 7621484.974212718196213 ], [ 416581.21649521146901, 7621465.244418013840914 ], [ 416587.544540615635924, 7621445.708350073546171 ], [ 416594.449505144380964, 7621426.450045586563647 ], [ 416605.13494989060564, 7621400.403877791948617 ] ] ] } },
{ "type": "Feature", "properties": { "fid": 342.0, "COMPR_M": 290.39, "CLASSE": "02 - Curta", "CD_FAZ": " 403987", "TALHOES": "1, 2", "FAZ_tAL": "403973001, 403987002", "ID_LINHA": 241458 }, "geometry": { "type": "MultiLineString", "coordinates": [ [ [ 416560.913208403333556, 7621687.419609205797315 ], [ 416558.923028833582066, 7621665.499483432620764 ], [ 416558.100543666398153, 7621645.574686646461487 ], [ 416558.073853861365933, 7621625.422294240444899 ], [ 416558.769191477855202, 7621605.123087782412767 ], [ 416560.130090144695714, 7621584.896213231608272 ], [ 416562.208703933109064, 7621564.939589815214276 ], [ 416565.09846488351468, 7621545.179943934082985 ], [ 416568.816060202021617, 7621525.408232294023037 ], [ 416573.27692375559127, 7621505.563910013064742 ], [ 416578.378620528790634, 7621485.767176516354084 ], [ 416584.084618847700767, 7621466.125306451693177 ], [ 416590.384213379293215, 7621446.677072617225349 ], [ 416597.256118195946328, 7621427.510973380878568 ], [ 416606.834673921170179, 7621403.973224179819226 ] ] ] } },
{ "type": "Feature", "properties": { "fid": 343.0, "COMPR_M": 283.82, "CLASSE": "02 - Curta", "CD_FAZ": " 403987", "TALHOES": "1, 2", "FAZ_tAL": "403973001, 403987002", "ID_LINHA": 241459 }, "geometry": { "type": "MultiLineString", "coordinates": [ [ [ 416563.582703673746437, 7621684.700852654874325 ], [ 416561.917729132284876, 7621665.309204690158367 ], [ 416561.100461696390994, 7621645.510808065533638 ], [ 416561.073921891918872, 7621625.471674777567387 ], [ 416561.765741333947517, 7621605.275175455957651 ], [ 416563.119636831746902, 7621585.152388177812099 ], [ 416565.186122768733185, 7621565.312203413806856 ], [ 416568.058066357974894, 7621545.674389312975109 ], [ 416571.754620675928891, 7621526.014582417905331 ], [ 416576.19365103560267, 7621506.267385944724083 ], [ 416581.272286430234089, 7621486.560140317305923 ], [ 416586.952742486028001, 7621467.00619488582015 ], [ 416593.223886141320691, 7621447.645795160904527 ], [ 416600.062731247860938, 7621428.571901174262166 ], [ 416608.534397953539155, 7621407.542570566758513 ] ] ] } },
{ "type": "Feature", "properties": { "fid": 344.0, "COMPR_M": 277.16, "CLASSE": "02 - Curta", "CD_FAZ": " 403987", "TALHOES": "1, 2", "FAZ_tAL": "403973001, 403987002", "ID_LINHA": 241460 }, "geometry": { "type": "MultiLineString", "coordinates": [ [ [ 416566.351614495390095, 7621681.880845997482538 ], [ 416564.912429429416079, 7621665.118925949558616 ], [ 416564.10037972650025, 7621645.446929479949176 ], [ 416564.073989922413602, 7621625.521055309101939 ], [ 416564.762291189981624, 7621605.42726312763989 ], [ 416566.109183518972714, 7621585.408563120290637 ], [ 416568.163541603833437, 7621565.684817009605467 ], [ 416571.017667832551524, 7621546.168834697455168 ], [ 416574.693181151815224, 7621526.62093254365027 ], [ 416579.110378316196147, 7621506.970861874520779 ], [ 416584.165952331968583, 7621487.353104112669826 ], [ 416589.820866124413442, 7621467.887083325535059 ], [ 416596.063558904977981, 7621448.614517703652382 ], [ 416602.869344299542718, 7621429.63282896950841 ], [ 416610.234954821062274, 7621411.113665877841413 ] ] ] } },
{ "type": "Feature", "properties": { "fid": 345.0, "COMPR_M": 270.41, "CLASSE": "02 - Curta", "CD_FAZ": " 403987", "TALHOES": "1, 2", "FAZ_tAL": "403973001, 403987002", "ID_LINHA": 241461 }, "geometry": { "type": "MultiLineString", "coordinates": [ [ [ 416569.120525318081491, 7621679.060839339159429 ], [ 416567.907129728293512, 7621664.928647208958864 ], [ 416567.100297756143846, 7621645.383050897158682 ], [ 416567.074057953548618, 7621625.570435844361782 ], [ 416567.758841047761962, 7621605.579350801184773 ], [ 416569.098730206373148, 7621585.664738066494465 ], [ 416571.14096043840982, 7621566.057430605404079 ], [ 416573.977269304916263, 7621546.663280077278614 ], [ 416577.631741629214957, 7621527.227282667532563 ], [ 416582.027105596615002, 7621507.67433780618012 ], [ 416587.059618233935907, 7621488.146067911759019 ], [ 416592.688989762216806, 7621468.767971761524677 ], [ 416598.903231667645741, 7621449.583240248262882 ], [ 416605.675957350991666, 7621430.693756762892008 ], [ 416611.99419120256789, 7621414.807985605672002 ] ] ] } },
{ "type": "Feature", "properties": { "fid": 346.0, "COMPR_M": 263.66, "CLASSE": "02 - Curta", "CD_FAZ": " 403987", "TALHOES": "1, 2", "FAZ_tAL": "403973001, 403987002", "ID_LINHA": 241462 }, "geometry": { "type": "MultiLineString", "coordinates": [ [ [ 416571.889436139084864, 7621676.240832682698965 ], [ 416570.901830026181415, 7621664.738368466496468 ], [ 416570.100215785903856, 7621645.319172313436866 ], [ 416570.074125983228441, 7621625.619816379621625 ], [ 416570.755390904727392, 7621605.731438472867012 ], [ 416572.088276892551221, 7621585.920913012698293 ], [ 416574.118379273102619, 7621566.430044203996658 ], [ 416576.9368707795511, 7621547.157725458964705 ], [ 416580.570302105275914, 7621527.833632791414857 ], [ 416584.943832876335364, 7621508.37781373783946 ], [ 416589.953284135612193, 7621488.939031712710857 ], [ 416595.557113398099318, 7621469.648860197514296 ], [ 416601.742904430022463, 7621450.551962792873383 ], [ 416613.753427584422752, 7621418.502305340021849 ] ] ] } },
{ "type": "Feature", "properties": { "fid": 347.0, "COMPR_M": 256.91, "CLASSE": "02 - Curta", "CD_FAZ": " 403987", "TALHOES": "1, 2", "FAZ_tAL": "403973001, 403987002", "ID_LINHA": 241463 }, "geometry": { "type": "MultiLineString", "coordinates": [ [ [ 416574.658346961135976, 7621673.420826023444533 ], [ 416573.100133817177266, 7621645.255293731577694 ], [ 416573.074194014188834, 7621625.669196913950145 ], [ 416573.751940760819707, 7621605.883526144549251 ], [ 416575.077823580882978, 7621586.177087957039475 ], [ 416577.09579810797004, 7621566.802657797932625 ], [ 416579.896472254418768, 7621547.652170839719474 ], [ 416583.508862581569701, 7621528.439982918091118 ], [ 416587.860560155240819, 7621509.081289669498801 ], [ 416592.84695003752131, 7621489.731995513662696 ], [ 416598.425237036775798, 7621470.529748633503914 ], [ 416604.582577193388715, 7621451.52068533655256 ], [ 416615.512663967441767, 7621422.196625070646405 ] ] ] } },
{ "type": "Feature", "properties": { "fid": 348.0, "COMPR_M": 250.16, "CLASSE": "02 - Curta", "CD_FAZ": " 403987", "TALHOES": "1, 2", "FAZ_tAL": "403973001, 403987002", "ID_LINHA": 241464 }, "geometry": { "type": "MultiLineString", "coordinates": [ [ [ 416577.427257784176618, 7621670.600819366052747 ], [ 416576.100051847926807, 7621645.191415147855878 ], [ 416576.07426204578951, 7621625.718577447347343 ], [ 416576.748490618134383, 7621606.035613816231489 ], [ 416578.067370268690865, 7621586.433262900449336 ], [ 416580.073216942313593, 7621567.175271397456527 ], [ 416582.856073728296906, 7621548.146616221405566 ], [ 416586.44742305658292, 7621529.046333042904735 ], [ 416590.777287437347695, 7621509.784765601158142 ], [ 416595.740615939081181, 7621490.524959309026599 ], [ 416601.293360674171709, 7621471.410637065768242 ], [ 416607.422249957162421, 7621452.489407878369093 ], [ 416617.27190034952946, 7621425.890944803133607 ] ] ] } },
{ "type": "Feature", "properties": { "fid": 349.0, "COMPR_M": 243.41, "CLASSE": "02 - Curta", "CD_FAZ": " 403987", "TALHOES": "1, 2", "FAZ_tAL": "403973001, 403987002", "ID_LINHA": 241465 }, "geometry": { "type": "MultiLineString", "coordinates": [ [ [ 416580.196168606285937, 7621667.78081270866096 ], [ 416579.099969878094271, 7621645.127536564134061 ], [ 416579.074330074014142, 7621625.767957977950573 ], [ 416579.745040473877452, 7621606.187701489776373 ], [ 416581.056916955974884, 7621586.689437847584486 ], [ 416583.05063577753026, 7621567.547884991392493 ], [ 416585.815675203106366, 7621548.641061602160335 ], [ 416589.385983532993123, 7621529.652683167718351 ], [ 416593.694014717359096, 7621510.488241532817483 ], [ 416598.634281840873882, 7621491.317923109047115 ], [ 416604.161484312266111, 7621472.291525507345796 ], [ 416610.261922720586881, 7621453.458130423910916 ], [ 416619.031136731966399, 7621429.585264535620809 ] ] ] } },
{ "type": "Feature", "properties": { "fid": 350.0, "COMPR_M": 236.66, "CLASSE": "02 - Curta", "CD_FAZ": " 403987", "TALHOES": "1, 2", "FAZ_tAL": "403973001, 403987002", "ID_LINHA": 241466 }, "geometry": { "type": "MultiLineString", "coordinates": [ [ [ 416582.965079429326579, 7621664.960806049406528 ], [ 416582.099887907854281, 7621645.0636579785496 ], [ 416582.07439810608048, 7621625.817338515073061 ], [ 416582.741590331483167, 7621606.339789161458611 ], [ 416584.04646364209475, 7621586.945612792856991 ], [ 416586.028054611524567, 7621567.920498587191105 ], [ 416588.775276676286012, 7621549.135506985709071 ], [ 416592.324544008879457, 7621530.259033291600645 ], [ 416596.610741996555589, 7621511.191717466339469 ], [ 416601.527947742375545, 7621492.110886909067631 ], [ 416607.029607949894853, 7621473.172413941472769 ], [ 416613.101595483720303, 7621454.426852965727448 ], [ 416620.790373114228714, 7621433.279584269039333 ] ] ] } },
{ "type": "Feature", "properties": { "fid": 351.0, "COMPR_M": 229.84, "CLASSE": "02 - Curta", "CD_FAZ": " 403987", "TALHOES": "1, 2", "FAZ_tAL": "403973001, 403987002", "ID_LINHA": 241467 }, "geometry": { "type": "MultiLineString", "coordinates": [ [ [ 416585.804417416104116, 7621662.069072604179382 ], [ 416585.099805939709768, 7621644.999779397621751 ], [ 416585.074466136866249, 7621625.866719048470259 ], [ 416585.738140186935198, 7621606.491876835003495 ], [ 416587.036010330368299, 7621587.201787738129497 ], [ 416589.005473446333781, 7621568.293112185783684 ], [ 416591.734878151677549, 7621549.629952365532517 ], [ 416595.263104484882206, 7621530.865383416414261 ], [ 416599.527469277672935, 7621511.895193396136165 ], [ 416604.421613644110039, 7621492.903850709088147 ], [ 416615.941268245805986, 7621455.395575510337949 ], [ 416622.549609496840276, 7621436.973904000595212 ] ] ] } },
{ "type": "Feature", "properties": { "fid": 352.0, "COMPR_M": 222.89, "CLASSE": "02 - Curta", "CD_FAZ": " 403987", "TALHOES": "1, 2", "FAZ_tAL": "403973001, 403987002", "ID_LINHA": 241468 }, "geometry": { "type": "MultiLineString", "coordinates": [ [ [ 416588.685834042495117, 7621659.134484028443694 ], [ 416588.099723969819024, 7621644.935900811105967 ], [ 416588.074534166895319, 7621625.916099585592747 ], [ 416588.734690044191666, 7621606.643964506685734 ], [ 416590.025557017419487, 7621587.457962682470679 ], [ 416591.982892281317618, 7621568.665725784376264 ], [ 416594.694479624740779, 7621550.124397748149931 ], [ 416598.201664961583447, 7621531.4717335421592 ], [ 416602.444196558033582, 7621512.598669329658151 ], [ 416607.315279545495287, 7621493.696814505383372 ], [ 416612.765855225210544, 7621474.934190815314651 ], [ 416624.365802358370274, 7621440.787829857319593 ] ] ] } },
{ "type": "Feature", "properties": { "fid": 353.0, "COMPR_M": 215.94, "CLASSE": "02 - Curta", "CD_FAZ": " 403987", "TALHOES": "1, 2", "FAZ_tAL": "403973001, 403987002", "ID_LINHA": 241469 }, "geometry": { "type": "MultiLineString", "coordinates": [ [ [ 416591.567250668944325, 7621656.199895450845361 ], [ 416591.074602197506465, 7621625.965480118989944 ], [ 416591.731239901972003, 7621606.796052180230618 ], [ 416593.015103704645298, 7621587.714137626811862 ], [ 416594.960311115137301, 7621569.03833937831223 ], [ 416597.654081098735332, 7621550.6188431289047 ], [ 416601.140225437120534, 7621532.078083666041493 ], [ 416605.360923837637529, 7621513.302145261317492 ], [ 416610.208945447811857, 7621494.489778305403888 ], [ 416615.633978862373624, 7621475.815079249441624 ], [ 416626.183904657955281, 7621444.605765447020531 ] ] ] } },
{ "type": "Feature", "properties": { "fid": 354.0, "COMPR_M": 208.99, "CLASSE": "02 - Curta", "CD_FAZ": " 403987", "TALHOES": "1, 2", "FAZ_tAL": "403973001, 403987002", "ID_LINHA": 241470 }, "geometry": { "type": "MultiLineString", "coordinates": [ [ [ 416594.448667295626365, 7621653.265306875109673 ], [ 416594.074670228117611, 7621626.014860653318465 ], [ 416594.727789758238941, 7621606.948139853775501 ], [ 416596.004650392744225, 7621587.970312570221722 ], [ 416597.937729951052461, 7621569.410952974110842 ], [ 416600.613682575058192, 7621551.113288508728147 ], [ 416604.078785912774038, 7621532.684433788061142 ], [ 416613.102611349138897, 7621495.282742102630436 ], [ 416618.502102500293404, 7621476.695967687293887 ], [ 416628.002006957191043, 7621448.423701043240726 ] ] ] } },
{ "type": "Feature", "properties": { "fid": 355.0, "COMPR_M": 202.04, "CLASSE": "02 - Curta", "CD_FAZ": " 403987", "TALHOES": "1, 2", "FAZ_tAL": "403973001, 403987002", "ID_LINHA": 241471 }, "geometry": { "type": "MultiLineString", "coordinates": [ [ [ 416597.330083921784535, 7621650.330718296580017 ], [ 416597.074738259310834, 7621626.06424118578434 ], [ 416597.724339614971541, 7621607.10022752545774 ], [ 416598.994197078922298, 7621588.226487517356873 ], [ 416600.915148785803467, 7621569.783566568046808 ], [ 416603.573284047713969, 7621551.607733890414238 ], [ 416607.017346388543956, 7621533.290783911943436 ], [ 416615.99627725139726, 7621496.075705904513597 ], [ 416621.370226138271391, 7621477.576856125146151 ], [ 416629.820109256659634, 7621452.241636635735631 ] ] ] } },
{ "type": "Feature", "properties": { "fid": 356.0, "COMPR_M": 195.08, "CLASSE": "02 - Curta", "CD_FAZ": " 403987", "TALHOES": "1, 2", "FAZ_tAL": "403973001, 403987002", "ID_LINHA": 241472 }, "geometry": { "type": "MultiLineString", "coordinates": [ [ [ 416600.211500548175536, 7621647.396129717119038 ], [ 416600.074806289805565, 7621626.11362172011286 ], [ 416600.720889472228009, 7621607.252315195277333 ], [ 416601.98374376661377, 7621588.4826624635607 ], [ 416603.892567619448528, 7621570.156180166639388 ], [ 416606.532885522639845, 7621552.102179273962975 ], [ 416609.955906865070574, 7621533.89713403955102 ], [ 416618.889943152607884, 7621496.868669703602791 ], [ 416624.238349774386734, 7621478.457744563929737 ], [ 416631.638211556477472, 7621456.059572229161859 ] ] ] } },
{ "type": "Feature", "properties": { "fid": 357.0, "COMPR_M": 188.13, "CLASSE": "02 - Curta", "CD_FAZ": " 403987", "TALHOES": "1, 2", "FAZ_tAL": "403973001, 403987002", "ID_LINHA": 241473 }, "geometry": { "type": "MultiLineString", "coordinates": [ [ [ 416603.09910054289503, 7621644.45524366851896 ], [ 416603.074874320183881, 7621626.163002256304026 ], [ 416603.71743932866957, 7621607.404402868822217 ], [ 416604.973290452500805, 7621588.738837407901883 ], [ 416606.869986455189064, 7621570.528793762437999 ], [ 416609.49248699657619, 7621552.596624651923776 ], [ 416612.894467340374831, 7621534.503484165295959 ], [ 416621.783609054808039, 7621497.661633498966694 ], [ 416627.106473411840852, 7621479.33863299805671 ], [ 416633.456313856528141, 7621459.877507820725441 ] ] ] } },
{ "type": "Feature", "properties": { "fid": 358.0, "COMPR_M": 181.01, "CLASSE": "02 - Curta", "CD_FAZ": " 403987", "TALHOES": "1, 2", "FAZ_tAL": "403973001, 403987002", "ID_LINHA": 241474 }, "geometry": { "type": "MultiLineString", "coordinates": [ [ [ 416606.095062106032856, 7621641.403996409848332 ], [ 416606.713989184296224, 7621607.556490544229746 ], [ 416607.962837140483316, 7621588.995012352243066 ], [ 416609.847405289765447, 7621570.901407359167933 ], [ 416612.452088470745366, 7621553.091070037335157 ], [ 416615.833027817076072, 7621535.109834290109575 ], [ 416619.944560239149723, 7621516.819524918682873 ], [ 416624.677274955960456, 7621498.454597299918532 ], [ 416635.305718505289406, 7621463.761176984757185 ] ] ] } },
{ "type": "Feature", "properties": { "fid": 359.0, "COMPR_M": 173.84, "CLASSE": "02 - Curta", "CD_FAZ": " 403987", "TALHOES": "1, 2", "FAZ_tAL": "403973001, 403987002", "ID_LINHA": 241475 }, "geometry": { "type": "MultiLineString", "coordinates": [ [ [ 416609.09102366771549, 7621638.352749152109027 ], [ 416609.7105390423676, 7621607.708578214980662 ], [ 416610.95238382864045, 7621589.251187296584249 ], [ 416612.824824123817962, 7621571.274020958691835 ], [ 416615.411689944565296, 7621553.585515419021249 ], [ 416618.771588291332591, 7621535.716184414923191 ], [ 416622.861287519335747, 7621517.523000851273537 ], [ 416627.57094085868448, 7621499.247561099007726 ], [ 416637.182542474824004, 7621467.7024255245924 ] ] ] } },
{ "type": "Feature", "properties": { "fid": 360.0, "COMPR_M": 166.67, "CLASSE": "02 - Curta", "CD_FAZ": " 403987", "TALHOES": "1, 2", "FAZ_tAL": "403973001, 403987002", "ID_LINHA": 241476 }, "geometry": { "type": "MultiLineString", "coordinates": [ [ [ 416612.08697831875179, 7621635.296283412724733 ], [ 416612.707088899041992, 7621607.860665888525546 ], [ 416613.94193051563343, 7621589.507362241856754 ], [ 416615.802242958103307, 7621571.646634550765157 ], [ 416618.371291419374757, 7621554.079960797913373 ], [ 416621.710148767626379, 7621536.32253453694284 ], [ 416625.778014798823278, 7621518.226476784795523 ], [ 416630.464606759138405, 7621500.040524898096919 ], [ 416639.059366443543695, 7621471.643674062564969 ] ] ] } },
{ "type": "Feature", "properties": { "fid": 361.0, "COMPR_M": 159.5, "CLASSE": "02 - Curta", "CD_FAZ": " 403987", "TALHOES": "1, 2", "FAZ_tAL": "403973001, 403987002", "ID_LINHA": 241477 }, "geometry": { "type": "MultiLineString", "coordinates": [ [ [ 416615.082922820700333, 7621632.232153229415417 ], [ 416615.703638756182045, 7621608.012753560207784 ], [ 416616.931477202102542, 7621589.763537188991904 ], [ 416618.779661793145351, 7621572.019248147495091 ], [ 416621.330892893834971, 7621554.574406178668141 ], [ 416624.648709244676866, 7621536.928884662687778 ], [ 416628.694742079533171, 7621518.929952714592218 ], [ 416633.358272661163937, 7621500.833488697186112 ], [ 416640.936190411506686, 7621475.584922602400184 ] ] ] } },
{ "type": "Feature", "properties": { "fid": 362.0, "COMPR_M": 152.32, "CLASSE": "02 - Curta", "CD_FAZ": " 403987", "TALHOES": "1, 2", "FAZ_tAL": "403973001, 403987002", "ID_LINHA": 241478 }, "geometry": { "type": "MultiLineString", "coordinates": [ [ [ 416618.078867321310099, 7621629.168023044243455 ], [ 416618.700188612448983, 7621608.164841232821345 ], [ 416619.921023890725337, 7621590.019712131470442 ], [ 416621.757080628362019, 7621572.391861747018993 ], [ 416624.290494366607163, 7621555.068851560354233 ], [ 416627.587269720563199, 7621537.535234788432717 ], [ 416631.611469358787872, 7621519.633428647182882 ], [ 416636.251938563538715, 7621501.626452497206628 ], [ 416642.813014380692039, 7621479.526171142235398 ] ] ] } },
{ "type": "Feature", "properties": { "fid": 363.0, "COMPR_M": 145.13, "CLASSE": "02 - Curta", "CD_FAZ": " 403987", "TALHOES": "1, 2", "FAZ_tAL": "403973001, 403987002", "ID_LINHA": 241479 }, "geometry": { "type": "MultiLineString", "coordinates": [ [ [ 416621.08791534032207, 7621626.090491115115583 ], [ 416622.910570577543695, 7621590.27588707767427 ], [ 416624.734499462414533, 7621572.764475341886282 ], [ 416627.25009584100917, 7621555.563296943902969 ], [ 416630.525830195168965, 7621538.141584912315011 ], [ 416634.528196639963426, 7621520.3369045779109 ], [ 416639.14560446550604, 7621502.419416297227144 ], [ 416644.689838349178899, 7621483.467419680207968 ] ] ] } },
{ "type": "Feature", "properties": { "fid": 364.0, "COMPR_M": 137.76, "CLASSE": "02 - Curta", "CD_FAZ": " 403987", "TALHOES": "1, 2", "FAZ_tAL": "403973001, 403987002", "ID_LINHA": 241480 }, "geometry": { "type": "MultiLineString", "coordinates": [ [ [ 416624.198656682739966, 7621622.908951390534639 ], [ 416625.900117264478467, 7621590.532062023878098 ], [ 416627.711918297340162, 7621573.137088937684894 ], [ 416630.209697315702215, 7621556.057742325589061 ], [ 416633.464390673325397, 7621538.747935036197305 ], [ 416637.444923920324072, 7621521.040380511432886 ], [ 416646.606173460895661, 7621487.491639895364642 ] ] ] } },
{ "type": "Feature", "properties": { "fid": 365.0, "COMPR_M": 130.36, "CLASSE": "02 - Curta", "CD_FAZ": " 403987", "TALHOES": "1, 2", "FAZ_tAL": "403973001, 403987002", "ID_LINHA": 241481 }, "geometry": { "type": "MultiLineString", "coordinates": [ [ [ 416627.309398024925031, 7621619.727411666885018 ], [ 416628.889663951005787, 7621590.78823696449399 ], [ 416630.689337133662775, 7621573.509702534414828 ], [ 416633.169298790046014, 7621556.55218770634383 ], [ 416636.402951148163993, 7621539.354285161942244 ], [ 416640.361651200626511, 7621521.743856441229582 ], [ 416648.546511084539816, 7621491.566264343447983 ] ] ] } },
{ "type": "Feature", "properties": { "fid": 366.0, "COMPR_M": 122.95, "CLASSE": "02 - Curta", "CD_FAZ": " 403987", "TALHOES": "1, 2", "FAZ_tAL": "403973001, 403987002", "ID_LINHA": 241482 }, "geometry": { "type": "MultiLineString", "coordinates": [ [ [ 416630.420139365538489, 7621616.545871941372752 ], [ 416631.87921063893009, 7621591.044411912560463 ], [ 416633.666755968239158, 7621573.882316132076085 ], [ 416636.128900264040567, 7621557.046633086167276 ], [ 416639.341511625098065, 7621539.960635285824537 ], [ 416643.27837848017225, 7621522.447332373820245 ], [ 416650.486848708707839, 7621495.640888792462647 ] ] ] } },
{ "type": "Feature", "properties": { "fid": 367.0, "COMPR_M": 115.55, "CLASSE": "02 - Curta", "CD_FAZ": " 403987", "TALHOES": "1, 2", "FAZ_tAL": "403973001, 403987002", "ID_LINHA": 241483 }, "geometry": { "type": "MultiLineString", "coordinates": [ [ [ 416633.530880707898177, 7621613.364332218654454 ], [ 416634.868757327029016, 7621591.300586857832968 ], [ 416636.644174801651388, 7621574.254929726943374 ], [ 416639.088501737744082, 7621557.541078467853367 ], [ 416642.280072099587414, 7621540.566985413432121 ], [ 416646.195105760940351, 7621523.150808306410909 ], [ 416652.427186333981808, 7621499.715513239614666 ] ] ] } },
{ "type": "Feature", "properties": { "fid": 368.0, "COMPR_M": 108.14, "CLASSE": "02 - Curta", "CD_FAZ": " 403987", "TALHOES": "1, 2", "FAZ_tAL": "403973001, 403987002", "ID_LINHA": 241484 }, "geometry": { "type": "MultiLineString", "coordinates": [ [ [ 416636.641622049326543, 7621610.182792495936155 ], [ 416637.85830401268322, 7621591.556761801242828 ], [ 416639.621593637217302, 7621574.627543323673308 ], [ 416642.048103212320711, 7621558.035523848608136 ], [ 416645.21863257617224, 7621541.17333553545177 ], [ 416649.111833041592035, 7621523.854284236207604 ], [ 416654.367523958324455, 7621503.790137687698007 ] ] ] } },
{ "type": "Feature", "properties": { "fid": 369.0, "COMPR_M": 100.62, "CLASSE": "02 - Curta", "CD_FAZ": " 403987", "TALHOES": "1, 2", "FAZ_tAL": "403973001, 403987002", "ID_LINHA": 241485 }, "geometry": { "type": "MultiLineString", "coordinates": [ [ [ 416639.831393130647484, 7621606.920424368232489 ], [ 416642.599012471560854, 7621575.000156920403242 ], [ 416645.007704685907811, 7621558.529969232156873 ], [ 416648.157193052174989, 7621541.779685661196709 ], [ 416656.322493719402701, 7621507.895488984882832 ] ] ] } },
{ "type": "Feature", "properties": { "fid": 370.0, "COMPR_M": 92.97, "CLASSE": "01 - Muito curta", "CD_FAZ": " 403987", "TALHOES": "1, 2", "FAZ_tAL": "403973001, 403987002", "ID_LINHA": 241486 }, "geometry": { "type": "MultiLineString", "coordinates": [ [ [ 416643.060371365747415, 7621603.617956759408116 ], [ 416645.576431306137238, 7621575.372770518064499 ], [ 416647.967306161765009, 7621559.024414613842964 ], [ 416651.095753528294154, 7621542.386035783216357 ], [ 416658.332668876217213, 7621512.116769205778837 ] ] ] } },
{ "type": "Feature", "properties": { "fid": 371.0, "COMPR_M": 85.31, "CLASSE": "01 - Muito curta", "CD_FAZ": " 403987", "TALHOES": "1, 2", "FAZ_tAL": "403973001, 403987002", "ID_LINHA": 241487 }, "geometry": { "type": "MultiLineString", "coordinates": [ [ [ 416646.289349604223389, 7621600.315489144995809 ], [ 416648.553850141528528, 7621575.745384113863111 ], [ 416650.926907635352109, 7621559.51885999366641 ], [ 416654.034314004529733, 7621542.992385908961296 ], [ 416660.342844032449648, 7621516.338049428537488 ] ] ] } },
{ "type": "Feature", "properties": { "fid": 372.0, "COMPR_M": 77.66, "CLASSE": "01 - Muito curta", "CD_FAZ": " 403987", "TALHOES": "1, 2", "FAZ_tAL": "403973001, 403987002", "ID_LINHA": 241488 }, "geometry": { "type": "MultiLineString", "coordinates": [ [ [ 416649.518327840021811, 7621597.013021536171436 ], [ 416651.531268975115381, 7621576.117997707799077 ], [ 416653.886509109230246, 7621560.013305376283824 ], [ 416656.972874480241444, 7621543.598736034706235 ], [ 416662.353019188740291, 7621520.559329650364816 ] ] ] } },
{ "type": "Feature", "properties": { "fid": 373.0, "COMPR_M": 70.06, "CLASSE": "01 - Muito curta", "CD_FAZ": " 403987", "TALHOES": "1, 2", "FAZ_tAL": "403973001, 403987002", "ID_LINHA": 241489 }, "geometry": { "type": "MultiLineString", "coordinates": [ [ [ 416652.747306076518726, 7621593.710553924553096 ], [ 416654.50868781079771, 7621576.490611307322979 ], [ 416656.846110582118854, 7621560.507750757969916 ], [ 416659.911434956709854, 7621544.205086160451174 ], [ 416664.379144371952862, 7621524.718717045150697 ] ] ] } },
{ "type": "Feature", "properties": { "fid": 374.0, "COMPR_M": 62.35, "CLASSE": "01 - Muito curta", "CD_FAZ": " 403987", "TALHOES": "1, 2", "FAZ_tAL": "403973001, 403987002", "ID_LINHA": 241490 }, "geometry": { "type": "MultiLineString", "coordinates": [ [ [ 416656.087127959472127, 7621590.294719940051436 ], [ 416657.486106645374093, 7621576.863224902190268 ], [ 416659.805712057917845, 7621561.00219614058733 ], [ 416666.429033069638535, 7621528.889950348064303 ] ] ] } },
{ "type": "Feature", "properties": { "fid": 375.0, "COMPR_M": 54.48, "CLASSE": "01 - Muito curta", "CD_FAZ": " 403987", "TALHOES": "1, 2", "FAZ_tAL": "403973001, 403987002", "ID_LINHA": 241491 }, "geometry": { "type": "MultiLineString", "coordinates": [ [ [ 416659.462976366223302, 7621586.842039491981268 ], [ 416662.765313532087021, 7621561.496641517616808 ], [ 416668.538829754397739, 7621533.183087922632694 ] ] ] } },
{ "type": "Feature", "properties": { "fid": 376.0, "COMPR_M": 46.62, "CLASSE": "01 - Muito curta", "CD_FAZ": " 403987", "TALHOES": "1, 2", "FAZ_tAL": "403973001, 403987002", "ID_LINHA": 241492 }, "geometry": { "type": "MultiLineString", "coordinates": [ [ [ 416662.838824775186367, 7621583.389359043911099 ], [ 416665.724915005848743, 7621561.99108690302819 ], [ 416670.648626438574865, 7621537.47622549906373 ] ] ] } },
{ "type": "Feature", "properties": { "fid": 377.0, "COMPR_M": 38.75, "CLASSE": "01 - Muito curta", "CD_FAZ": " 403987", "TALHOES": "1, 2", "FAZ_tAL": "403973001, 403987002", "ID_LINHA": 241493 }, "geometry": { "type": "MultiLineString", "coordinates": [ [ [ 416666.214673183509149, 7621579.936678593978286 ], [ 416668.684516480017919, 7621562.485532282851636 ], [ 416672.758423123508692, 7621541.769363075494766 ] ] ] } },
{ "type": "Feature", "properties": { "fid": 378.0, "COMPR_M": 30.78, "CLASSE": "01 - Muito curta", "CD_FAZ": " 403987", "TALHOES": "1, 2", "FAZ_tAL": "403973001, 403987002", "ID_LINHA": 241494 }, "geometry": { "type": "MultiLineString", "coordinates": [ [ [ 416669.683055223722477, 7621576.389358509331942 ], [ 416671.644117955118418, 7621562.979977663606405 ], [ 416674.868219808558933, 7621546.062500650063157 ] ] ] } }
]
}
