{
"type": "FeatureCollection",
"name": " 403882",
"crs": { "type": "name", "properties": { "name": "urn:ogc:def:crs:EPSG::32722" } },
"xy_coordinate_resolution": 1e-15,
"features": [
{ "type": "Feature", "properties": { "fid": 1.0, "COMPR_M": 348.34, "CLASSE": "03 - Média", "CD_FAZ": " 403882", "TALHOES": "1", "FAZ_tAL": "403878001, 403882001", "ID_LINHA": 206501 }, "geometry": { "type": "MultiLineString", "coordinates": [ [ [ 422629.435307387728244, 7622795.571271689608693 ], [ 422689.527892543061171, 7622813.179708335548639 ], [ 422728.167770913278218, 7622825.842915331944823 ], [ 422765.903621057514101, 7622840.242691850289702 ], [ 422787.960053972958121, 7622850.007366543635726 ], [ 422802.364451294124592, 7622857.076323755085468 ], [ 422830.345414151437581, 7622872.729427255690098 ], [ 422843.916978149849456, 7622881.301392399705946 ], [ 422863.804801529273391, 7622894.983534852042794 ], [ 422895.864911690703593, 7622919.644609299488366 ], [ 422914.57062468980439, 7622935.339435694739223 ], [ 422934.993841471674386, 7622953.376486436463892 ] ] ] } },
{ "type": "Feature", "properties": { "fid": 2.0, "COMPR_M": 347.38, "CLASSE": "03 - Média", "CD_FAZ": " 403882", "TALHOES": "1", "FAZ_tAL": "403878001, 403882001", "ID_LINHA": 206502 }, "geometry": { "type": "MultiLineString", "coordinates": [ [ [ 422629.23728038626723, 7622792.394837655127048 ], [ 422690.414955314830877, 7622810.313834572210908 ], [ 422729.161086720938329, 7622823.012097535654902 ], [ 422767.058940266899299, 7622837.474000219255686 ], [ 422789.237294107151683, 7622847.292732706293464 ], [ 422803.732470900169574, 7622854.406262997537851 ], [ 422831.915248760196846, 7622870.172775033861399 ], [ 422845.56527670082869, 7622878.794600490480661 ], [ 422865.558178073493764, 7622892.549177473410964 ], [ 422897.754364031017758, 7622917.314317832700908 ], [ 422934.489283401868306, 7622948.88169876486063 ] ] ] } },
{ "type": "Feature", "properties": { "fid": 3.0, "COMPR_M": 346.48, "CLASSE": "03 - Média", "CD_FAZ": " 403882", "TALHOES": "1", "FAZ_tAL": "403878001, 403882001", "ID_LINHA": 206503 }, "geometry": { "type": "MultiLineString", "coordinates": [ [ [ 422629.039253391616512, 7622789.218403715640306 ], [ 422691.302014542452525, 7622807.447972303256392 ], [ 422730.154402533778921, 7622820.181279741227627 ], [ 422768.214259476109874, 7622834.705308591946959 ], [ 422790.509069620398805, 7622844.575581097975373 ], [ 422805.100490501965396, 7622851.73620224557817 ], [ 422819.438111689174548, 7622859.412407958880067 ], [ 422833.473934610083234, 7622867.609343838877976 ], [ 422847.203518212016206, 7622876.281338360160589 ], [ 422867.307351258932613, 7622890.111836232244968 ], [ 422899.649703864881303, 7622914.988824844360352 ], [ 422934.009669350984041, 7622944.430989855900407 ] ] ] } },
{ "type": "Feature", "properties": { "fid": 4.0, "COMPR_M": 345.63, "CLASSE": "03 - Média", "CD_FAZ": " 403882", "TALHOES": "1", "FAZ_tAL": "403878001, 403882001", "ID_LINHA": 206504 }, "geometry": { "type": "MultiLineString", "coordinates": [ [ [ 422628.841217179608066, 7622786.041821906343102 ], [ 422692.182986867497675, 7622804.580224411562085 ], [ 422731.154484663566109, 7622817.352836200967431 ], [ 422769.36957868054742, 7622831.936616959050298 ], [ 422791.786309753661044, 7622841.860947264358401 ], [ 422806.474378554383293, 7622849.069213959388435 ], [ 422820.890805738512427, 7622856.78739998023957 ], [ 422835.021471698768437, 7622865.039133680984378 ], [ 422848.85181675927015, 7622873.774546448141336 ], [ 422869.064931164961308, 7622887.680462718009949 ], [ 422901.545043697580695, 7622912.663331845775247 ], [ 422933.576798083493486, 7622940.022028745152056 ] ] ] } },
{ "type": "Feature", "properties": { "fid": 5.0, "COMPR_M": 344.82, "CLASSE": "03 - Média", "CD_FAZ": " 403882", "TALHOES": "1", "FAZ_tAL": "403878001, 403882001", "ID_LINHA": 206505 }, "geometry": { "type": "MultiLineString", "coordinates": [ [ [ 422628.643166061083321, 7622782.865001006051898 ], [ 422693.068018310004845, 7622801.713729763403535 ], [ 422732.147800474485848, 7622814.522018409334123 ], [ 422770.524897891329601, 7622829.167925335466862 ], [ 422793.063549886981491, 7622839.146313428878784 ], [ 422807.830607905692887, 7622846.393112408928573 ], [ 422822.355759640689939, 7622854.16925185918808 ], [ 422836.59130630682921, 7622862.482481459155679 ], [ 422850.500063092273194, 7622871.267834298312664 ], [ 422870.814104347955436, 7622885.243121480569243 ], [ 422903.440383532317355, 7622910.337838849052787 ], [ 422933.157674057758413, 7622935.645171020179987 ] ] ] } },
{ "type": "Feature", "properties": { "fid": 6.0, "COMPR_M": 343.89, "CLASSE": "03 - Média", "CD_FAZ": " 403882", "TALHOES": "1", "FAZ_tAL": "403878001, 403882001", "ID_LINHA": 206506 }, "geometry": { "type": "MultiLineString", "coordinates": [ [ [ 422628.445114933419973, 7622779.688179953955114 ], [ 422693.953049749776255, 7622798.847235123626888 ], [ 422733.141116283950396, 7622811.691200617700815 ], [ 422771.68493501667399, 7622826.401164850220084 ], [ 422801.802605080069043, 7622840.015759744681418 ], [ 422816.542380539467558, 7622847.567789699882269 ], [ 422831.027274070249405, 7622855.672394745983183 ], [ 422845.175205532228574, 7622864.274859640747309 ], [ 422865.82651328726206, 7622878.023613431490958 ], [ 422879.242005647101905, 7622887.686106193810701 ], [ 422898.896937529207207, 7622902.81865499727428 ], [ 422932.648569363285787, 7622931.197782093659043 ] ] ] } },
{ "type": "Feature", "properties": { "fid": 7.0, "COMPR_M": 342.92, "CLASSE": "03 - Média", "CD_FAZ": " 403882", "TALHOES": "1", "FAZ_tAL": "403878001, 403882001", "ID_LINHA": 206507 }, "geometry": { "type": "MultiLineString", "coordinates": [ [ [ 422628.247063823568169, 7622776.511359197087586 ], [ 422686.943645315303002, 7622793.567807491868734 ], [ 422734.13443209399702, 7622808.860382821410894 ], [ 422772.835536306549329, 7622823.630542077124119 ], [ 422803.124332284089178, 7622837.322494700551033 ], [ 422817.958400665782392, 7622844.922859934158623 ], [ 422832.54020591446897, 7622853.081685282289982 ], [ 422846.777327569550835, 7622861.738359976559877 ], [ 422867.554266397724859, 7622875.570970200002193 ], [ 422881.027792139386293, 7622885.275432486087084 ], [ 422900.767795642081182, 7622900.47341419942677 ], [ 422932.107270859065466, 7622926.728183012455702 ] ] ] } },
{ "type": "Feature", "properties": { "fid": 8.0, "COMPR_M": 342.09, "CLASSE": "03 - Média", "CD_FAZ": " 403882", "TALHOES": "1", "FAZ_tAL": "403878001, 403882001", "ID_LINHA": 206508 }, "geometry": { "type": "MultiLineString", "coordinates": [ [ [ 422628.049012703180779, 7622773.334538292139769 ], [ 422687.815280774026178, 7622790.697208934463561 ], [ 422735.127747906546574, 7622806.029565026983619 ], [ 422773.990855516167358, 7622820.861850447952747 ], [ 422804.45171078806743, 7622834.632062399759889 ], [ 422819.386623867903836, 7622842.284463351592422 ], [ 422834.047241075837519, 7622850.487603495828807 ], [ 422848.39002223679563, 7622859.208538280799985 ], [ 422869.264219356293324, 7622873.105883896350861 ], [ 422882.817519172735047, 7622882.867638340219855 ], [ 422902.638653750880621, 7622898.128173399716616 ], [ 422931.652817618625704, 7622922.360372836701572 ] ] ] } },
{ "type": "Feature", "properties": { "fid": 9.0, "COMPR_M": 341.29, "CLASSE": "03 - Média", "CD_FAZ": " 403882", "TALHOES": "1", "FAZ_tAL": "403878001, 403882001", "ID_LINHA": 206509 }, "geometry": { "type": "MultiLineString", "coordinates": [ [ [ 422627.850961585470941, 7622770.157717392779887 ], [ 422688.683395505533554, 7622787.825553099624813 ], [ 422736.114297392079607, 7622803.196372972801328 ], [ 422775.146174722351134, 7622818.093158816918731 ], [ 422805.762088451709133, 7622831.933227540925145 ], [ 422820.790440926910378, 7622839.633000411093235 ], [ 422835.560172923316713, 7622847.896894030272961 ], [ 422864.072063588711899, 7622865.890031068585813 ], [ 422877.835975837777369, 7622875.511717193759978 ], [ 422897.94058406795375, 7622890.600752234458923 ], [ 422931.226181549485773, 7622918.016717586666346 ] ] ] } },
{ "type": "Feature", "properties": { "fid": 10.0, "COMPR_M": 340.39, "CLASSE": "03 - Média", "CD_FAZ": " 403882", "TALHOES": "1", "FAZ_tAL": "403878001, 403882001", "ID_LINHA": 206510 }, "geometry": { "type": "MultiLineString", "coordinates": [ [ [ 422627.652910467179026, 7622766.980896486900747 ], [ 422689.556788720132317, 7622784.955491801723838 ], [ 422737.114379525417462, 7622800.367929438129067 ], [ 422776.3014939322602, 7622815.324467188678682 ], [ 422807.089513899292797, 7622829.242699576541781 ], [ 422822.21259273623582, 7622836.991280930116773 ], [ 422837.073104769049678, 7622845.306184569373727 ], [ 422865.754229924292304, 7622863.405914095230401 ], [ 422879.589352386479732, 7622873.077359817922115 ], [ 422899.785058139415924, 7622888.234697256237268 ], [ 422930.710870742623229, 7622913.616707066074014 ] ] ] } },
{ "type": "Feature", "properties": { "fid": 11.0, "COMPR_M": 339.46, "CLASSE": "03 - Média", "CD_FAZ": " 403882", "TALHOES": "1", "FAZ_tAL": "403878001, 403882001", "ID_LINHA": 206511 }, "geometry": { "type": "MultiLineString", "coordinates": [ [ [ 422627.454859346966259, 7622763.804075580090284 ], [ 422690.423145693086553, 7622782.083298707380891 ], [ 422730.173383983492386, 7622794.795536458492279 ], [ 422769.633877634885721, 7622809.353744111955166 ], [ 422800.737878837797325, 7622822.863633308559656 ], [ 422816.038725517690182, 7622830.372747886925936 ], [ 422831.145483048516326, 7622838.460363140329719 ], [ 422845.932272643083706, 7622847.095115347765386 ], [ 422867.426949369604699, 7622860.915399989113212 ], [ 422894.941093486035243, 7622880.716508879326284 ], [ 422914.81242253491655, 7622896.384880879893899 ], [ 422930.163566631847061, 7622909.203253027051687 ] ] ] } },
{ "type": "Feature", "properties": { "fid": 12.0, "COMPR_M": 338.82, "CLASSE": "03 - Média", "CD_FAZ": " 403882", "TALHOES": "1", "FAZ_tAL": "403878001, 403882001", "ID_LINHA": 206512 }, "geometry": { "type": "MultiLineString", "coordinates": [ [ [ 422627.256754178262781, 7622760.626387679949403 ], [ 422691.293020789686125, 7622779.212171515449882 ], [ 422731.143828422471415, 7622791.956785322166979 ], [ 422770.752584682661109, 7622806.570066330954432 ], [ 422802.004230825405102, 7622820.143876580521464 ], [ 422817.41266692354111, 7622827.705655467696488 ], [ 422832.61043694941327, 7622835.84221501275897 ], [ 422861.99797700101044, 7622853.694330295547843 ], [ 422876.139631494297646, 7622863.270424820482731 ], [ 422896.749893788597547, 7622878.323045697063208 ], [ 422929.838884113822132, 7622904.980002790689468 ] ] ] } },
{ "type": "Feature", "properties": { "fid": 13.0, "COMPR_M": 338.26, "CLASSE": "03 - Média", "CD_FAZ": " 403882", "TALHOES": "1", "FAZ_tAL": "403878001, 403882001", "ID_LINHA": 206513 }, "geometry": { "type": "MultiLineString", "coordinates": [ [ [ 422627.058626549318433, 7622757.448339529335499 ], [ 422692.166414004168473, 7622776.342110214754939 ], [ 422732.108037376077846, 7622789.115940659306943 ], [ 422771.871291726012714, 7622803.786388548091054 ], [ 422803.28147095895838, 7622817.429242743179202 ], [ 422818.786554974853061, 7622825.038667177781463 ], [ 422834.075390851125121, 7622833.224066896364093 ], [ 422849.049644342332613, 7622841.968252964317799 ], [ 422863.636218512488995, 7622851.181068167090416 ], [ 422877.867384599754587, 7622860.817781591787934 ], [ 422898.569712768658064, 7622875.937927334569395 ], [ 422929.559115214971825, 7622900.826206959784031 ] ] ] } },
{ "type": "Feature", "properties": { "fid": 14.0, "COMPR_M": 337.34, "CLASSE": "03 - Média", "CD_FAZ": " 403882", "TALHOES": "1", "FAZ_tAL": "403878001, 403882001", "ID_LINHA": 206514 }, "geometry": { "type": "MultiLineString", "coordinates": [ [ [ 422626.860498890513554, 7622754.270290903747082 ], [ 422693.034531342913397, 7622773.47044575959444 ], [ 422733.078481816570275, 7622786.277189521118999 ], [ 422772.989998776116408, 7622801.002710765227675 ], [ 422804.558711092569865, 7622814.71460890956223 ], [ 422820.142784323485103, 7622822.362565625458956 ], [ 422835.54034475365188, 7622830.60591877065599 ], [ 422850.619478950335179, 7622839.411600740626454 ], [ 422865.279488541535102, 7622848.671041146852076 ], [ 422893.532238132727798, 7622868.403596112504601 ], [ 422913.870158984325826, 7622884.061799389310181 ], [ 422929.004728546831757, 7622896.444010386243463 ] ] ] } },
{ "type": "Feature", "properties": { "fid": 15.0, "COMPR_M": 336.33, "CLASSE": "03 - Média", "CD_FAZ": " 403882", "TALHOES": "1", "FAZ_tAL": "403878001, 403882001", "ID_LINHA": 206515 }, "geometry": { "type": "MultiLineString", "coordinates": [ [ [ 422626.662371252081357, 7622751.092242578044534 ], [ 422693.9044064382324, 7622770.599318565800786 ], [ 422734.045808509341441, 7622783.437391622923315 ], [ 422774.117598898825236, 7622798.222606940194964 ], [ 422805.83595122967381, 7622811.999975074082613 ], [ 422821.51080392615404, 7622819.692504873499274 ], [ 422837.017558502149768, 7622827.994630509987473 ], [ 422852.167016042629257, 7622836.841390581801534 ], [ 422866.922758571163286, 7622846.161014124751091 ], [ 422895.314084088255186, 7622865.99004284478724 ], [ 422928.379076014680322, 7622892.011683970689774 ] ] ] } },
{ "type": "Feature", "properties": { "fid": 16.0, "COMPR_M": 335.48, "CLASSE": "03 - Média", "CD_FAZ": " 403882", "TALHOES": "1", "FAZ_tAL": "403878001, 403882001", "ID_LINHA": 206516 }, "geometry": { "type": "MultiLineString", "coordinates": [ [ [ 422626.46424361114623, 7622747.914194250479341 ], [ 422694.772521167411469, 7622767.727662730962038 ], [ 422735.013135207002051, 7622780.597593721933663 ], [ 422775.231870823714416, 7622795.437113768421113 ], [ 422807.124079506495036, 7622809.290464133024216 ], [ 422822.890613781637512, 7622817.028484921902418 ], [ 422838.470252553292084, 7622825.369622528553009 ], [ 422853.731305754103232, 7622834.281300378963351 ], [ 422868.571057121618651, 7622843.654222215525806 ], [ 422897.099870582402218, 7622863.579369137994945 ], [ 422927.854833394347224, 7622887.693691035732627 ] ] ] } },
{ "type": "Feature", "properties": { "fid": 17.0, "COMPR_M": 334.64, "CLASSE": "03 - Média", "CD_FAZ": " 403882", "TALHOES": "1", "FAZ_tAL": "403878001, 403882001", "ID_LINHA": 206517 }, "geometry": { "type": "MultiLineString", "coordinates": [ [ [ 422626.2661160347634, 7622744.73614692222327 ], [ 422687.614292749203742, 7622762.445698469877243 ], [ 422727.895328099024482, 7622775.043272122740746 ], [ 422768.296981962688733, 7622789.476467547006905 ], [ 422800.414711992198136, 7622802.896066925488412 ], [ 422832.118601956462953, 7622818.473562310449779 ], [ 422847.669524378958158, 7622827.174590650945902 ], [ 422862.809120562276803, 7622836.380041337572038 ], [ 422891.854622890416067, 7622856.030832957476377 ], [ 422912.69294184318278, 7622871.669666547328234 ], [ 422927.344212352181785, 7622883.386915316805243 ] ] ] } },
{ "type": "Feature", "properties": { "fid": 18.0, "COMPR_M": 333.9, "CLASSE": "03 - Média", "CD_FAZ": " 403882", "TALHOES": "1", "FAZ_tAL": "403878001, 403882001", "ID_LINHA": 206518 }, "geometry": { "type": "MultiLineString", "coordinates": [ [ [ 422626.067988405760843, 7622741.558098770678043 ], [ 422688.469684320734814, 7622759.570228600874543 ], [ 422728.838829342625104, 7622772.195474926382303 ], [ 422769.381157806725241, 7622786.67916795797646 ], [ 422801.649346985679585, 7622800.161803174763918 ], [ 422833.540753768174909, 7622815.831842829473317 ], [ 422849.176559542014729, 7622824.580508863553405 ], [ 422864.411242603440769, 7622833.84354167804122 ], [ 422893.6122027974925, 7622853.599459446966648 ], [ 422926.897015971248038, 7622879.152354270219803 ] ] ] } },
{ "type": "Feature", "properties": { "fid": 19.0, "COMPR_M": 333.21, "CLASSE": "03 - Média", "CD_FAZ": " 403882", "TALHOES": "1", "FAZ_tAL": "403878001, 403882001", "ID_LINHA": 206519 }, "geometry": { "type": "MultiLineString", "coordinates": [ [ [ 422625.869846926885657, 7622738.379828453063965 ], [ 422689.326565776311327, 7622756.695199420675635 ], [ 422729.782330588204786, 7622769.347677731886506 ], [ 422770.465333652100526, 7622783.881868364289403 ], [ 422802.883981981081888, 7622797.427539436146617 ], [ 422818.979360491794068, 7622805.000577129423618 ], [ 422834.95064221607754, 7622813.183702785521746 ], [ 422850.701222706004046, 7622821.99665030092001 ], [ 422866.002792011015117, 7622831.300364058464766 ], [ 422895.361375981476158, 7622851.162118209525943 ], [ 422926.479157193505671, 7622874.96095522120595 ] ] ] } },
{ "type": "Feature", "properties": { "fid": 20.0, "COMPR_M": 332.49, "CLASSE": "03 - Média", "CD_FAZ": " 403882", "TALHOES": "1", "FAZ_tAL": "403878001, 403882001", "ID_LINHA": 206520 }, "geometry": { "type": "MultiLineString", "coordinates": [ [ [ 422625.671589724021032, 7622735.199701894074678 ], [ 422690.183447233284824, 7622753.820170238614082 ], [ 422730.731516594300047, 7622766.501763952895999 ], [ 422771.541140401270241, 7622781.081325083039701 ], [ 422804.12383942573797, 7622794.695586137473583 ], [ 422820.312437238928396, 7622802.312881904654205 ], [ 422836.366662345128134, 7622810.538773022592068 ], [ 422852.208319918601774, 7622819.40246226079762 ], [ 422867.604914045077749, 7622828.763864396139979 ], [ 422897.114752527792007, 7622848.727760828100145 ], [ 422926.038634478929453, 7622870.751274650916457 ] ] ] } },
{ "type": "Feature", "properties": { "fid": 21.0, "COMPR_M": 331.76, "CLASSE": "03 - Média", "CD_FAZ": " 403882", "TALHOES": "1", "FAZ_tAL": "403878001, 403882001", "ID_LINHA": 206521 }, "geometry": { "type": "MultiLineString", "coordinates": [ [ [ 422625.473332522669807, 7622732.019575338810682 ], [ 422691.040328688337468, 7622750.945141053758562 ], [ 422731.669333076570183, 7622763.652083344757557 ], [ 422772.625316246645525, 7622778.284025492146611 ], [ 422805.358474419917911, 7622791.961322393268347 ], [ 422821.622814899776131, 7622799.614047044888139 ], [ 422837.78268247039523, 7622807.893843257799745 ], [ 422853.715355078573339, 7622816.808380474336445 ], [ 422869.212350233108737, 7622826.2306596506387 ], [ 422898.868129068985581, 7622846.293403452262282 ], [ 422925.580343964858912, 7622866.55179270170629 ] ] ] } },
{ "type": "Feature", "properties": { "fid": 22.0, "COMPR_M": 330.95, "CLASSE": "03 - Média", "CD_FAZ": " 403882", "TALHOES": "1", "FAZ_tAL": "403878001, 403882001", "ID_LINHA": 206522 }, "geometry": { "type": "MultiLineString", "coordinates": [ [ [ 422625.27507525368128, 7622728.839447684586048 ], [ 422691.897210143913981, 7622748.070111878216267 ], [ 422732.612834321451373, 7622760.804286152124405 ], [ 422773.70949209202081, 7622775.486725905910134 ], [ 422806.587886963156052, 7622789.224748201668262 ], [ 422822.955891645746306, 7622796.926351821050048 ], [ 422839.204834286880214, 7622805.252123776823282 ], [ 422863.083420850918628, 7622818.900713237002492 ], [ 422893.337061904894654, 7622838.687998676672578 ], [ 422925.048903956427239, 7622862.311396017670631 ] ] ] } },
{ "type": "Feature", "properties": { "fid": 23.0, "COMPR_M": 329.98, "CLASSE": "03 - Média", "CD_FAZ": " 403882", "TALHOES": "1", "FAZ_tAL": "403878001, 403882001", "ID_LINHA": 206523 }, "geometry": { "type": "MultiLineString", "coordinates": [ [ [ 422625.076818120141979, 7622725.659322220832109 ], [ 422692.757069522514939, 7622745.195970240980387 ], [ 422733.556335568951908, 7622757.956488955765963 ], [ 422766.530196310079191, 7622769.543468694202602 ], [ 422799.57670069206506, 7622782.842563168145716 ], [ 422832.466750999563374, 7622798.338059645146132 ], [ 422848.724929863121361, 7622807.042585687711835 ], [ 422864.64210670045577, 7622816.337282044813037 ], [ 422895.051487423013896, 7622836.225990925915539 ], [ 422924.397089267789852, 7622857.976036608219147 ] ] ] } },
{ "type": "Feature", "properties": { "fid": 24.0, "COMPR_M": 329.08, "CLASSE": "03 - Média", "CD_FAZ": " 403882", "TALHOES": "1", "FAZ_tAL": "403878001, 403882001", "ID_LINHA": 206524 }, "geometry": { "type": "MultiLineString", "coordinates": [ [ [ 422624.878560918848962, 7622722.479195662774146 ], [ 422693.610973052680492, 7622742.320053511299193 ], [ 422734.505521573359147, 7622755.110575178638101 ], [ 422767.581949931336567, 7622766.73382555320859 ], [ 422800.770677343534771, 7622780.090311897918582 ], [ 422833.822980352095328, 7622795.661958096548915 ], [ 422850.202143616043031, 7622804.431297417730093 ], [ 422866.200792552088387, 7622813.773850853554904 ], [ 422896.774767969618551, 7622833.770269142463803 ], [ 422923.776978764333762, 7622853.699718745425344 ] ] ] } },
{ "type": "Feature", "properties": { "fid": 25.0, "COMPR_M": 328.31, "CLASSE": "03 - Média", "CD_FAZ": " 403882", "TALHOES": "1", "FAZ_tAL": "403878001, 403882001", "ID_LINHA": 206525 }, "geometry": { "type": "MultiLineString", "coordinates": [ [ [ 422624.680303582572378, 7622719.299066945910454 ], [ 422694.467854508373421, 7622739.445024332031608 ], [ 422735.446184197615366, 7622752.261824930086732 ], [ 422768.633703551255167, 7622763.92418241687119 ], [ 422801.964653990115039, 7622777.338060633279383 ], [ 422835.202790205308702, 7622792.997938138432801 ], [ 422859.767082464299165, 7622806.445542621426284 ], [ 422875.615524229418952, 7622816.0813661031425 ], [ 422890.98672496387735, 7622826.144159557297826 ], [ 422905.890000561194029, 7622836.561999166384339 ], [ 422923.251137839921284, 7622849.507799834012985 ] ] ] } },
{ "type": "Feature", "properties": { "fid": 26.0, "COMPR_M": 327.53, "CLASSE": "03 - Média", "CD_FAZ": " 403882", "TALHOES": "1", "FAZ_tAL": "403878001, 403882001", "ID_LINHA": 206526 }, "geometry": { "type": "MultiLineString", "coordinates": [ [ [ 422624.482046515215188, 7622716.118942545726895 ], [ 422695.324735966743901, 7622736.569995148107409 ], [ 422736.386839300685097, 7622749.413097376003861 ], [ 422769.693296158337034, 7622761.117473700083792 ], [ 422803.158630639780313, 7622774.585809361189604 ], [ 422836.564941359800287, 7622790.32480491977185 ], [ 422861.285910996724851, 7622803.858205480501056 ], [ 422877.228218895383179, 7622813.551544398069382 ], [ 422892.659444405580871, 7622823.653645450249314 ], [ 422922.725296917080414, 7622845.315880916081369 ] ] ] } },
{ "type": "Feature", "properties": { "fid": 27.0, "COMPR_M": 326.97, "CLASSE": "03 - Média", "CD_FAZ": " 403882", "TALHOES": "1", "FAZ_tAL": "403878001, 403882001", "ID_LINHA": 206527 }, "geometry": { "type": "MultiLineString", "coordinates": [ [ [ 422624.283673284924589, 7622712.936954838223755 ], [ 422696.184595349361189, 7622733.69585351459682 ], [ 422737.336025307653472, 7622746.567183594219387 ], [ 422770.737210795341525, 7622758.304896138608456 ], [ 422804.357580418407451, 7622771.83567308075726 ], [ 422837.938829408027232, 7622787.65781663171947 ], [ 422862.792946157802362, 7622801.264123693108559 ], [ 422878.825082454597577, 7622811.011661687865853 ], [ 422894.346358521317597, 7622821.172691125422716 ], [ 422922.352397401933558, 7622841.273641626350582 ] ] ] } },
{ "type": "Feature", "properties": { "fid": 28.0, "COMPR_M": 326.43, "CLASSE": "03 - Média", "CD_FAZ": " 403882", "TALHOES": "1", "FAZ_tAL": "403878001, 403882001", "ID_LINHA": 206528 }, "geometry": { "type": "MultiLineString", "coordinates": [ [ [ 422624.085232311626896, 7622709.753880514763296 ], [ 422697.039988758217078, 7622730.820377474650741 ], [ 422738.273841790272854, 7622743.717502987012267 ], [ 422771.788964417413808, 7622755.495252998545766 ], [ 422805.556499201804399, 7622769.085608246736228 ], [ 422839.295058760792017, 7622784.981715081259608 ], [ 422864.311774689471349, 7622798.67678655218333 ], [ 422880.421890338882804, 7622808.471867120824754 ], [ 422896.023777082562447, 7622818.68541151471436 ], [ 422921.993230456428137, 7622837.25230014603585 ] ] ] } },
{ "type": "Feature", "properties": { "fid": 29.0, "COMPR_M": 325.92, "CLASSE": "03 - Média", "CD_FAZ": " 403882", "TALHOES": "1", "FAZ_tAL": "403878001, 403882001", "ID_LINHA": 206529 }, "geometry": { "type": "MultiLineString", "coordinates": [ [ [ 422623.886791337514296, 7622706.570806194096804 ], [ 422689.757554920914117, 7622725.537832562811673 ], [ 422730.882520949526224, 7622738.145183280110359 ], [ 422772.844645718636457, 7622752.687055196613073 ], [ 422806.750475849956274, 7622766.333356979303062 ], [ 422823.722777726012282, 7622773.997619155794382 ], [ 422840.674868613481522, 7622782.317695123143494 ], [ 422865.81880984979216, 7622796.082704767584801 ], [ 422889.928538991138339, 7622811.020635848864913 ], [ 422921.662659592460841, 7622833.252431759610772 ] ] ] } },
{ "type": "Feature", "properties": { "fid": 30.0, "COMPR_M": 325.46, "CLASSE": "03 - Média", "CD_FAZ": " 403882", "TALHOES": "1", "FAZ_tAL": "403878001, 403882001", "ID_LINHA": 206530 }, "geometry": { "type": "MultiLineString", "coordinates": [ [ [ 422623.688350365846418, 7622703.387731870636344 ], [ 422690.601163498824462, 7622722.658881907351315 ], [ 422731.801789675781038, 7622735.289485337212682 ], [ 422765.421661664266139, 7622746.758851724676788 ], [ 422799.417287238058634, 7622759.954560859128833 ], [ 422833.524057982605882, 7622775.37739875447005 ], [ 422858.979607171495445, 7622788.715548840351403 ], [ 422875.552907644596417, 7622798.393263706937432 ], [ 422891.581813844619319, 7622808.517158810980618 ], [ 422921.356287422822788, 7622829.285822814330459 ] ] ] } },
{ "type": "Feature", "properties": { "fid": 31.0, "COMPR_M": 325.02, "CLASSE": "03 - Média", "CD_FAZ": " 403882", "TALHOES": "1", "FAZ_tAL": "403878001, 403882001", "ID_LINHA": 206531 }, "geometry": { "type": "MultiLineString", "coordinates": [ [ [ 422623.489909391268156, 7622700.204657545313239 ], [ 422691.449649260321166, 7622719.781364887952805 ], [ 422732.728775553870946, 7622732.436269043013453 ], [ 422766.446782389713917, 7622743.939365122467279 ], [ 422800.563197298266459, 7622757.181942980736494 ], [ 422834.845785186393186, 7622772.684133710339665 ], [ 422860.44456107163569, 7622786.097400719299912 ], [ 422877.10598963132361, 7622795.82649153098464 ], [ 422893.215079051849898, 7622806.000581813044846 ], [ 422921.055123197555076, 7622825.350103346630931 ] ] ] } },
{ "type": "Feature", "properties": { "fid": 32.0, "COMPR_M": 324.59, "CLASSE": "03 - Média", "CD_FAZ": " 403882", "TALHOES": "1", "FAZ_tAL": "403878001, 403882001", "ID_LINHA": 206532 }, "geometry": { "type": "MultiLineString", "coordinates": [ [ [ 422623.291468208655715, 7622697.021579837426543 ], [ 422692.295696430141106, 7622716.903131049126387 ], [ 422733.64547589153517, 7622729.57973153796047 ], [ 422767.464585125795566, 7622741.117271326482296 ], [ 422801.718516506603919, 7622754.413251347839832 ], [ 422836.173163689265493, 7622769.993701411411166 ], [ 422861.921774826070759, 7622783.486112455837429 ], [ 422878.664675481442828, 7622793.263060332275927 ], [ 422894.858349082176574, 7622803.490554790943861 ], [ 422920.768575379275717, 7622821.425064856186509 ] ] ] } },
{ "type": "Feature", "properties": { "fid": 33.0, "COMPR_M": 324.17, "CLASSE": "03 - Média", "CD_FAZ": " 403882", "TALHOES": "1", "FAZ_tAL": "403878001, 403882001", "ID_LINHA": 206533 }, "geometry": { "type": "MultiLineString", "coordinates": [ [ [ 422623.093027447466739, 7622693.8385089058429 ], [ 422693.139305006305221, 7622714.024180391803384 ], [ 422734.57246176811168, 7622726.726515248417854 ], [ 422768.486046851961873, 7622738.296481132507324 ], [ 422802.873835714708548, 7622751.644559720531106 ], [ 422837.494890891481191, 7622767.300436371006072 ], [ 422863.386728727084119, 7622780.867964334785938 ], [ 422888.432500524388161, 7622795.789368818514049 ], [ 422904.444055651954841, 7622806.271223803982139 ], [ 422920.482027560763527, 7622817.500026369467378 ] ] ] } },
{ "type": "Feature", "properties": { "fid": 34.0, "COMPR_M": 323.79, "CLASSE": "03 - Média", "CD_FAZ": " 403882", "TALHOES": "1", "FAZ_tAL": "403878001, 403882001", "ID_LINHA": 206534 }, "geometry": { "type": "MultiLineString", "coordinates": [ [ [ 422622.8945078595425, 7622690.654173568822443 ], [ 422693.98657208122313, 7622711.146302899345756 ], [ 422735.491736479219981, 7622723.870798780582845 ], [ 422769.507508582959417, 7622735.475690936669707 ], [ 422804.02915492199827, 7622748.875868089497089 ], [ 422838.810966797289439, 7622764.604338588193059 ], [ 422864.845584828406572, 7622778.246328869834542 ], [ 422890.039936711196788, 7622793.256164064630866 ], [ 422920.213258656091057, 7622813.618314562365413 ] ] ] } },
{ "type": "Feature", "properties": { "fid": 35.0, "COMPR_M": 323.42, "CLASSE": "03 - Média", "CD_FAZ": " 403882", "TALHOES": "1", "FAZ_tAL": "403878001, 403882001", "ID_LINHA": 206535 }, "geometry": { "type": "MultiLineString", "coordinates": [ [ [ 422622.695827341056429, 7622687.467256844043732 ], [ 422694.832619249529671, 7622708.268069060519338 ], [ 422736.413579585438129, 7622721.015921879559755 ], [ 422770.532629307766911, 7622732.656204329803586 ], [ 422805.184474133013282, 7622746.107176464051008 ], [ 422840.132694004161749, 7622761.911073543131351 ], [ 422866.304376679181587, 7622775.624808238819242 ], [ 422891.642058748868294, 7622790.719664406962693 ], [ 422919.953268331766594, 7622809.754717575386167 ] ] ] } },
{ "type": "Feature", "properties": { "fid": 36.0, "COMPR_M": 323.05, "CLASSE": "03 - Média", "CD_FAZ": " 403882", "TALHOES": "1", "FAZ_tAL": "403878001, 403882001", "ID_LINHA": 206536 }, "geometry": { "type": "MultiLineString", "coordinates": [ [ [ 422622.497146691079251, 7622684.280338002368808 ], [ 422695.678666417603381, 7622705.38983522169292 ], [ 422728.892573775665369, 7622715.468406226485968 ], [ 422762.933824264036957, 7622726.764292515814304 ], [ 422797.601553781772964, 7622739.76179953571409 ], [ 422832.657994041335769, 7622754.992664529941976 ], [ 422859.029116092133336, 7622768.223107105121017 ], [ 422876.409332775219809, 7622777.94773852545768 ], [ 422893.244180786132347, 7622788.183164745569229 ], [ 422919.684700306737795, 7622805.885031485930085 ] ] ] } },
{ "type": "Feature", "properties": { "fid": 37.0, "COMPR_M": 322.64, "CLASSE": "03 - Média", "CD_FAZ": " 403882", "TALHOES": "1", "FAZ_tAL": "403878001, 403882001", "ID_LINHA": 206537 }, "geometry": { "type": "MultiLineString", "coordinates": [ [ [ 422622.298466305539478, 7622681.093423401936889 ], [ 422696.524713589227758, 7622702.511601386591792 ], [ 422729.794927199778613, 7622712.607313533313572 ], [ 422763.92714007437462, 7622723.933474721387029 ], [ 422798.720260824135039, 7622736.978121750988066 ], [ 422833.940698797698133, 7622752.2805484700948 ], [ 422860.439004537241999, 7622765.574967058375478 ], [ 422886.45810472703306, 7622780.445904379710555 ], [ 422903.074699230899569, 7622790.940419693477452 ], [ 422919.391682454617694, 7622801.997989066876471 ] ] ] } },
{ "type": "Feature", "properties": { "fid": 38.0, "COMPR_M": 322.26, "CLASSE": "03 - Média", "CD_FAZ": " 403882", "TALHOES": "1", "FAZ_tAL": "403878001, 403882001", "ID_LINHA": 206538 }, "geometry": { "type": "MultiLineString", "coordinates": [ [ [ 422622.099785541824531, 7622677.906502733007073 ], [ 422697.369540853309445, 7622699.63301120325923 ], [ 422730.697280620108359, 7622709.746220845729113 ], [ 422764.923844718257897, 7622721.103827880695462 ], [ 422799.838967870513443, 7622734.19444396905601 ], [ 422835.21793893026188, 7622749.565914630889893 ], [ 422861.861156348430086, 7622762.933247578330338 ], [ 422888.022394441242795, 7622777.885814178735018 ], [ 422919.100669839710463, 7622798.149738218635321 ] ] ] } },
{ "type": "Feature", "properties": { "fid": 39.0, "COMPR_M": 321.79, "CLASSE": "03 - Média", "CD_FAZ": " 403882", "TALHOES": "1", "FAZ_tAL": "403878001, 403882001", "ID_LINHA": 206539 }, "geometry": { "type": "MultiLineString", "coordinates": [ [ [ 422621.901104967226274, 7622674.719585098326206 ], [ 422698.215588023827877, 7622696.754777360707521 ], [ 422731.599634039332159, 7622706.88512814976275 ], [ 422765.913771690684371, 7622718.2718391334638 ], [ 422800.957674915785901, 7622731.410766183398664 ], [ 422836.489714445080608, 7622746.848763030022383 ], [ 422863.271044795983471, 7622760.285107532516122 ], [ 422889.575476424768567, 7622775.319041995331645 ], [ 422918.737776006455533, 7622794.257964698597789 ] ] ] } },
{ "type": "Feature", "properties": { "fid": 40.0, "COMPR_M": 321.31, "CLASSE": "03 - Média", "CD_FAZ": " 403882", "TALHOES": "1", "FAZ_tAL": "403878001, 403882001", "ID_LINHA": 206540 }, "geometry": { "type": "MultiLineString", "coordinates": [ [ [ 422621.702424392045941, 7622671.532667465507984 ], [ 422699.061635195277631, 7622693.876543528400362 ], [ 422732.501987458672374, 7622704.024035459384322 ], [ 422766.907087499916088, 7622715.441021338105202 ], [ 422802.076381963735912, 7622728.627088401466608 ], [ 422837.766954577935394, 7622744.134129190817475 ], [ 422864.687064923229627, 7622757.640177771449089 ], [ 422891.139766139211133, 7622772.758951796218753 ], [ 422918.36033434147248, 7622790.35617761220783 ] ] ] } },
{ "type": "Feature", "properties": { "fid": 41.0, "COMPR_M": 320.82, "CLASSE": "03 - Média", "CD_FAZ": " 403882", "TALHOES": "1", "FAZ_tAL": "403878001, 403882001", "ID_LINHA": 206541 }, "geometry": { "type": "MultiLineString", "coordinates": [ [ [ 422621.503674452134874, 7622668.34463719278574 ], [ 422699.907682363060303, 7622690.998309688642621 ], [ 422733.404340879525989, 7622701.162942765280604 ], [ 422767.903792149794754, 7622712.611374494619668 ], [ 422803.195089009124786, 7622725.843410614877939 ], [ 422839.049659332958981, 7622741.422013126313686 ], [ 422866.109216733835638, 7622754.998458290472627 ], [ 422892.692848123493604, 7622770.19217960909009 ], [ 422917.972238383255899, 7622786.447056957520545 ] ] ] } },
{ "type": "Feature", "properties": { "fid": 42.0, "COMPR_M": 320.34, "CLASSE": "03 - Média", "CD_FAZ": " 403882", "TALHOES": "1", "FAZ_tAL": "403878001, 403882001", "ID_LINHA": 206542 }, "geometry": { "type": "MultiLineString", "coordinates": [ [ [ 422621.304699325934052, 7622665.152994819916785 ], [ 422700.753729531890713, 7622688.120075847953558 ], [ 422734.306694301893003, 7622698.301850072108209 ], [ 422768.89371912216302, 7622709.779385744594038 ], [ 422804.313796054688282, 7622723.059732834808528 ], [ 422840.321434846380726, 7622738.704861520789564 ], [ 422867.525236864516046, 7622752.353528527542949 ], [ 422894.251533974893391, 7622767.628748421557248 ], [ 422917.575857684481889, 7622782.576678154990077 ] ] ] } },
{ "type": "Feature", "properties": { "fid": 43.0, "COMPR_M": 319.84, "CLASSE": "03 - Média", "CD_FAZ": " 403882", "TALHOES": "1", "FAZ_tAL": "403878001, 403882001", "ID_LINHA": 206543 }, "geometry": { "type": "MultiLineString", "coordinates": [ [ [ 422621.105724302702583, 7622661.961354138329625 ], [ 422701.600996608438436, 7622685.242198353633285 ], [ 422735.211350432829931, 7622695.441475495696068 ], [ 422769.887034933664836, 7622706.94856795296073 ], [ 422796.481379076605663, 7622716.745031294412911 ], [ 422832.520444287278224, 7622731.807520006783307 ], [ 422859.815352798614185, 7622744.930803783237934 ], [ 422886.999855696514715, 7622759.812772279605269 ], [ 422917.164579760516062, 7622778.69805224519223 ] ] ] } },
{ "type": "Feature", "properties": { "fid": 44.0, "COMPR_M": 319.16, "CLASSE": "03 - Média", "CD_FAZ": " 403882", "TALHOES": "1", "FAZ_tAL": "403878001, 403882001", "ID_LINHA": 206544 }, "geometry": { "type": "MultiLineString", "coordinates": [ [ [ 422620.906749039480928, 7622658.769709564745426 ], [ 422702.4458238723455, 7622682.363608172163367 ], [ 422736.113703853799962, 7622692.580382799729705 ], [ 422770.883739578828681, 7622704.118921111337841 ], [ 422797.561360671767034, 7622713.946134904399514 ], [ 422833.755079278023914, 7622729.073256256058812 ], [ 422861.183372402447276, 7622742.260743022896349 ], [ 422888.518684231559746, 7622757.225435136817396 ], [ 422916.600424365198705, 7622774.717589853331447 ] ] ] } },
{ "type": "Feature", "properties": { "fid": 45.0, "COMPR_M": 318.48, "CLASSE": "03 - Média", "CD_FAZ": " 403882", "TALHOES": "1", "FAZ_tAL": "403878001, 403882001", "ID_LINHA": 206545 }, "geometry": { "type": "MultiLineString", "coordinates": [ [ [ 422620.707773605769034, 7622655.578062263317406 ], [ 422703.29187104140874, 7622679.485374333336949 ], [ 422737.01375455991365, 7622689.718571994453669 ], [ 422771.877055389573798, 7622701.288103317841887 ], [ 422798.649730763980187, 7622711.150432109832764 ], [ 422834.984491820214316, 7622726.336682071909308 ], [ 422862.551392004534137, 7622739.590682274661958 ], [ 422890.03161607630318, 7622754.634725676849484 ], [ 422916.035773600509856, 7622770.741128186695278 ] ] ] } },
{ "type": "Feature", "properties": { "fid": 46.0, "COMPR_M": 317.79, "CLASSE": "03 - Média", "CD_FAZ": " 403882", "TALHOES": "1", "FAZ_tAL": "403878001, 403882001", "ID_LINHA": 206546 }, "geometry": { "type": "MultiLineString", "coordinates": [ [ [ 422620.508798491209745, 7622652.386420089751482 ], [ 422704.139138115628157, 7622676.607496835291386 ], [ 422737.916107981582172, 7622686.857479302212596 ], [ 422772.866982363571879, 7622698.456114569678903 ], [ 422799.729712359141558, 7622708.351535716094077 ], [ 422836.224349266733043, 7622723.604728773236275 ], [ 422863.919411605747882, 7622736.920621519908309 ], [ 422891.544547921977937, 7622752.044016215950251 ], [ 422915.437915959628299, 7622766.78926738165319 ] ] ] } },
{ "type": "Feature", "properties": { "fid": 47.0, "COMPR_M": 317.08, "CLASSE": "03 - Média", "CD_FAZ": " 403882", "TALHOES": "1", "FAZ_tAL": "403878001, 403882001", "ID_LINHA": 206547 }, "geometry": { "type": "MultiLineString", "coordinates": [ [ [ 422620.309823219722603, 7622649.194775399751961 ], [ 422704.985185287077911, 7622673.729262998327613 ], [ 422738.818461402785033, 7622683.996386609971523 ], [ 422773.863687009376008, 7622695.626467728987336 ], [ 422800.813888203119859, 7622705.554236127063632 ], [ 422837.453761807293631, 7622720.868154579773545 ], [ 422865.293353010551073, 7622734.253529097884893 ], [ 422893.057479767885525, 7622749.453306749463081 ], [ 422914.822683718171902, 7622762.82622859813273 ] ] ] } },
{ "type": "Feature", "properties": { "fid": 48.0, "COMPR_M": 316.41, "CLASSE": "03 - Média", "CD_FAZ": " 403882", "TALHOES": "1", "FAZ_tAL": "403878001, 403882001", "ID_LINHA": 206548 }, "geometry": { "type": "MultiLineString", "coordinates": [ [ [ 422620.110729066014756, 7622646.001223795115948 ], [ 422705.831232456199359, 7622670.85102916136384 ], [ 422739.720814822125249, 7622681.135293919593096 ], [ 422774.857002821692731, 7622692.79564993083477 ], [ 422801.902258300571702, 7622702.758533339947462 ], [ 422829.426116920658387, 7622714.036281460896134 ], [ 422857.315147656481713, 7622726.898628009483218 ], [ 422885.354939444223419, 7622741.592255179770291 ], [ 422914.24436046811752, 7622758.886935282498598 ] ] ] } },
{ "type": "Feature", "properties": { "fid": 49.0, "COMPR_M": 315.85, "CLASSE": "03 - Média", "CD_FAZ": " 403882", "TALHOES": "1", "FAZ_tAL": "403878001, 403882001", "ID_LINHA": 206549 }, "geometry": { "type": "MultiLineString", "coordinates": [ [ [ 422619.911430891836062, 7622642.80439961142838 ], [ 422706.67727962625213, 7622667.972795322537422 ], [ 422740.623168244259432, 7622678.274201224558055 ], [ 422775.850318629294634, 7622689.964832139201462 ], [ 422802.986434141872451, 7622699.961233749054372 ], [ 422830.620093570556492, 7622711.284030193462968 ], [ 422858.636874860501848, 7622724.205362970940769 ], [ 422886.819893345818855, 7622738.974107060581446 ], [ 422913.756759272422642, 7622755.01335627399385 ] ] ] } },
{ "type": "Feature", "properties": { "fid": 50.0, "COMPR_M": 315.32, "CLASSE": "03 - Média", "CD_FAZ": " 403882", "TALHOES": "1", "FAZ_tAL": "403878001, 403882001", "ID_LINHA": 206550 }, "geometry": { "type": "MultiLineString", "coordinates": [ [ [ 422619.712131782434881, 7622639.607560442760587 ], [ 422732.894433209090494, 7622672.721470855176449 ], [ 422767.899125136260409, 7622684.043418315239251 ], [ 422794.931471770745702, 7622693.684549273923039 ], [ 422831.814070221444126, 7622708.531778922304511 ], [ 422859.958602066501044, 7622721.512097924947739 ], [ 422888.278685195371509, 7622736.3525864277035 ], [ 422913.275954572774936, 7622751.185389531776309 ] ] ] } },
{ "type": "Feature", "properties": { "fid": 51.0, "COMPR_M": 314.87, "CLASSE": "03 - Média", "CD_FAZ": " 403882", "TALHOES": "1", "FAZ_tAL": "403878001, 403882001", "ID_LINHA": 206551 }, "geometry": { "type": "MultiLineString", "coordinates": [ [ [ 422619.512833643879276, 7622636.410736816003919 ], [ 422733.781495982024353, 7622669.855597094632685 ], [ 422768.8695695749484, 7622681.204667182639241 ], [ 422795.97929771267809, 7622690.873460797592998 ], [ 422833.008046869479585, 7622705.779527654871345 ], [ 422861.280329269065987, 7622718.818832883611321 ], [ 422889.743639097316191, 7622733.734438301995397 ], [ 422912.852240301843267, 7622747.392820295877755 ] ] ] } },
{ "type": "Feature", "properties": { "fid": 52.0, "COMPR_M": 314.43, "CLASSE": "03 - Média", "CD_FAZ": " 403882", "TALHOES": "1", "FAZ_tAL": "403878001, 403882001", "ID_LINHA": 206552 }, "geometry": { "type": "MultiLineString", "coordinates": [ [ [ 422619.313535018649418, 7622633.213905418291688 ], [ 422734.664496091892943, 7622666.988481571897864 ], [ 422769.833778525004163, 7622678.36382251046598 ], [ 422797.034979012911208, 7622688.065262991935015 ], [ 422834.202023519203067, 7622703.027276385575533 ], [ 422862.602056474250276, 7622716.125567844137549 ], [ 422891.208592998678796, 7622731.116290186531842 ], [ 422912.4466769231949, 7622743.611505074426532 ] ] ] } },
{ "type": "Feature", "properties": { "fid": 53.0, "COMPR_M": 314.0, "CLASSE": "03 - Média", "CD_FAZ": " 403882", "TALHOES": "1", "FAZ_tAL": "403878001, 403882001", "ID_LINHA": 206553 }, "geometry": { "type": "MultiLineString", "coordinates": [ [ [ 422619.114236394758336, 7622630.017074020579457 ], [ 422735.551558865932748, 7622664.122607810422778 ], [ 422770.801105221384205, 7622675.524024611338973 ], [ 422798.08280495472718, 7622685.254174517467618 ], [ 422825.980219876510091, 7622696.270727140828967 ], [ 422854.376540939789265, 7622708.846407100558281 ], [ 422883.09532660181867, 7622723.256090857088566 ], [ 422912.04387453146046, 7622739.831901732832193 ] ] ] } },
{ "type": "Feature", "properties": { "fid": 54.0, "COMPR_M": 313.59, "CLASSE": "03 - Média", "CD_FAZ": " 403882", "TALHOES": "1", "FAZ_tAL": "403878001, 403882001", "ID_LINHA": 206554 }, "geometry": { "type": "MultiLineString", "coordinates": [ [ [ 422618.914937770867255, 7622626.820242621004581 ], [ 422736.43455897498643, 7622661.25549228861928 ], [ 422771.771549662575126, 7622672.685273479670286 ], [ 422799.134558576857671, 7622682.444531375542283 ], [ 422827.135539083508775, 7622693.50203550979495 ], [ 422855.648316452570725, 7622706.129255496896803 ], [ 422884.517478414054494, 7622720.614371377043426 ], [ 422911.65436507173581, 7622736.091687510721385 ] ] ] } },
{ "type": "Feature", "properties": { "fid": 55.0, "COMPR_M": 313.2, "CLASSE": "03 - Média", "CD_FAZ": " 403882", "TALHOES": "1", "FAZ_tAL": "403878001, 403882001", "ID_LINHA": 206555 }, "geometry": { "type": "MultiLineString", "coordinates": [ [ [ 422618.715402136207558, 7622623.619609478861094 ], [ 422737.319590419705492, 7622658.38899764791131 ], [ 422772.738876356859691, 7622669.84547558054328 ], [ 422800.186312198988162, 7622679.634888234548271 ], [ 422828.290858292253688, 7622690.733343882486224 ], [ 422856.925556588510517, 7622703.414621660485864 ], [ 422885.93349854182452, 7622717.969441613182425 ], [ 422911.267675435054116, 7622732.368434691801667 ] ] ] } },
{ "type": "Feature", "properties": { "fid": 56.0, "COMPR_M": 312.82, "CLASSE": "03 - Média", "CD_FAZ": " 403882", "TALHOES": "1", "FAZ_tAL": "403878001, 403882001", "ID_LINHA": 206556 }, "geometry": { "type": "MultiLineString", "coordinates": [ [ [ 422618.51576718344586, 7622620.417383229359984 ], [ 422738.20462185901124, 7622655.52250300347805 ], [ 422773.706203055393416, 7622667.005677679553628 ], [ 422801.241993499570526, 7622676.826690436340868 ], [ 422829.446177500183694, 7622687.964652253314853 ], [ 422858.202796722529456, 7622700.699987826868892 ], [ 422887.343386990600266, 7622715.321301568299532 ], [ 422910.886162318813149, 7622728.648268081247807 ] ] ] } },
{ "type": "Feature", "properties": { "fid": 57.0, "COMPR_M": 312.44, "CLASSE": "03 - Média", "CD_FAZ": " 403882", "TALHOES": "1", "FAZ_tAL": "403878001, 403882001", "ID_LINHA": 206557 }, "geometry": { "type": "MultiLineString", "coordinates": [ [ [ 422618.316131782368757, 7622617.21514979749918 ], [ 422739.089653302216902, 7622652.656008361838758 ], [ 422774.673529749503359, 7622664.165879776701331 ], [ 422802.289819442026783, 7622674.015601960942149 ], [ 422830.606214625935536, 7622685.197891771793365 ], [ 422859.48003685392905, 7622697.98535399325192 ], [ 422888.759407120698597, 7622712.676371805369854 ], [ 422910.507895945862401, 7622724.930037165060639 ] ] ] } },
{ "type": "Feature", "properties": { "fid": 58.0, "COMPR_M": 312.06, "CLASSE": "03 - Média", "CD_FAZ": " 403882", "TALHOES": "1", "FAZ_tAL": "403878001, 403882001", "ID_LINHA": 206558 }, "geometry": { "type": "MultiLineString", "coordinates": [ [ [ 422618.116496382339392, 7622614.012916365638375 ], [ 422731.309035526646767, 7622647.140849162824452 ], [ 422766.581725277996156, 7622658.284517529420555 ], [ 422794.02259008702822, 7622667.776726201176643 ], [ 422822.217566742911004, 7622678.522646874189377 ], [ 422851.034746740362607, 7622690.791253386996686 ], [ 422880.34156863973476, 7622704.882860811427236 ], [ 422910.129541714559309, 7622721.211753869429231 ] ] ] } },
{ "type": "Feature", "properties": { "fid": 59.0, "COMPR_M": 311.7, "CLASSE": "03 - Média", "CD_FAZ": " 403882", "TALHOES": "1", "FAZ_tAL": "403878001, 403882001", "ID_LINHA": 206559 }, "geometry": { "type": "MultiLineString", "coordinates": [ [ [ 422617.916860843077302, 7622610.810680715367198 ], [ 422740.859716186416335, 7622646.923019072040915 ], [ 422767.522380379552487, 7622655.435789973475039 ], [ 422795.044051814125851, 7622664.955936003476381 ], [ 422823.33627379022073, 7622675.738969089463353 ], [ 422852.26938173500821, 7622688.056989636272192 ], [ 422881.703666437533684, 7622702.209831729531288 ], [ 422909.752302777196746, 7622717.529611640609801 ] ] ] } },
{ "type": "Feature", "properties": { "fid": 60.0, "COMPR_M": 311.35, "CLASSE": "03 - Média", "CD_FAZ": " 403882", "TALHOES": "1", "FAZ_tAL": "403878001, 403882001", "ID_LINHA": 206560 }, "geometry": { "type": "MultiLineString", "coordinates": [ [ [ 422617.717225520813372, 7622607.608448537066579 ], [ 422741.744747626711614, 7622644.056524435058236 ], [ 422768.465881625423208, 7622652.587992779910564 ], [ 422796.06551354273688, 7622662.135145804844797 ], [ 422824.450522875180468, 7622672.953532738611102 ], [ 422853.504016728897113, 7622685.322725895792246 ], [ 422883.077607843617443, 7622699.542739305645227 ], [ 422909.377336550038308, 7622713.85921048745513 ] ] ] } },
{ "type": "Feature", "properties": { "fid": 61.0, "COMPR_M": 311.02, "CLASSE": "03 - Média", "CD_FAZ": " 403882", "TALHOES": "1", "FAZ_tAL": "403878001, 403882001", "ID_LINHA": 206561 }, "geometry": { "type": "MultiLineString", "coordinates": [ [ [ 422617.517510356847197, 7622604.404935671016574 ], [ 422742.631810402614065, 7622641.19065066985786 ], [ 422769.412229010951705, 7622649.741125943139195 ], [ 422797.086975272221025, 7622659.314355609938502 ], [ 422825.569229922664817, 7622670.169854955747724 ], [ 422854.73865172220394, 7622682.588462149724364 ], [ 422884.439705643744674, 7622696.869710218161345 ], [ 422909.019173575099558, 7622710.198419145308435 ] ] ] } },
{ "type": "Feature", "properties": { "fid": 62.0, "COMPR_M": 310.71, "CLASSE": "03 - Média", "CD_FAZ": " 403882", "TALHOES": "1", "FAZ_tAL": "403878001, 403882001", "ID_LINHA": 206562 }, "geometry": { "type": "MultiLineString", "coordinates": [ [ [ 422617.317524578655139, 7622601.19708202406764 ], [ 422743.51684184698388, 7622638.3241560254246 ], [ 422770.352884115767665, 7622646.892398391850293 ], [ 422798.112095996388234, 7622656.494869008660316 ], [ 422826.687936969625298, 7622667.3861771710217 ], [ 422855.978509169304743, 7622679.856508854776621 ], [ 422885.813647047034465, 7622694.202617796137929 ], [ 422908.677387340809219, 7622706.546993678435683 ] ] ] } },
{ "type": "Feature", "properties": { "fid": 63.0, "COMPR_M": 310.39, "CLASSE": "03 - Média", "CD_FAZ": " 403882", "TALHOES": "1", "FAZ_tAL": "403878001, 403882001", "ID_LINHA": 206563 }, "geometry": { "type": "MultiLineString", "coordinates": [ [ [ 422617.117538993130438, 7622597.989231493324041 ], [ 422744.401873287977651, 7622635.45766138471663 ], [ 422771.299231499549933, 7622644.045531557872891 ], [ 422799.133557722496334, 7622653.674078808166087 ], [ 422827.811101971077733, 7622664.604257955215871 ], [ 422857.20792171091307, 7622677.119934661313891 ], [ 422887.181666650169063, 7622691.532557043246925 ], [ 422908.335601105063688, 7622702.895568214356899 ] ] ] } },
{ "type": "Feature", "properties": { "fid": 64.0, "COMPR_M": 310.14, "CLASSE": "03 - Média", "CD_FAZ": " 403882", "TALHOES": "1", "FAZ_tAL": "403878001, 403882001", "ID_LINHA": 206564 }, "geometry": { "type": "MultiLineString", "coordinates": [ [ [ 422616.917553559527732, 7622594.781383393332362 ], [ 422745.286904730135575, 7622632.59116674400866 ], [ 422772.242732747457922, 7622641.197734363377094 ], [ 422800.151360460091382, 7622650.851985014975071 ], [ 422828.925351059122477, 7622661.818821605294943 ], [ 422858.442556706315372, 7622674.385670917108655 ], [ 422888.543764447676949, 7622688.8595279622823 ], [ 422908.037235233059619, 7622699.287594502791762 ] ] ] } },
{ "type": "Feature", "properties": { "fid": 65.0, "COMPR_M": 309.91, "CLASSE": "03 - Média", "CD_FAZ": " 403882", "TALHOES": "1", "FAZ_tAL": "403878001, 403882001", "ID_LINHA": 206565 }, "geometry": { "type": "MultiLineString", "coordinates": [ [ [ 422616.717567240470089, 7622591.573521079495549 ], [ 422746.171936172293499, 7622629.7246720995754 ], [ 422773.186233989370521, 7622638.349937168881297 ], [ 422801.172822188469581, 7622648.031194821000099 ], [ 422830.044058105675504, 7622659.035143820568919 ], [ 422859.677191699738614, 7622671.651407171040773 ], [ 422879.784510127909016, 7622681.113122309558094 ], [ 422907.746526860981248, 7622695.708565659821033 ] ] ] } },
{ "type": "Feature", "properties": { "fid": 66.0, "COMPR_M": 309.7, "CLASSE": "03 - Média", "CD_FAZ": " 403882", "TALHOES": "1", "FAZ_tAL": "403878001, 403882001", "ID_LINHA": 206566 }, "geometry": { "type": "MultiLineString", "coordinates": [ [ [ 422616.517581918335054, 7622588.36567478813231 ], [ 422650.284041660663206, 7622598.644115835428238 ], [ 422747.056967613636516, 7622626.858177458867431 ], [ 422774.126889095816296, 7622635.501209614798427 ], [ 422802.194283922377508, 7622645.210404622368515 ], [ 422831.167223106021993, 7622656.253224605694413 ], [ 422860.917049143929034, 7622668.919453874230385 ], [ 422881.106237332103774, 7622678.419857264496386 ], [ 422907.472430609166622, 7622692.138628700748086 ] ] ] } },
{ "type": "Feature", "properties": { "fid": 67.0, "COMPR_M": 309.56, "CLASSE": "03 - Média", "CD_FAZ": " 403882", "TALHOES": "1", "FAZ_tAL": "403878001, 403882001", "ID_LINHA": 206567 }, "geometry": { "type": "MultiLineString", "coordinates": [ [ [ 422616.317596233449876, 7622585.157822645269334 ], [ 422651.131727019732352, 7622595.766363125294447 ], [ 422739.136151013546623, 7622621.300175764597952 ], [ 422765.912558983196504, 7622629.659861095249653 ], [ 422793.730003208736889, 7622639.010111832991242 ], [ 422822.501599345298018, 7622649.609841107390821 ], [ 422852.116646384936757, 7622661.745622352696955 ], [ 422882.427964536182117, 7622675.726592225953937 ], [ 422907.261911287729163, 7622688.603487638756633 ] ] ] } },
{ "type": "Feature", "properties": { "fid": 68.0, "COMPR_M": 309.42, "CLASSE": "03 - Média", "CD_FAZ": " 403882", "TALHOES": "1", "FAZ_tAL": "403878001, 403882001", "ID_LINHA": 206568 }, "geometry": { "type": "MultiLineString", "coordinates": [ [ [ 422616.117268653353676, 7622581.944486362859607 ], [ 422651.977018059580587, 7622592.887907296419144 ], [ 422740.00602610828355, 7622618.429048569872975 ], [ 422766.831827713933308, 7622626.804163154214621 ], [ 422794.71993018547073, 7622636.178123086690903 ], [ 422823.585775190149434, 7622646.812541515566409 ], [ 422853.305649908143096, 7622658.991256099194288 ], [ 422883.743993497279007, 7622673.030590109527111 ], [ 422907.051391962042544, 7622685.06834658049047 ] ] ] } },
{ "type": "Feature", "properties": { "fid": 69.0, "COMPR_M": 309.26, "CLASSE": "03 - Média", "CD_FAZ": " 403882", "TALHOES": "1", "FAZ_tAL": "403878001, 403882001", "ID_LINHA": 206569 }, "geometry": { "type": "MultiLineString", "coordinates": [ [ [ 422615.916918275528587, 7622578.730784403160214 ], [ 422652.822309102746658, 7622590.009451465681195 ], [ 422740.875901205174159, 7622615.557921374216676 ], [ 422767.753670818696264, 7622623.949286255985498 ], [ 422795.71324599214131, 7622633.347305288538337 ], [ 422824.665756779781077, 7622644.013645122759044 ], [ 422854.499626556644216, 7622656.239004828035831 ], [ 422885.071418944105972, 7622670.340062145143747 ], [ 422906.820708859828301, 7622681.522169806063175 ] ] ] } },
{ "type": "Feature", "properties": { "fid": 70.0, "COMPR_M": 309.07, "CLASSE": "03 - Média", "CD_FAZ": " 403882", "TALHOES": "1", "FAZ_tAL": "403878001, 403882001", "ID_LINHA": 206570 }, "geometry": { "type": "MultiLineString", "coordinates": [ [ [ 422615.716568262316287, 7622575.517088299617171 ], [ 422653.667600139742717, 7622587.130995634943247 ], [ 422741.747536667680833, 7622612.68732281960547 ], [ 422768.675513925787527, 7622621.094409354031086 ], [ 422796.709950641496107, 7622630.517658451572061 ], [ 422825.754126876534428, 7622641.217942335642874 ], [ 422855.693603204912506, 7622653.486753560602665 ], [ 422886.38744790526107, 7622667.644060023128986 ], [ 422906.564884642430115, 7622677.976693291217089 ] ] ] } },
{ "type": "Feature", "properties": { "fid": 71.0, "COMPR_M": 308.9, "CLASSE": "03 - Média", "CD_FAZ": " 403882", "TALHOES": "1", "FAZ_tAL": "403878001, 403882001", "ID_LINHA": 206571 }, "geometry": { "type": "MultiLineString", "coordinates": [ [ [ 422615.516218067146838, 7622572.303389266133308 ], [ 422654.512891176040284, 7622584.252539806999266 ], [ 422742.617411759623792, 7622609.816195625811815 ], [ 422769.597357031248976, 7622618.239532459527254 ], [ 422797.69987761543598, 7622627.685669699683785 ], [ 422826.838302723946981, 7622638.420642742887139 ], [ 422856.892552983423229, 7622650.736617279238999 ], [ 422877.366863354691304, 7622659.982998070307076 ], [ 422906.311972325784154, 7622674.457982987165451 ] ] ] } },
{ "type": "Feature", "properties": { "fid": 72.0, "COMPR_M": 308.74, "CLASSE": "03 - Média", "CD_FAZ": " 403882", "TALHOES": "1", "FAZ_tAL": "403878001, 403882001", "ID_LINHA": 206572 }, "geometry": { "type": "MultiLineString", "coordinates": [ [ [ 422615.315867402299773, 7622569.089682726189494 ], [ 422655.35818221885711, 7622581.374083974398673 ], [ 422743.485526487929747, 7622606.944539787247777 ], [ 422770.521774513996206, 7622615.385476600378752 ], [ 422798.693193424202036, 7622624.8548519089818 ], [ 422827.918284314102493, 7622635.621746352873743 ], [ 422858.086529633728787, 7622647.98436600714922 ], [ 422878.644103486323729, 7622657.268364228308201 ], [ 422906.062463014037348, 7622670.94105435628444 ] ] ] } },
{ "type": "Feature", "properties": { "fid": 73.0, "COMPR_M": 308.58, "CLASSE": "03 - Média", "CD_FAZ": " 403882", "TALHOES": "1", "FAZ_tAL": "403878001, 403882001", "ID_LINHA": 206573 }, "geometry": { "type": "MultiLineString", "coordinates": [ [ [ 422615.115517660975456, 7622565.875990960747004 ], [ 422649.141907801444177, 7622576.409156991168857 ], [ 422744.357161949039437, 7622604.073941232636571 ], [ 422771.443617621844169, 7622612.530599700286984 ], [ 422799.686509236227721, 7622622.024034113623202 ], [ 422829.002460160816554, 7622632.824446756392717 ], [ 422859.280506279668771, 7622645.232114743441343 ], [ 422879.921343621914275, 7622654.553730395622551 ], [ 422905.814592830312904, 7622667.424983900040388 ] ] ] } },
{ "type": "Feature", "properties": { "fid": 74.0, "COMPR_M": 308.42, "CLASSE": "03 - Média", "CD_FAZ": " 403882", "TALHOES": "1", "FAZ_tAL": "403878001, 403882001", "ID_LINHA": 206574 }, "geometry": { "type": "MultiLineString", "coordinates": [ [ [ 422614.914850286557339, 7622562.657204241491854 ], [ 422649.997796665644273, 7622573.533832488581538 ], [ 422745.227037045813631, 7622601.202814036048949 ], [ 422772.365460726723541, 7622609.675722798332572 ], [ 422800.683213878830429, 7622619.194387274794281 ], [ 422830.090830254834145, 7622630.028743968345225 ], [ 422860.469509802293032, 7622642.477748484350741 ], [ 422881.193119135219604, 7622651.836578791029751 ], [ 422905.566722647286952, 7622663.908913434483111 ] ] ] } },
{ "type": "Feature", "properties": { "fid": 75.0, "COMPR_M": 308.27, "CLASSE": "03 - Média", "CD_FAZ": " 403882", "TALHOES": "1", "FAZ_tAL": "403878001, 403882001", "ID_LINHA": 206575 }, "geometry": { "type": "MultiLineString", "coordinates": [ [ [ 422614.714121661614627, 7622559.437435057014227 ], [ 422650.853685528214555, 7622570.6585079934448 ], [ 422746.096912140899803, 7622598.331686838530004 ], [ 422773.287303832010366, 7622606.82084589637816 ], [ 422801.676529692602344, 7622616.363569474779069 ], [ 422831.175006099510938, 7622627.231444377452135 ], [ 422851.397242451203056, 7622635.35951130092144 ], [ 422882.470359269762412, 7622649.121944954618812 ], [ 422905.329367600555997, 7622660.398348248563707 ] ] ] } },
{ "type": "Feature", "properties": { "fid": 76.0, "COMPR_M": 308.12, "CLASSE": "03 - Média", "CD_FAZ": " 403882", "TALHOES": "1", "FAZ_tAL": "403878001, 403882001", "ID_LINHA": 206576 }, "geometry": { "type": "MultiLineString", "coordinates": [ [ [ 422614.513391941902228, 7622556.217648323625326 ], [ 422651.706670378043782, 7622567.782319063320756 ], [ 422746.966787234938238, 7622595.460559647530317 ], [ 422774.209146939625498, 7622603.965969 ], [ 422802.666456665261649, 7622613.531580727547407 ], [ 422832.25498769339174, 7622624.432547982782125 ], [ 422852.557279580505565, 7622632.592750819399953 ], [ 422883.747599401685875, 7622646.407311119139194 ], [ 422905.09348327195039, 7622656.888553064316511 ] ] ] } },
{ "type": "Feature", "properties": { "fid": 77.0, "COMPR_M": 307.99, "CLASSE": "03 - Média", "CD_FAZ": " 403882", "TALHOES": "1", "FAZ_tAL": "403878001, 403882001", "ID_LINHA": 206577 }, "geometry": { "type": "MultiLineString", "coordinates": [ [ [ 422614.312662815093063, 7622552.997871046885848 ], [ 422652.565463253064081, 7622564.907858991995454 ], [ 422747.836662329325918, 7622592.58943244908005 ], [ 422775.130990045610815, 7622601.11109209805727 ], [ 422803.659772473271005, 7622610.700762932188809 ], [ 422833.339163536671549, 7622621.635248390957713 ], [ 422853.707880864909384, 7622629.822128038853407 ], [ 422885.024839536985382, 7622643.692677283659577 ], [ 422904.858563639631029, 7622653.412166435271502 ] ] ] } },
{ "type": "Feature", "properties": { "fid": 78.0, "COMPR_M": 307.86, "CLASSE": "03 - Média", "CD_FAZ": " 403882", "TALHOES": "1", "FAZ_tAL": "403878001, 403882001", "ID_LINHA": 206578 }, "geometry": { "type": "MultiLineString", "coordinates": [ [ [ 422614.111934289336205, 7622549.778103444725275 ], [ 422653.418448104464915, 7622562.031670067459345 ], [ 422748.70653742790455, 7622589.718305256217718 ], [ 422794.984272627916653, 7622604.529077084735036 ], [ 422824.380573173344601, 7622615.014541374519467 ], [ 422854.863200073654298, 7622627.053436413407326 ], [ 422875.732669071061537, 7622636.108288936316967 ], [ 422904.621464323776308, 7622649.937532084062696 ] ] ] } },
{ "type": "Feature", "properties": { "fid": 110.0, "COMPR_M": 350.67, "CLASSE": "03 - Média", "CD_FAZ": " 403882", "TALHOES": "1", "FAZ_tAL": "403878001, 403882001", "ID_LINHA": 206610 }, "geometry": { "type": "MultiLineString", "coordinates": [ [ [ 422629.83136139420094, 7622801.92413984797895 ], [ 422687.757829656940885, 7622818.912697618827224 ], [ 422733.75634805689333, 7622834.203347835689783 ], [ 422770.921261113020591, 7622848.896593606099486 ], [ 422792.550514651928097, 7622858.868615033105016 ], [ 422806.636371316853911, 7622866.085508320480585 ], [ 422833.960351276269648, 7622882.030357263982296 ], [ 422847.2457011109218, 7622890.727966260164976 ], [ 422866.741500188712962, 7622904.560822131112218 ], [ 422898.302717027894687, 7622929.424728309735656 ], [ 422936.307448101637419, 7622962.664222095161676 ] ] ] } },
{ "type": "Feature", "properties": { "fid": 111.0, "COMPR_M": 351.8, "CLASSE": "03 - Média", "CD_FAZ": " 403882", "TALHOES": "1", "FAZ_tAL": "403878001, 403882001", "ID_LINHA": 206611 }, "geometry": { "type": "MultiLineString", "coordinates": [ [ [ 422630.029388401715551, 7622805.100574003532529 ], [ 422686.87685733102262, 7622821.780445514246821 ], [ 422732.74219061806798, 7622837.026783052831888 ], [ 422769.727284462482203, 7622851.648844874463975 ], [ 422791.228787447034847, 7622861.561880070716143 ], [ 422805.220351187337656, 7622868.730438085272908 ], [ 422832.358229237375781, 7622884.566856920719147 ], [ 422845.558787000016309, 7622893.20892059057951 ], [ 422864.95571370003745, 7622906.97149583697319 ], [ 422896.379314469289966, 7622931.72706887498498 ], [ 422914.804401150846388, 7622947.4619973404333 ], [ 422936.922341298079118, 7622967.289347434416413 ] ] ] } },
{ "type": "Feature", "properties": { "fid": 112.0, "COMPR_M": 352.92, "CLASSE": "03 - Média", "CD_FAZ": " 403882", "TALHOES": "1", "FAZ_tAL": "403878001, 403882001", "ID_LINHA": 206612 }, "geometry": { "type": "MultiLineString", "coordinates": [ [ [ 422630.227415406261571, 7622808.277008092030883 ], [ 422685.987766772625037, 7622824.645686903968453 ], [ 422731.713424599380232, 7622839.844928229227662 ], [ 422768.538280940789264, 7622854.403211133554578 ], [ 422789.90136200125562, 7622864.252408040687442 ], [ 422803.798199378768913, 7622871.372157563455403 ], [ 422817.410887451958843, 7622878.988779918290675 ], [ 422837.353902851522435, 7622891.348050456494093 ], [ 422850.36573605943704, 7622900.159617884084582 ], [ 422869.515208162541967, 7622914.146898157894611 ], [ 422900.615288863191381, 7622939.199610891751945 ], [ 422937.529770663939416, 7622971.912249835208058 ] ] ] } },
{ "type": "Feature", "properties": { "fid": 113.0, "COMPR_M": 353.93, "CLASSE": "03 - Média", "CD_FAZ": " 403882", "TALHOES": "1", "FAZ_tAL": "403878001, 403882001", "ID_LINHA": 206613 }, "geometry": { "type": "MultiLineString", "coordinates": [ [ [ 422630.425442426698282, 7622811.453442450612783 ], [ 422685.104766662814654, 7622827.512802423909307 ], [ 422730.695621864171699, 7622842.667022025212646 ], [ 422767.339331163442694, 7622857.153347410261631 ], [ 422788.590984336333349, 7622866.951242895796895 ], [ 422802.388310930749867, 7622874.020297607406974 ], [ 422815.903790240641683, 7622881.582967955619097 ], [ 422835.700627999380231, 7622893.851527497172356 ], [ 422848.64688302448485, 7622902.61848265118897 ], [ 422867.691739138099365, 7622916.529204871505499 ], [ 422898.678970401466358, 7622941.491103369742632 ], [ 422938.053704976977315, 7622976.475960386916995 ] ] ] } },
{ "type": "Feature", "properties": { "fid": 114.0, "COMPR_M": 354.93, "CLASSE": "03 - Média", "CD_FAZ": " 403882", "TALHOES": "1", "FAZ_tAL": "403878001, 403882001", "ID_LINHA": 206614 }, "geometry": { "type": "MultiLineString", "coordinates": [ [ [ 422630.623495267704129, 7622814.630290972068906 ], [ 422684.217703888716642, 7622830.378676190972328 ], [ 422729.677805430197623, 7622845.489153649657965 ], [ 422766.145354516222142, 7622859.905598681420088 ], [ 422787.257907592516858, 7622869.638938123360276 ], [ 422800.966159119619988, 7622876.662017085589468 ], [ 422814.379127073276322, 7622884.166826521977782 ], [ 422834.057357970508747, 7622896.361554518342018 ], [ 422846.919129916233942, 7622905.071125880815089 ], [ 422865.875604471657425, 7622918.917089818045497 ], [ 422884.486985198047478, 7622933.592768806964159 ], [ 422902.81876903277589, 7622948.973918817937374 ], [ 422938.562781114713289, 7622981.025971067138016 ] ] ] } },
{ "type": "Feature", "properties": { "fid": 115.0, "COMPR_M": 355.79, "CLASSE": "03 - Média", "CD_FAZ": " 403882", "TALHOES": "1", "FAZ_tAL": "403878001, 403882001", "ID_LINHA": 206615 }, "geometry": { "type": "MultiLineString", "coordinates": [ [ [ 422630.821550364198629, 7622817.807175689376891 ], [ 422683.336731561925262, 7622833.246424085460603 ], [ 422728.649039413547143, 7622848.307298820465803 ], [ 422764.95137786353007, 7622862.657849946059287 ], [ 422785.936180388787761, 7622872.332203159108758 ], [ 422799.562342063640244, 7622879.313480030745268 ], [ 422812.866195229347795, 7622886.757535986602306 ], [ 422832.419116459554061, 7622898.874816646799445 ], [ 422845.200276882387698, 7622907.529990648850799 ], [ 422864.059469803702086, 7622921.304974765516818 ], [ 422882.59753285557963, 7622935.923060266301036 ], [ 422900.860885664122179, 7622951.246986635029316 ], [ 422938.960397274175193, 7622985.488503089174628 ] ] ] } },
{ "type": "Feature", "properties": { "fid": 116.0, "COMPR_M": 356.63, "CLASSE": "03 - Média", "CD_FAZ": " 403882", "TALHOES": "1", "FAZ_tAL": "403878001, 403882001", "ID_LINHA": 206616 }, "geometry": { "type": "MultiLineString", "coordinates": [ [ [ 422631.019605477224104, 7622820.984060673043132 ], [ 422690.091376696655061, 7622838.495392004027963 ], [ 422712.761503454763442, 7622845.911898676306009 ], [ 422734.977587661822326, 7622853.832762870937586 ], [ 422756.66106739587849, 7622862.392224882729352 ], [ 422770.783472138689831, 7622868.518396800383925 ], [ 422791.414372675295454, 7622878.433841447345912 ], [ 422804.78857267613057, 7622885.59388916566968 ], [ 422817.875927355431486, 7622893.236876784823835 ], [ 422837.147955323685892, 7622905.629505433142185 ], [ 422849.777789168758318, 7622914.45839386433363 ], [ 422868.425564103410579, 7622928.454986073076725 ], [ 422898.903002293023746, 7622953.520054453983903 ], [ 422939.348779962630942, 7622989.944997107610106 ] ] ] } },
{ "type": "Feature", "properties": { "fid": 117.0, "COMPR_M": 357.44, "CLASSE": "03 - Média", "CD_FAZ": " 403882", "TALHOES": "1", "FAZ_tAL": "403878001, 403882001", "ID_LINHA": 206617 }, "geometry": { "type": "MultiLineString", "coordinates": [ [ [ 422631.217660571448505, 7622824.160945326089859 ], [ 422689.189023276616354, 7622841.35648469440639 ], [ 422711.794176757277455, 7622848.751696577295661 ], [ 422733.925834040855989, 7622856.64240600913763 ], [ 422755.505748186842538, 7622865.160916511900723 ], [ 422769.559246260963846, 7622871.257360696792603 ], [ 422790.046353072102647, 7622881.103902203030884 ], [ 422803.323618771741167, 7622888.212037289515138 ], [ 422816.328390267153736, 7622895.807086942717433 ], [ 422835.475235877092928, 7622908.120019543915987 ], [ 422848.024412624887191, 7622916.892751240171492 ], [ 422866.584524834004696, 7622930.823686900548637 ], [ 422884.871486732503399, 7622945.568206298165023 ], [ 422902.954924095189199, 7622961.011679418385029 ], [ 422939.711236062808894, 7622994.383338721469045 ] ] ] } },
{ "type": "Feature", "properties": { "fid": 118.0, "COMPR_M": 358.24, "CLASSE": "03 - Média", "CD_FAZ": " 403882", "TALHOES": "1", "FAZ_tAL": "403878001, 403882001", "ID_LINHA": 206618 }, "geometry": { "type": "MultiLineString", "coordinates": [ [ [ 422631.415715680865105, 7622827.337830241769552 ], [ 422688.291270613844972, 7622844.219028413295746 ], [ 422710.829967803088948, 7622851.592541247606277 ], [ 422732.878008097119164, 7622859.453494489192963 ], [ 422754.350428978388663, 7622867.929608141072094 ], [ 422768.3142021522508, 7622873.986924288794398 ], [ 422788.678333470714279, 7622883.773962955921888 ], [ 422801.852567073248792, 7622890.826698064804077 ], [ 422814.764159521902911, 7622898.36708015576005 ], [ 422833.793069541919976, 7622910.604136513546109 ], [ 422846.275198027607985, 7622919.330149974673986 ], [ 422864.74005075939931, 7622933.18974188156426 ], [ 422882.956241713254713, 7622947.877307581715286 ], [ 422900.981726278667338, 7622963.271475650370121 ], [ 422940.059632834861986, 7622998.817354215309024 ] ] ] } },
{ "type": "Feature", "properties": { "fid": 119.0, "COMPR_M": 359.0, "CLASSE": "03 - Média", "CD_FAZ": " 403882", "TALHOES": "1", "FAZ_tAL": "403878001, 403882001", "ID_LINHA": 206619 }, "geometry": { "type": "MultiLineString", "coordinates": [ [ [ 422631.61377079464728, 7622830.514715226367116 ], [ 422687.384316437062807, 7622847.07867007702589 ], [ 422709.862641108571552, 7622854.432339148595929 ], [ 422731.822326798690483, 7622862.261692290194333 ], [ 422753.19510977237951, 7622870.698299771174788 ], [ 422767.079567158245482, 7622876.721188033930957 ], [ 422787.31031386309769, 7622886.444023709744215 ], [ 422800.38145112170605, 7622893.441473674029112 ], [ 422813.211018567671999, 7622900.933949323371053 ], [ 422832.101456312986556, 7622913.081856340169907 ], [ 422844.513456173357554, 7622921.758482130244374 ], [ 422862.892141882213764, 7622935.553151016123593 ], [ 422881.035544157261029, 7622950.181918770074844 ], [ 422899.002333169744816, 7622965.525838932022452 ], [ 422940.381183392892126, 7623003.226255121640861 ] ] ] } },
{ "type": "Feature", "properties": { "fid": 120.0, "COMPR_M": 359.82, "CLASSE": "03 - Média", "CD_FAZ": " 403882", "TALHOES": "1", "FAZ_tAL": "403878001, 403882001", "ID_LINHA": 206620 }, "geometry": { "type": "MultiLineString", "coordinates": [ [ [ 422631.811825912096538, 7622833.69160027615726 ], [ 422686.486563773592934, 7622849.941213792189956 ], [ 422708.898422850237694, 7622857.273211124353111 ], [ 422730.77450085565215, 7622865.072780766524374 ], [ 422752.039790562237613, 7622873.466991399414837 ], [ 422765.855341280519497, 7622879.460151929408312 ], [ 422785.942294265842065, 7622889.114084461703897 ], [ 422798.922659268602729, 7622896.062994305975735 ], [ 422811.646787825331558, 7622903.49394254013896 ], [ 422830.428736872621812, 7622915.572370450943708 ], [ 422842.760079627449159, 7622924.19283951073885 ], [ 422861.051102614379488, 7622937.921851838007569 ], [ 422879.123004136781674, 7622952.493290681391954 ], [ 422897.027074674959294, 7622967.783819133415818 ], [ 422940.739887238945812, 7623007.680801471695304 ] ] ] } },
{ "type": "Feature", "properties": { "fid": 121.0, "COMPR_M": 360.7, "CLASSE": "03 - Média", "CD_FAZ": " 403882", "TALHOES": "1", "FAZ_tAL": "403878001, 403882001", "ID_LINHA": 206621 }, "geometry": { "type": "MultiLineString", "coordinates": [ [ [ 422632.009901458804961, 7622836.868812998756766 ], [ 422685.579609598265961, 7622852.800855464302003 ], [ 422707.924869973212481, 7622860.11088818218559 ], [ 422729.726658535830211, 7622867.883912988007069 ], [ 422750.884471355238929, 7622876.235683027654886 ], [ 422764.61029716709163, 7622882.189715521410108 ], [ 422784.574274661077652, 7622891.784145215526223 ], [ 422797.451543319271877, 7622898.677769917994738 ], [ 422810.082498111762106, 7622906.054032739251852 ], [ 422828.741871416859794, 7622918.05325292237103 ], [ 422847.101789299224038, 7622931.081112453714013 ], [ 422865.227848060312681, 7622945.038060168735683 ], [ 422883.16355913982261, 7622959.801837685517967 ], [ 422900.98228800855577, 7622975.26815278455615 ], [ 422941.139960776024964, 7623012.175240762531757 ] ] ] } },
{ "type": "Feature", "properties": { "fid": 122.0, "COMPR_M": 361.93, "CLASSE": "03 - Média", "CD_FAZ": " 403882", "TALHOES": "1", "FAZ_tAL": "403878001, 403882001", "ID_LINHA": 206622 }, "geometry": { "type": "MultiLineString", "coordinates": [ [ [ 422632.20803714171052, 7622840.046990342438221 ], [ 422684.677256176597439, 7622855.661948155611753 ], [ 422706.957543277007062, 7622862.950686086900532 ], [ 422728.667065931716934, 7622870.690621704794466 ], [ 422763.375662174541503, 7622884.923979265615344 ], [ 422783.212176860368345, 7622894.457174299284816 ], [ 422795.992751467449125, 7622901.299290549010038 ], [ 422808.529416122590192, 7622908.62080492451787 ], [ 422827.054957304499112, 7622920.534207250922918 ], [ 422845.312062267563306, 7622933.488906598649919 ], [ 422863.356989950698335, 7622947.38330096937716 ], [ 422881.224756161682308, 7622962.091207439079881 ], [ 422898.993173022230621, 7622977.513943625614047 ], [ 422941.789799796824809, 7623016.90992065705359 ] ] ] } },
{ "type": "Feature", "properties": { "fid": 123.0, "COMPR_M": 363.4, "CLASSE": "03 - Média", "CD_FAZ": " 403882", "TALHOES": "1", "FAZ_tAL": "403878001, 403882001", "ID_LINHA": 206623 }, "geometry": { "type": "MultiLineString", "coordinates": [ [ [ 422632.406172770191915, 7622843.225166820921004 ], [ 422691.243267377256416, 7622860.904889957979321 ], [ 422713.274800084589515, 7622868.307556509971619 ], [ 422734.679161690059118, 7622876.189511180855334 ], [ 422755.399564673833083, 7622884.675860095769167 ], [ 422768.795987339573912, 7622890.724356299266219 ], [ 422788.221977958688512, 7622900.466384954750538 ], [ 422800.768637138942722, 7622907.486584015190601 ], [ 422813.13276479562046, 7622915.004852838814259 ], [ 422831.449452610686421, 7622927.200908791273832 ], [ 422861.479775279236492, 7622949.723470980301499 ], [ 422879.288456101028714, 7622964.382678193040192 ], [ 422897.000344777654391, 7622979.756418006494641 ], [ 422942.615326148050372, 7623021.815149996429682 ] ] ] } },
{ "type": "Feature", "properties": { "fid": 124.0, "COMPR_M": 364.95, "CLASSE": "03 - Média", "CD_FAZ": " 403882", "TALHOES": "1", "FAZ_tAL": "403878001, 403882001", "ID_LINHA": 206624 }, "geometry": { "type": "MultiLineString", "coordinates": [ [ [ 422632.604308425681666, 7622846.403343733400106 ], [ 422690.323992667370476, 7622863.760606426745653 ], [ 422712.274717953579966, 7622871.136000045575202 ], [ 422733.599180095712654, 7622878.988407578319311 ], [ 422754.205588026437908, 7622887.428111366927624 ], [ 422767.51874720986234, 7622893.438990132883191 ], [ 422786.805957830627449, 7622903.111314715817571 ], [ 422799.249808608379681, 7622910.073921153321862 ], [ 422811.535956912091933, 7622917.544647410511971 ], [ 422829.735072136332747, 7622929.662852115929127 ], [ 422847.714257811137941, 7622942.795939298346639 ], [ 422865.533586858131457, 7622956.847698759287596 ], [ 422900.886415221728384, 7622987.249565812759101 ], [ 422943.504667303175665, 7623026.7839739844203 ] ] ] } },
{ "type": "Feature", "properties": { "fid": 125.0, "COMPR_M": 366.26, "CLASSE": "03 - Média", "CD_FAZ": " 403882", "TALHOES": "1", "FAZ_tAL": "403878001, 403882001", "ID_LINHA": 206625 }, "geometry": { "type": "MultiLineString", "coordinates": [ [ [ 422632.802444096712861, 7622849.58152087777853 ], [ 422689.402149563422427, 7622866.615483324043453 ], [ 422711.281402143707965, 7622873.966817842796445 ], [ 422732.510809998144396, 7622881.784110365435481 ], [ 422753.011611374327913, 7622890.180362631566823 ], [ 422766.24150707165245, 7622896.153623970225453 ], [ 422785.396069380745757, 7622905.759454760700464 ], [ 422797.736876762181055, 7622912.664630620740354 ], [ 422809.939093353168573, 7622920.084530119784176 ], [ 422828.011746544099879, 7622932.118638331070542 ], [ 422845.898123144346755, 7622945.183824245817959 ], [ 422863.641202921513468, 7622959.175576081499457 ], [ 422898.881352308089845, 7622989.481112936511636 ], [ 422944.206915174727328, 7623031.57965469174087 ] ] ] } },
{ "type": "Feature", "properties": { "fid": 126.0, "COMPR_M": 367.56, "CLASSE": "03 - Média", "CD_FAZ": " 403882", "TALHOES": "1", "FAZ_tAL": "403878001, 403882001", "ID_LINHA": 206626 }, "geometry": { "type": "MultiLineString", "coordinates": [ [ [ 422633.000579737126827, 7622852.759697558358312 ], [ 422688.480306456622202, 7622869.470360222272575 ], [ 422710.294852654216811, 7622876.800009890459478 ], [ 422731.43500324949855, 7622884.584653647616506 ], [ 422751.827549988985993, 7622892.936915321275592 ], [ 422764.964266938914079, 7622898.868257807567716 ], [ 422783.986120643559843, 7622908.407707415521145 ], [ 422796.223944916331675, 7622915.255340080708265 ], [ 422808.336971317359712, 7622922.62102978117764 ], [ 422826.292893511767033, 7622934.577503099106252 ], [ 422844.085672792862169, 7622947.574475787580013 ], [ 422861.742907193722203, 7622961.49868475086987 ], [ 422896.876289394218475, 7622991.712660061195493 ], [ 422944.902679964492563, 7623036.370345365256071 ] ] ] } },
{ "type": "Feature", "properties": { "fid": 127.0, "COMPR_M": 368.77, "CLASSE": "03 - Média", "CD_FAZ": " 403882", "TALHOES": "1", "FAZ_tAL": "403878001, 403882001", "ID_LINHA": 206627 }, "geometry": { "type": "MultiLineString", "coordinates": [ [ [ 422633.198715472011827, 7622855.937875729054213 ], [ 422687.555894956691191, 7622872.324397555552423 ], [ 422709.294770520413294, 7622879.628453429788351 ], [ 422730.342458310420625, 7622887.378709549084306 ], [ 422750.633573341183364, 7622895.689166586846113 ], [ 422763.687026805593632, 7622901.582891643047333 ], [ 422782.557897441030946, 7622911.046104003675282 ], [ 422794.716909756243695, 7622917.849421864375472 ], [ 422806.724276651628315, 7622925.150851484388113 ], [ 422824.574040476116352, 7622937.036367863416672 ], [ 422842.265853813907597, 7622949.959594145417213 ], [ 422859.847567360731773, 7622963.824177746661007 ], [ 422894.871226479881443, 7622993.944207180291414 ], [ 422945.535358681634534, 7623041.103520095348358 ] ] ] } },
{ "type": "Feature", "properties": { "fid": 128.0, "COMPR_M": 370.15, "CLASSE": "03 - Média", "CD_FAZ": " 403882", "TALHOES": "1", "FAZ_tAL": "403878001, 403882001", "ID_LINHA": 206628 }, "geometry": { "type": "MultiLineString", "coordinates": [ [ [ 422633.396851050900295, 7622859.116051403805614 ], [ 422686.634051850996912, 7622875.179274454712868 ], [ 422708.301454710890539, 7622882.459271225146949 ], [ 422729.266651557816658, 7622890.17925282754004 ], [ 422749.439596691168845, 7622898.44141785800457 ], [ 422768.759424978226889, 7622907.347385778091848 ], [ 422787.209125862340443, 7622917.011666615493596 ], [ 422799.171697162790224, 7622923.998051077127457 ], [ 422811.056606068974361, 7622931.505167901515961 ], [ 422828.741432577022351, 7622943.673723744228482 ], [ 422846.295310031739064, 7622956.85029167868197 ], [ 422863.773802554642316, 7622970.943624900653958 ], [ 422898.696096473606303, 7623001.445446744561195 ], [ 422946.290728944819421, 7623045.952988669276237 ] ] ] } },
{ "type": "Feature", "properties": { "fid": 129.0, "COMPR_M": 371.49, "CLASSE": "03 - Média", "CD_FAZ": " 403882", "TALHOES": "1", "FAZ_tAL": "403878001, 403882001", "ID_LINHA": 206629 }, "geometry": { "type": "MultiLineString", "coordinates": [ [ [ 422633.595075578137767, 7622862.295653856359422 ], [ 422685.712208743731026, 7622878.034151354804635 ], [ 422707.3081388999708, 7622885.29008901771158 ], [ 422728.174106622172985, 7622892.973308728076518 ], [ 422748.24067790817935, 7622901.191482692956924 ], [ 422767.431999529129826, 7622910.037913741543889 ], [ 422785.731912107323296, 7622919.622954881750047 ], [ 422797.618615179264452, 7622926.564823261462152 ], [ 422809.408307517820504, 7622934.011959812603891 ], [ 422826.983894083939958, 7622946.105039766058326 ], [ 422844.44740115525201, 7622959.213700815103948 ], [ 422861.858557532948907, 7622973.252726190723479 ], [ 422896.679989437747281, 7623003.667025128379464 ], [ 422947.021947224042378, 7623050.779565645381808 ] ] ] } },
{ "type": "Feature", "properties": { "fid": 130.0, "COMPR_M": 372.82, "CLASSE": "03 - Média", "CD_FAZ": " 403882", "TALHOES": "1", "FAZ_tAL": "403878001, 403882001", "ID_LINHA": 206630 }, "geometry": { "type": "MultiLineString", "coordinates": [ [ [ 422633.793344990175683, 7622865.475976270623505 ], [ 422684.792934028431773, 7622880.889867820776999 ], [ 422706.321589415776543, 7622888.123281075619161 ], [ 422727.098299869510811, 7622895.773852011188865 ], [ 422747.046701259037945, 7622903.943733964115381 ], [ 422766.115970572573133, 7622912.733915857970715 ], [ 422784.279218058683909, 7622922.247962854802608 ], [ 422796.059929331182502, 7622929.128254451788962 ], [ 422807.76503748819232, 7622936.521986836567521 ], [ 422825.226314177678432, 7622948.536413276568055 ], [ 422842.602927079831716, 7622961.579755794256926 ], [ 422859.937859974626917, 7622975.557337375357747 ], [ 422894.659488586359657, 7623005.884603705257177 ], [ 422947.739413313684054, 7623055.593108460307121 ] ] ] } },
{ "type": "Feature", "properties": { "fid": 131.0, "COMPR_M": 374.13, "CLASSE": "03 - Média", "CD_FAZ": " 403882", "TALHOES": "1", "FAZ_tAL": "403878001, 403882001", "ID_LINHA": 206631 }, "geometry": { "type": "MultiLineString", "coordinates": [ [ [ 422633.99161440244643, 7622868.656298693269491 ], [ 422683.865948153892532, 7622883.74308411590755 ], [ 422705.328273607767187, 7622890.954098867252469 ], [ 422726.014124025125057, 7622898.571151603013277 ], [ 422745.852724608965218, 7622906.695985231548548 ], [ 422764.788545123301446, 7622915.424443820491433 ], [ 422782.802004307042807, 7622924.859251121990383 ], [ 422794.506788375379983, 7622931.695123620331287 ], [ 422806.121767459320836, 7622939.032013850286603 ], [ 422823.48130294168368, 7622950.976795876398683 ], [ 422840.758453012211248, 7622963.945810775272548 ], [ 422858.025319955369923, 7622977.868709292262793 ], [ 422892.641919289540965, 7623008.104846239089966 ], [ 422948.444251456880011, 7623060.39468271844089 ] ] ] } },
{ "type": "Feature", "properties": { "fid": 132.0, "COMPR_M": 375.52, "CLASSE": "03 - Média", "CD_FAZ": " 403882", "TALHOES": "1", "FAZ_tAL": "403878001, 403882001", "ID_LINHA": 206632 }, "geometry": { "type": "MultiLineString", "coordinates": [ [ [ 422634.189883859013207, 7622871.836621828377247 ], [ 422682.946679426007904, 7622886.598782054148614 ], [ 422704.328191473439801, 7622893.782542403787374 ], [ 422724.929948178818449, 7622901.368451189249754 ], [ 422744.653774831211194, 7622909.446121511980891 ], [ 422763.466817917418666, 7622918.117708862759173 ], [ 422781.33705040422501, 7622927.477399239316583 ], [ 422792.936953766038641, 7622934.251775844022632 ], [ 422804.483525949937757, 7622941.54527598246932 ], [ 422821.719561086036265, 7622953.40512803196907 ], [ 422838.920817728620023, 7622966.317196980118752 ], [ 422856.10464366315864, 7622980.173294899985194 ], [ 422873.323972705227789, 7622994.879581518471241 ], [ 422896.419514188950416, 7623015.619250385090709 ], [ 422949.205607887124643, 7623065.24982862174511 ] ] ] } },
{ "type": "Feature", "properties": { "fid": 133.0, "COMPR_M": 376.94, "CLASSE": "03 - Média", "CD_FAZ": " 403882", "TALHOES": "1", "FAZ_tAL": "403878001, 403882001", "ID_LINHA": 206633 }, "geometry": { "type": "MultiLineString", "coordinates": [ [ [ 422634.388153260806575, 7622875.01694405823946 ], [ 422682.027404709311668, 7622889.454498520120978 ], [ 422703.334875661530532, 7622896.613360197283328 ], [ 422723.845772334490903, 7622904.165750781074166 ], [ 422743.469713445170783, 7622912.202674198895693 ], [ 422762.150788959173951, 7622920.813710984773934 ], [ 422779.872096505598165, 7622930.095547361299396 ], [ 422791.383871780883055, 7622936.818548024632037 ], [ 422808.560574503382668, 7622947.865891050547361 ], [ 422825.676254104590043, 7622960.012127515859902 ], [ 422842.771194157365244, 7622973.175878969952464 ], [ 422859.897923400159925, 7622987.274274736642838 ], [ 422894.388442495721392, 7623017.827147026546299 ], [ 422949.994843488209881, 7623070.131400643847883 ] ] ] } },
{ "type": "Feature", "properties": { "fid": 134.0, "COMPR_M": 378.4, "CLASSE": "03 - Média", "CD_FAZ": " 403882", "TALHOES": "1", "FAZ_tAL": "403878001, 403882001", "ID_LINHA": 206634 }, "geometry": { "type": "MultiLineString", "coordinates": [ [ [ 422634.586422790656798, 7622878.197268381714821 ], [ 422688.271121952624526, 7622894.651684628799558 ], [ 422709.241266558063217, 7622901.902312570251524 ], [ 422729.360423987964168, 7622909.566144309937954 ], [ 422748.570451364852488, 7622917.739844355732203 ], [ 422766.795941630436573, 7622926.4979033395648 ], [ 422778.413304652553052, 7622932.717067997902632 ], [ 422795.509422391070984, 7622942.906349098309875 ], [ 422806.868961274274625, 7622950.343610882759094 ], [ 422823.88262434391072, 7622962.416991064324975 ], [ 422840.906692602380645, 7622975.526190558448434 ], [ 422857.964107860461809, 7622989.567868210375309 ], [ 422892.361194782541133, 7623020.038547854870558 ], [ 422950.806187939771917, 7623075.033929378725588 ] ] ] } },
{ "type": "Feature", "properties": { "fid": 135.0, "COMPR_M": 379.81, "CLASSE": "03 - Média", "CD_FAZ": " 403882", "TALHOES": "1", "FAZ_tAL": "403878001, 403882001", "ID_LINHA": 206635 }, "geometry": { "type": "MultiLineString", "coordinates": [ [ [ 422634.784692060668021, 7622881.377588508650661 ], [ 422687.327620707103051, 7622897.499481817707419 ], [ 422708.21980482712388, 7622904.723102765157819 ], [ 422728.246174900908954, 7622912.35158066265285 ], [ 422747.325407256488688, 7622920.469407955184579 ], [ 422765.422000224585645, 7622929.164995763450861 ], [ 422776.948350751074031, 7622935.335216120816767 ], [ 422793.907300355669577, 7622945.442848760634661 ], [ 422805.196241833968088, 7622952.834124986082315 ], [ 422822.100778389140032, 7622964.830544330179691 ], [ 422839.029477929754648, 7622977.866360567510128 ], [ 422856.02282036334509, 7622991.85511523950845 ], [ 422890.332670617790427, 7623022.248782576993108 ], [ 422951.584946465911344, 7623079.905572410672903 ] ] ] } },
{ "type": "Feature", "properties": { "fid": 136.0, "COMPR_M": 371.69, "CLASSE": "03 - Média", "CD_FAZ": " 403882", "TALHOES": "1", "FAZ_tAL": "403878001, 403882001", "ID_LINHA": 206636 }, "geometry": { "type": "MultiLineString", "coordinates": [ [ [ 422634.983000095642637, 7622884.558530458249152 ], [ 422686.38127332367003, 7622900.346348654478788 ], [ 422707.198343097639736, 7622907.543892964720726 ], [ 422727.131902977067512, 7622915.137073835358024 ], [ 422746.101181374688167, 7622923.208371850661933 ], [ 422764.065770872402936, 7622931.841097313910723 ], [ 422775.477234799123835, 7622937.949991725385189 ], [ 422792.305178318463732, 7622947.979348424822092 ], [ 422803.514075496117584, 7622955.318241959437728 ], [ 422820.311051358759869, 7622967.238338480703533 ], [ 422837.161811843223404, 7622980.214119529351592 ], [ 422854.081514465855435, 7622994.142384001985192 ], [ 422888.302869986975566, 7623024.457851185463369 ], [ 422945.446841861412395, 7623078.221067316830158 ] ] ] } },
{ "type": "Feature", "properties": { "fid": 137.0, "COMPR_M": 362.11, "CLASSE": "03 - Média", "CD_FAZ": " 403882", "TALHOES": "1", "FAZ_tAL": "403878001, 403882001", "ID_LINHA": 206637 }, "geometry": { "type": "MultiLineString", "coordinates": [ [ [ 422635.181457493337803, 7622887.741868244484067 ], [ 422685.437772078439593, 7622903.194145850837231 ], [ 422706.176881367224269, 7622910.364683160558343 ], [ 422726.00430285470793, 7622917.917177659459412 ], [ 422744.866546381730586, 7622925.942635595798492 ], [ 422756.863880141230766, 7622931.58677114918828 ], [ 422774.012280898052268, 7622940.568139848299325 ], [ 422785.143524519284256, 7622947.068931796588004 ], [ 422796.262147279456258, 7622954.092175972647965 ], [ 422812.95267836243147, 7622965.576914917677641 ], [ 422829.698447364498861, 7622978.147471880540252 ], [ 422846.517492221202701, 7622991.709846711717546 ], [ 422863.449754147208296, 7623006.17128339689225 ], [ 422886.274345822108444, 7623026.668085910379887 ], [ 422938.250018545775674, 7623075.533054268918931 ] ] ] } },
{ "type": "Feature", "properties": { "fid": 153.0, "COMPR_M": 349.5, "CLASSE": "03 - Média", "CD_FAZ": " 403882", "TALHOES": "1", "FAZ_tAL": "403878001, 403882001", "ID_LINHA": 206653 }, "geometry": { "type": "MultiLineString", "coordinates": [ [ [ 422629.633334385463968, 7622798.747705686837435 ], [ 422688.644892430806067, 7622816.046823860146105 ], [ 422727.181221423612442, 7622828.676107386127114 ], [ 422764.753019769443199, 7622843.013314628042281 ], [ 422786.677349218865857, 7622852.719482604414225 ], [ 422800.990509892115369, 7622859.743416177108884 ], [ 422828.786728301201947, 7622875.292858447879553 ], [ 422842.283712939824909, 7622883.817969396710396 ], [ 422862.047221623244695, 7622897.414908367209136 ], [ 422893.966640258789994, 7622921.967688152566552 ], [ 422912.608185885183048, 7622937.608579736202955 ], [ 422935.651724524796009, 7622958.015085950493813 ] ] ] } },
{ "type": "Feature", "properties": { "fid": 157.0, "COMPR_M": 326.58, "CLASSE": "03 - Média", "CD_FAZ": " 403882", "TALHOES": "1", "FAZ_tAL": "403878001, 403882001", "ID_LINHA": 206657 }, "geometry": { "type": "MultiLineString", "coordinates": [ [ [ 422635.975287836336065, 7622900.475231446325779 ], [ 422681.663767100311816, 7622914.585334626957774 ], [ 422702.091034450975712, 7622921.647843953222036 ], [ 422721.529474670358468, 7622929.051888792775571 ], [ 422751.571273080771789, 7622942.357094234786928 ], [ 422768.164725143346004, 7622951.047592184506357 ], [ 422778.919929883093573, 7622957.329435531049967 ], [ 422789.689067159837577, 7622964.132284047082067 ], [ 422805.939172179903835, 7622975.314344422891736 ], [ 422822.313712281757034, 7622987.606360576115549 ], [ 422838.840175799559802, 7623000.93275598436594 ], [ 422872.469157897576224, 7623030.309935511089861 ], [ 422911.490023338061292, 7623066.704496899619699 ] ] ] } },
{ "type": "Feature", "properties": { "fid": 160.0, "COMPR_M": 335.09, "CLASSE": "03 - Média", "CD_FAZ": " 403882", "TALHOES": "1", "FAZ_tAL": "403878001, 403882001", "ID_LINHA": 206660 }, "geometry": { "type": "MultiLineString", "coordinates": [ [ [ 422635.776830450398847, 7622897.291893854737282 ], [ 422682.60726834484376, 7622911.737537430599332 ], [ 422703.119800468150061, 7622918.829698774963617 ], [ 422722.648181716387626, 7622926.268211011774838 ], [ 422752.898698529810645, 7622939.666566274128854 ], [ 422769.617419194779359, 7622948.42258420959115 ], [ 422780.467466970323585, 7622954.759225364774466 ], [ 422791.337365710758604, 7622961.625492135994136 ], [ 422807.692548725870438, 7622972.879987047053874 ], [ 422824.161621160164941, 7622985.242951445281506 ], [ 422840.763578354439232, 7622998.630415424704552 ], [ 422874.485264930641279, 7623028.088357137516141 ], [ 422917.910755156015512, 7623068.654962830245495 ] ] ] } },
{ "type": "Feature", "properties": { "fid": 161.0, "COMPR_M": 343.61, "CLASSE": "03 - Média", "CD_FAZ": " 403882", "TALHOES": "1", "FAZ_tAL": "403878001, 403882001", "ID_LINHA": 206661 }, "geometry": { "type": "MultiLineString", "coordinates": [ [ [ 422635.578372737509198, 7622894.108551003038883 ], [ 422683.550769588677213, 7622908.889740235172212 ], [ 422704.133957911166362, 7622916.006263557821512 ], [ 422723.771346717316192, 7622923.486291792243719 ], [ 422754.226077030994929, 7622936.976133971475065 ], [ 422771.088535146904178, 7622945.807808600366116 ], [ 422782.037301579723135, 7622952.202573146671057 ], [ 422792.975607222353574, 7622959.112230009399354 ], [ 422809.454290581285022, 7622970.451654886826873 ], [ 422826.009499218664132, 7622982.879581840708852 ], [ 422842.681549644912593, 7622996.323559185490012 ], [ 422876.501364928786643, 7623025.866786502301693 ], [ 422924.343017535749823, 7623070.618290852755308 ] ] ] } },
{ "type": "Feature", "properties": { "fid": 162.0, "COMPR_M": 352.86, "CLASSE": "03 - Média", "CD_FAZ": " 403882", "TALHOES": "1", "FAZ_tAL": "403878001, 403882001", "ID_LINHA": 206662 }, "geometry": { "type": "MultiLineString", "coordinates": [ [ [ 422635.379915065190289, 7622890.92520884424448 ], [ 422684.494270833907649, 7622906.041943041607738 ], [ 422705.155419641640037, 7622913.185473358258605 ], [ 422724.88559580425499, 7622920.700855444185436 ], [ 422755.536454694520216, 7622934.277299110777676 ], [ 422772.547326997213531, 7622943.186287966556847 ], [ 422783.584838670154568, 7622949.632362989708781 ], [ 422794.623905771586578, 7622956.605438100174069 ], [ 422811.203505177458283, 7622968.014256156980991 ], [ 422827.850569305475801, 7622980.510841485112906 ], [ 422844.596815930912271, 7622994.01443232409656 ], [ 422878.51893422374269, 7623023.646543962880969 ], [ 422931.296516803384293, 7623073.075672118924558 ] ] ] } }
]
}
