{
"type": "FeatureCollection",
"name": " 403993",
"crs": { "type": "name", "properties": { "name": "urn:ogc:def:crs:EPSG::32722" } },
"xy_coordinate_resolution": 1e-15,
"features": [
{ "type": "Feature", "properties": { "fid": 207.0, "COMPR_M": 326.07, "CLASSE": "03 - Média", "CD_FAZ": " 403993", "TALHOES": "2, 1", "FAZ_tAL": "404065002, 403993001", "ID_LINHA": 15832 }, "geometry": { "type": "MultiLineString", "coordinates": [ [ [ 414032.210289749084041, 7630668.234778057783842 ], [ 414055.701869268901646, 7630695.129631193354726 ], [ 414080.952590768691152, 7630726.505916417576373 ], [ 414105.051176843291614, 7630759.216465691104531 ], [ 414127.954832222079858, 7630793.300071976147592 ], [ 414149.377456340531353, 7630828.400814326480031 ], [ 414168.716402838414069, 7630863.379210449755192 ], [ 414190.067856344685424, 7630906.586592187173665 ], [ 414205.744525202608202, 7630942.280956970527768 ] ] ] } },
{ "type": "Feature", "properties": { "fid": 208.0, "COMPR_M": 325.02, "CLASSE": "03 - Média", "CD_FAZ": " 403993", "TALHOES": "2, 1", "FAZ_tAL": "404065002, 403993001", "ID_LINHA": 15833 }, "geometry": { "type": "MultiLineString", "coordinates": [ [ [ 414036.20966839720495, 7630668.183078047819436 ], [ 414064.433849507651757, 7630700.940226076170802 ], [ 414089.484993152378593, 7630732.754686110652983 ], [ 414113.361753086210229, 7630765.905234140343964 ], [ 414136.024138766806573, 7630800.438308522105217 ], [ 414157.020320009847637, 7630835.69574636593461 ], [ 414175.899848751258105, 7630870.703187089413404 ], [ 414192.789731535012834, 7630905.3250024151057 ], [ 414208.734641143179033, 7630941.662389045581222 ] ] ] } },
{ "type": "Feature", "properties": { "fid": 209.0, "COMPR_M": 324.02, "CLASSE": "03 - Média", "CD_FAZ": " 403993", "TALHOES": "2, 1", "FAZ_tAL": "404065002, 403993001", "ID_LINHA": 15834 }, "geometry": { "type": "MultiLineString", "coordinates": [ [ [ 414040.181063930504024, 7630668.10045799612999 ], [ 414066.750897192629054, 7630699.034565670415759 ], [ 414091.881036977167241, 7630730.949351801536977 ], [ 414115.833356824121438, 7630764.204810617491603 ], [ 414138.567757741140667, 7630798.847624944522977 ], [ 414159.630549591965973, 7630834.216910321265459 ], [ 414178.569334735919256, 7630869.334217507392168 ], [ 414195.511606720625423, 7630904.063412649556994 ], [ 414211.72475708310958, 7630941.04382111877203 ] ] ] } },
{ "type": "Feature", "properties": { "fid": 210.0, "COMPR_M": 323.0, "CLASSE": "03 - Média", "CD_FAZ": " 403993", "TALHOES": "2, 1", "FAZ_tAL": "404065002, 403993001", "ID_LINHA": 15835 }, "geometry": { "type": "MultiLineString", "coordinates": [ [ [ 414044.112948183435947, 7630668.00621835142374 ], [ 414069.067944869049825, 7630697.128905260935426 ], [ 414094.277080801664852, 7630729.144017498940229 ], [ 414118.304960553185083, 7630762.504387092776597 ], [ 414141.111376713844948, 7630797.256941372528672 ], [ 414162.240779173851479, 7630832.738074271939695 ], [ 414181.238820731989108, 7630867.965247919782996 ], [ 414198.233481914154254, 7630902.801822884008288 ], [ 414214.694538941723295, 7630940.375972641631961 ] ] ] } },
{ "type": "Feature", "properties": { "fid": 211.0, "COMPR_M": 321.93, "CLASSE": "03 - Média", "CD_FAZ": " 403993", "TALHOES": "2, 1", "FAZ_tAL": "404065002, 403993001", "ID_LINHA": 15836 }, "geometry": { "type": "MultiLineString", "coordinates": [ [ [ 414048.0379940464627, 7630667.91214261110872 ], [ 414071.384992534818593, 7630695.223244849592447 ], [ 414096.673124636523426, 7630727.338683184236288 ], [ 414120.776564285159111, 7630760.8039635643363 ], [ 414143.654995686374605, 7630795.666257798671722 ], [ 414164.851008753990754, 7630831.25923821888864 ], [ 414183.908306722179987, 7630866.596278346143663 ], [ 414200.955357093829662, 7630901.540233120322227 ], [ 414217.644811292295344, 7630939.660841992124915 ] ] ] } },
{ "type": "Feature", "properties": { "fid": 212.0, "COMPR_M": 320.87, "CLASSE": "03 - Média", "CD_FAZ": " 403993", "TALHOES": "2, 1", "FAZ_tAL": "404065002, 403993001", "ID_LINHA": 15837 }, "geometry": { "type": "MultiLineString", "coordinates": [ [ [ 414051.963039914378896, 7630667.818066875450313 ], [ 414073.702040215721354, 7630693.317584444768727 ], [ 414099.069168462476227, 7630725.533348875120282 ], [ 414123.248168021382298, 7630759.103540040552616 ], [ 414146.198614658671431, 7630794.07557422760874 ], [ 414167.461238333780784, 7630829.780402173288167 ], [ 414186.577792713942472, 7630865.227308755740523 ], [ 414203.677232290094253, 7630900.278643346391618 ], [ 414220.595083640306257, 7630938.945711325854063 ] ] ] } },
{ "type": "Feature", "properties": { "fid": 213.0, "COMPR_M": 319.34, "CLASSE": "03 - Média", "CD_FAZ": " 403993", "TALHOES": "2, 1", "FAZ_tAL": "404065002, 403993001", "ID_LINHA": 15838 }, "geometry": { "type": "MultiLineString", "coordinates": [ [ [ 414055.888085765996948, 7630667.723991136997938 ], [ 414082.487631597090513, 7630699.362172018736601 ], [ 414107.64292546431534, 7630732.019079979509115 ], [ 414131.592745052475948, 7630766.039636414498091 ], [ 414148.742233639990445, 7630792.484890653751791 ], [ 414170.071467913861852, 7630828.301566125825047 ], [ 414189.247278708440717, 7630863.858339175581932 ], [ 414206.399107473785989, 7630899.017053578048944 ], [ 414223.368520055664703, 7630937.802010823972523 ] ] ] } },
{ "type": "Feature", "properties": { "fid": 214.0, "COMPR_M": 317.31, "CLASSE": "03 - Média", "CD_FAZ": " 403993", "TALHOES": "2, 1", "FAZ_tAL": "404065002, 403993001", "ID_LINHA": 15839 }, "geometry": { "type": "MultiLineString", "coordinates": [ [ [ 414059.785301870899275, 7630667.630582424812019 ], [ 414084.824732592969667, 7630697.481158409267664 ], [ 414110.058187353948597, 7630730.239538091234863 ], [ 414134.082693409756757, 7630764.366189638152719 ], [ 414151.28585260984255, 7630790.894207075238228 ], [ 414172.68169749295339, 7630826.822730083018541 ], [ 414191.916764705791138, 7630862.48936958424747 ], [ 414209.120982665393967, 7630897.755463808774948 ], [ 414225.946352076716721, 7630936.184254284016788 ] ] ] } },
{ "type": "Feature", "properties": { "fid": 215.0, "COMPR_M": 315.29, "CLASSE": "03 - Média", "CD_FAZ": " 403993", "TALHOES": "2, 1", "FAZ_tAL": "404065002, 403993001", "ID_LINHA": 15840 }, "geometry": { "type": "MultiLineString", "coordinates": [ [ [ 414063.676093156449497, 7630667.537327703088522 ], [ 414087.161833592050243, 7630695.600144795142114 ], [ 414112.473449234385043, 7630728.459996190853417 ], [ 414136.5726417627302, 7630762.692742856219411 ], [ 414159.393643487943336, 7630798.310753775760531 ], [ 414175.291927071753889, 7630825.343894035555422 ], [ 414194.586250693304464, 7630861.120400002226233 ], [ 414211.842857853043824, 7630896.493874042294919 ], [ 414228.524184105161112, 7630934.566497742198408 ] ] ] } },
{ "type": "Feature", "properties": { "fid": 216.0, "COMPR_M": 313.01, "CLASSE": "03 - Média", "CD_FAZ": " 403993", "TALHOES": "2, 1", "FAZ_tAL": "404065002, 403993001", "ID_LINHA": 15841 }, "geometry": { "type": "MultiLineString", "coordinates": [ [ [ 414067.566884437168483, 7630667.44407297577709 ], [ 414089.498934585019015, 7630693.719131181016564 ], [ 414114.888711108826101, 7630726.680454307235777 ], [ 414139.062590121291578, 7630761.019296070560813 ], [ 414161.954574071685784, 7630796.748094073496759 ], [ 414177.902156648808159, 7630823.865057984367013 ], [ 414197.255736683611758, 7630859.751430417411029 ], [ 414214.564733038016129, 7630895.232284277677536 ], [ 414231.005489219562151, 7630932.714803906157613 ] ] ] } },
{ "type": "Feature", "properties": { "fid": 217.0, "COMPR_M": 308.07, "CLASSE": "03 - Média", "CD_FAZ": " 403993", "TALHOES": "2, 1", "FAZ_tAL": "404065002, 403993001", "ID_LINHA": 15842 }, "geometry": { "type": "MultiLineString", "coordinates": [ [ [ 414071.457675726152956, 7630667.35081825684756 ], [ 414098.313786079001147, 7630699.974513845518231 ], [ 414123.480894243984949, 7630733.37938739079982 ], [ 414147.422002267674543, 7630768.182694405317307 ], [ 414164.515504660201259, 7630795.185434371232986 ], [ 414180.512386238086037, 7630822.386221940629184 ], [ 414199.925222677993588, 7630858.382460841909051 ], [ 414217.286608229740523, 7630893.970694506540895 ], [ 414232.464563408750109, 7630928.402095774188638 ] ] ] } },
{ "type": "Feature", "properties": { "fid": 218.0, "COMPR_M": 303.15, "CLASSE": "03 - Média", "CD_FAZ": " 403993", "TALHOES": "2, 1", "FAZ_tAL": "404065002, 403993001", "ID_LINHA": 15843 }, "geometry": { "type": "MultiLineString", "coordinates": [ [ [ 414075.32599565765122, 7630667.258102130144835 ], [ 414100.670742541027721, 7630698.118439745157957 ], [ 414125.915148647734895, 7630731.625914734788239 ], [ 414149.93008012638893, 7630766.536542722024024 ], [ 414167.076435242139269, 7630793.622774672694504 ], [ 414183.122615815838799, 7630820.907385880127549 ], [ 414202.594708673306741, 7630857.013491254299879 ], [ 414220.008483419369441, 7630892.709104735404253 ], [ 414233.900954238837585, 7630924.101171316578984 ] ] ] } },
{ "type": "Feature", "properties": { "fid": 219.0, "COMPR_M": 299.74, "CLASSE": "02 - Curta", "CD_FAZ": " 403993", "TALHOES": "2, 1", "FAZ_tAL": "404065002, 403993001", "ID_LINHA": 15844 }, "geometry": { "type": "MultiLineString", "coordinates": [ [ [ 414079.183480289764702, 7630667.165645699948072 ], [ 414103.027698997233529, 7630696.262365641072392 ], [ 414128.34940304729389, 7630729.872442084364593 ], [ 414152.438157985103317, 7630764.890391034074128 ], [ 414169.637365828151815, 7630792.060114972293377 ], [ 414185.732845391903538, 7630819.428549839183688 ], [ 414205.264194660761859, 7630855.644521673209965 ], [ 414222.730358605738729, 7630891.447514967992902 ], [ 414235.928592946729623, 7630921.196232865564525 ] ] ] } },
{ "type": "Feature", "properties": { "fid": 220.0, "COMPR_M": 290.6, "CLASSE": "02 - Curta", "CD_FAZ": " 403993", "TALHOES": "2, 1", "FAZ_tAL": "404065002, 403993001", "ID_LINHA": 15845 }, "geometry": { "type": "MultiLineString", "coordinates": [ [ [ 414083.099962384381797, 7630667.142653218470514 ], [ 414105.384655458619818, 7630694.406291544437408 ], [ 414124.549758643261157, 7630719.562286728993058 ], [ 414149.022383541974705, 7630754.325508939102292 ], [ 414166.547566458233632, 7630781.350105640478432 ], [ 414183.102948618587106, 7630808.814208883792162 ], [ 414203.235770979663357, 7630845.22835695091635 ], [ 414221.259350634471048, 7630881.254017155617476 ], [ 414235.71779648901429, 7630913.102409140206873 ] ] ] } },
{ "type": "Feature", "properties": { "fid": 221.0, "COMPR_M": 282.31, "CLASSE": "02 - Curta", "CD_FAZ": " 403993", "TALHOES": "2, 1", "FAZ_tAL": "404065002, 403993001", "ID_LINHA": 15846 }, "geometry": { "type": "MultiLineString", "coordinates": [ [ [ 414087.070056230993941, 7630667.182783514261246 ], [ 414107.741611915407702, 7630692.550217444077134 ], [ 414126.965020522184204, 7630717.782744841650128 ], [ 414151.512331894482486, 7630752.652062149718404 ], [ 414169.091185435012449, 7630779.759422062896192 ], [ 414185.697217256587464, 7630807.307546924799681 ], [ 414205.891106994240545, 7630843.832137450575829 ], [ 414219.639993819990195, 7630870.975688669830561 ], [ 414235.842867151193786, 7630905.886560919694602 ] ] ] } },
{ "type": "Feature", "properties": { "fid": 222.0, "COMPR_M": 274.15, "CLASSE": "02 - Curta", "CD_FAZ": " 403993", "TALHOES": "2, 1", "FAZ_tAL": "404065002, 403993001", "ID_LINHA": 15847 }, "geometry": { "type": "MultiLineString", "coordinates": [ [ [ 414091.02123979118187, 7630667.222722664475441 ], [ 414116.601673091645353, 7630699.043203151784837 ], [ 414135.652166261395905, 7630724.612024117261171 ], [ 414154.002280252578203, 7630750.978615362197161 ], [ 414171.634804410219658, 7630778.16873849183321 ], [ 414188.291485888068564, 7630805.800884966738522 ], [ 414203.688401527935639, 7630833.311148593202233 ], [ 414222.336501437821425, 7630869.660747721791267 ], [ 414235.965747549780644, 7630898.797077966853976 ] ] ] } },
{ "type": "Feature", "properties": { "fid": 223.0, "COMPR_M": 266.08, "CLASSE": "02 - Curta", "CD_FAZ": " 403993", "TALHOES": "2, 1", "FAZ_tAL": "404065002, 403993001", "ID_LINHA": 15848 }, "geometry": { "type": "MultiLineString", "coordinates": [ [ [ 414094.955626485520042, 7630667.262492030858994 ], [ 414118.978278581285849, 7630697.212355605326593 ], [ 414138.08642066619359, 7630722.858551463112235 ], [ 414156.492228606890421, 7630749.305168576538563 ], [ 414174.178423385135829, 7630776.57805491797626 ], [ 414190.885754522867501, 7630804.294223008677363 ], [ 414206.329154712497257, 7630831.887538446113467 ], [ 414220.551960279641207, 7630859.271597425453365 ], [ 414236.087075291783549, 7630891.797173829749227 ] ] ] } },
{ "type": "Feature", "properties": { "fid": 224.0, "COMPR_M": 258.06, "CLASSE": "02 - Curta", "CD_FAZ": " 403993", "TALHOES": "2, 1", "FAZ_tAL": "404065002, 403993001", "ID_LINHA": 15849 }, "geometry": { "type": "MultiLineString", "coordinates": [ [ [ 414098.890013186493888, 7630667.302261395379901 ], [ 414121.354884069995023, 7630695.381508050486445 ], [ 414140.520675064821262, 7630721.105078807100654 ], [ 414158.982176958234049, 7630747.63172179274261 ], [ 414176.722042357956525, 7630774.987371347844601 ], [ 414193.480023164302111, 7630802.787561053410172 ], [ 414208.969907897000667, 7630830.463928297162056 ], [ 414223.235168398590758, 7630857.929724732413888 ], [ 414236.207357863429934, 7630884.857570121996105 ] ] ] } },
{ "type": "Feature", "properties": { "fid": 225.0, "COMPR_M": 250.17, "CLASSE": "02 - Curta", "CD_FAZ": " 403993", "TALHOES": "2, 1", "FAZ_tAL": "404065002, 403993001", "ID_LINHA": 15850 }, "geometry": { "type": "MultiLineString", "coordinates": [ [ [ 414102.824399895442184, 7630667.342030761763453 ], [ 414117.169437765667681, 7630685.125921035185456 ], [ 414136.626068042241968, 7630710.664577271789312 ], [ 414155.379016562830657, 7630736.998034202493727 ], [ 414173.422578622878063, 7630764.16637902893126 ], [ 414190.610745353566017, 7630791.98877377435565 ], [ 414206.572465306147933, 7630819.809826917946339 ], [ 414221.281110616459046, 7630847.430704170837998 ], [ 414236.325367795710918, 7630878.049084775149822 ] ] ] } },
{ "type": "Feature", "properties": { "fid": 226.0, "COMPR_M": 242.17, "CLASSE": "02 - Curta", "CD_FAZ": " 403993", "TALHOES": "2, 1", "FAZ_tAL": "404065002, 403993001", "ID_LINHA": 15851 }, "geometry": { "type": "MultiLineString", "coordinates": [ [ [ 414106.745499344484415, 7630667.381665822118521 ], [ 414126.108095047296956, 7630691.719812948256731 ], [ 414145.389183870865963, 7630717.598133494146168 ], [ 414163.962073668837547, 7630744.28482822701335 ], [ 414175.948564528836869, 7630762.547840533778071 ], [ 414193.188581689726561, 7630790.454164585098624 ], [ 414209.198188310896512, 7630818.358679931610823 ], [ 414223.950596601003781, 7630846.061734588816762 ], [ 414236.376251738285646, 7630871.158460311591625 ] ] ] } },
{ "type": "Feature", "properties": { "fid": 227.0, "COMPR_M": 234.26, "CLASSE": "02 - Curta", "CD_FAZ": " 403993", "TALHOES": "2, 1", "FAZ_tAL": "404065002, 403993001", "ID_LINHA": 15852 }, "geometry": { "type": "MultiLineString", "coordinates": [ [ [ 414110.645117049687542, 7630667.4210837315768 ], [ 414128.484700537868775, 7630689.888965399935842 ], [ 414147.823438278166577, 7630715.844660838134587 ], [ 414166.452022029436193, 7630742.611381448805332 ], [ 414178.474550440383609, 7630760.929302034899592 ], [ 414190.124810495006386, 7630779.558837370947003 ], [ 414206.614682035287842, 7630807.597861456684768 ], [ 414221.823123054869939, 7630835.454820462502539 ], [ 414236.420567790803034, 7630864.335324842482805 ] ] ] } },
{ "type": "Feature", "properties": { "fid": 228.0, "COMPR_M": 226.43, "CLASSE": "02 - Curta", "CD_FAZ": " 403993", "TALHOES": "2, 1", "FAZ_tAL": "404065002, 403993001", "ID_LINHA": 15853 }, "geometry": { "type": "MultiLineString", "coordinates": [ [ [ 414114.544734744122252, 7630667.460501648485661 ], [ 414130.861306026112288, 7630688.058117855340242 ], [ 414150.257692680112086, 7630714.091188177466393 ], [ 414168.941970385727473, 7630740.937934655696154 ], [ 414181.000536356237717, 7630759.310763540677726 ], [ 414192.68574107735185, 7630777.996177669614553 ], [ 414209.224911616824102, 7630806.119025400839746 ], [ 414224.478459064732306, 7630834.058600960299373 ], [ 414236.464202506409492, 7630857.617090022191405 ] ] ] } },
{ "type": "Feature", "properties": { "fid": 229.0, "COMPR_M": 218.64, "CLASSE": "02 - Curta", "CD_FAZ": " 403993", "TALHOES": "2, 1", "FAZ_tAL": "404065002, 403993001", "ID_LINHA": 15854 }, "geometry": { "type": "MultiLineString", "coordinates": [ [ [ 414118.444352443679236, 7630667.499919567257166 ], [ 414133.237911510164849, 7630686.227270301431417 ], [ 414152.691947089042515, 7630712.337715523317456 ], [ 414171.431918738933746, 7630739.264487879350781 ], [ 414183.526522267144173, 7630757.692225037142634 ], [ 414195.246671664470341, 7630776.433517968282104 ], [ 414211.835141201270744, 7630804.640189353376627 ], [ 414222.173673825338483, 7630823.345877544954419 ], [ 414236.507591045054141, 7630850.936760855838656 ] ] ] } },
{ "type": "Feature", "properties": { "fid": 230.0, "COMPR_M": 210.96, "CLASSE": "02 - Curta", "CD_FAZ": " 403993", "TALHOES": "2, 1", "FAZ_tAL": "404065002, 403993001", "ID_LINHA": 15855 }, "geometry": { "type": "MultiLineString", "coordinates": [ [ [ 414122.341248919838108, 7630667.539309977553785 ], [ 414142.19795734831132, 7630693.037331323139369 ], [ 414155.126201491919346, 7630710.584242866374552 ], [ 414173.92186708713416, 7630737.591041090898216 ], [ 414186.052508173161186, 7630756.073686541058123 ], [ 414197.807602245651651, 7630774.870858268812299 ], [ 414214.445370772853494, 7630803.161353300325572 ], [ 414236.550173879833892, 7630844.380480220541358 ] ] ] } },
{ "type": "Feature", "properties": { "fid": 231.0, "COMPR_M": 203.3, "CLASSE": "02 - Curta", "CD_FAZ": " 403993", "TALHOES": "2, 1", "FAZ_tAL": "404065002, 403993001", "ID_LINHA": 15856 }, "geometry": { "type": "MultiLineString", "coordinates": [ [ [ 414126.207019320456311, 7630667.578385759145021 ], [ 414144.594001174380537, 7630691.231997014954686 ], [ 414157.560455893224571, 7630708.830770216882229 ], [ 414176.411815443483647, 7630735.917594315484166 ], [ 414188.578494084067643, 7630754.455148038454354 ], [ 414211.639903614297509, 7630792.240927362814546 ], [ 414222.326803309842944, 7630811.102944983169436 ], [ 414236.578993400617037, 7630837.832178618758917 ] ] ] } },
{ "type": "Feature", "properties": { "fid": 232.0, "COMPR_M": 195.26, "CLASSE": "02 - Curta", "CD_FAZ": " 403993", "TALHOES": "2, 1", "FAZ_tAL": "404065002, 403993001", "ID_LINHA": 15857 }, "geometry": { "type": "MultiLineString", "coordinates": [ [ [ 414130.3379575725412, 7630667.950526349246502 ], [ 414159.994710298255086, 7630707.077297562733293 ], [ 414185.043170151184313, 7630743.490419171750546 ], [ 414197.070994165260345, 7630762.261902756989002 ], [ 414214.234172257594764, 7630790.734265403822064 ], [ 414236.589203169278335, 7630831.34199714101851 ] ] ] } },
{ "type": "Feature", "properties": { "fid": 233.0, "COMPR_M": 187.2, "CLASSE": "02 - Curta", "CD_FAZ": " 403993", "TALHOES": "2, 1", "FAZ_tAL": "404065002, 403993001", "ID_LINHA": 15858 }, "geometry": { "type": "MultiLineString", "coordinates": [ [ [ 414134.50931364443386, 7630668.373433848842978 ], [ 414162.428964700549841, 7630705.323824905790389 ], [ 414187.551248007337563, 7630741.84426748752594 ], [ 414211.233436049893498, 7630779.711900290101767 ], [ 414222.276059518393595, 7630798.724845164455473 ], [ 414236.599326815106906, 7630824.906562600284815 ] ] ] } },
{ "type": "Feature", "properties": { "fid": 234.0, "COMPR_M": 179.35, "CLASSE": "02 - Curta", "CD_FAZ": " 403993", "TALHOES": "2, 1", "FAZ_tAL": "404065002, 403993001", "ID_LINHA": 15859 }, "geometry": { "type": "MultiLineString", "coordinates": [ [ [ 414138.585277357080486, 7630668.682174332439899 ], [ 414164.863219107326586, 7630703.570352243259549 ], [ 414190.059325862675905, 7630740.198115802370012 ], [ 414213.811272390652448, 7630778.177291100844741 ], [ 414236.609339462826028, 7630818.541681217029691 ] ] ] } },
{ "type": "Feature", "properties": { "fid": 244.0, "COMPR_M": 108.47, "CLASSE": "02 - Curta", "CD_FAZ": " 403993", "TALHOES": "2, 1", "FAZ_tAL": "404065002, 403993001", "ID_LINHA": 15869 }, "geometry": { "type": "MultiLineString", "coordinates": [ [ [ 414175.895179142768029, 7630667.967465421184897 ], [ 414195.813437564298511, 7630695.313631040044129 ], [ 414208.781144067354035, 7630714.162786120548844 ], [ 414221.41631093621254, 7630733.414147581905127 ], [ 414236.552708107221406, 7630757.792241246439517 ] ] ] } },
{ "type": "Feature", "properties": { "fid": 245.0, "COMPR_M": 102.04, "CLASSE": "02 - Curta", "CD_FAZ": " 403993", "TALHOES": "2, 1", "FAZ_tAL": "404065002, 403993001", "ID_LINHA": 15870 }, "geometry": { "type": "MultiLineString", "coordinates": [ [ [ 414179.34618025860982, 7630667.577981871552765 ], [ 414198.266471637645736, 7630693.586527410894632 ], [ 414211.27109242323786, 7630712.489339339546859 ], [ 414236.556781380262692, 7630751.987170090898871 ] ] ] } },
{ "type": "Feature", "properties": { "fid": 246.0, "COMPR_M": 95.86, "CLASSE": "01 - Muito curta", "CD_FAZ": " 403993", "TALHOES": "2, 1", "FAZ_tAL": "404065002, 403993001", "ID_LINHA": 15871 }, "geometry": { "type": "MultiLineString", "coordinates": [ [ [ 414182.698112869227771, 7630667.055539168417454 ], [ 414200.71950571029447, 7630691.859423769637942 ], [ 414213.761040776851587, 7630710.815892549231648 ], [ 414236.560791680123657, 7630746.271835705265403 ] ] ] } }
]
}
