{
"type": "FeatureCollection",
"name": " 403991",
"crs": { "type": "name", "properties": { "name": "urn:ogc:def:crs:EPSG::32722" } },
"xy_coordinate_resolution": 1e-15,
"features": [
{ "type": "Feature", "properties": { "fid": 969.0, "COMPR_M": 583.14, "CLASSE": "03 - Média", "CD_FAZ": " 403991", "TALHOES": "1, 2", "FAZ_tAL": "403886001, 403991001, 403884002", "ID_LINHA": 215430 }, "geometry": { "type": "MultiLineString", "coordinates": [ [ [ 417480.61653897742508, 7621391.780782572925091 ], [ 416938.916663516371045, 7621607.190642001107335 ] ] ] } },
{ "type": "Feature", "properties": { "fid": 970.0, "COMPR_M": 586.36, "CLASSE": "03 - Média", "CD_FAZ": " 403991", "TALHOES": "1, 2", "FAZ_tAL": "403886001, 403991001, 403884002", "ID_LINHA": 215431 }, "geometry": { "type": "MultiLineString", "coordinates": [ [ [ 417477.292289422708564, 7621396.331181388348341 ], [ 416932.606971790664829, 7621612.928217899054289 ] ] ] } },
{ "type": "Feature", "properties": { "fid": 1155.0, "COMPR_M": 579.94, "CLASSE": "03 - Média", "CD_FAZ": " 403991", "TALHOES": "1, 2", "FAZ_tAL": "403886001, 403991001, 403884002", "ID_LINHA": 215616 }, "geometry": { "type": "MultiLineString", "coordinates": [ [ [ 417483.940788532956503, 7621387.230383761227131 ], [ 416945.219195011421107, 7621601.455913408659399 ] ] ] } },
{ "type": "Feature", "properties": { "fid": 1156.0, "COMPR_M": 573.52, "CLASSE": "03 - Média", "CD_FAZ": " 403991", "TALHOES": "1, 2", "FAZ_tAL": "403886001, 403991001, 403884002", "ID_LINHA": 215617 }, "geometry": { "type": "MultiLineString", "coordinates": [ [ [ 417490.585197986802086, 7621378.131212405860424 ], [ 416957.824258001230191, 7621589.986456220969558 ] ] ] } },
{ "type": "Feature", "properties": { "fid": 1157.0, "COMPR_M": 570.31, "CLASSE": "03 - Média", "CD_FAZ": " 403991", "TALHOES": "1, 2", "FAZ_tAL": "403886001, 403991001, 403884002", "ID_LINHA": 215618 }, "geometry": { "type": "MultiLineString", "coordinates": [ [ [ 417493.906711648916826, 7621373.581901531666517 ], [ 416964.126789497327991, 7621584.251727623865008 ] ] ] } },
{ "type": "Feature", "properties": { "fid": 1158.0, "COMPR_M": 567.1, "CLASSE": "03 - Média", "CD_FAZ": " 403991", "TALHOES": "1, 2", "FAZ_tAL": "403886001, 403991001, 403884002", "ID_LINHA": 215619 }, "geometry": { "type": "MultiLineString", "coordinates": [ [ [ 417497.228225312544964, 7621369.032590659335256 ], [ 416970.429320993949659, 7621578.516999030485749 ] ] ] } },
{ "type": "Feature", "properties": { "fid": 1159.0, "COMPR_M": 563.89, "CLASSE": "03 - Média", "CD_FAZ": " 403991", "TALHOES": "1, 2", "FAZ_tAL": "403886001, 403991001, 403884002", "ID_LINHA": 215620 }, "geometry": { "type": "MultiLineString", "coordinates": [ [ [ 417500.54973897425225, 7621364.483279788866639 ], [ 416976.731852488417644, 7621572.782270438969135 ] ] ] } },
{ "type": "Feature", "properties": { "fid": 1160.0, "COMPR_M": 560.62, "CLASSE": "03 - Média", "CD_FAZ": " 403991", "TALHOES": "1, 2", "FAZ_tAL": "403886001, 403991001, 403884002", "ID_LINHA": 215621 }, "geometry": { "type": "MultiLineString", "coordinates": [ [ [ 417503.812054913025349, 7621359.957509206607938 ], [ 416983.034383986028843, 7621567.047541843727231 ] ] ] } },
{ "type": "Feature", "properties": { "fid": 1161.0, "COMPR_M": 557.23, "CLASSE": "03 - Média", "CD_FAZ": " 403991", "TALHOES": "1, 2", "FAZ_tAL": "403886001, 403991001, 403884002", "ID_LINHA": 215622 }, "geometry": { "type": "MultiLineString", "coordinates": [ [ [ 417506.963139537896495, 7621355.475970354862511 ], [ 416989.336915480904281, 7621561.312813246622682 ] ] ] } },
{ "type": "Feature", "properties": { "fid": 1162.0, "COMPR_M": 553.83, "CLASSE": "03 - Média", "CD_FAZ": " 403991", "TALHOES": "1, 2", "FAZ_tAL": "403886001, 403991001, 403884002", "ID_LINHA": 215623 }, "geometry": { "type": "MultiLineString", "coordinates": [ [ [ 417510.114224161836319, 7621350.994431503117085 ], [ 416995.639446976943873, 7621555.578084654174745 ] ] ] } },
{ "type": "Feature", "properties": { "fid": 1163.0, "COMPR_M": 550.4, "CLASSE": "03 - Média", "CD_FAZ": " 403991", "TALHOES": "1, 2", "FAZ_tAL": "403886001, 403991001, 403884002", "ID_LINHA": 215624 }, "geometry": { "type": "MultiLineString", "coordinates": [ [ [ 417513.227616343763657, 7621346.527881253510714 ], [ 417001.94197847408941, 7621549.843356059864163 ] ] ] } },
{ "type": "Feature", "properties": { "fid": 1164.0, "COMPR_M": 546.85, "CLASSE": "03 - Média", "CD_FAZ": " 403991", "TALHOES": "1, 2", "FAZ_tAL": "403886001, 403991001, 403884002", "ID_LINHA": 215625 }, "geometry": { "type": "MultiLineString", "coordinates": [ [ [ 417516.231232976075262, 7621342.104983842000365 ], [ 417008.244509969721548, 7621544.108627465553582 ] ] ] } },
{ "type": "Feature", "properties": { "fid": 1165.0, "COMPR_M": 543.3, "CLASSE": "03 - Média", "CD_FAZ": " 403991", "TALHOES": "1, 2", "FAZ_tAL": "403886001, 403991001, 403884002", "ID_LINHA": 215626 }, "geometry": { "type": "MultiLineString", "coordinates": [ [ [ 417519.236664961790666, 7621337.681364543735981 ], [ 417014.547041465120856, 7621538.373898870311677 ] ] ] } },
{ "type": "Feature", "properties": { "fid": 1166.0, "COMPR_M": 539.77, "CLASSE": "03 - Média", "CD_FAZ": " 403991", "TALHOES": "1, 2", "FAZ_tAL": "403886001, 403991001, 403884002", "ID_LINHA": 215627 }, "geometry": { "type": "MultiLineString", "coordinates": [ [ [ 417522.257158559164964, 7621333.25175591185689 ], [ 417020.849572961684316, 7621532.639170276932418 ] ] ] } },
{ "type": "Feature", "properties": { "fid": 1167.0, "COMPR_M": 533.37, "CLASSE": "03 - Média", "CD_FAZ": " 403991", "TALHOES": "1, 2", "FAZ_tAL": "403886001, 403991001, 403884002", "ID_LINHA": 215628 }, "geometry": { "type": "MultiLineString", "coordinates": [ [ [ 417522.619456161919516, 7621329.87919316906482 ], [ 417027.152104457316454, 7621526.904441682621837 ] ] ] } },
{ "type": "Feature", "properties": { "fid": 1168.0, "COMPR_M": 526.68, "CLASSE": "03 - Média", "CD_FAZ": " 403991", "TALHOES": "1, 2", "FAZ_tAL": "403886001, 403991001, 403884002", "ID_LINHA": 215629 }, "geometry": { "type": "MultiLineString", "coordinates": [ [ [ 417522.704665594385006, 7621326.616816021502018 ], [ 417033.454635952715762, 7621521.16971308644861 ] ] ] } },
{ "type": "Feature", "properties": { "fid": 1169.0, "COMPR_M": 519.99, "CLASSE": "03 - Média", "CD_FAZ": " 403991", "TALHOES": "1, 2", "FAZ_tAL": "403886001, 403991001, 403884002", "ID_LINHA": 215630 }, "geometry": { "type": "MultiLineString", "coordinates": [ [ [ 417522.789875026093796, 7621323.354438877664506 ], [ 417039.757167450501584, 7621515.434984492138028 ] ] ] } },
{ "type": "Feature", "properties": { "fid": 1170.0, "COMPR_M": 513.29, "CLASSE": "03 - Média", "CD_FAZ": " 403991", "TALHOES": "1, 2", "FAZ_tAL": "403886001, 403991001, 403884002", "ID_LINHA": 215631 }, "geometry": { "type": "MultiLineString", "coordinates": [ [ [ 417522.875084459141362, 7621320.09206173196435 ], [ 417046.05969894467853, 7621509.700255897827446 ] ] ] } },
{ "type": "Feature", "properties": { "fid": 1171.0, "COMPR_M": 506.6, "CLASSE": "03 - Média", "CD_FAZ": " 403991", "TALHOES": "1, 2", "FAZ_tAL": "403886001, 403991001, 403884002", "ID_LINHA": 215632 }, "geometry": { "type": "MultiLineString", "coordinates": [ [ [ 417522.960293892188929, 7621316.82968458533287 ], [ 417052.362230440601707, 7621503.96552730537951 ] ] ] } },
{ "type": "Feature", "properties": { "fid": 1172.0, "COMPR_M": 499.91, "CLASSE": "03 - Média", "CD_FAZ": " 403991", "TALHOES": "1, 2", "FAZ_tAL": "403886001, 403991001, 403884002", "ID_LINHA": 215633 }, "geometry": { "type": "MultiLineString", "coordinates": [ [ [ 417523.045503325178288, 7621313.567307437770069 ], [ 417058.664761937514413, 7621498.230798708274961 ] ] ] } },
{ "type": "Feature", "properties": { "fid": 1173.0, "COMPR_M": 493.21, "CLASSE": "03 - Média", "CD_FAZ": " 403991", "TALHOES": "1, 2", "FAZ_tAL": "403886001, 403991001, 403884002", "ID_LINHA": 215634 }, "geometry": { "type": "MultiLineString", "coordinates": [ [ [ 417523.130712756887078, 7621310.304930293932557 ], [ 417064.967293432855513, 7621492.496070113033056 ] ] ] } },
{ "type": "Feature", "properties": { "fid": 1174.0, "COMPR_M": 486.52, "CLASSE": "03 - Média", "CD_FAZ": " 403991", "TALHOES": "1, 2", "FAZ_tAL": "403886001, 403991001, 403884002", "ID_LINHA": 215635 }, "geometry": { "type": "MultiLineString", "coordinates": [ [ [ 417523.215922189177945, 7621307.042553147301078 ], [ 417071.269824929186143, 7621486.761341519653797 ] ] ] } },
{ "type": "Feature", "properties": { "fid": 1175.0, "COMPR_M": 479.83, "CLASSE": "03 - Média", "CD_FAZ": " 403991", "TALHOES": "1, 2", "FAZ_tAL": "403886001, 403991001, 403884002", "ID_LINHA": 215636 }, "geometry": { "type": "MultiLineString", "coordinates": [ [ [ 417523.301131623389665, 7621303.780176001600921 ], [ 417077.572356426448096, 7621481.026612924411893 ] ] ] } },
{ "type": "Feature", "properties": { "fid": 1176.0, "COMPR_M": 473.14, "CLASSE": "03 - Média", "CD_FAZ": " 403991", "TALHOES": "1, 2", "FAZ_tAL": "403886001, 403991001, 403884002", "ID_LINHA": 215637 }, "geometry": { "type": "MultiLineString", "coordinates": [ [ [ 417523.386341053643264, 7621300.517798854038119 ], [ 417083.874887921381742, 7621475.291884332895279 ] ] ] } },
{ "type": "Feature", "properties": { "fid": 1177.0, "COMPR_M": 466.44, "CLASSE": "03 - Média", "CD_FAZ": " 403991", "TALHOES": "1, 2", "FAZ_tAL": "403886001, 403991001, 403884002", "ID_LINHA": 215638 }, "geometry": { "type": "MultiLineString", "coordinates": [ [ [ 417523.47155048919376, 7621297.25542170740664 ], [ 417090.177419416722842, 7621469.557155737653375 ] ] ] } },
{ "type": "Feature", "properties": { "fid": 1178.0, "COMPR_M": 459.75, "CLASSE": "03 - Média", "CD_FAZ": " 403991", "TALHOES": "1, 2", "FAZ_tAL": "403886001, 403991001, 403884002", "ID_LINHA": 215639 }, "geometry": { "type": "MultiLineString", "coordinates": [ [ [ 417523.556759920029435, 7621293.993044561706483 ], [ 417096.479950912937056, 7621463.822427143342793 ] ] ] } },
{ "type": "Feature", "properties": { "fid": 1179.0, "COMPR_M": 453.06, "CLASSE": "03 - Média", "CD_FAZ": " 403991", "TALHOES": "1, 2", "FAZ_tAL": "403886001, 403991001, 403884002", "ID_LINHA": 215640 }, "geometry": { "type": "MultiLineString", "coordinates": [ [ [ 417523.641969353484455, 7621290.730667417868972 ], [ 417102.782482407463249, 7621458.087698549032211 ] ] ] } },
{ "type": "Feature", "properties": { "fid": 1180.0, "COMPR_M": 446.36, "CLASSE": "03 - Média", "CD_FAZ": " 403991", "TALHOES": "1, 2", "FAZ_tAL": "403886001, 403991001, 403884002", "ID_LINHA": 215641 }, "geometry": { "type": "MultiLineString", "coordinates": [ [ [ 417523.727178786939476, 7621287.468290269374847 ], [ 417109.08501390425954, 7621452.35296995472163 ] ] ] } },
{ "type": "Feature", "properties": { "fid": 1181.0, "COMPR_M": 439.67, "CLASSE": "03 - Média", "CD_FAZ": " 403991", "TALHOES": "1, 2", "FAZ_tAL": "403886001, 403991001, 403884002", "ID_LINHA": 215642 }, "geometry": { "type": "MultiLineString", "coordinates": [ [ [ 417523.812388218997512, 7621284.205913123674691 ], [ 417115.387545401928946, 7621446.618241358548403 ] ] ] } },
{ "type": "Feature", "properties": { "fid": 1182.0, "COMPR_M": 432.98, "CLASSE": "03 - Média", "CD_FAZ": " 403991", "TALHOES": "1, 2", "FAZ_tAL": "403886001, 403991001, 403884002", "ID_LINHA": 215643 }, "geometry": { "type": "MultiLineString", "coordinates": [ [ [ 417523.897597651695833, 7621280.943535977974534 ], [ 417121.690076896571554, 7621440.883512765169144 ] ] ] } },
{ "type": "Feature", "properties": { "fid": 1183.0, "COMPR_M": 426.29, "CLASSE": "03 - Média", "CD_FAZ": " 403991", "TALHOES": "1, 2", "FAZ_tAL": "403886001, 403991001, 403884002", "ID_LINHA": 215644 }, "geometry": { "type": "MultiLineString", "coordinates": [ [ [ 417523.982807085092645, 7621277.681158830411732 ], [ 417127.992608392145485, 7621435.148784169927239 ] ] ] } },
{ "type": "Feature", "properties": { "fid": 1184.0, "COMPR_M": 419.59, "CLASSE": "03 - Média", "CD_FAZ": " 403991", "TALHOES": "1, 2", "FAZ_tAL": "403886001, 403991001, 403884002", "ID_LINHA": 215645 }, "geometry": { "type": "MultiLineString", "coordinates": [ [ [ 417524.06801651843125, 7621274.418781686574221 ], [ 417134.295139889232814, 7621429.41405557282269 ] ] ] } },
{ "type": "Feature", "properties": { "fid": 1185.0, "COMPR_M": 412.9, "CLASSE": "03 - Média", "CD_FAZ": " 403991", "TALHOES": "1, 2", "FAZ_tAL": "403886001, 403991001, 403884002", "ID_LINHA": 215646 }, "geometry": { "type": "MultiLineString", "coordinates": [ [ [ 417524.153225949092302, 7621271.156404538080096 ], [ 417140.597671384457499, 7621423.679326983168721 ] ] ] } },
{ "type": "Feature", "properties": { "fid": 1186.0, "COMPR_M": 406.21, "CLASSE": "03 - Média", "CD_FAZ": " 403991", "TALHOES": "1, 2", "FAZ_tAL": "403886001, 403991001, 403884002", "ID_LINHA": 215647 }, "geometry": { "type": "MultiLineString", "coordinates": [ [ [ 417524.2384353823727, 7621267.894027393311262 ], [ 417146.900202880613506, 7621417.944598387926817 ] ] ] } },
{ "type": "Feature", "properties": { "fid": 1187.0, "COMPR_M": 399.51, "CLASSE": "03 - Média", "CD_FAZ": " 403991", "TALHOES": "1, 2", "FAZ_tAL": "403886001, 403991001, 403884002", "ID_LINHA": 215648 }, "geometry": { "type": "MultiLineString", "coordinates": [ [ [ 417524.323644814896397, 7621264.631650247611105 ], [ 417153.202734376303852, 7621412.209869790822268 ] ] ] } },
{ "type": "Feature", "properties": { "fid": 1188.0, "COMPR_M": 392.82, "CLASSE": "03 - Média", "CD_FAZ": " 403991", "TALHOES": "1, 2", "FAZ_tAL": "403886001, 403991001, 403884002", "ID_LINHA": 215649 }, "geometry": { "type": "MultiLineString", "coordinates": [ [ [ 417524.408854248118587, 7621261.369273100048304 ], [ 417159.505265873449389, 7621406.475141197443008 ] ] ] } },
{ "type": "Feature", "properties": { "fid": 1189.0, "COMPR_M": 386.13, "CLASSE": "03 - Média", "CD_FAZ": " 403991", "TALHOES": "1, 2", "FAZ_tAL": "403886001, 403991001, 403884002", "ID_LINHA": 215650 }, "geometry": { "type": "MultiLineString", "coordinates": [ [ [ 417524.494063680642284, 7621258.106895955279469 ], [ 417165.807797368150204, 7621400.740412602201104 ] ] ] } },
{ "type": "Feature", "properties": { "fid": 1190.0, "COMPR_M": 379.43, "CLASSE": "03 - Média", "CD_FAZ": " 403991", "TALHOES": "1, 2", "FAZ_tAL": "403886001, 403991001, 403884002", "ID_LINHA": 215651 }, "geometry": { "type": "MultiLineString", "coordinates": [ [ [ 417524.579273113165982, 7621254.844518810510635 ], [ 417172.110328866227064, 7621395.0056840069592 ] ] ] } },
{ "type": "Feature", "properties": { "fid": 1191.0, "COMPR_M": 372.74, "CLASSE": "03 - Média", "CD_FAZ": " 403991", "TALHOES": "1, 2", "FAZ_tAL": "403886001, 403991001, 403884002", "ID_LINHA": 215652 }, "geometry": { "type": "MultiLineString", "coordinates": [ [ [ 417524.664482546271756, 7621251.582141662016511 ], [ 417178.412860361800995, 7621389.270955415442586 ] ] ] } },
{ "type": "Feature", "properties": { "fid": 1192.0, "COMPR_M": 366.15, "CLASSE": "03 - Média", "CD_FAZ": " 403991", "TALHOES": "1, 2", "FAZ_tAL": "403886001, 403991001, 403884002", "ID_LINHA": 215653 }, "geometry": { "type": "MultiLineString", "coordinates": [ [ [ 417524.749691979377531, 7621248.319764517247677 ], [ 417184.618572914623655, 7621383.574727391824126 ] ] ] } },
{ "type": "Feature", "properties": { "fid": 1193.0, "COMPR_M": 359.62, "CLASSE": "03 - Média", "CD_FAZ": " 403991", "TALHOES": "1, 2", "FAZ_tAL": "403886001, 403991001, 403884002", "ID_LINHA": 215654 }, "geometry": { "type": "MultiLineString", "coordinates": [ [ [ 417524.834901411784813, 7621245.057387370616198 ], [ 417190.770139415864833, 7621377.900030836462975 ] ] ] } },
{ "type": "Feature", "properties": { "fid": 1194.0, "COMPR_M": 353.09, "CLASSE": "03 - Média", "CD_FAZ": " 403991", "TALHOES": "1, 2", "FAZ_tAL": "403886001, 403991001, 403884002", "ID_LINHA": 215655 }, "geometry": { "type": "MultiLineString", "coordinates": [ [ [ 417524.920110844832379, 7621241.795010225847363 ], [ 417196.921705919550732, 7621372.2253342801705 ] ] ] } },
{ "type": "Feature", "properties": { "fid": 1195.0, "COMPR_M": 346.56, "CLASSE": "03 - Média", "CD_FAZ": " 403991", "TALHOES": "1, 2", "FAZ_tAL": "403886001, 403991001, 403884002", "ID_LINHA": 215656 }, "geometry": { "type": "MultiLineString", "coordinates": [ [ [ 417525.005320277821738, 7621238.532633080147207 ], [ 417203.073272421490401, 7621366.550637728534639 ] ] ] } },
{ "type": "Feature", "properties": { "fid": 1196.0, "COMPR_M": 333.5, "CLASSE": "03 - Média", "CD_FAZ": " 403991", "TALHOES": "1, 2", "FAZ_tAL": "403886001, 403991001, 403884002", "ID_LINHA": 215657 }, "geometry": { "type": "MultiLineString", "coordinates": [ [ [ 417525.175739143043756, 7621232.007878787815571 ], [ 417215.376405427115969, 7621355.201244615018368 ] ] ] } },
{ "type": "Feature", "properties": { "fid": 1197.0, "COMPR_M": 326.97, "CLASSE": "03 - Média", "CD_FAZ": " 403991", "TALHOES": "1, 2", "FAZ_tAL": "403886001, 403991001, 403884002", "ID_LINHA": 215658 }, "geometry": { "type": "MultiLineString", "coordinates": [ [ [ 417525.2609485766734, 7621228.745501639321446 ], [ 417221.527971928822808, 7621349.526548057794571 ] ] ] } },
{ "type": "Feature", "properties": { "fid": 1246.0, "COMPR_M": 340.03, "CLASSE": "03 - Média", "CD_FAZ": " 403991", "TALHOES": "1, 2", "FAZ_tAL": "403886001, 403991001, 403884002", "ID_LINHA": 215706 }, "geometry": { "type": "MultiLineString", "coordinates": [ [ [ 417525.090529710811097, 7621235.27025593444705 ], [ 417209.2248389251763, 7621360.875941170379519 ] ] ] } },
{ "type": "Feature", "properties": { "fid": 1247.0, "COMPR_M": 576.73, "CLASSE": "03 - Média", "CD_FAZ": " 403991", "TALHOES": "1, 2", "FAZ_tAL": "403886001, 403991001, 403884002", "ID_LINHA": 215707 }, "geometry": { "type": "MultiLineString", "coordinates": [ [ [ 417487.263684324221686, 7621382.680523274466395 ], [ 416951.521726505714469, 7621595.721184816211462 ] ] ] } },
{ "type": "Feature", "properties": { "fid": 230.0, "COMPR_M": 1044.91, "CLASSE": "06 - Acima do limite", "CD_FAZ": " 403991", "TALHOES": "1, 2", "FAZ_tAL": "404018001, 403991001, 404018002", "ID_LINHA": 249486 }, "geometry": { "type": "MultiLineString", "coordinates": [ [ [ 417087.899308521242347, 7621237.289070343598723 ], [ 417117.304938928340562, 7621221.411146350204945 ], [ 417141.283055078412872, 7621207.036831913515925 ], [ 417164.277142006671056, 7621192.014242503792048 ], [ 417193.452856459538452, 7621171.135919813066721 ], [ 417221.0265108217136, 7621149.450902889482677 ], [ 417247.0786916227662, 7621127.132247040979564 ], [ 417271.705047937051859, 7621104.323203302919865 ], [ 417294.996546220965683, 7621081.148583713918924 ], [ 417317.243621159926988, 7621057.486785937100649 ], [ 417339.210414878849406, 7621032.453748131170869 ], [ 417360.837043064238969, 7621005.824587219394743 ], [ 417381.932027189061046, 7620977.480915555730462 ], [ 417402.285927413380705, 7620947.291112273931503 ], [ 417416.909645659092348, 7620923.378533460199833 ], [ 417430.856122042343486, 7620898.327177811414003 ], [ 417443.992265168577433, 7620872.111505450680852 ], [ 417456.128859491960611, 7620844.831106376834214 ], [ 417466.839964649814647, 7620817.407796557992697 ], [ 417476.115397101501003, 7620790.201914338395 ], [ 417484.075020355230663, 7620763.287532481364906 ], [ 417490.83331892901333, 7620736.735268531367183 ], [ 417498.174695276713464, 7620701.954985287040472 ], [ 417502.562253134441562, 7620676.393339989706874 ], [ 417507.108448294224218, 7620643.065582972019911 ], [ 417510.360696675896179, 7620610.624617187306285 ], [ 417512.510228501225356, 7620579.13033482991159 ], [ 417513.732093533442821, 7620548.443546822294593 ], [ 417514.152289697085507, 7620511.118770500645041 ], [ 417513.552996122278273, 7620474.968032730743289 ], [ 417512.148653243668377, 7620440.003322998993099 ], [ 417509.684110190602951, 7620399.615260418504477 ], [ 417506.253723410074599, 7620356.037550888024271 ] ] ] } },
{ "type": "Feature", "properties": { "fid": 231.0, "COMPR_M": 1044.36, "CLASSE": "06 - Acima do limite", "CD_FAZ": " 403991", "TALHOES": "1, 2", "FAZ_tAL": "404018001, 403991001, 404018002", "ID_LINHA": 249487 }, "geometry": { "type": "MultiLineString", "coordinates": [ [ [ 417082.6965468954877, 7621236.572950841858983 ], [ 417107.633399014361203, 7621223.418390247970819 ], [ 417131.841524380550254, 7621209.342137916944921 ], [ 417155.063401015766431, 7621194.586837448179722 ], [ 417184.538570285541937, 7621174.018653949722648 ], [ 417212.398330788651947, 7621152.600605925545096 ], [ 417238.729223889065906, 7621130.503841357305646 ], [ 417263.617747103911825, 7621107.882770888507366 ], [ 417287.159947231994011, 7621084.861714050173759 ], [ 417309.516161139181349, 7621061.472642221488059 ], [ 417331.471516682766378, 7621036.898110216483474 ], [ 417353.124589373124763, 7621010.770288983359933 ], [ 417374.292609974043444, 7620982.970395591109991 ], [ 417394.772965250653215, 7620953.370457318611443 ], [ 417409.534930256952066, 7620929.925116735510528 ], [ 417428.204410803737119, 7620896.924002861604095 ], [ 417441.280424544005655, 7620870.828364731743932 ], [ 417453.359962523332797, 7620843.676224526017904 ], [ 417464.0217518620193, 7620816.379129474051297 ], [ 417473.256126228137873, 7620789.293624244630337 ], [ 417481.18198772665346, 7620762.493347980082035 ], [ 417487.91293282614788, 7620736.048491664230824 ], [ 417495.226231162028853, 7620701.401072150096297 ], [ 417499.598032538313419, 7620675.931151785887778 ], [ 417504.128943949472159, 7620642.715251007117331 ], [ 417507.371088667074218, 7620610.374845799058676 ], [ 417509.514495667128358, 7620578.970031811855733 ], [ 417510.733133620989975, 7620548.363975388929248 ], [ 417511.152295525826048, 7620511.129000349901617 ], [ 417510.554258780903183, 7620475.055350232869387 ], [ 417509.152472858782858, 7620440.154770292341709 ], [ 417506.691543705121148, 7620399.826361060142517 ], [ 417503.375328758207615, 7620357.593465952202678 ] ] ] } },
{ "type": "Feature", "properties": { "fid": 232.0, "COMPR_M": 1039.37, "CLASSE": "06 - Acima do limite", "CD_FAZ": " 403991", "TALHOES": "1, 2", "FAZ_tAL": "404018001, 403991001, 404018002", "ID_LINHA": 249488 }, "geometry": { "type": "MultiLineString", "coordinates": [ [ [ 417081.45109086681623, 7621233.840566106140614 ], [ 417106.178485688753426, 7621220.794717825949192 ], [ 417130.281816705712117, 7621206.779385654255748 ], [ 417153.406645442009903, 7621192.085735936649144 ], [ 417182.763944796926808, 7621171.599769205786288 ], [ 417210.518013176275417, 7621150.262944088317454 ], [ 417236.754407878383063, 7621128.245452335104346 ], [ 417261.558644283213653, 7621105.700963666662574 ], [ 417285.025644760171417, 7621082.753417981788516 ], [ 417307.313875604828354, 7621059.43546424806118 ], [ 417329.198949133395217, 7621034.939633628353477 ], [ 417350.777100885286927, 7621008.902258800342679 ], [ 417371.866410475922748, 7620981.205786068923771 ], [ 417392.265339737350587, 7620951.723591968417168 ], [ 417406.965395417995751, 7620928.376604314893484 ], [ 417425.552699565247167, 7620895.520827911794186 ], [ 417438.568583918386139, 7620869.545224015600979 ], [ 417450.591065553424414, 7620842.521342674270272 ], [ 417461.203539073409047, 7620815.350462386384606 ], [ 417470.39685535361059, 7620788.385334152728319 ], [ 417478.288955099065788, 7620761.699163477867842 ], [ 417484.99254672502866, 7620735.361714796163142 ], [ 417492.27776704687858, 7620700.847159011289477 ], [ 417496.63381194032263, 7620675.468963582068682 ], [ 417501.149439604254439, 7620642.364919036626816 ], [ 417504.381480659707449, 7620610.125074410811067 ], [ 417506.518762832216453, 7620578.809728797525167 ], [ 417507.73417370673269, 7620548.284403959289193 ], [ 417508.152301352412906, 7620511.139230198226869 ], [ 417507.555521439178847, 7620475.142667734995484 ], [ 417506.156292474362999, 7620440.306217581033707 ], [ 417503.698977220570669, 7620400.037461699917912 ], [ 417500.496934105176479, 7620359.149381021037698 ] ] ] } },
{ "type": "Feature", "properties": { "fid": 233.0, "COMPR_M": 1034.38, "CLASSE": "06 - Acima do limite", "CD_FAZ": " 403991", "TALHOES": "1, 2", "FAZ_tAL": "404018001, 403991001, 404018002", "ID_LINHA": 249489 }, "geometry": { "type": "MultiLineString", "coordinates": [ [ [ 417080.205634838202968, 7621231.108181368559599 ], [ 417104.723572361923289, 7621218.171045402996242 ], [ 417128.722109030350111, 7621204.216633392497897 ], [ 417151.749889868427999, 7621189.584634425118566 ], [ 417180.989319309534039, 7621169.180884458124638 ], [ 417208.637695565237664, 7621147.925282253883779 ], [ 417234.779591868398711, 7621125.987063318490982 ], [ 417259.499541462748311, 7621103.519156447611749 ], [ 417282.891342291957699, 7621080.64512191247195 ], [ 417305.111590070766397, 7621057.398286269977689 ], [ 417326.926381585421041, 7621032.981157040223479 ], [ 417348.429612397390883, 7621007.034228617325425 ], [ 417369.440210975531954, 7620979.441176543943584 ], [ 417389.757714223989751, 7620950.076726621948183 ], [ 417404.395860577060375, 7620926.828091897070408 ], [ 417422.90098832687363, 7620894.117652959190309 ], [ 417435.856743291718885, 7620868.262083296664059 ], [ 417447.82216858281754, 7620841.366460824385285 ], [ 417458.385326285904739, 7620814.321795299649239 ], [ 417467.537584477860946, 7620787.477044062688947 ], [ 417475.395922471187077, 7620760.904978977516294 ], [ 417482.07216062216321, 7620734.674937929958105 ], [ 417489.329302931262646, 7620700.293245876207948 ], [ 417493.669591342448257, 7620675.006775379180908 ], [ 417498.169935260491911, 7620642.014587070792913 ], [ 417501.39187265036162, 7620609.875303020700812 ], [ 417503.52302999724634, 7620578.649425781331956 ], [ 417504.735213792650029, 7620548.204832527786493 ], [ 417505.152307182142977, 7620511.149460050277412 ], [ 417504.556784097803757, 7620475.229985238984227 ], [ 417503.160112090292387, 7620440.457664873450994 ], [ 417500.706410737591796, 7620400.248562343418598 ], [ 417497.618539450864773, 7620360.705296086147428 ] ] ] } }
]
}
