{
"type": "FeatureCollection",
"name": " 403874",
"crs": { "type": "name", "properties": { "name": "urn:ogc:def:crs:EPSG::32722" } },
"xy_coordinate_resolution": 1e-15,
"features": [
{ "type": "Feature", "properties": { "fid": 531.0, "COMPR_M": 402.72, "CLASSE": "03 - Média", "CD_FAZ": " 403874", "TALHOES": "6, 1", "FAZ_tAL": "403662006, 403874001", "ID_LINHA": 197220 }, "geometry": { "type": "MultiLineString", "coordinates": [ [ [ 424455.084872190316673, 7625318.529343914240599 ], [ 424439.558589471853338, 7625341.786042525433004 ], [ 424387.358194189495407, 7625413.205885387957096 ], [ 424364.659326841996517, 7625446.54916731081903 ], [ 424351.867194656631909, 7625467.309872429817915 ], [ 424342.602225376642309, 7625483.786571397446096 ], [ 424333.789669387799222, 7625501.117088718339801 ], [ 424325.605013637512457, 7625519.386626647785306 ], [ 424318.257579628494568, 7625538.681809183210135 ], [ 424311.998356925847474, 7625559.076776701956987 ], [ 424307.124875984562095, 7625580.615087265148759 ], [ 424303.979489639750682, 7625603.272982493042946 ], [ 424302.928062908700667, 7625626.928896304219961 ], [ 424303.561813764681574, 7625643.068376556038857 ], [ 424305.239889162243344, 7625658.794629417359829 ], [ 424308.866714917239733, 7625678.922606852836907 ] ] ] } },
{ "type": "Feature", "properties": { "fid": 532.0, "COMPR_M": 388.85, "CLASSE": "03 - Média", "CD_FAZ": " 403874", "TALHOES": "6, 1", "FAZ_tAL": "403662006, 403874001", "ID_LINHA": 197221 }, "geometry": { "type": "MultiLineString", "coordinates": [ [ [ 424452.515472086379305, 7625316.979514729231596 ], [ 424434.62937086034799, 7625343.562562866136432 ], [ 424388.123422969365492, 7625406.982668314129114 ], [ 424365.392642237362452, 7625439.915418528020382 ], [ 424352.458917993470095, 7625460.446988690644503 ], [ 424343.024166804854758, 7625476.749134731478989 ], [ 424333.982391965924762, 7625493.900454193353653 ], [ 424325.502928090572823, 7625511.984076850116253 ], [ 424317.784750169725157, 7625531.091767022386193 ], [ 424311.068424502969719, 7625551.305214144289494 ], [ 424305.640375436865725, 7625572.684292151592672 ], [ 424302.901286487118341, 7625587.58954855427146 ], [ 424300.383473620400764, 7625610.873617592267692 ], [ 424299.927670392440632, 7625626.943853816017509 ], [ 424300.56947445566766, 7625643.288530502468348 ], [ 424302.961125806905329, 7625663.693916955962777 ] ] ] } },
{ "type": "Feature", "properties": { "fid": 533.0, "COMPR_M": 378.41, "CLASSE": "03 - Média", "CD_FAZ": " 403874", "TALHOES": "6, 1", "FAZ_tAL": "403662006, 403874001", "ID_LINHA": 197222 }, "geometry": { "type": "MultiLineString", "coordinates": [ [ [ 424449.946071982150897, 7625315.42968553956598 ], [ 424432.183775228797458, 7625341.825002138502896 ], [ 424385.687531768053304, 7625405.231533977203071 ], [ 424362.88393764779903, 7625438.270257446914911 ], [ 424343.527832876541652, 7625469.736931717023253 ], [ 424334.279028425458819, 7625486.703777500428259 ], [ 424325.528784088033717, 7625504.59548825956881 ], [ 424317.46652788418578, 7625523.506433984264731 ], [ 424310.321869446372148, 7625543.525404219515622 ], [ 424304.369795857463032, 7625564.724832019768655 ], [ 424301.223196619597729, 7625579.53003557305783 ], [ 424298.004516322049312, 7625602.717596262693405 ], [ 424297.025018034270033, 7625618.774026548489928 ], [ 424297.108679300639778, 7625635.236343365162611 ], [ 424298.325518507510424, 7625651.740117814391851 ] ] ] } },
{ "type": "Feature", "properties": { "fid": 534.0, "COMPR_M": 370.07, "CLASSE": "03 - Média", "CD_FAZ": " 403874", "TALHOES": "6, 1", "FAZ_tAL": "403662006, 403874001", "ID_LINHA": 197223 }, "geometry": { "type": "MultiLineString", "coordinates": [ [ [ 424447.376671877515037, 7625313.879856353625655 ], [ 424429.738179599284194, 7625340.08744140714407 ], [ 424383.251640568370931, 7625403.480399638414383 ], [ 424360.375233056838624, 7625436.625096367672086 ], [ 424340.922492351790424, 7625468.249468713998795 ], [ 424331.615415693260729, 7625485.323323024436831 ], [ 424322.802080852678046, 7625503.344184881076217 ], [ 424314.67412490391871, 7625522.409442994743586 ], [ 424309.749409266747534, 7625535.74568303860724 ], [ 424303.30417303572176, 7625556.747851005755365 ], [ 424299.771025712310802, 7625571.436344936490059 ], [ 424295.880888361250982, 7625594.493369687348604 ], [ 424294.393868520623073, 7625610.507661795243621 ], [ 424293.926885360269807, 7625626.973768839612603 ], [ 424294.47638183622621, 7625641.814383456483483 ] ] ] } },
{ "type": "Feature", "properties": { "fid": 535.0, "COMPR_M": 362.87, "CLASSE": "03 - Média", "CD_FAZ": " 403874", "TALHOES": "6, 1", "FAZ_tAL": "403662006, 403874001", "ID_LINHA": 197224 }, "geometry": { "type": "MultiLineString", "coordinates": [ [ [ 424444.807271773286629, 7625312.330027166754007 ], [ 424427.29258396854857, 7625338.349880681373179 ], [ 424380.815749368397519, 7625401.729265300557017 ], [ 424361.169271534017753, 7625429.988687643781304 ], [ 424341.518148633127566, 7625461.235159352421761 ], [ 424332.027956456819084, 7625478.112788539379835 ], [ 424322.968652055598795, 7625495.929097664542496 ], [ 424314.523439339827746, 7625514.780995996668935 ], [ 424309.341723188350443, 7625527.973396619781852 ], [ 424302.434088108944707, 7625548.763574520125985 ], [ 424298.535803366568871, 7625563.321026830933988 ], [ 424294.005631308013108, 7625586.216737315058708 ], [ 424292.029543004056904, 7625602.162210032343864 ], [ 424291.026628632913344, 7625618.603330769576132 ], [ 424291.058229968766682, 7625633.000025767832994 ] ] ] } },
{ "type": "Feature", "properties": { "fid": 536.0, "COMPR_M": 356.48, "CLASSE": "03 - Média", "CD_FAZ": " 403874", "TALHOES": "6, 1", "FAZ_tAL": "403662006, 403874001", "ID_LINHA": 197225 }, "geometry": { "type": "MultiLineString", "coordinates": [ [ [ 424442.237871668767184, 7625310.780197978019714 ], [ 424424.846988337812945, 7625336.612319953739643 ], [ 424378.37985816859873, 7625399.978130961768329 ], [ 424358.673729553527664, 7625428.323634657077491 ], [ 424338.930887127411552, 7625459.716481084004045 ], [ 424323.245598535635509, 7625488.540420734323561 ], [ 424314.509117642650381, 7625507.172838635742664 ], [ 424309.089318946527783, 7625520.215461006388068 ], [ 424301.749743473948911, 7625540.781433741562068 ], [ 424297.508050442091189, 7625555.195233873091638 ], [ 424292.370677572092973, 7625577.902458032593131 ], [ 424289.925829389481805, 7625593.75479375757277 ], [ 424288.404263420437928, 7625610.141705993562937 ], [ 424287.950202256033663, 7625624.98538245819509 ] ] ] } },
{ "type": "Feature", "properties": { "fid": 537.0, "COMPR_M": 350.67, "CLASSE": "03 - Média", "CD_FAZ": " 403874", "TALHOES": "6, 1", "FAZ_tAL": "403662006, 403874001", "ID_LINHA": 197226 }, "geometry": { "type": "MultiLineString", "coordinates": [ [ [ 424439.668471565179061, 7625309.230368790216744 ], [ 424422.401392707251944, 7625334.874759224243462 ], [ 424375.943966967170127, 7625398.226996623910964 ], [ 424356.178187573386822, 7625426.658581673167646 ], [ 424336.343625621055253, 7625458.197802812792361 ], [ 424320.561400177830365, 7625487.200412373058498 ], [ 424311.760665031266399, 7625505.970029082149267 ], [ 424306.296915964805521, 7625519.118470011278987 ], [ 424298.892368149710819, 7625539.866776913404465 ], [ 424294.609989146585576, 7625554.418925307691097 ], [ 424290.967001124634407, 7625569.564424114301801 ], [ 424288.075194520293735, 7625585.301529824733734 ], [ 424286.054569685598835, 7625601.606823801994324 ], [ 424285.067828584695235, 7625617.552631217055023 ] ] ] } },
{ "type": "Feature", "properties": { "fid": 538.0, "COMPR_M": 345.38, "CLASSE": "03 - Média", "CD_FAZ": " 403874", "TALHOES": "6, 1", "FAZ_tAL": "403662006, 403874001", "ID_LINHA": 197227 }, "geometry": { "type": "MultiLineString", "coordinates": [ [ [ 424437.115065892343409, 7625307.655212538316846 ], [ 424419.955797077389434, 7625333.137198494747281 ], [ 424376.735558543237858, 7625392.005574733950198 ], [ 424357.021997403120622, 7625420.029744447208941 ], [ 424337.039344546967186, 7625451.160091634839773 ], [ 424320.960964766214602, 7625479.801505113951862 ], [ 424311.895267906715162, 7625498.338971382007003 ], [ 424306.212258615822066, 7625511.326773008331656 ], [ 424298.405182115850039, 7625531.83084817789495 ], [ 424293.799751713464502, 7625546.221934892237186 ], [ 424289.784814629645552, 7625561.2153190523386 ], [ 424286.468998208874837, 7625576.81740633957088 ], [ 424283.97077041718876, 7625593.016217829659581 ], [ 424282.37696028733626, 7625610.613713175989687 ] ] ] } },
{ "type": "Feature", "properties": { "fid": 539.0, "COMPR_M": 340.5, "CLASSE": "03 - Média", "CD_FAZ": " 403874", "TALHOES": "6, 1", "FAZ_tAL": "403662006, 403874001", "ID_LINHA": 197228 }, "geometry": { "type": "MultiLineString", "coordinates": [ [ [ 424434.563524642435368, 7625306.077103983610868 ], [ 424417.510201446828432, 7625331.399637768045068 ], [ 424374.306354503380135, 7625390.245178215205669 ], [ 424354.538724860001821, 7625418.346453540958464 ], [ 424334.46941563882865, 7625449.612275457009673 ], [ 424318.297352034249343, 7625478.421050637960434 ], [ 424309.168564669089392, 7625497.087668005377054 ], [ 424303.441865042317659, 7625510.175365343689919 ], [ 424295.569125328795053, 7625530.852139465510845 ], [ 424290.921639582142234, 7625545.374721681699157 ], [ 424286.867818385013379, 7625560.513416456058621 ], [ 424283.518158526800107, 7625576.274880493059754 ], [ 424280.993240930314641, 7625592.646929865702987 ], [ 424279.845262203074526, 7625604.085245931521058 ] ] ] } },
{ "type": "Feature", "properties": { "fid": 540.0, "COMPR_M": 335.86, "CLASSE": "03 - Média", "CD_FAZ": " 403874", "TALHOES": "6, 1", "FAZ_tAL": "403662006, 403874001", "ID_LINHA": 197229 }, "geometry": { "type": "MultiLineString", "coordinates": [ [ [ 424432.011983393575065, 7625304.498995427973568 ], [ 424415.064605815801769, 7625329.662077040411532 ], [ 424371.877150462707505, 7625388.484781697392464 ], [ 424352.055452315951698, 7625416.66316263563931 ], [ 424331.899486731097568, 7625448.064459282904863 ], [ 424315.633739302691538, 7625477.040596161969006 ], [ 424306.441861433209851, 7625495.836364631541073 ], [ 424300.671471467008814, 7625509.023957680910826 ], [ 424295.270011553424411, 7625522.776112616062164 ], [ 424290.320242175890598, 7625537.122806433588266 ], [ 424285.915805257158354, 7625552.08999961335212 ], [ 424282.162976535968482, 7625567.692503290250897 ], [ 424279.179539340257179, 7625583.928718587383628 ], [ 424277.41374036425259, 7625597.815102286636829 ] ] ] } },
{ "type": "Feature", "properties": { "fid": 541.0, "COMPR_M": 331.42, "CLASSE": "03 - Média", "CD_FAZ": " 403874", "TALHOES": "6, 1", "FAZ_tAL": "403662006, 403874001", "ID_LINHA": 197230 }, "geometry": { "type": "MultiLineString", "coordinates": [ [ [ 424429.460442143725231, 7625302.920886874198914 ], [ 424412.619010186055675, 7625327.924516312777996 ], [ 424369.447946423082612, 7625386.724385177716613 ], [ 424349.572179773764219, 7625414.979871729388833 ], [ 424332.684382167877629, 7625441.014781156554818 ], [ 424316.166553077637218, 7625469.602114249952137 ], [ 424306.737126054416876, 7625488.147111084312201 ], [ 424300.766854585555848, 7625501.158790866844356 ], [ 424289.897011755849235, 7625528.8947220351547 ], [ 424285.165415319148451, 7625543.680295266211033 ], [ 424281.033825894992333, 7625559.109611269086599 ], [ 424277.616479161893949, 7625575.189828801900148 ], [ 424275.060646547703072, 7625591.74720027204603 ] ] ] } },
{ "type": "Feature", "properties": { "fid": 542.0, "COMPR_M": 327.28, "CLASSE": "03 - Média", "CD_FAZ": " 403874", "TALHOES": "6, 1", "FAZ_tAL": "403662006, 403874001", "ID_LINHA": 197231 }, "geometry": { "type": "MultiLineString", "coordinates": [ [ [ 424426.908900894224644, 7625301.342778319492936 ], [ 424410.173414555145428, 7625326.186955586075783 ], [ 424367.018742383341305, 7625384.963988658972085 ], [ 424347.088907229306642, 7625413.296580824069679 ], [ 424330.131003878777847, 7625439.439822215586901 ], [ 424313.522985847550444, 7625468.183668535202742 ], [ 424304.03187172167236, 7625486.85011332295835 ], [ 424298.018401974171866, 7625499.955981314182281 ], [ 424292.334901067544706, 7625513.633515044115484 ], [ 424287.060954968095757, 7625527.916013319045305 ], [ 424282.287303186720237, 7625542.833082055673003 ], [ 424278.116829648904968, 7625558.407708674669266 ], [ 424274.665639480401296, 7625574.647302955389023 ], [ 424272.83255986426957, 7625586.001653047278523 ] ] ] } },
{ "type": "Feature", "properties": { "fid": 543.0, "COMPR_M": 323.26, "CLASSE": "03 - Média", "CD_FAZ": " 403874", "TALHOES": "6, 1", "FAZ_tAL": "403662006, 403874001", "ID_LINHA": 197232 }, "geometry": { "type": "MultiLineString", "coordinates": [ [ [ 424424.35735964437481, 7625299.764669765718281 ], [ 424405.280432842555456, 7625327.876043943688273 ], [ 424364.589538342086598, 7625383.203592140227556 ], [ 424347.994035129144322, 7625406.652125639840961 ], [ 424330.978312162565999, 7625432.414264753460884 ], [ 424314.158792790723965, 7625460.754222407005727 ], [ 424304.456210032221861, 7625479.160362188704312 ], [ 424298.261751722428016, 7625492.082454503513873 ], [ 424286.826984570478089, 7625519.657742213457823 ], [ 424281.748116202477831, 7625534.378835953772068 ], [ 424277.221621368080378, 7625549.761073915287852 ], [ 424273.358951949456241, 7625565.820582466199994 ], [ 424270.652367214264814, 7625580.379609731957316 ] ] ] } },
{ "type": "Feature", "properties": { "fid": 544.0, "COMPR_M": 319.38, "CLASSE": "03 - Média", "CD_FAZ": " 403874", "TALHOES": "6, 1", "FAZ_tAL": "403662006, 403874001", "ID_LINHA": 197233 }, "geometry": { "type": "MultiLineString", "coordinates": [ [ [ 424421.805818394874223, 7625298.186561210080981 ], [ 424402.842954630090389, 7625326.127117807045579 ], [ 424362.160334302578121, 7625381.443195620551705 ], [ 424345.522120296373032, 7625404.952205214649439 ], [ 424328.440671642136294, 7625430.814081413671374 ], [ 424311.534667882078793, 7625459.300139468163252 ], [ 424301.772011675115209, 7625477.820353824645281 ], [ 424295.535048486664891, 7625490.831151128746569 ], [ 424284.012642244691961, 7625518.618285413831472 ], [ 424278.890740877657663, 7625533.464179126545787 ], [ 424274.323560071003158, 7625548.984765348955989 ], [ 424268.534403485362418, 7625574.918035579845309 ] ] ] } },
{ "type": "Feature", "properties": { "fid": 545.0, "COMPR_M": 315.67, "CLASSE": "03 - Média", "CD_FAZ": " 403874", "TALHOES": "6, 1", "FAZ_tAL": "403662006, 403874001", "ID_LINHA": 197234 }, "geometry": { "type": "MultiLineString", "coordinates": [ [ [ 424419.254277145024389, 7625296.608452657237649 ], [ 424400.405476416286547, 7625324.378191670402884 ], [ 424359.731130261556245, 7625379.682799104601145 ], [ 424343.050205463834573, 7625403.25228479038924 ], [ 424325.903031120658852, 7625429.213898077607155 ], [ 424308.910542971570976, 7625457.846056528389454 ], [ 424299.087813317135442, 7625476.480345459654927 ], [ 424292.808345249271952, 7625489.579847753047943 ], [ 424281.198299917567056, 7625517.578828610479832 ], [ 424273.65296679304447, 7625540.291442431509495 ], [ 424269.365840911807027, 7625556.302000892348588 ], [ 424266.485150753578637, 7625569.633645860478282 ] ] ] } },
{ "type": "Feature", "properties": { "fid": 546.0, "COMPR_M": 311.98, "CLASSE": "03 - Média", "CD_FAZ": " 403874", "TALHOES": "6, 1", "FAZ_tAL": "403662006, 403874001", "ID_LINHA": 197235 }, "geometry": { "type": "MultiLineString", "coordinates": [ [ [ 424416.681188162823673, 7625295.064464779570699 ], [ 424397.967998204403557, 7625322.629265531897545 ], [ 424357.301926221058238, 7625377.922402586787939 ], [ 424340.578290630772244, 7625401.552364364266396 ], [ 424323.365390600753017, 7625427.613714735955 ], [ 424309.658406047499739, 7625450.399912664666772 ], [ 424299.65206291154027, 7625468.757869299501181 ], [ 424293.210854388074949, 7625481.662122269161046 ], [ 424281.165289148048032, 7625509.245551068335772 ], [ 424275.716727817372885, 7625524.001178463920951 ], [ 424270.774854661547579, 7625539.44422922283411 ], [ 424264.462041832157411, 7625564.416672953404486 ] ] ] } },
{ "type": "Feature", "properties": { "fid": 547.0, "COMPR_M": 308.45, "CLASSE": "03 - Média", "CD_FAZ": " 403874", "TALHOES": "6, 1", "FAZ_tAL": "403662006, 403874001", "ID_LINHA": 197236 }, "geometry": { "type": "MultiLineString", "coordinates": [ [ [ 424414.103026055439841, 7625293.528510162606835 ], [ 424395.530519993859343, 7625320.880339397117496 ], [ 424354.872722182364669, 7625376.162006065249443 ], [ 424338.106375799223315, 7625399.852443940006196 ], [ 424320.827750079683028, 7625426.01353139989078 ], [ 424307.053065521351527, 7625448.91244966071099 ], [ 424296.988450179749634, 7625467.377414823509753 ], [ 424290.505600054340903, 7625480.365124506875873 ], [ 424278.372886168363038, 7625508.148560071364045 ], [ 424270.318614904768765, 7625530.720208647660911 ], [ 424265.629376182099804, 7625546.655839651823044 ], [ 424262.512810780724976, 7625559.390208251774311 ] ] ] } },
{ "type": "Feature", "properties": { "fid": 548.0, "COMPR_M": 304.94, "CLASSE": "03 - Média", "CD_FAZ": " 403874", "TALHOES": "6, 1", "FAZ_tAL": "403662006, 403874001", "ID_LINHA": 197237 }, "geometry": { "type": "MultiLineString", "coordinates": [ [ [ 424411.524863948812708, 7625291.992555540986359 ], [ 424393.093041781219654, 7625319.131413258612156 ], [ 424352.443518141459208, 7625374.401609545573592 ], [ 424335.634460966510233, 7625398.152523515745997 ], [ 424318.290109560184646, 7625424.413348061032593 ], [ 424304.447724997182377, 7625447.424986654892564 ], [ 424291.035218244767748, 7625472.460320369340479 ], [ 424278.508322870417032, 7625499.812696378678083 ], [ 424272.755272936890833, 7625514.460458209738135 ], [ 424267.461239581229165, 7625529.805551821365952 ], [ 424260.571961735957302, 7625554.385358156636357 ] ] ] } },
{ "type": "Feature", "properties": { "fid": 549.0, "COMPR_M": 301.59, "CLASSE": "03 - Média", "CD_FAZ": " 403874", "TALHOES": "6, 1", "FAZ_tAL": "403662006, 403874001", "ID_LINHA": 197238 }, "geometry": { "type": "MultiLineString", "coordinates": [ [ [ 424408.946701840148307, 7625290.456600924953818 ], [ 424390.655563569278456, 7625317.382487121969461 ], [ 424336.596404606942087, 7625391.493414154276252 ], [ 424319.249961745343171, 7625417.32507751788944 ], [ 424305.296487552812323, 7625439.973663584329188 ], [ 424288.351019887777511, 7625471.120312007144094 ], [ 424275.737929297611117, 7625498.661288715898991 ], [ 424267.208557455684058, 7625521.065052317455411 ], [ 424262.140518267231528, 7625536.902589594013989 ], [ 424258.69973273598589, 7625549.55745795276016 ] ] ] } },
{ "type": "Feature", "properties": { "fid": 550.0, "COMPR_M": 298.24, "CLASSE": "02 - Curta", "CD_FAZ": " 403874", "TALHOES": "6, 1", "FAZ_tAL": "403662006, 403874001", "ID_LINHA": 197239 }, "geometry": { "type": "MultiLineString", "coordinates": [ [ [ 424406.368539734918159, 7625288.92064630240202 ], [ 424388.218085357220843, 7625315.633560981601477 ], [ 424334.134920060751028, 7625389.77843027561903 ], [ 424316.72721924103098, 7625415.701516973786056 ], [ 424302.709226046397816, 7625438.454985314980149 ], [ 424288.99761198455235, 7625463.236051391810179 ], [ 424276.030781081120949, 7625490.333504883572459 ], [ 424269.995677230297588, 7625504.857587090693414 ], [ 424264.372500669036526, 7625520.086343601346016 ], [ 424256.830657362239435, 7625544.737689981237054 ] ] ] } },
{ "type": "Feature", "properties": { "fid": 576.0, "COMPR_M": 226.38, "CLASSE": "02 - Curta", "CD_FAZ": " 403874", "TALHOES": "6, 1", "FAZ_tAL": "403662006, 403874001", "ID_LINHA": 197265 }, "geometry": { "type": "MultiLineString", "coordinates": [ [ [ 424339.736778447171673, 7625248.351710985414684 ], [ 424327.023163120029494, 7625267.109890829771757 ], [ 424280.94421016034903, 7625329.932757446542382 ], [ 424258.852050342480652, 7625361.721515310928226 ], [ 424247.236174983438104, 7625379.608214593492448 ], [ 424235.44042689667549, 7625398.969350317493081 ], [ 424223.641700028034393, 7625419.956514224410057 ], [ 424214.970468734391034, 7625436.793195432052016 ] ] ] } },
{ "type": "Feature", "properties": { "fid": 577.0, "COMPR_M": 223.92, "CLASSE": "02 - Curta", "CD_FAZ": " 403874", "TALHOES": "6, 1", "FAZ_tAL": "403662006, 403874001", "ID_LINHA": 197266 }, "geometry": { "type": "MultiLineString", "coordinates": [ [ [ 424337.191830205847509, 7625246.763162450864911 ], [ 424324.577567490225192, 7625265.372330100275576 ], [ 424278.508318960375618, 7625328.181623105891049 ], [ 424256.356508361874148, 7625360.056462325155735 ], [ 424244.698534463241231, 7625378.008031254634261 ], [ 424232.853165390784852, 7625397.450672049075365 ], [ 424220.998132798355073, 7625418.538068509660661 ], [ 424213.499228901171591, 7625432.999322412535548 ] ] ] } },
{ "type": "Feature", "properties": { "fid": 578.0, "COMPR_M": 221.5, "CLASSE": "02 - Curta", "CD_FAZ": " 403874", "TALHOES": "6, 1", "FAZ_tAL": "403662006, 403874001", "ID_LINHA": 197267 }, "geometry": { "type": "MultiLineString", "coordinates": [ [ [ 424334.646881963009946, 7625245.174613919109106 ], [ 424322.131971859198529, 7625263.63476937264204 ], [ 424276.07242776005296, 7625326.430488768965006 ], [ 424253.860966381733306, 7625358.39140934124589 ], [ 424242.16089394123992, 7625376.407847915776074 ], [ 424230.265903884836007, 7625395.931993778795004 ], [ 424212.043544293148443, 7625429.245561518706381 ] ] ] } },
{ "type": "Feature", "properties": { "fid": 579.0, "COMPR_M": 219.07, "CLASSE": "02 - Curta", "CD_FAZ": " 403874", "TALHOES": "6, 1", "FAZ_tAL": "403662006, 403874001", "ID_LINHA": 197268 }, "geometry": { "type": "MultiLineString", "coordinates": [ [ [ 424332.101933718717191, 7625243.586065387353301 ], [ 424319.686376228171866, 7625261.897208645008504 ], [ 424273.636536559381057, 7625324.67935443110764 ], [ 424251.365424401941709, 7625356.726356359198689 ], [ 424239.623253422148991, 7625374.807664576917887 ], [ 424227.678642379411031, 7625394.413315512239933 ], [ 424210.587859688967001, 7625425.491800628602505 ] ] ] } },
{ "type": "Feature", "properties": { "fid": 580.0, "COMPR_M": 216.65, "CLASSE": "02 - Curta", "CD_FAZ": " 403874", "TALHOES": "6, 1", "FAZ_tAL": "403662006, 403874001", "ID_LINHA": 197269 }, "geometry": { "type": "MultiLineString", "coordinates": [ [ [ 424329.556985476287082, 7625241.997516855597496 ], [ 424317.240780597319826, 7625260.159647913649678 ], [ 424271.200645359000191, 7625322.92822009138763 ], [ 424248.869882420520298, 7625355.061303375288844 ], [ 424229.102330420166254, 7625386.151812234893441 ], [ 424217.066171109385323, 7625406.953153667971492 ], [ 424209.132842444174457, 7625421.739760651253164 ] ] ] } },
{ "type": "Feature", "properties": { "fid": 581.0, "COMPR_M": 214.26, "CLASSE": "02 - Curta", "CD_FAZ": " 403874", "TALHOES": "6, 1", "FAZ_tAL": "403662006, 403874001", "ID_LINHA": 197270 }, "geometry": { "type": "MultiLineString", "coordinates": [ [ [ 424327.012037232401781, 7625240.408968323841691 ], [ 424314.795184967108071, 7625258.422087187878788 ], [ 424268.764754159608856, 7625321.177085753530264 ], [ 424246.37434044026304, 7625353.396250391378999 ], [ 424226.532401511445642, 7625384.603996057063341 ], [ 424207.695928893110249, 7625418.034404514357448 ] ] ] } },
{ "type": "Feature", "properties": { "fid": 582.0, "COMPR_M": 211.87, "CLASSE": "02 - Curta", "CD_FAZ": " 403874", "TALHOES": "6, 1", "FAZ_tAL": "403662006, 403874001", "ID_LINHA": 197271 }, "geometry": { "type": "MultiLineString", "coordinates": [ [ [ 424324.467088989680633, 7625238.820419792085886 ], [ 424310.218782566022128, 7625259.667924595065415 ], [ 424269.850580777099822, 7625314.548127915710211 ], [ 424247.758005491807126, 7625345.96494460478425 ], [ 424223.962472604413051, 7625383.056179881095886 ], [ 424206.259015343035571, 7625414.329048374667764 ] ] ] } },
{ "type": "Feature", "properties": { "fid": 583.0, "COMPR_M": 209.48, "CLASSE": "02 - Curta", "CD_FAZ": " 403874", "TALHOES": "6, 1", "FAZ_tAL": "403662006, 403874001", "ID_LINHA": 197272 }, "geometry": { "type": "MultiLineString", "coordinates": [ [ [ 424321.922140746144578, 7625237.231871258467436 ], [ 424307.781304354197346, 7625257.918998457491398 ], [ 424267.421376736310776, 7625312.787731397897005 ], [ 424245.274732948280871, 7625344.281653697602451 ], [ 424221.392543695808854, 7625381.508363706059754 ], [ 424204.822101793310139, 7625410.62369223497808 ] ] ] } },
{ "type": "Feature", "properties": { "fid": 584.0, "COMPR_M": 207.11, "CLASSE": "02 - Curta", "CD_FAZ": " 403874", "TALHOES": "6, 1", "FAZ_tAL": "403662006, 403874001", "ID_LINHA": 197273 }, "geometry": { "type": "MultiLineString", "coordinates": [ [ [ 424319.377192501153331, 7625235.643322726711631 ], [ 424305.343826143594924, 7625256.170072320848703 ], [ 424264.992172697384376, 7625311.027334880083799 ], [ 424242.791460403939709, 7625342.598362790420651 ], [ 424222.889115682512056, 7625373.291546640917659 ], [ 424203.397780726896599, 7625406.950808226130903 ] ] ] } },
{ "type": "Feature", "properties": { "fid": 585.0, "COMPR_M": 204.76, "CLASSE": "02 - Curta", "CD_FAZ": " 403874", "TALHOES": "6, 1", "FAZ_tAL": "403662006, 403874001", "ID_LINHA": 197274 }, "geometry": { "type": "MultiLineString", "coordinates": [ [ [ 424316.83224426000379, 7625234.054774194955826 ], [ 424302.906347931013443, 7625254.421146184206009 ], [ 424262.562968657584861, 7625309.266938362270594 ], [ 424240.308187861344777, 7625340.915071887895465 ], [ 424220.335737391607836, 7625371.716587699949741 ], [ 424201.977901170728728, 7625403.289377499371767 ] ] ] } },
{ "type": "Feature", "properties": { "fid": 586.0, "COMPR_M": 202.4, "CLASSE": "02 - Curta", "CD_FAZ": " 403874", "TALHOES": "6, 1", "FAZ_tAL": "403662006, 403874001", "ID_LINHA": 197275 }, "geometry": { "type": "MultiLineString", "coordinates": [ [ [ 424314.287296014721505, 7625232.466225663200021 ], [ 424300.468869718373753, 7625252.672220044769347 ], [ 424260.133764616970439, 7625307.506541842594743 ], [ 424237.824915317352861, 7625339.231780980713665 ], [ 424217.78235910233343, 7625370.141628756187856 ], [ 424200.558021617820486, 7625399.627946771681309 ] ] ] } },
{ "type": "Feature", "properties": { "fid": 587.0, "COMPR_M": 200.05, "CLASSE": "02 - Curta", "CD_FAZ": " 403874", "TALHOES": "6, 1", "FAZ_tAL": "403662006, 403874001", "ID_LINHA": 197276 }, "geometry": { "type": "MultiLineString", "coordinates": [ [ [ 424311.742347772582434, 7625230.877677133306861 ], [ 424298.031391505675856, 7625250.923293908126652 ], [ 424257.704560576879885, 7625305.746145323850214 ], [ 424235.341642774408683, 7625337.548490076325834 ], [ 424215.228980811312795, 7625368.566669816151261 ], [ 424199.143805879750289, 7625395.981121282093227 ] ] ] } },
{ "type": "Feature", "properties": { "fid": 588.0, "COMPR_M": 197.72, "CLASSE": "02 - Curta", "CD_FAZ": " 403874", "TALHOES": "6, 1", "FAZ_tAL": "403662006, 403874001", "ID_LINHA": 197277 }, "geometry": { "type": "MultiLineString", "coordinates": [ [ [ 424309.197399529744871, 7625229.289128597825766 ], [ 424295.593913294258527, 7625249.17436777241528 ], [ 424255.275356537196785, 7625303.985748806968331 ], [ 424236.757867669861298, 7625330.155706524848938 ], [ 424216.784488735953346, 7625360.406014534644783 ], [ 424197.739398026955314, 7625392.359587289392948 ] ] ] } },
{ "type": "Feature", "properties": { "fid": 589.0, "COMPR_M": 195.38, "CLASSE": "02 - Curta", "CD_FAZ": " 403874", "TALHOES": "6, 1", "FAZ_tAL": "403662006, 403874001", "ID_LINHA": 197278 }, "geometry": { "type": "MultiLineString", "coordinates": [ [ [ 424306.652451285975985, 7625227.700580066069961 ], [ 424293.15643508156063, 7625247.425441633909941 ], [ 424252.846152496058494, 7625302.225352288223803 ], [ 424234.285952839301899, 7625328.455786099657416 ], [ 424214.246848216454964, 7625358.805831195786595 ], [ 424196.334990171540994, 7625388.738053301349282 ] ] ] } },
{ "type": "Feature", "properties": { "fid": 4133.0, "COMPR_M": 546.14, "CLASSE": "03 - Média", "CD_FAZ": " 403874", "TALHOES": "6, 1", "FAZ_tAL": "403662006, 403874001", "ID_LINHA": 200819 }, "geometry": { "type": "MultiLineString", "coordinates": [ [ [ 424457.68728351732716, 7625320.025086944922805 ], [ 424439.52056212030584, 7625347.037684321403503 ], [ 424396.169190863147378, 7625406.088746882975101 ], [ 424380.128927950747311, 7625428.751091160811484 ], [ 424363.967638929490931, 7625453.216648150235415 ], [ 424351.343854453763925, 7625474.199320731684566 ], [ 424336.494923721067607, 7625502.414086479693651 ], [ 424325.843736824172083, 7625526.79740696772933 ], [ 424321.093636414851062, 7625539.660517897456884 ], [ 424316.824648765730672, 7625552.999640563502908 ], [ 424313.120784593163989, 7625566.830539802089334 ], [ 424310.07571566599654, 7625581.157613111659884 ], [ 424306.966976299183443, 7625603.550675607286394 ], [ 424305.928455425135326, 7625626.913938792422414 ], [ 424307.264567621052265, 7625650.693080514669418 ], [ 424309.37297758605564, 7625665.899353843182325 ], [ 424312.249369269236922, 7625680.40687445178628 ], [ 424317.67113476031227, 7625700.910162700340152 ], [ 424324.040634751378093, 7625720.00235571525991 ], [ 424335.832510247710161, 7625748.995179206132889 ], [ 424357.237410650355741, 7625795.103471428155899 ], [ 424360.766819611133542, 7625805.038642289116979 ], [ 424362.245093183242716, 7625814.282772074453533 ] ] ] } },
{ "type": "Feature", "properties": { "fid": 4134.0, "COMPR_M": 547.15, "CLASSE": "03 - Média", "CD_FAZ": " 403874", "TALHOES": "6, 1", "FAZ_tAL": "403662006, 403874001", "ID_LINHA": 200820 }, "geometry": { "type": "MultiLineString", "coordinates": [ [ [ 424455.134930802858435, 7625318.448541473597288 ], [ 424437.074966489919461, 7625345.300123593769968 ], [ 424393.739986823522486, 7625404.328350364230573 ], [ 424377.657013117917813, 7625427.051170736551285 ], [ 424361.429998408188112, 7625451.616464810445905 ], [ 424348.738513927557506, 7625472.711857728660107 ], [ 424333.789669387799222, 7625501.117088716477156 ], [ 424323.051333844661713, 7625525.700415976345539 ], [ 424318.257579628494568, 7625538.681809183210135 ], [ 424313.946536633302458, 7625552.152427354827523 ], [ 424310.203788347775117, 7625566.128637205809355 ], [ 424307.124875984562095, 7625580.615087267011404 ], [ 424303.979489639750682, 7625603.272982493042946 ], [ 424302.928062908700667, 7625626.928896304219961 ], [ 424304.281157806050032, 7625651.011839710175991 ], [ 424306.414771805575583, 7625666.400256680324674 ], [ 424309.322979637014214, 7625681.068484756164253 ], [ 424314.798351049714256, 7625701.775100264698267 ], [ 424323.509518101462163, 7625727.14552347175777 ], [ 424333.091529255907517, 7625750.214725263416767 ], [ 424354.464300615945831, 7625796.248289655894041 ], [ 424357.867983484466095, 7625805.812704274430871 ], [ 424359.185877449112013, 7625813.635390719398856 ] ] ] } },
{ "type": "Feature", "properties": { "fid": 4135.0, "COMPR_M": 548.16, "CLASSE": "03 - Média", "CD_FAZ": " 403874", "TALHOES": "6, 1", "FAZ_tAL": "403662006, 403874001", "ID_LINHA": 200821 }, "geometry": { "type": "MultiLineString", "coordinates": [ [ [ 424452.582578090950847, 7625316.871996000409126 ], [ 424434.629370859707706, 7625343.562562866136432 ], [ 424391.310782784305047, 7625402.5679538436234 ], [ 424375.185098285204731, 7625425.351250315085053 ], [ 424358.892357889038976, 7625450.01628147251904 ], [ 424346.133173401991371, 7625471.22439472284168 ], [ 424331.084415054298006, 7625499.82009095326066 ], [ 424320.258930865558796, 7625524.603424981236458 ], [ 424315.42152284149779, 7625537.703100468032062 ], [ 424311.068424503610004, 7625551.305214146152139 ], [ 424307.286792102560867, 7625565.426734613254666 ], [ 424304.174036301963497, 7625580.072561420500278 ], [ 424300.992002981132828, 7625602.995289377868176 ], [ 424299.927670392440632, 7625626.943853816017509 ], [ 424301.297747988719493, 7625651.330598905682564 ], [ 424303.456566024688073, 7625666.90115952026099 ], [ 424306.396590004558675, 7625681.730095062404871 ], [ 424311.925567339349072, 7625702.640037830919027 ], [ 424320.707875729014631, 7625728.218533769249916 ], [ 424330.350548263755627, 7625751.434271320700645 ], [ 424351.691190581186675, 7625797.393107881769538 ], [ 424354.96914735797327, 7625806.586766260676086 ], [ 424356.116373177035712, 7625812.985163405537605 ] ] ] } },
{ "type": "Feature", "properties": { "fid": 4136.0, "COMPR_M": 549.15, "CLASSE": "03 - Média", "CD_FAZ": " 403874", "TALHOES": "6, 1", "FAZ_tAL": "403662006, 403874001", "ID_LINHA": 200822 }, "geometry": { "type": "MultiLineString", "coordinates": [ [ [ 424450.030225377704483, 7625315.29545052908361 ], [ 424432.183775228797458, 7625341.825002138502896 ], [ 424388.881578743632417, 7625400.807557323947549 ], [ 424372.713183453364763, 7625423.651329888030887 ], [ 424356.354717368842103, 7625448.416098135523498 ], [ 424343.527832876541652, 7625469.736931717023253 ], [ 424328.379160721029621, 7625498.523093190044165 ], [ 424317.46652788418578, 7625523.506433987990022 ], [ 424312.58546605380252, 7625536.724391753785312 ], [ 424308.190312371298205, 7625550.458000937476754 ], [ 424304.369795857463032, 7625564.724832019768655 ], [ 424301.223196618957445, 7625579.53003557305783 ], [ 424298.004516322049312, 7625602.717596262693405 ], [ 424296.927277876297012, 7625626.958811325021088 ], [ 424298.314338174939621, 7625651.649358103983104 ], [ 424300.498360241879709, 7625667.402062358334661 ], [ 424303.470200371230021, 7625682.391705369576812 ], [ 424309.052783627179451, 7625703.504975395277143 ], [ 424317.906233357090969, 7625729.291544068604708 ], [ 424327.609567273117136, 7625752.653817377053201 ], [ 424348.918080547999125, 7625798.53792610578239 ], [ 424351.743183311482426, 7625806.211719933897257 ], [ 424353.019245950272307, 7625812.327992111444473 ] ] ] } },
{ "type": "Feature", "properties": { "fid": 4137.0, "COMPR_M": 550.14, "CLASSE": "03 - Média", "CD_FAZ": " 403874", "TALHOES": "6, 1", "FAZ_tAL": "403662006, 403874001", "ID_LINHA": 200823 }, "geometry": { "type": "MultiLineString", "coordinates": [ [ [ 424447.477872663119342, 7625313.718905055895448 ], [ 424429.738179598003626, 7625340.087441409006715 ], [ 424386.452374704065733, 7625399.047160808928311 ], [ 424370.241268621000927, 7625421.951409462839365 ], [ 424353.817076846898999, 7625446.815914794802666 ], [ 424337.775916985759977, 7625473.840968854725361 ], [ 424328.613995251012966, 7625491.220437463372946 ], [ 424322.802080852619838, 7625503.344184884801507 ], [ 424312.156065514835063, 7625529.012853421270847 ], [ 424307.464494122657925, 7625542.61074739228934 ], [ 424303.30417303572176, 7625556.747851005755365 ], [ 424298.272356937348377, 7625578.987509727478027 ], [ 424295.017029662616551, 7625602.439903147518635 ], [ 424293.9268853602116, 7625626.973768837749958 ], [ 424295.330928357550874, 7625651.968117298558354 ], [ 424297.540154461283237, 7625667.902965199202299 ], [ 424300.543810739589389, 7625683.053315674886107 ], [ 424306.179999915882945, 7625704.36991295684129 ], [ 424315.104590984352399, 7625730.364554366096854 ], [ 424324.868586282012984, 7625753.873363431543112 ], [ 424345.004744808480609, 7625796.9906060770154 ], [ 424348.448522434628103, 7625805.753071451559663 ], [ 424349.89859479595907, 7625811.66420029103756 ] ] ] } },
{ "type": "Feature", "properties": { "fid": 4138.0, "COMPR_M": 551.11, "CLASSE": "03 - Média", "CD_FAZ": " 403874", "TALHOES": "6, 1", "FAZ_tAL": "403662006, 403874001", "ID_LINHA": 200824 }, "geometry": { "type": "MultiLineString", "coordinates": [ [ [ 424444.925519951153547, 7625312.142359584569931 ], [ 424427.29258396854857, 7625338.349880681373179 ], [ 424384.023170663625933, 7625397.286764288321137 ], [ 424367.769353788171429, 7625420.251489036716521 ], [ 424351.279436327109579, 7625445.215731456875801 ], [ 424335.151792074728291, 7625472.386885914951563 ], [ 424325.929796892742161, 7625489.880429099313915 ], [ 424320.075377616274636, 7625502.092881510034204 ], [ 424309.341723188350443, 7625527.973396617919207 ], [ 424304.607118798070587, 7625541.696090567857027 ], [ 424300.406111739634071, 7625555.971542438492179 ], [ 424295.321517254691571, 7625578.444983880966902 ], [ 424292.029543004056904, 7625602.162210032343864 ], [ 424290.92649284430081, 7625626.988726350478828 ], [ 424292.347518543596379, 7625652.286876495927572 ], [ 424294.581948680162895, 7625668.403868038207293 ], [ 424297.617421107075643, 7625683.714925983920693 ], [ 424303.307216204178985, 7625705.234850523993373 ], [ 424312.302948612137698, 7625731.437564664520323 ], [ 424322.127605289802887, 7625755.092909490689635 ], [ 424342.251161899359431, 7625798.181528969667852 ], [ 424345.04312880843645, 7625805.103205136954784 ], [ 424346.742024591541849, 7625810.99276814982295 ] ] ] } },
{ "type": "Feature", "properties": { "fid": 4139.0, "COMPR_M": 552.06, "CLASSE": "03 - Média", "CD_FAZ": " 403874", "TALHOES": "6, 1", "FAZ_tAL": "403662006, 403874001", "ID_LINHA": 200825 }, "geometry": { "type": "MultiLineString", "coordinates": [ [ [ 424442.369097439630423, 7625310.572402922436595 ], [ 424424.846988337172661, 7625336.612319953739643 ], [ 424381.593966623069718, 7625395.526367772370577 ], [ 424365.297438956098631, 7625418.551568612456322 ], [ 424348.741795806912705, 7625443.615548118948936 ], [ 424332.527667165151797, 7625470.932802977971733 ], [ 424323.245598535635509, 7625488.540420736186206 ], [ 424317.348674379580189, 7625500.841578133404255 ], [ 424306.527380861050915, 7625526.933939818292856 ], [ 424301.749743473948911, 7625540.781433741562068 ], [ 424297.508050442091189, 7625555.195233873091638 ], [ 424292.370677572092973, 7625577.902458034455776 ], [ 424289.042056343692821, 7625601.884516919031739 ], [ 424287.92610032716766, 7625627.003683863207698 ], [ 424289.364108728070278, 7625652.605635691434145 ], [ 424291.623742900439538, 7625668.904770875349641 ], [ 424294.691031475667842, 7625684.376536288298666 ], [ 424300.434432493289933, 7625706.099788088351488 ], [ 424309.501306239166297, 7625732.510574961081147 ], [ 424319.386624298524112, 7625756.312455544248223 ], [ 424339.497578991344199, 7625799.372451860457659 ], [ 424343.530144066433422, 7625810.309570988640189 ] ] ] } },
{ "type": "Feature", "properties": { "fid": 4140.0, "COMPR_M": 552.99, "CLASSE": "03 - Média", "CD_FAZ": " 403874", "TALHOES": "6, 1", "FAZ_tAL": "403662006, 403874001", "ID_LINHA": 200826 }, "geometry": { "type": "MultiLineString", "coordinates": [ [ [ 424439.824641004379373, 7625308.983075614087284 ], [ 424422.401392707251944, 7625334.874759228900075 ], [ 424379.164762583561242, 7625393.765971251763403 ], [ 424362.825524122919887, 7625416.851648188196123 ], [ 424346.204155286948662, 7625442.015364782884717 ], [ 424333.106470775790513, 7625463.787079701200128 ], [ 424317.558143386966549, 7625493.335102135315537 ], [ 424306.296915964805521, 7625519.118470011278987 ], [ 424301.241238904942293, 7625532.8095568921417 ], [ 424296.677863846067339, 7625547.069148100912571 ], [ 424290.967001124634407, 7625569.564424114301801 ], [ 424288.075194520293735, 7625585.301529824733734 ], [ 424286.054569685598835, 7625601.606823801994324 ], [ 424284.925707811431494, 7625627.018641375005245 ], [ 424286.380698912777007, 7625652.924394886940718 ], [ 424290.124905247474089, 7625677.326232025399804 ], [ 424293.563453838112764, 7625692.544992076233029 ], [ 424297.561648783332203, 7625706.964725650846958 ], [ 424306.699663865962066, 7625733.583585260435939 ], [ 424316.645643307419959, 7625757.532001602463424 ], [ 424335.465610586921684, 7625797.667946232482791 ], [ 424340.230858102208003, 7625809.607781864702702 ] ] ] } },
{ "type": "Feature", "properties": { "fid": 4141.0, "COMPR_M": 553.87, "CLASSE": "03 - Média", "CD_FAZ": " 403874", "TALHOES": "6, 1", "FAZ_tAL": "403662006, 403874001", "ID_LINHA": 200827 }, "geometry": { "type": "MultiLineString", "coordinates": [ [ [ 424437.280552048119716, 7625307.393166409805417 ], [ 424419.955797076690942, 7625333.137198498472571 ], [ 424376.735558543237858, 7625392.005574733950198 ], [ 424360.353609290556051, 7625415.151727763935924 ], [ 424343.666514765238389, 7625440.415181442163885 ], [ 424330.501130250515416, 7625462.299616698175669 ], [ 424314.852889054804109, 7625492.038104375824332 ], [ 424303.504512986750342, 7625518.021479019895196 ], [ 424298.405182115850039, 7625531.83084817789495 ], [ 424293.799751713406295, 7625546.221934894099832 ], [ 424288.032326262153219, 7625568.940450506284833 ], [ 424285.109976126695983, 7625584.843926079571247 ], [ 424283.067083025700413, 7625601.329130688682199 ], [ 424281.925315295171458, 7625627.033598888665438 ], [ 424282.117975530447438, 7625635.824881930835545 ], [ 424283.397289096435998, 7625653.243154084309936 ], [ 424287.181986514071468, 7625677.910103617236018 ], [ 424290.654470473178662, 7625693.279242634773254 ], [ 424294.688865072850604, 7625707.829663215205073 ], [ 424303.898021493339911, 7625734.656595557928085 ], [ 424313.904662316548638, 7625758.75154765881598 ], [ 424331.270562642777804, 7625795.699627770110965 ], [ 424336.831043248937931, 7625808.884609302505851 ] ] ] } },
{ "type": "Feature", "properties": { "fid": 4142.0, "COMPR_M": 554.39, "CLASSE": "03 - Média", "CD_FAZ": " 403874", "TALHOES": "6, 1", "FAZ_tAL": "403662006, 403874001", "ID_LINHA": 200828 }, "geometry": { "type": "MultiLineString", "coordinates": [ [ [ 424434.563524642435368, 7625306.077103983610868 ], [ 424417.510201446188148, 7625331.399637768045068 ], [ 424374.306354502099566, 7625390.245178215205669 ], [ 424357.881694459007122, 7625413.451807338744402 ], [ 424341.128874245041516, 7625438.814998103305697 ], [ 424327.895789725356735, 7625460.812153693288565 ], [ 424312.147634721710347, 7625490.741106609813869 ], [ 424300.712110007181764, 7625516.924488024786115 ], [ 424295.569125328795053, 7625530.852139466442168 ], [ 424290.921639582142234, 7625545.374721684493124 ], [ 424285.097651399031747, 7625568.316476898267865 ], [ 424282.144757733156439, 7625584.386322332546115 ], [ 424280.079596367431805, 7625601.051437571644783 ], [ 424278.924922777805477, 7625627.04855639860034 ], [ 424279.119834776618518, 7625635.942589642480016 ], [ 424280.413879280327819, 7625653.561913279816508 ], [ 424284.239067780436017, 7625678.493975209072232 ], [ 424287.745487107604276, 7625694.01349319703877 ], [ 424291.816081359982491, 7625708.694600783288479 ], [ 424301.096379121241625, 7625735.729605855420232 ], [ 424311.163681324571371, 7625759.971093713305891 ], [ 424328.546788774488959, 7625796.957104003056884 ], [ 424333.365699982154183, 7625808.147498234175146 ] ] ] } },
{ "type": "Feature", "properties": { "fid": 4144.0, "COMPR_M": 261.46, "CLASSE": "02 - Curta", "CD_FAZ": " 403874", "TALHOES": "6, 1", "FAZ_tAL": "403662006, 403874001", "ID_LINHA": 200830 }, "geometry": { "type": "MultiLineString", "coordinates": [ [ [ 424432.011983392934781, 7625304.498995427973568 ], [ 424412.592867478961125, 7625333.122822351753712 ], [ 424358.749765510729048, 7625406.928269054740667 ], [ 424335.237760459305719, 7625442.589740099385381 ], [ 424322.031167523353361, 7625465.116471221670508 ], [ 424312.508805105811916, 7625483.180387280881405 ], [ 424303.515307196823414, 7625502.361600421369076 ], [ 424294.27308697643457, 7625525.565095596015453 ] ] ] } },
{ "type": "Feature", "properties": { "fid": 4146.0, "COMPR_M": 240.22, "CLASSE": "02 - Curta", "CD_FAZ": " 403874", "TALHOES": "6, 1", "FAZ_tAL": "403662006, 403874001", "ID_LINHA": 200832 }, "geometry": { "type": "MultiLineString", "coordinates": [ [ [ 424429.460442143725231, 7625302.920886874198914 ], [ 424410.155389266612474, 7625331.37389621604234 ], [ 424359.618422065745108, 7625400.463059092871845 ], [ 424339.431901788688265, 7625430.31356186978519 ], [ 424325.994579599064309, 7625452.123089736327529 ], [ 424316.166553077637218, 7625469.60211425088346 ], [ 424306.737126054416876, 7625488.147111084312201 ], [ 424299.460570947034284, 7625504.219068992882967 ] ] ] } },
{ "type": "Feature", "properties": { "fid": 4148.0, "COMPR_M": 182.64, "CLASSE": "02 - Curta", "CD_FAZ": " 403874", "TALHOES": "6, 1", "FAZ_tAL": "403662006, 403874001", "ID_LINHA": 200834 }, "geometry": { "type": "MultiLineString", "coordinates": [ [ [ 424414.226203276426531, 7625293.333459925837815 ], [ 424395.530519994499628, 7625320.880339392460883 ], [ 424341.519373694434762, 7625394.92338190972805 ], [ 424324.29544675629586, 7625420.572198607027531 ], [ 424310.279961197113153, 7625443.34088627435267 ] ] ] } },
{ "type": "Feature", "properties": { "fid": 4149.0, "COMPR_M": 183.49, "CLASSE": "02 - Curta", "CD_FAZ": " 403874", "TALHOES": "6, 1", "FAZ_tAL": "403662006, 403874001", "ID_LINHA": 200835 }, "geometry": { "type": "MultiLineString", "coordinates": [ [ [ 424416.762742799706757, 7625294.935323607176542 ], [ 424397.967998207081109, 7625322.629265528172255 ], [ 424357.301926221058238, 7625377.922402588650584 ], [ 424340.578290630772244, 7625401.552364364266396 ], [ 424326.818189262237865, 7625422.19575914926827 ], [ 424312.392252888064831, 7625445.679648209363222 ] ] ] } },
{ "type": "Feature", "properties": { "fid": 4150.0, "COMPR_M": 184.34, "CLASSE": "02 - Curta", "CD_FAZ": " 403874", "TALHOES": "6, 1", "FAZ_tAL": "403662006, 403874001", "ID_LINHA": 200836 }, "geometry": { "type": "MultiLineString", "coordinates": [ [ [ 424419.299282323569059, 7625296.537187285721302 ], [ 424400.405476418964099, 7625324.378191666677594 ], [ 424359.731130261556245, 7625379.682799104601145 ], [ 424343.050205463834573, 7625403.25228479038924 ], [ 424329.340931766491849, 7625423.819319693371654 ], [ 424314.504544579656795, 7625448.018410140648484 ] ] ] } },
{ "type": "Feature", "properties": { "fid": 4151.0, "COMPR_M": 202.92, "CLASSE": "02 - Curta", "CD_FAZ": " 403874", "TALHOES": "6, 1", "FAZ_tAL": "403662006, 403874001", "ID_LINHA": 200837 }, "geometry": { "type": "MultiLineString", "coordinates": [ [ [ 424421.835821847373154, 7625298.139050962403417 ], [ 424405.282223293441348, 7625322.711834130808711 ], [ 424362.160334300599061, 7625381.443195624276996 ], [ 424342.122362142603379, 7625409.929999015294015 ], [ 424325.024247297260445, 7625436.289904331788421 ], [ 424307.981015654455405, 7625465.829754536040127 ] ] ] } },
{ "type": "Feature", "properties": { "fid": 4152.0, "COMPR_M": 213.57, "CLASSE": "02 - Curta", "CD_FAZ": " 403874", "TALHOES": "6, 1", "FAZ_tAL": "403662006, 403874001", "ID_LINHA": 200838 }, "geometry": { "type": "MultiLineString", "coordinates": [ [ [ 424424.372361370478757, 7625299.740914640948176 ], [ 424407.72781892423518, 7625324.449394857510924 ], [ 424361.32861976546701, 7625387.720190599560738 ], [ 424341.204935691843275, 7625416.668263772502542 ], [ 424320.820056588447187, 7625449.085733197629452 ], [ 424305.612925720401108, 7625476.887676667422056 ] ] ] } },
{ "type": "Feature", "properties": { "fid": 4153.0, "COMPR_M": 225.62, "CLASSE": "02 - Curta", "CD_FAZ": " 403874", "TALHOES": "6, 1", "FAZ_tAL": "403662006, 403874001", "ID_LINHA": 200839 }, "geometry": { "type": "MultiLineString", "coordinates": [ [ [ 424426.908900894224644, 7625301.342778319492936 ], [ 424410.173414555145428, 7625326.186955586075783 ], [ 424363.764510965789668, 7625389.471324936486781 ], [ 424340.305596334103029, 7625423.463807725347579 ], [ 424320.079768148018047, 7625456.34976468142122 ], [ 424310.306513836956583, 7625474.279687209054828 ], [ 424302.872520477278158, 7625489.319975972175598 ] ] ] } },
{ "type": "Feature", "properties": { "fid": 4190.0, "COMPR_M": 180.56, "CLASSE": "02 - Curta", "CD_FAZ": " 403874", "TALHOES": "6, 1", "FAZ_tAL": "403662006, 403874001", "ID_LINHA": 200876 }, "geometry": { "type": "MultiLineString", "coordinates": [ [ [ 424408.946701841487084, 7625290.456600924953818 ], [ 424390.655563570559025, 7625317.382487120106816 ], [ 424336.596404604264535, 7625391.493414156138897 ], [ 424319.249961745343171, 7625417.32507751788944 ], [ 424306.067760684061795, 7625438.677072916179895 ] ] ] } },
{ "type": "Feature", "properties": { "fid": 4191.0, "COMPR_M": 179.63, "CLASSE": "02 - Curta", "CD_FAZ": " 403874", "TALHOES": "6, 1", "FAZ_tAL": "403662006, 403874001", "ID_LINHA": 200877 }, "geometry": { "type": "MultiLineString", "coordinates": [ [ [ 424406.368539734918159, 7625288.92064630240202 ], [ 424388.218085357919335, 7625315.633560981601477 ], [ 424334.134920060110744, 7625389.778430277481675 ], [ 424316.72721924103098, 7625415.701516973786056 ], [ 424303.963219109573402, 7625436.346892034634948 ] ] ] } },
{ "type": "Feature", "properties": { "fid": 4217.0, "COMPR_M": 156.44, "CLASSE": "02 - Curta", "CD_FAZ": " 403874", "TALHOES": "6, 1", "FAZ_tAL": "403662006, 403874001", "ID_LINHA": 200903 }, "geometry": { "type": "MultiLineString", "coordinates": [ [ [ 424339.736778450431302, 7625248.351710985414684 ], [ 424324.843651841336396, 7625270.161481415852904 ], [ 424273.798340833629481, 7625339.965221570804715 ], [ 424249.504319220548496, 7625376.049158317968249 ] ] ] } },
{ "type": "Feature", "properties": { "fid": 4218.0, "COMPR_M": 155.59, "CLASSE": "02 - Curta", "CD_FAZ": " 403874", "TALHOES": "6, 1", "FAZ_tAL": "403662006, 403874001", "ID_LINHA": 200904 }, "geometry": { "type": "MultiLineString", "coordinates": [ [ [ 424337.191830206487793, 7625246.763162450864911 ], [ 424322.406173630966805, 7625268.412555278278887 ], [ 424271.346338511386421, 7625338.236711926758289 ], [ 424247.418609447078779, 7625373.739828294143081 ] ] ] } },
{ "type": "Feature", "properties": { "fid": 4219.0, "COMPR_M": 154.73, "CLASSE": "02 - Curta", "CD_FAZ": " 403874", "TALHOES": "6, 1", "FAZ_tAL": "403662006, 403874001", "ID_LINHA": 200905 }, "geometry": { "type": "MultiLineString", "coordinates": [ [ [ 424334.646881963009946, 7625245.174613919109106 ], [ 424319.968695417919662, 7625266.66362914070487 ], [ 424268.894336192228366, 7625336.508202284574509 ], [ 424245.332899674889632, 7625371.43049827311188 ] ] ] } },
{ "type": "Feature", "properties": { "fid": 4220.0, "COMPR_M": 153.88, "CLASSE": "02 - Curta", "CD_FAZ": " 403874", "TALHOES": "6, 1", "FAZ_tAL": "403662006, 403874001", "ID_LINHA": 200906 }, "geometry": { "type": "MultiLineString", "coordinates": [ [ [ 424332.101933718717191, 7625243.586065387353301 ], [ 424317.531217205512803, 7625264.914703004062176 ], [ 424266.442333870974835, 7625334.77969263959676 ], [ 424243.247189902467653, 7625369.121168252080679 ] ] ] } },
{ "type": "Feature", "properties": { "fid": 4221.0, "COMPR_M": 153.03, "CLASSE": "02 - Curta", "CD_FAZ": " 403874", "TALHOES": "6, 1", "FAZ_tAL": "403662006, 403874001", "ID_LINHA": 200907 }, "geometry": { "type": "MultiLineString", "coordinates": [ [ [ 424329.556985476287082, 7625241.997516855597496 ], [ 424315.093738993688021, 7625263.165776868350804 ], [ 424263.990331550885458, 7625333.051182994619012 ], [ 424241.162819959805347, 7625366.813321707770228 ] ] ] } },
{ "type": "Feature", "properties": { "fid": 4222.0, "COMPR_M": 152.17, "CLASSE": "02 - Curta", "CD_FAZ": " 403874", "TALHOES": "6, 1", "FAZ_tAL": "403662006, 403874001", "ID_LINHA": 200908 }, "geometry": { "type": "MultiLineString", "coordinates": [ [ [ 424327.012037232401781, 7625240.408968323841691 ], [ 424312.65626078058267, 7625261.416850731708109 ], [ 424261.538329228700604, 7625331.322673352435231 ], [ 424239.082134809810668, 7625364.509555028751493 ] ] ] } },
{ "type": "Feature", "properties": { "fid": 4223.0, "COMPR_M": 151.32, "CLASSE": "02 - Curta", "CD_FAZ": " 403874", "TALHOES": "6, 1", "FAZ_tAL": "403662006, 403874001", "ID_LINHA": 200909 }, "geometry": { "type": "MultiLineString", "coordinates": [ [ [ 424324.467088989680633, 7625238.820419792085886 ], [ 424307.977761753776576, 7625262.776921085081995 ], [ 424262.740610334207304, 7625324.438872745260596 ], [ 424237.001449660747312, 7625362.205788346938789 ] ] ] } },
{ "type": "Feature", "properties": { "fid": 4224.0, "COMPR_M": 150.47, "CLASSE": "02 - Curta", "CD_FAZ": " 403874", "TALHOES": "6, 1", "FAZ_tAL": "403662006, 403874001", "ID_LINHA": 200910 }, "geometry": { "type": "MultiLineString", "coordinates": [ [ [ 424321.922140746784862, 7625237.231871258467436 ], [ 424305.54740022670012, 7625261.018121880479157 ], [ 424260.297128297854215, 7625322.698343084193766 ], [ 424234.920764512731694, 7625359.902021666057408 ] ] ] } },
{ "type": "Feature", "properties": { "fid": 4225.0, "COMPR_M": 149.61, "CLASSE": "02 - Curta", "CD_FAZ": " 403874", "TALHOES": "6, 1", "FAZ_tAL": "403662006, 403874001", "ID_LINHA": 200911 }, "geometry": { "type": "MultiLineString", "coordinates": [ [ [ 424319.377192503132392, 7625235.643322726711631 ], [ 424303.117038698575925, 7625259.259322678670287 ], [ 424257.853646260686219, 7625320.957813424989581 ], [ 424232.840079363726545, 7625357.598254986107349 ] ] ] } },
{ "type": "Feature", "properties": { "fid": 4226.0, "COMPR_M": 148.76, "CLASSE": "02 - Curta", "CD_FAZ": " 403874", "TALHOES": "6, 1", "FAZ_tAL": "403662006, 403874001", "ID_LINHA": 200912 }, "geometry": { "type": "MultiLineString", "coordinates": [ [ [ 424316.83224426000379, 7625234.054774196818471 ], [ 424300.686677169403993, 7625257.500523475930095 ], [ 424255.410164224100299, 7625319.217283766716719 ], [ 424230.759394214954227, 7625355.294488302432001 ] ] ] } },
{ "type": "Feature", "properties": { "fid": 4227.0, "COMPR_M": 147.91, "CLASSE": "02 - Curta", "CD_FAZ": " 403874", "TALHOES": "6, 1", "FAZ_tAL": "403662006, 403874001", "ID_LINHA": 200913 }, "geometry": { "type": "MultiLineString", "coordinates": [ [ [ 424314.287296016700566, 7625232.466225663200021 ], [ 424298.256315641105175, 7625255.741724275052547 ], [ 424252.966682187339757, 7625317.476754106581211 ], [ 424228.678709065949079, 7625352.990721622481942 ] ] ] } },
{ "type": "Feature", "properties": { "fid": 4228.0, "COMPR_M": 147.06, "CLASSE": "02 - Curta", "CD_FAZ": " 403874", "TALHOES": "6, 1", "FAZ_tAL": "403662006, 403874001", "ID_LINHA": 200914 }, "geometry": { "type": "MultiLineString", "coordinates": [ [ [ 424311.742347772582434, 7625230.877677133306861 ], [ 424295.825954112398904, 7625253.982925072312355 ], [ 424250.523200151859783, 7625315.736224446445704 ], [ 424226.598023917875253, 7625350.686954940669239 ] ] ] } },
{ "type": "Feature", "properties": { "fid": 4229.0, "COMPR_M": 146.2, "CLASSE": "02 - Curta", "CD_FAZ": " 403874", "TALHOES": "6, 1", "FAZ_tAL": "403662006, 403874001", "ID_LINHA": 200915 }, "geometry": { "type": "MultiLineString", "coordinates": [ [ [ 424309.197399530385155, 7625229.289128597825766 ], [ 424293.395592583285179, 7625252.22412586864084 ], [ 424248.079718114866409, 7625313.995694788172841 ], [ 424224.517338768171612, 7625348.383188259787858 ] ] ] } },
{ "type": "Feature", "properties": { "fid": 4230.0, "COMPR_M": 145.35, "CLASSE": "02 - Curta", "CD_FAZ": " 403874", "TALHOES": "6, 1", "FAZ_tAL": "403662006, 403874001", "ID_LINHA": 200916 }, "geometry": { "type": "MultiLineString", "coordinates": [ [ [ 424306.652451286616269, 7625227.700580066069961 ], [ 424290.965231055743061, 7625250.465326667763293 ], [ 424245.636236077756621, 7625312.255165128037333 ], [ 424222.437075302237645, 7625346.079888474196196 ] ] ] } },
{ "type": "Feature", "properties": { "fid": 4236.0, "COMPR_M": 181.49, "CLASSE": "02 - Curta", "CD_FAZ": " 403874", "TALHOES": "6, 1", "FAZ_tAL": "403662006, 403874001", "ID_LINHA": 200922 }, "geometry": { "type": "MultiLineString", "coordinates": [ [ [ 424411.524863948812708, 7625291.992555543780327 ], [ 424393.093041781918146, 7625319.131413255818188 ], [ 424339.057889149291441, 7625393.208398034796119 ], [ 424321.772704250644892, 7625418.948638061061502 ], [ 424308.17230225604726, 7625441.007253797724843 ] ] ] } }
]
}
