{
"type": "FeatureCollection",
"name": " 404032",
"crs": { "type": "name", "properties": { "name": "urn:ogc:def:crs:EPSG::32722" } },
"xy_coordinate_resolution": 1e-15,
"features": [
{ "type": "Feature", "properties": { "fid": 336.0, "COMPR_M": 660.62, "CLASSE": "04 - Longa", "CD_FAZ": " 404032", "TALHOES": "2, 10", "FAZ_tAL": "404056002, 404032010", "ID_LINHA": 3747 }, "geometry": { "type": "MultiLineString", "coordinates": [ [ [ 424867.934697656426579, 7632760.647261671721935 ], [ 424230.374011540785432, 7632932.82505021430552 ] ] ] } },
{ "type": "Feature", "properties": { "fid": 337.0, "COMPR_M": 667.94, "CLASSE": "04 - Longa", "CD_FAZ": " 404032", "TALHOES": "2, 10", "FAZ_tAL": "404056002, 404032010", "ID_LINHA": 3748 }, "geometry": { "type": "MultiLineString", "coordinates": [ [ [ 424869.158509918721393, 7632763.424233725294471 ], [ 424224.535402887035161, 7632937.509279165416956 ] ] ] } },
{ "type": "Feature", "properties": { "fid": 3.0, "COMPR_M": 1495.4, "CLASSE": "06 - Acima do limite", "CD_FAZ": " 404032", "TALHOES": "1, 2, 10", "FAZ_tAL": "404056001, 404056002, 404032010", "ID_LINHA": 14615 }, "geometry": { "type": "MultiLineString", "coordinates": [ [ [ 424844.044713532959577, 7633071.848116185516119 ], [ 424871.878186480491422, 7633076.734554339200258 ], [ 424895.037387086485978, 7633080.22875296138227 ], [ 424941.577570737223141, 7633085.722657779231668 ], [ 424988.370528843370266, 7633089.221946970559657 ], [ 425035.364321622473653, 7633090.719861481338739 ], [ 425066.779017811291851, 7633090.601086927577853 ], [ 425090.37354418222094, 7633089.922268369235098 ], [ 425137.633099067024887, 7633087.036862818524241 ], [ 425185.010909127420746, 7633082.078809704631567 ], [ 425232.501532445312478, 7633074.981124460697174 ], [ 425280.088300355419051, 7633065.649241136386991 ], [ 425327.74571937462315, 7633053.95908684656024 ], [ 425351.589666022104211, 7633047.182265937328339 ], [ 425375.435737602063455, 7633039.754832009784877 ], [ 425415.164640235714614, 7633025.860667896457016 ], [ 425438.978676051250659, 7633016.568808110430837 ], [ 425462.759248014364857, 7633006.523167494684458 ], [ 425502.280459230125416, 7632988.011504325084388 ], [ 425541.56883610173827, 7632967.14681756682694 ], [ 425580.495724439795595, 7632943.753345693461597 ], [ 425603.611354857101105, 7632928.427176520228386 ], [ 425618.895474021323025, 7632917.647745732218027 ], [ 425648.750178380054422, 7632894.969027481041849 ], [ 425677.100639557873365, 7632871.265912927687168 ], [ 425690.698079055873677, 7632859.08044352941215 ], [ 425710.36519795836648, 7632840.440043940208852 ], [ 425741.201345682784449, 7632808.565847488120198 ], [ 425769.644998944539111, 7632775.929335338994861 ], [ 425795.778588529326953, 7632742.788429694250226 ], [ 425819.722622111497913, 7632709.362552102655172 ], [ 425841.618932371027768, 7632675.837963804602623 ], [ 425865.411418515315745, 7632635.689026674255729 ], [ 425886.758662450010888, 7632595.816745333373547 ], [ 425908.939831542083994, 7632549.844517456367612 ], [ 425928.580707571702078, 7632504.613047122955322 ], [ 425946.060002512007486, 7632460.227918455377221 ], [ 425963.817595637578052, 7632410.639263804070652 ], [ 425982.398187198326923, 7632353.462169709615409 ] ] ] } },
{ "type": "Feature", "properties": { "fid": 4.0, "COMPR_M": 1495.85, "CLASSE": "06 - Acima do limite", "CD_FAZ": " 404032", "TALHOES": "1, 2, 10", "FAZ_tAL": "404056001, 404056002, 404032010", "ID_LINHA": 14616 }, "geometry": { "type": "MultiLineString", "coordinates": [ [ [ 424843.587571424606722, 7633074.814719647169113 ], [ 424871.398676840297412, 7633079.696004464291036 ], [ 424894.621771811274812, 7633083.1998436069116 ], [ 424941.289839917968493, 7633088.70884694904089 ], [ 424988.210838415543549, 7633092.217712862417102 ], [ 425035.332859046640806, 7633093.719715557992458 ], [ 425066.833157084707636, 7633093.600617491640151 ], [ 425090.491949439339805, 7633092.919950008392334 ], [ 425137.880341476644389, 7633090.026676877401769 ], [ 425185.388277314254083, 7633085.055000979453325 ], [ 425233.011262040759902, 7633077.937524920329452 ], [ 425280.733492946485057, 7633068.579064296558499 ], [ 425328.530276648118161, 7633056.854707553982735 ], [ 425352.44559424178442, 7633050.057599576190114 ], [ 425376.364267602504697, 7633042.607549453154206 ], [ 425416.21710091130808, 7633028.670028522610664 ], [ 425456.017279361083638, 7633012.715583808720112 ], [ 425495.703106458066031, 7632994.594679136760533 ], [ 425535.183255409589037, 7632974.143868448212743 ], [ 425574.333482963964343, 7632951.189093226566911 ], [ 425597.601590162841603, 7632936.137842565774918 ], [ 425612.996253774152137, 7632925.546298852190375 ], [ 425643.267968151369132, 7632903.108534882776439 ], [ 425672.107656506937928, 7632879.558003589510918 ], [ 425685.950048081518617, 7632867.433107178658247 ], [ 425705.982702267589048, 7632848.864461136981845 ], [ 425737.416731619858183, 7632817.061584940180182 ], [ 425766.436070202267729, 7632784.440743066370487 ], [ 425793.113374781911261, 7632751.269608495756984 ], [ 425817.564547280489933, 7632717.775174923241138 ], [ 425839.928172565589193, 7632684.15205031260848 ], [ 425864.227249875257257, 7632643.855976637452841 ], [ 425886.022821748803835, 7632603.815528618171811 ], [ 425908.657411187654361, 7632557.632104581221938 ], [ 425928.682877126149833, 7632512.183429872617126 ], [ 425948.868168026034255, 7632461.283497055992484 ], [ 425966.656634886807296, 7632411.608739246614277 ], [ 425984.129743087978568, 7632358.002309892326593 ] ] ] } },
{ "type": "Feature", "properties": { "fid": 5.0, "COMPR_M": 1495.6, "CLASSE": "06 - Acima do limite", "CD_FAZ": " 404032", "TALHOES": "1, 2, 10", "FAZ_tAL": "404056001, 404056002, 404032010", "ID_LINHA": 14617 }, "geometry": { "type": "MultiLineString", "coordinates": [ [ [ 424843.203585867071524, 7633077.795069396495819 ], [ 424870.919167201966047, 7633082.657454578205943 ], [ 424894.206156528030988, 7633086.170934250578284 ], [ 424941.00210910954047, 7633091.695036110468209 ], [ 424988.051147972932085, 7633095.213478766381741 ], [ 425035.301396470400505, 7633096.719569638371468 ], [ 425066.887296371511184, 7633096.600148046389222 ], [ 425090.610354698495939, 7633095.917631636373699 ], [ 425138.127583884459455, 7633093.016490931622684 ], [ 425185.765645494626369, 7633088.031192264519632 ], [ 425233.520991635508835, 7633080.893925379961729 ], [ 425281.378685541567393, 7633071.508887458592653 ], [ 425329.314833918819204, 7633059.750328257679939 ], [ 425353.301522451045457, 7633052.93293321877718 ], [ 425377.292797604459338, 7633045.4602668909356 ], [ 425417.269561582768802, 7633031.479389146901667 ], [ 425457.197542008303571, 7633015.473695362918079 ], [ 425497.015155782341026, 7632997.292594600468874 ], [ 425536.630971048551146, 7632976.771484457887709 ], [ 425575.92039539857069, 7632953.735067332163453 ], [ 425599.273481236945372, 7632938.628841245546937 ], [ 425614.7252975688898, 7632927.997974826022983 ], [ 425645.11092482454842, 7632905.475774070248008 ], [ 425674.058513712370768, 7632881.837137560360134 ], [ 425687.952254849777091, 7632869.667263617739081 ], [ 425708.058560715173371, 7632851.030352394096553 ], [ 425739.606154434732161, 7632819.112603291869164 ], [ 425768.727514056314249, 7632786.377107601612806 ], [ 425795.495531478896737, 7632753.093211000785232 ], [ 425820.026661336771213, 7632719.48928280454129 ], [ 425842.460209070588462, 7632685.761068283580244 ], [ 425866.831133383617271, 7632645.345913674682379 ], [ 425888.686855303822085, 7632605.195029947906733 ], [ 425911.378875751222949, 7632558.894525423645973 ], [ 425931.450206588488072, 7632513.341853179037571 ], [ 425949.289462107873987, 7632468.648614065721631 ], [ 425967.384168385760859, 7632418.727104956284165 ], [ 425985.669899587403052, 7632363.127162213437259 ] ] ] } },
{ "type": "Feature", "properties": { "fid": 6.0, "COMPR_M": 449.39, "CLASSE": "03 - Média", "CD_FAZ": " 404032", "TALHOES": "2, 10", "FAZ_tAL": "404056002, 404032010", "ID_LINHA": 14618 }, "geometry": { "type": "MultiLineString", "coordinates": [ [ [ 424842.819600303424522, 7633080.775419142097235 ], [ 424870.439657554961741, 7633085.618904700502753 ], [ 424901.591422161611263, 7633090.204762807115912 ], [ 424925.042429333669133, 7633093.058108216151595 ], [ 424956.41447825031355, 7633096.080921468324959 ], [ 424987.891457545978483, 7633098.209244661033154 ], [ 425011.558792658441234, 7633099.217174518853426 ], [ 425043.182237352943048, 7633099.774199530482292 ], [ 425066.941435647255275, 7633099.599678613245487 ], [ 425098.662921689450741, 7633098.573512136936188 ], [ 425122.480078204534948, 7633097.205584364011884 ], [ 425154.28370375034865, 7633094.57502051256597 ], [ 425178.173077175102662, 7633091.988226165995002 ], [ 425210.07262767048087, 7633087.703965590335429 ], [ 425234.030721227405593, 7633083.850325845181942 ], [ 425258.01531498588156, 7633079.433517086319625 ], [ 425288.893153949291445, 7633072.897841153666377 ] ] ] } },
{ "type": "Feature", "properties": { "fid": 10.0, "COMPR_M": 39.76, "CLASSE": "01 - Muito curta", "CD_FAZ": " 404032", "TALHOES": "2, 10", "FAZ_tAL": "404056002, 404032010", "ID_LINHA": 14620 }, "geometry": { "type": "MultiLineString", "coordinates": [ [ [ 424836.467440748121589, 7633180.260476702824235 ], [ 424875.711546146310866, 7633186.561636791564524 ] ] ] } },
{ "type": "Feature", "properties": { "fid": 11.0, "COMPR_M": 47.43, "CLASSE": "01 - Muito curta", "CD_FAZ": " 404032", "TALHOES": "2, 10", "FAZ_tAL": "404056002, 404032010", "ID_LINHA": 14621 }, "geometry": { "type": "MultiLineString", "coordinates": [ [ [ 424836.32296544755809, 7633177.185958489775658 ], [ 424883.157025146938395, 7633184.580146390944719 ] ] ] } },
{ "type": "Feature", "properties": { "fid": 12.0, "COMPR_M": 54.99, "CLASSE": "01 - Muito curta", "CD_FAZ": " 404032", "TALHOES": "2, 10", "FAZ_tAL": "404056002, 404032010", "ID_LINHA": 14622 }, "geometry": { "type": "MultiLineString", "coordinates": [ [ [ 424836.306682099122554, 7633174.134571698494256 ], [ 424864.009759010572452, 7633178.758512609638274 ], [ 424890.62197257578373, 7633182.560264647006989 ] ] ] } },
{ "type": "Feature", "properties": { "fid": 13.0, "COMPR_M": 62.23, "CLASSE": "01 - Muito curta", "CD_FAZ": " 404032", "TALHOES": "2, 10", "FAZ_tAL": "404056002, 404032010", "ID_LINHA": 14623 }, "geometry": { "type": "MultiLineString", "coordinates": [ [ [ 424836.434956611366943, 7633171.109269427135587 ], [ 424864.467973729944788, 7633175.793692994862795 ], [ 424897.93031232454814, 7633180.477786241099238 ] ] ] } },
{ "type": "Feature", "properties": { "fid": 14.0, "COMPR_M": 69.51, "CLASSE": "01 - Muito curta", "CD_FAZ": " 404032", "TALHOES": "2, 10", "FAZ_tAL": "404056002, 404032010", "ID_LINHA": 14624 }, "geometry": { "type": "MultiLineString", "coordinates": [ [ [ 424836.563231128384359, 7633168.083967153914273 ], [ 424873.327542055922095, 7633174.096430546604097 ], [ 424905.273546634241939, 7633178.351161806844175 ] ] ] } },
{ "type": "Feature", "properties": { "fid": 15.0, "COMPR_M": 76.87, "CLASSE": "01 - Muito curta", "CD_FAZ": " 404032", "TALHOES": "2, 10", "FAZ_tAL": "404056002, 404032010", "ID_LINHA": 14625 }, "geometry": { "type": "MultiLineString", "coordinates": [ [ [ 424836.691505641676486, 7633165.058664874173701 ], [ 424873.764458697172813, 7633171.12839756347239 ], [ 424912.716015418933239, 7633176.195798752829432 ] ] ] } },
{ "type": "Feature", "properties": { "fid": 16.0, "COMPR_M": 84.32, "CLASSE": "01 - Muito curta", "CD_FAZ": " 404032", "TALHOES": "2, 10", "FAZ_tAL": "404056002, 404032010", "ID_LINHA": 14626 }, "geometry": { "type": "MultiLineString", "coordinates": [ [ [ 424836.81978015974164, 7633162.033362605609 ], [ 424882.568928677646909, 7633169.361472275108099 ], [ 424920.241076533973683, 7633174.007420102134347 ] ] ] } },
{ "type": "Feature", "properties": { "fid": 17.0, "COMPR_M": 91.87, "CLASSE": "01 - Muito curta", "CD_FAZ": " 404032", "TALHOES": "2, 10", "FAZ_tAL": "404056002, 404032010", "ID_LINHA": 14627 }, "geometry": { "type": "MultiLineString", "coordinates": [ [ [ 424836.948054672742728, 7633159.008060329593718 ], [ 424882.984543962229509, 7633166.390381629578769 ], [ 424927.873376283852849, 7633171.786363105289638 ] ] ] } },
{ "type": "Feature", "properties": { "fid": 18.0, "COMPR_M": 99.53, "CLASSE": "01 - Muito curta", "CD_FAZ": " 404032", "TALHOES": "2, 10", "FAZ_tAL": "404056002, 404032010", "ID_LINHA": 14628 }, "geometry": { "type": "MultiLineString", "coordinates": [ [ [ 424837.107982863264624, 7633155.988469761796296 ], [ 424883.400159240700305, 7633163.419290981255472 ], [ 424935.653901230194606, 7633169.533773450180888 ] ] ] } },
{ "type": "Feature", "properties": { "fid": 19.0, "COMPR_M": 107.39, "CLASSE": "02 - Curta", "CD_FAZ": " 404032", "TALHOES": "2, 10", "FAZ_tAL": "404056002, 404032010", "ID_LINHA": 14629 }, "geometry": { "type": "MultiLineString", "coordinates": [ [ [ 424837.300405315123498, 7633152.974742569960654 ], [ 424867.21726206789026, 7633158.004775290377438 ], [ 424892.127969739201944, 7633161.580596157349646 ], [ 424943.660946607473306, 7633167.252813172526658 ] ] ] } },
{ "type": "Feature", "properties": { "fid": 20.0, "COMPR_M": 115.38, "CLASSE": "02 - Curta", "CD_FAZ": " 404032", "TALHOES": "2, 10", "FAZ_tAL": "404056002, 404032010", "ID_LINHA": 14630 }, "geometry": { "type": "MultiLineString", "coordinates": [ [ [ 424837.492827769136056, 7633149.961015366017818 ], [ 424867.675476791104302, 7633155.03995567932725 ], [ 424892.522280259581748, 7633158.606603108346462 ], [ 424925.766505052393768, 7633162.530910931527615 ], [ 424951.809336324746255, 7633164.931588270701468 ] ] ] } },
{ "type": "Feature", "properties": { "fid": 21.0, "COMPR_M": 123.74, "CLASSE": "02 - Curta", "CD_FAZ": " 404032", "TALHOES": "2, 10", "FAZ_tAL": "404056002, 404032010", "ID_LINHA": 14631 }, "geometry": { "type": "MultiLineString", "coordinates": [ [ [ 424837.685250215348788, 7633146.947288179770112 ], [ 424868.133691523224115, 7633152.075136061757803 ], [ 424901.194476225122344, 7633156.699984209612012 ], [ 424934.384300281410106, 7633160.377386910840869 ], [ 424960.331596369971521, 7633162.583277036435902 ] ] ] } },
{ "type": "Feature", "properties": { "fid": 22.0, "COMPR_M": 132.56, "CLASSE": "02 - Curta", "CD_FAZ": " 404032", "TALHOES": "2, 10", "FAZ_tAL": "404056002, 404032010", "ID_LINHA": 14632 }, "geometry": { "type": "MultiLineString", "coordinates": [ [ [ 424837.877672665053979, 7633143.933560982346535 ], [ 424868.591906243702397, 7633149.110316439531744 ], [ 424901.56747845641803, 7633153.723243603482842 ], [ 424934.672031099675223, 7633157.391197750344872 ], [ 424969.315280010807328, 7633160.205111848190427 ] ] ] } },
{ "type": "Feature", "properties": { "fid": 23.0, "COMPR_M": 141.58, "CLASSE": "02 - Curta", "CD_FAZ": " 404032", "TALHOES": "2, 10", "FAZ_tAL": "404056002, 404032010", "ID_LINHA": 14633 }, "geometry": { "type": "MultiLineString", "coordinates": [ [ [ 424838.070095115515869, 7633140.919833784922957 ], [ 424877.259791825490538, 7633147.384133789688349 ], [ 424910.183800553902984, 7633151.749480754137039 ], [ 424943.232979233609512, 7633155.172358994372189 ], [ 424978.505255481461063, 7633157.772336971946061 ] ] ] } },
{ "type": "Feature", "properties": { "fid": 24.0, "COMPR_M": 150.8, "CLASSE": "02 - Curta", "CD_FAZ": " 404032", "TALHOES": "2, 10", "FAZ_tAL": "404056002, 404032010", "ID_LINHA": 14634 }, "geometry": { "type": "MultiLineString", "coordinates": [ [ [ 424838.262517569412012, 7633137.906106589362025 ], [ 424877.69670846365625, 7633144.416100820526481 ], [ 424910.535490841895808, 7633148.770147085189819 ], [ 424951.758154351264238, 7633152.890779802575707 ], [ 424987.900206270045601, 7633155.280123762786388 ] ] ] } },
{ "type": "Feature", "properties": { "fid": 25.0, "COMPR_M": 160.25, "CLASSE": "02 - Curta", "CD_FAZ": " 404032", "TALHOES": "2, 10", "FAZ_tAL": "404056002, 404032010", "ID_LINHA": 14635 }, "geometry": { "type": "MultiLineString", "coordinates": [ [ [ 424838.454940015508328, 7633134.892379393801093 ], [ 424878.133625109156128, 7633141.448067845776677 ], [ 424919.095687452238053, 7633146.730014481581748 ], [ 424960.247305849101394, 7633150.546897685155272 ], [ 424997.525881393637974, 7633152.724828383885324 ] ] ] } },
{ "type": "Feature", "properties": { "fid": 26.0, "COMPR_M": 169.94, "CLASSE": "02 - Curta", "CD_FAZ": " 404032", "TALHOES": "2, 10", "FAZ_tAL": "404056002, 404032010", "ID_LINHA": 14636 }, "geometry": { "type": "MultiLineString", "coordinates": [ [ [ 424838.647362464456819, 7633131.878652201965451 ], [ 424878.570541751338169, 7633138.480034880340099 ], [ 424919.426062001846731, 7633143.748241912573576 ], [ 424960.471038058283739, 7633147.555232871323824 ], [ 425007.402941307460424, 7633150.101883351802826 ] ] ] } },
{ "type": "Feature", "properties": { "fid": 27.0, "COMPR_M": 179.91, "CLASSE": "02 - Curta", "CD_FAZ": " 404032", "TALHOES": "2, 10", "FAZ_tAL": "404056002, 404032010", "ID_LINHA": 14637 }, "geometry": { "type": "MultiLineString", "coordinates": [ [ [ 424838.83978491614107, 7633128.864925011992455 ], [ 424887.140696760267019, 7633136.679475195705891 ], [ 424927.929888545302674, 7633141.642507433891296 ], [ 424968.90257244836539, 7633145.147960675880313 ], [ 425017.546231097483542, 7633147.405956726521254 ] ] ] } },
{ "type": "Feature", "properties": { "fid": 28.0, "COMPR_M": 190.18, "CLASSE": "02 - Curta", "CD_FAZ": " 404032", "TALHOES": "2, 10", "FAZ_tAL": "404056002, 404032010", "ID_LINHA": 14638 }, "geometry": { "type": "MultiLineString", "coordinates": [ [ [ 424839.044443582301028, 7633125.853405760601163 ], [ 424887.556312046770472, 7633133.708384543657303 ], [ 424936.398416008916683, 7633139.474062751978636 ], [ 424985.496101016819011, 7633143.145733077079058 ], [ 425028.020762778643984, 7633144.621991224586964 ] ] ] } },
{ "type": "Feature", "properties": { "fid": 29.0, "COMPR_M": 200.29, "CLASSE": "02 - Curta", "CD_FAZ": " 404032", "TALHOES": "2, 10", "FAZ_tAL": "404056002, 404032010", "ID_LINHA": 14639 }, "geometry": { "type": "MultiLineString", "coordinates": [ [ [ 424839.252766159770545, 7633122.84022412262857 ], [ 424887.971927329082973, 7633130.737293908372521 ], [ 424936.686146827531047, 7633136.487873593345284 ], [ 424985.655791452620178, 7633140.149967176839709 ], [ 425010.220368994516321, 7633141.196109993383288 ], [ 425038.325191521784291, 7633141.741581288166344 ] ] ] } },
{ "type": "Feature", "properties": { "fid": 30.0, "COMPR_M": 210.67, "CLASSE": "02 - Curta", "CD_FAZ": " 404032", "TALHOES": "2, 10", "FAZ_tAL": "404056002, 404032010", "ID_LINHA": 14640 }, "geometry": { "type": "MultiLineString", "coordinates": [ [ [ 424839.461100718996022, 7633119.826869138516486 ], [ 424888.387542603362817, 7633127.766203258186579 ], [ 424912.64563258306589, 7633130.894145097583532 ], [ 424945.097796730173286, 7633134.255187246948481 ], [ 424993.976967819442507, 7633137.560086293146014 ], [ 425018.49300448608119, 7633138.429158454760909 ], [ 425048.908707551425323, 7633138.77300544641912 ] ] ] } },
{ "type": "Feature", "properties": { "fid": 31.0, "COMPR_M": 221.84, "CLASSE": "02 - Curta", "CD_FAZ": " 404032", "TALHOES": "2, 10", "FAZ_tAL": "404056002, 404032010", "ID_LINHA": 14641 }, "geometry": { "type": "MultiLineString", "coordinates": [ [ [ 424839.669435273739509, 7633116.813514158129692 ], [ 424888.803157882706728, 7633124.795112615451217 ], [ 424912.997322864714079, 7633127.914811429567635 ], [ 424945.364199233241379, 7633131.267019854858518 ], [ 424977.840702943736687, 7633133.695743832737207 ], [ 425002.260847796802409, 7633134.910168772563338 ], [ 425034.892382990103215, 7633135.717672630213201 ], [ 425060.281306353688706, 7633135.699883834458888 ] ] ] } },
{ "type": "Feature", "properties": { "fid": 32.0, "COMPR_M": 233.64, "CLASSE": "02 - Curta", "CD_FAZ": " 404032", "TALHOES": "2, 10", "FAZ_tAL": "404056002, 404032010", "ID_LINHA": 14642 }, "geometry": { "type": "MultiLineString", "coordinates": [ [ [ 424839.877769837155938, 7633113.800159175880253 ], [ 424865.16505147627322, 7633118.194856044836342 ], [ 424897.254006467061117, 7633122.918686429038644 ], [ 424921.408309303224087, 7633125.857606494799256 ], [ 424953.718711777706631, 7633128.970839446410537 ], [ 424986.134862753329799, 7633131.162669500336051 ], [ 425010.507174072030466, 7633132.200623823329806 ], [ 425043.07145441591274, 7633132.774223363958299 ], [ 425072.278882935410365, 7633132.491994688287377 ] ] ] } },
{ "type": "Feature", "properties": { "fid": 33.0, "COMPR_M": 246.02, "CLASSE": "02 - Curta", "CD_FAZ": " 404032", "TALHOES": "2, 10", "FAZ_tAL": "404056002, 404032010", "ID_LINHA": 14643 }, "geometry": { "type": "MultiLineString", "coordinates": [ [ [ 424840.086104396265, 7633110.78680419549346 ], [ 424865.644561125547625, 7633115.233405917882919 ], [ 424897.648316983890254, 7633119.944693371653557 ], [ 424929.784217254200485, 7633123.738161582499743 ], [ 424962.0371635282645, 7633126.613579142838717 ], [ 424994.391966573661193, 7633128.56960216909647 ], [ 425026.83328011771664, 7633129.603821793571115 ], [ 425059.345535956555977, 7633129.712803950533271 ], [ 425084.858608056616504, 7633129.14551117643714 ] ] ] } },
{ "type": "Feature", "properties": { "fid": 34.0, "COMPR_M": 259.13, "CLASSE": "02 - Curta", "CD_FAZ": " 404032", "TALHOES": "2, 10", "FAZ_tAL": "404056002, 404032010", "ID_LINHA": 14644 }, "geometry": { "type": "MultiLineString", "coordinates": [ [ [ 424840.294438962708227, 7633107.773449207656085 ], [ 424874.09048292087391, 7633113.532481047324836 ], [ 424906.043505160952918, 7633118.002356298267841 ], [ 424938.124800914491061, 7633121.55692776478827 ], [ 424970.319302039919421, 7633124.195670016109943 ], [ 425002.611757924081758, 7633125.916955183260143 ], [ 425034.986770717194304, 7633126.718110404908657 ], [ 425067.428689176973421, 7633126.59545368142426 ], [ 425098.162431347824167, 7633125.620115578174591 ] ] ] } },
{ "type": "Feature", "properties": { "fid": 35.0, "COMPR_M": 272.88, "CLASSE": "02 - Curta", "CD_FAZ": " 404032", "TALHOES": "2, 10", "FAZ_tAL": "404056002, 404032010", "ID_LINHA": 14645 }, "geometry": { "type": "MultiLineString", "coordinates": [ [ [ 424840.526826930232346, 7633104.764613918960094 ], [ 424874.548697649443056, 7633110.567661431618035 ], [ 424906.416507386369631, 7633115.025615684688091 ], [ 424938.412531735142693, 7633118.570738602429628 ], [ 424978.564873859228101, 7633121.717538366094232 ], [ 425010.793979143025354, 7633123.205137649551034 ], [ 425043.101667942828499, 7633123.774216869845986 ], [ 425075.472198995994404, 7633123.420852091163397 ], [ 425112.11177786468761, 7633121.897690078243613 ] ] ] } },
{ "type": "Feature", "properties": { "fid": 36.0, "COMPR_M": 287.39, "CLASSE": "02 - Curta", "CD_FAZ": " 404032", "TALHOES": "2, 10", "FAZ_tAL": "404056002, 404032010", "ID_LINHA": 14646 }, "geometry": { "type": "MultiLineString", "coordinates": [ [ [ 424840.784981399192475, 7633101.760620217770338 ], [ 424875.006912367767654, 7633107.602841806598008 ], [ 424914.755774318356998, 7633113.01814310438931 ], [ 424954.698990494129248, 7633117.010869266465306 ], [ 424986.773624496010598, 7633119.179605918005109 ], [ 425026.991824310156517, 7633120.605161191895604 ], [ 425059.247346894699149, 7633120.713282300159335 ], [ 425091.557596793689299, 7633119.8990847337991 ], [ 425126.84991541254567, 7633117.945793809369206 ] ] ] } },
{ "type": "Feature", "properties": { "fid": 37.0, "COMPR_M": 303.15, "CLASSE": "03 - Média", "CD_FAZ": " 404032", "TALHOES": "2, 10", "FAZ_tAL": "404056002, 404032010", "ID_LINHA": 14647 }, "geometry": { "type": "MultiLineString", "coordinates": [ [ [ 424841.043135867686942, 7633098.756626516580582 ], [ 424875.465127092844341, 7633104.638022189959884 ], [ 424915.107464608270675, 7633110.038809437304735 ], [ 424954.944060170673765, 7633114.020876726135612 ], [ 424994.945298236620147, 7633116.582290003076196 ], [ 425035.081158440210856, 7633117.71854817122221 ], [ 425067.266271335305646, 7633117.596861994825304 ], [ 425107.566904627834447, 7633116.148807470686734 ], [ 425142.804634370026179, 7633113.690846107900143 ] ] ] } },
{ "type": "Feature", "properties": { "fid": 38.0, "COMPR_M": 320.56, "CLASSE": "03 - Média", "CD_FAZ": " 404032", "TALHOES": "2, 10", "FAZ_tAL": "404056002, 404032010", "ID_LINHA": 14648 }, "geometry": { "type": "MultiLineString", "coordinates": [ [ [ 424841.301290335250087, 7633095.752632815390825 ], [ 424883.813541445008013, 7633102.863639215007424 ], [ 424923.390556588419713, 7633107.966971069574356 ], [ 424963.155824573361315, 7633111.655255063436925 ], [ 425003.079638105002232, 7633113.926003716886044 ], [ 425043.131881476030685, 7633114.774210366420448 ], [ 425083.28183766809525, 7633114.192474232986569 ], [ 425123.501112762256525, 7633112.170890493318439 ], [ 425160.388882670202293, 7633109.035066671669483 ] ] ] } },
{ "type": "Feature", "properties": { "fid": 39.0, "COMPR_M": 341.57, "CLASSE": "03 - Média", "CD_FAZ": " 404032", "TALHOES": "2, 10", "FAZ_tAL": "404056002, 404032010", "ID_LINHA": 14649 }, "geometry": { "type": "MultiLineString", "coordinates": [ [ [ 424841.559444791928399, 7633092.748639103956521 ], [ 424884.250458090915345, 7633099.895606241188943 ], [ 424923.720931135525461, 7633104.985198495909572 ], [ 424971.331251741561573, 7633109.229748121462762 ], [ 425011.176385904778726, 7633111.211156085133553 ], [ 425059.149157845997252, 7633111.713760633021593 ], [ 425099.222280568501446, 7633110.560545125044882 ], [ 425139.363795936224051, 7633107.965561226941645 ], [ 425181.518196408112999, 7633103.667082278057933 ] ] ] } },
{ "type": "Feature", "properties": { "fid": 40.0, "COMPR_M": 363.19, "CLASSE": "03 - Média", "CD_FAZ": " 404032", "TALHOES": "2, 10", "FAZ_tAL": "404056002, 404032010", "ID_LINHA": 14650 }, "geometry": { "type": "MultiLineString", "coordinates": [ [ [ 424841.817599256697576, 7633089.744645403698087 ], [ 424884.687374732806347, 7633096.927573264576495 ], [ 424931.947600740531925, 7633102.849758081138134 ], [ 424979.470087511348538, 7633106.744781523011625 ], [ 425019.235281826811843, 7633108.438152207061648 ], [ 425067.103853494510986, 7633108.598270302638412 ], [ 425115.086236585513689, 7633106.70215823687613 ], [ 425163.179630630242173, 7633102.722938387654722 ], [ 425203.199606026173569, 7633097.798218274489045 ] ] ] } },
{ "type": "Feature", "properties": { "fid": 41.0, "COMPR_M": 386.4, "CLASSE": "03 - Média", "CD_FAZ": " 404032", "TALHOES": "2, 10", "FAZ_tAL": "404056002, 404032010", "ID_LINHA": 14651 }, "geometry": { "type": "MultiLineString", "coordinates": [ [ [ 424842.075753721175715, 7633086.740651693195105 ], [ 424869.480638265027665, 7633091.541804946027696 ], [ 424892.959310682956129, 7633095.084206184372306 ], [ 424940.13891665241681, 7633100.653603611513972 ], [ 424987.572076671756804, 7633104.200776444748044 ], [ 425035.207008750061505, 7633105.719131868332624 ], [ 425082.990906535298564, 7633105.197120274417102 ], [ 425130.877093897841405, 7633102.617855661548674 ], [ 425178.884176126914099, 7633097.94597907923162 ], [ 425226.384072458487935, 7633091.218798145651817 ] ] ] } },
{ "type": "Feature", "properties": { "fid": 42.0, "COMPR_M": 410.3, "CLASSE": "03 - Média", "CD_FAZ": " 404032", "TALHOES": "2, 10", "FAZ_tAL": "404056002, 404032010", "ID_LINHA": 14652 }, "geometry": { "type": "MultiLineString", "coordinates": [ [ [ 424842.435614735819399, 7633083.755768886767328 ], [ 424869.96014790906338, 7633088.580354825593531 ], [ 424893.374925964162685, 7633092.113115541636944 ], [ 424940.426647465501446, 7633097.667414439842105 ], [ 424971.93842157110339, 7633100.250194981694221 ], [ 424995.636962821998168, 7633101.598149798810482 ], [ 425043.172166179807391, 7633102.774201695807278 ], [ 425074.943313618015964, 7633102.427379210479558 ], [ 425098.802761407569051, 7633101.570270386524498 ], [ 425146.596322156139649, 7633098.307743628509343 ], [ 425178.528626652492676, 7633094.967102628201246 ], [ 425202.51403816358652, 7633091.835960084572434 ], [ 425250.270398656954058, 7633083.973129644058645 ] ] ] } },
{ "type": "Feature", "properties": { "fid": 129.0, "COMPR_M": 1494.93, "CLASSE": "06 - Acima do limite", "CD_FAZ": " 404032", "TALHOES": "1, 2, 10", "FAZ_tAL": "404056001, 404056002, 404032010", "ID_LINHA": 14738 }, "geometry": { "type": "MultiLineString", "coordinates": [ [ [ 424844.514693604141939, 7633068.88392501603812 ], [ 424872.357696133083664, 7633073.773104209452868 ], [ 424895.453002368682064, 7633077.257662322372198 ], [ 424941.865301554091275, 7633082.736468620598316 ], [ 424988.530219283537008, 7633086.226181080564857 ], [ 425035.395784199237823, 7633087.720007407478988 ], [ 425066.724878526234534, 7633087.601556360721588 ], [ 425090.255138916545548, 7633086.924586726352572 ], [ 425137.385856656241231, 7633084.047048764303327 ], [ 425184.633540954615455, 7633079.102618428878486 ], [ 425231.991802847827785, 7633072.024724001064897 ], [ 425279.443107755854726, 7633062.719417978078127 ], [ 425326.961162099614739, 7633051.063466152176261 ], [ 425350.733737813716289, 7633044.306932297535241 ], [ 425374.507207601040136, 7633036.90211455989629 ], [ 425414.112179556628689, 7633023.051307270303369 ], [ 425437.850006966269575, 7633013.789186282083392 ], [ 425461.552950600569602, 7633003.776342067867517 ], [ 425500.941577520745341, 7632985.32680288888514 ], [ 425540.093549015873577, 7632964.534581002779305 ], [ 425578.880595667113084, 7632941.225176306441426 ], [ 425601.910932243510615, 7632925.955564953386784 ], [ 425617.137728174915537, 7632915.216564144939184 ], [ 425646.879613615805283, 7632892.623543612658978 ], [ 425675.123885721783154, 7632869.009203914552927 ], [ 425688.670867900596932, 7632856.868951410986483 ], [ 425708.265702756412793, 7632838.297058084979653 ], [ 425738.990598006581422, 7632806.537834135815501 ], [ 425767.334523411176633, 7632774.015720923431218 ], [ 425793.379600684158504, 7632740.987027803435922 ], [ 425817.245746386470273, 7632707.669846229255199 ], [ 425839.07404300570488, 7632674.249353936873376 ], [ 425862.79673974547768, 7632634.218117909505963 ], [ 425884.085632503556553, 7632594.454759275540709 ], [ 425906.211156951671001, 7632548.597758536227047 ], [ 425925.807648072193842, 7632503.468409389257431 ], [ 425945.588115672115237, 7632452.917248910292983 ], [ 425963.049639201024547, 7632403.570587199181318 ], [ 425980.657670116983354, 7632348.938453393056989 ] ] ] } },
{ "type": "Feature", "properties": { "fid": 130.0, "COMPR_M": 1493.47, "CLASSE": "06 - Acima do limite", "CD_FAZ": " 404032", "TALHOES": "1, 2, 10", "FAZ_tAL": "404056001, 404056002, 404032010", "ID_LINHA": 14739 }, "geometry": { "type": "MultiLineString", "coordinates": [ [ [ 424844.984673659550026, 7633065.919733827002347 ], [ 424872.837205764953978, 7633070.811654096469283 ], [ 424895.868617652682588, 7633074.286571681499481 ], [ 424942.15303238038905, 7633079.750279459170997 ], [ 424988.689909718348645, 7633083.230415184050798 ], [ 425035.427246774372179, 7633084.720153325237334 ], [ 425066.67073924059514, 7633084.602025797590613 ], [ 425090.136733654129785, 7633083.92690509557724 ], [ 425137.138614243071061, 7633081.057234704494476 ], [ 425184.256172764813527, 7633076.12642715126276 ], [ 425231.482073258142918, 7633069.068323533982038 ], [ 425278.797915160306729, 7633059.789594819769263 ], [ 425326.176604819833301, 7633048.167845443822443 ], [ 425349.877809593570419, 7633041.431598661467433 ], [ 425373.578677601472009, 7633034.049397111870348 ], [ 425413.059718893899117, 7633020.241946652531624 ], [ 425436.721337877388578, 7633011.009564453735948 ], [ 425460.346653194574174, 7633001.029516639187932 ], [ 425499.602695811074227, 7632982.642101449891925 ], [ 425538.618261926167179, 7632961.922344422899187 ], [ 425577.265466886456124, 7632938.697006923146546 ], [ 425600.210509625263512, 7632923.483953395858407 ], [ 425615.379982319020201, 7632912.785382554866374 ], [ 425645.0090488481801, 7632890.278059750795364 ], [ 425673.147131886798888, 7632866.752494905143976 ], [ 425686.643656748812646, 7632854.65745928324759 ], [ 425706.16620755859185, 7632836.1540722316131 ], [ 425736.779850328282919, 7632804.509820787236094 ], [ 425765.024047877814155, 7632772.102106500416994 ], [ 425790.98061283462448, 7632739.185625918209553 ], [ 425805.505192465730943, 7632719.28299832995981 ], [ 425819.278373775770888, 7632699.317223850637674 ], [ 425840.651273795228917, 7632665.998264379799366 ], [ 425863.881244011165109, 7632626.115569768473506 ], [ 425884.734789587790146, 7632586.519905775785446 ], [ 425906.420608197629917, 7632540.871868970803916 ], [ 425925.644625460670795, 7632495.956162434071302 ], [ 425942.775591958721634, 7632451.873338863253593 ], [ 425960.207336091145407, 7632402.610723621211946 ], [ 425978.623362428857945, 7632345.344322764314711 ] ] ] } },
{ "type": "Feature", "properties": { "fid": 131.0, "COMPR_M": 1488.25, "CLASSE": "06 - Acima do limite", "CD_FAZ": " 404032", "TALHOES": "1, 2, 10", "FAZ_tAL": "404056001, 404056002, 404032010", "ID_LINHA": 14740 }, "geometry": { "type": "MultiLineString", "coordinates": [ [ [ 424845.454653730615973, 7633062.955542655661702 ], [ 424873.316715411958285, 7633067.850203974172473 ], [ 424896.284232930629514, 7633071.315481035970151 ], [ 424942.440763195743784, 7633076.764090288430452 ], [ 424988.84960015816614, 7633080.23464928753674 ], [ 425035.458709360915236, 7633081.720299253240228 ], [ 425066.616599967062939, 7633081.602495233528316 ], [ 425090.018328395788558, 7633080.929223452694714 ], [ 425136.891371827397961, 7633078.067420652136207 ], [ 425183.878804587584455, 7633073.150235874578357 ], [ 425230.972343657864258, 7633066.111923065036535 ], [ 425278.152722568134777, 7633056.85977166518569 ], [ 425325.392047549132258, 7633045.272224745713174 ], [ 425349.021881382039282, 7633038.55626502726227 ], [ 425372.650147603359073, 7633031.196679670363665 ], [ 425412.007258215919137, 7633017.432586027309299 ], [ 425435.592668785422575, 7633008.229942623525858 ], [ 425459.140355794283096, 7632998.282691212370992 ], [ 425498.263814099831507, 7632979.957400010898709 ], [ 425537.142974833259359, 7632959.310107851400971 ], [ 425575.650338119419757, 7632936.168837532401085 ], [ 425598.510087012895383, 7632921.012341836467385 ], [ 425613.622236467665061, 7632910.354200957342982 ], [ 425643.138484084513038, 7632887.932575879618526 ], [ 425671.170378054259345, 7632864.495785895735025 ], [ 425684.616445590741932, 7632852.445967152714729 ], [ 425704.066712353553157, 7632834.011086385697126 ], [ 425734.569102641835343, 7632802.481807444244623 ], [ 425762.713572344509885, 7632770.18849206995219 ], [ 425788.581624982063659, 7632737.38422402087599 ], [ 425803.058241857797839, 7632717.5473113944754 ], [ 425816.787131659220904, 7632697.645735155791044 ], [ 425838.093892485252582, 7632664.429844940081239 ], [ 425861.256087644724175, 7632624.663444528356194 ], [ 425882.053038471145555, 7632585.175174339674413 ], [ 425903.684953029383905, 7632539.640503553673625 ], [ 425922.866024743358139, 7632494.825043395161629 ], [ 425939.963068237761036, 7632450.829428818076849 ], [ 425957.365032980975229, 7632401.650860042311251 ], [ 425975.482815218041651, 7632345.351481807418168 ] ] ] } },
{ "type": "Feature", "properties": { "fid": 132.0, "COMPR_M": 1483.03, "CLASSE": "06 - Acima do limite", "CD_FAZ": " 404032", "TALHOES": "1, 2, 10", "FAZ_tAL": "404056001, 404056002, 404032010", "ID_LINHA": 14741 }, "geometry": { "type": "MultiLineString", "coordinates": [ [ [ 424845.924633796443231, 7633059.991351479664445 ], [ 424873.796225058147684, 7633064.888753846287727 ], [ 424896.6998482135823, 7633068.344390396028757 ], [ 424942.728494008653797, 7633073.777901128865778 ], [ 424989.009290589950979, 7633077.238883391022682 ], [ 425035.490171935933176, 7633078.720445170998573 ], [ 425066.562460682413075, 7633078.602964669466019 ], [ 425089.899923130171373, 7633077.931541819125414 ], [ 425136.644129423133563, 7633075.077606594190001 ], [ 425183.501436405233108, 7633070.174044596031308 ], [ 425230.462614064570516, 7633063.155522610992193 ], [ 425277.50752996886149, 7633053.929948499426246 ], [ 425324.607490274938755, 7633042.376604044809937 ], [ 425348.165953160147183, 7633035.680931383743882 ], [ 425371.721617606061045, 7633028.343962220475078 ], [ 425410.954797545622569, 7633014.623225409537554 ], [ 425434.463999699451961, 7633005.450320795178413 ], [ 425457.934058393177111, 7632995.535865783691406 ], [ 425496.92493239819305, 7632977.272698583081365 ], [ 425535.667687751003541, 7632956.697871267795563 ], [ 425574.035209345573094, 7632933.640668157488108 ], [ 425596.809664396569133, 7632918.540730275213718 ], [ 425611.864490618580021, 7632907.923019370064139 ], [ 425641.267919314908795, 7632885.5870920130983 ], [ 425669.19362422224367, 7632862.239076876081526 ], [ 425701.967217153985985, 7632831.868100538849831 ], [ 425732.358354963827878, 7632800.453794100321829 ], [ 425760.403096811729483, 7632768.274877652525902 ], [ 425786.182637125020847, 7632735.582822132855654 ], [ 425800.611291255685501, 7632715.811624468304217 ], [ 425814.295889541273937, 7632695.974246459081769 ], [ 425835.536511171143502, 7632662.861425499431789 ], [ 425858.630931269144639, 7632623.211319278925657 ], [ 425879.371287338493858, 7632583.830442897975445 ], [ 425900.949297857412603, 7632538.409138137474656 ], [ 425920.087424033670686, 7632493.693924341350794 ], [ 425937.150544508651365, 7632449.785518771037459 ], [ 425954.522729865973815, 7632400.690996463410556 ], [ 425972.342268002626952, 7632345.358640848658979 ] ] ] } }
]
}
