{
"type": "FeatureCollection",
"name": " 404027",
"crs": { "type": "name", "properties": { "name": "urn:ogc:def:crs:EPSG::32722" } },
"xy_coordinate_resolution": 1e-15,
"features": [
{ "type": "Feature", "properties": { "fid": 45.0, "COMPR_M": 1042.8, "CLASSE": "06 - Acima do limite", "CD_FAZ": " 404027", "TALHOES": "1, 2", "FAZ_tAL": "403941001, 404027002, 404065001, 404065002", "ID_LINHA": 15670 }, "geometry": { "type": "MultiLineString", "coordinates": [ [ [ 413431.778507973183878, 7630667.973361382260919 ], [ 413463.165884611953516, 7630674.687528281472623 ], [ 413496.253281772485934, 7630683.310565957799554 ], [ 413530.021753277746029, 7630693.861861869692802 ], [ 413558.615652553620748, 7630704.283927129581571 ], [ 413587.52390992565779, 7630716.318182270042598 ], [ 413616.625009354494978, 7630730.079904393292964 ], [ 413645.791387729288545, 7630745.684073247015476 ], [ 413669.012131421477534, 7630759.528567831963301 ], [ 413691.787648039520718, 7630774.444855449721217 ], [ 413719.168245954497252, 7630794.291744926944375 ], [ 413745.377726768841967, 7630815.45851962082088 ], [ 413770.430564912676346, 7630837.935079803690314 ], [ 413794.326483004784677, 7630861.723806230351329 ], [ 413812.583630910143256, 7630881.687656155787408 ], [ 413834.334662459790707, 7630907.854813297279179 ], [ 413850.844401023583487, 7630929.76832484267652 ], [ 413870.304269283660688, 7630958.390998685732484 ], [ 413884.762055404018611, 7630982.080333947204053 ], [ 413897.872129743685946, 7631005.79359938018024 ], [ 413912.436587134143338, 7631035.268748505972326 ], [ 413925.117322522681206, 7631064.423645721748471 ], [ 413936.075888841878623, 7631093.161395754665136 ], [ 413945.463153185381088, 7631121.397361097857356 ], [ 413953.422949349624105, 7631149.06638246960938 ], [ 413960.013201383990236, 7631175.75707733258605 ], [ 413966.277853907318786, 7631205.919968374073505 ], [ 413971.762576208333485, 7631238.387049508281052 ], [ 413976.226651178149041, 7631271.752587955445051 ], [ 413979.764170933049172, 7631305.399987899698317 ], [ 413982.85913786891615, 7631344.095429949462414 ], [ 413985.137018770212308, 7631383.365463227033615 ], [ 413987.494160175207071, 7631439.085870144888759 ] ] ] } },
{ "type": "Feature", "properties": { "fid": 47.0, "COMPR_M": 1024.04, "CLASSE": "06 - Acima do limite", "CD_FAZ": " 404027", "TALHOES": "1, 2", "FAZ_tAL": "403941001, 404027002, 404065001, 404065002", "ID_LINHA": 15672 }, "geometry": { "type": "MultiLineString", "coordinates": [ [ [ 413459.084296512999572, 7630667.579827340319753 ], [ 413492.290824167663231, 7630675.962796326726675 ], [ 413520.532034642645158, 7630684.405374733731151 ], [ 413549.211724288179539, 7630694.299394449219108 ], [ 413578.26134854904376, 7630705.77477406617254 ], [ 413607.559453779947944, 7630718.948301092721522 ], [ 413636.979327520122752, 7630733.935988426208496 ], [ 413666.359186447574757, 7630750.83764180354774 ], [ 413689.510480343538802, 7630765.6523965485394 ], [ 413711.902822049101815, 7630781.352696953341365 ], [ 413738.82854228222277, 7630802.187226654961705 ], [ 413764.576698766904883, 7630824.341058153659105 ], [ 413784.341227064025588, 7630843.020385460928082 ], [ 413807.977450253907591, 7630867.55068489164114 ], [ 413826.021078001591377, 7630888.130228829570115 ], [ 413847.484566614439245, 7630915.093451282009482 ], [ 413863.729775956540834, 7630937.648010278120637 ], [ 413879.118622291774955, 7630961.09734944999218 ], [ 413893.387132416944951, 7630985.058187257498503 ], [ 413906.281763538543601, 7631008.969115031883121 ], [ 413920.586636077030562, 7631038.659687433391809 ], [ 413933.018958751054015, 7631067.994612243957818 ], [ 413943.744069936219603, 7631096.887800547294319 ], [ 413952.911198893154506, 7631125.252034814096987 ], [ 413960.660323066287674, 7631153.008352607488632 ], [ 413967.03257697384106, 7631179.636447986587882 ], [ 413973.072767626377754, 7631209.660010270774364 ], [ 413978.351169609464705, 7631241.916699277237058 ], [ 413982.640689548105001, 7631274.953266035765409 ], [ 413986.071169191331137, 7631308.482586444355547 ], [ 413989.073784457053989, 7631347.090754945762455 ], [ 413991.280952599830925, 7631386.189733261242509 ], [ 413993.487030429241713, 7631438.787158947438002 ] ] ] } },
{ "type": "Feature", "properties": { "fid": 48.0, "COMPR_M": 1015.52, "CLASSE": "06 - Acima do limite", "CD_FAZ": " 404027", "TALHOES": "1, 2", "FAZ_tAL": "403941001, 404027002, 404065001, 404065002", "ID_LINHA": 15673 }, "geometry": { "type": "MultiLineString", "coordinates": [ [ [ 413471.822856693703216, 7630667.518940086476505 ], [ 413504.378008179948665, 7630676.295777508988976 ], [ 413532.918955643195659, 7630685.340847458690405 ], [ 413561.882972986088134, 7630695.897852130234241 ], [ 413591.174309958587401, 7630708.091616244986653 ], [ 413620.669081412488595, 7630722.039539492689073 ], [ 413644.320321617356967, 7630734.537312656641006 ], [ 413673.782248895964585, 7630751.896513674408197 ], [ 413696.876996268169023, 7630767.021865606307983 ], [ 413719.181162716413382, 7630783.012016983702779 ], [ 413745.992185428622179, 7630804.207723253406584 ], [ 413771.625136386312079, 7630826.729297392070293 ], [ 413791.29265683342237, 7630845.707328581251204 ], [ 413814.794824989978224, 7630870.612739896401763 ], [ 413832.729081957950257, 7630891.506266910582781 ], [ 413849.8806104430696, 7630913.288116967305541 ], [ 413866.201379692531191, 7630935.947586758062243 ], [ 413881.6622412725701, 7630959.506665873341262 ], [ 413895.997362001915462, 7630983.579351203516126 ], [ 413908.951249529258348, 7631007.600145448930562 ], [ 413923.320595412806142, 7631037.424505347386003 ], [ 413935.807639053906314, 7631066.888516455888748 ], [ 413946.578810595558025, 7631095.905756554566324 ], [ 413955.784301212523133, 7631124.388652147725224 ], [ 413963.564961495110765, 7631152.257884472608566 ], [ 413969.962021489976905, 7631178.989566683769226 ], [ 413976.024121430586092, 7631209.121881774626672 ], [ 413981.319746551394928, 7631241.483575565740466 ], [ 413985.621025721775368, 7631274.610311126336455 ], [ 413989.059035811922513, 7631308.213018625043333 ], [ 413992.067231133230962, 7631346.892550903372467 ], [ 413994.277516610512976, 7631386.046182182617486 ], [ 413996.483465557394084, 7631438.637803353369236 ] ] ] } },
{ "type": "Feature", "properties": { "fid": 49.0, "COMPR_M": 1007.69, "CLASSE": "06 - Acima do limite", "CD_FAZ": " 404027", "TALHOES": "1, 2", "FAZ_tAL": "403941001, 404027002, 404065001, 404065002", "ID_LINHA": 15674 }, "geometry": { "type": "MultiLineString", "coordinates": [ [ [ 413483.846384349511936, 7630667.476339836604893 ], [ 413510.920558189507574, 7630675.119310021400452 ], [ 413539.669336583232507, 7630684.49484153650701 ], [ 413568.83349086320959, 7630695.416576001793146 ], [ 413598.303688429179601, 7630708.006547404453158 ], [ 413627.955628224881366, 7630722.383264886215329 ], [ 413651.719684146111831, 7630735.250512236729264 ], [ 413681.241333819343708, 7630753.064077587798238 ], [ 413704.247402047738433, 7630768.481769248843193 ], [ 413726.462697579758242, 7630784.763109697960317 ], [ 413753.157191947044339, 7630806.321572929620743 ], [ 413778.67307494150009, 7630829.213560132309794 ], [ 413798.239993757626507, 7630848.491033310070634 ], [ 413821.606503311428241, 7630873.776162120513618 ], [ 413839.429127922805492, 7630894.987587695010006 ], [ 413856.455689782567788, 7630917.091436831280589 ], [ 413872.63811610074481, 7630940.078101938590407 ], [ 413887.935001617413945, 7630963.952682036906481 ], [ 413901.988597114104778, 7630988.142877525649965 ], [ 413914.666234922595322, 7631012.24508341960609 ], [ 413928.709201503428631, 7631042.141307549551129 ], [ 413938.596319351519924, 7631065.782420680858195 ], [ 413949.413551258156076, 7631094.923712559044361 ], [ 413958.657403536955826, 7631123.5252694953233 ], [ 413966.469599934702273, 7631151.507416326552629 ], [ 413972.891466008266434, 7631178.342685369774699 ], [ 413978.975475225248374, 7631208.583753256127238 ], [ 413984.28832348663127, 7631241.050451848655939 ], [ 413988.601361889857799, 7631274.267356207594275 ], [ 413992.04690243274672, 7631307.943450817838311 ], [ 413995.060677804518491, 7631346.694346867501736 ], [ 413997.274080637842417, 7631385.902631094679236 ], [ 413999.479900677513797, 7631438.488447763025761 ] ] ] } },
{ "type": "Feature", "properties": { "fid": 50.0, "COMPR_M": 1000.5, "CLASSE": "06 - Acima do limite", "CD_FAZ": " 404027", "TALHOES": "1, 2", "FAZ_tAL": "403941001, 404027002, 404065001, 404065002", "ID_LINHA": 15675 }, "geometry": { "type": "MultiLineString", "coordinates": [ [ [ 413495.2149135490763, 7630667.436060299165547 ], [ 413523.28521206008736, 7630675.836744566448033 ], [ 413552.329313877038658, 7630685.856515537947416 ], [ 413581.757121073198505, 7630697.481324009597301 ], [ 413611.444936117273755, 7630710.830115213990211 ], [ 413641.263696162262931, 7630726.021048075519502 ], [ 413665.117398435017094, 7630739.577807202003896 ], [ 413688.721422546776012, 7630754.33308838494122 ], [ 413711.620634366059676, 7630770.032141976058483 ], [ 413733.746004253800493, 7630786.605831493623555 ], [ 413760.322667093016207, 7630808.529227423481643 ], [ 413785.719425246817991, 7630831.794289994053543 ], [ 413805.182106616732199, 7630851.371920494362712 ], [ 413828.411362752027344, 7630877.041721938177943 ], [ 413846.11944476258941, 7630898.574442783370614 ], [ 413863.015673039306421, 7630921.000961566343904 ], [ 413879.05767141765682, 7630944.320924382656813 ], [ 413894.159566548187286, 7630968.468830185011029 ], [ 413907.924044789629988, 7630992.755485458299518 ], [ 413920.327648355916608, 7631016.934133367612958 ], [ 413934.046045998460613, 7631046.893821779638529 ], [ 413943.691028806380928, 7631070.56821857765317 ], [ 413954.226291460217908, 7631099.73134177736938 ], [ 413963.210375270748045, 7631128.335001600906253 ], [ 413970.773894327692688, 7631156.259435277432203 ], [ 413976.953691081085708, 7631182.90838635712862 ], [ 413982.794902815076057, 7631212.883812166750431 ], [ 413987.888433376559988, 7631245.014745887368917 ], [ 413992.021069451177027, 7631277.795622891746461 ], [ 413995.358405273756944, 7631311.311222640797496 ], [ 413998.275944508495741, 7631349.894334567710757 ], [ 414002.476335810730234, 7631438.33909216709435 ] ] ] } },
{ "type": "Feature", "properties": { "fid": 51.0, "COMPR_M": 993.39, "CLASSE": "06 - Acima do limite", "CD_FAZ": " 404027", "TALHOES": "1, 2", "FAZ_tAL": "403941001, 404027002, 404065001, 404065002", "ID_LINHA": 15676 }, "geometry": { "type": "MultiLineString", "coordinates": [ [ [ 413506.46002574841259, 7630667.528762731701136 ], [ 413535.816158021450974, 7630676.819833057001233 ], [ 413565.15029341855552, 7630687.511777115985751 ], [ 413594.824709994718432, 7630699.865050224587321 ], [ 413618.724478807300329, 7630711.024111544713378 ], [ 413648.685399480164051, 7630726.666592571884394 ], [ 413672.611605971993413, 7630740.595023488625884 ], [ 413696.191584699670784, 7630755.684104068204761 ], [ 413724.577127552358434, 7630775.808839027769864 ], [ 413746.416735574603081, 7630792.890818659216166 ], [ 413772.636542236199602, 7630815.450456865131855 ], [ 413792.763077555049676, 7630834.471916506066918 ], [ 413812.117751487530768, 7630854.350297796539962 ], [ 413835.208309658220969, 7630880.410204922780395 ], [ 413852.79846389364684, 7630902.267281288281083 ], [ 413869.559905774483923, 7630925.018415032885969 ], [ 413885.460184753639624, 7630948.679767704568803 ], [ 413900.327667214965913, 7630973.040362207219005 ], [ 413913.804145809845068, 7630997.416282385587692 ], [ 413925.935465468210168, 7631021.66553511749953 ], [ 413939.331588759261649, 7631051.681068884208798 ], [ 413948.737096685159486, 7631075.38516116514802 ], [ 413958.993058043706696, 7631104.564033523201942 ], [ 413967.72048739931779, 7631133.165563919581473 ], [ 413975.031861791270785, 7631160.997370067983866 ], [ 413980.975764498231001, 7631187.451375775970519 ], [ 413986.582181289617438, 7631217.155657917261124 ], [ 413991.463388124713674, 7631248.936664009466767 ], [ 413995.425401189422701, 7631281.289599539712071 ], [ 413998.660474715172313, 7631314.672074191272259 ], [ 414001.269750369421672, 7631349.701633177697659 ], [ 414005.472770935855806, 7631438.189736573025584 ] ] ] } },
{ "type": "Feature", "properties": { "fid": 52.0, "COMPR_M": 985.08, "CLASSE": "06 - Acima do limite", "CD_FAZ": " 404027", "TALHOES": "1, 2", "FAZ_tAL": "403941001, 404027002, 404065001, 404065002", "ID_LINHA": 15677 }, "geometry": { "type": "MultiLineString", "coordinates": [ [ [ 413518.797444714233279, 7630668.126377725973725 ], [ 413548.515117408765946, 7630678.081476183608174 ], [ 413572.176467735436745, 7630687.060370115563273 ], [ 413602.032048888329882, 7630699.815016891807318 ], [ 413626.061177492141724, 7630711.319052954204381 ], [ 413656.165906449605245, 7630727.425341479480267 ], [ 413680.142405535676517, 7630741.720441463403404 ], [ 413703.662793894531205, 7630757.124545825645328 ], [ 413726.375782506540418, 7630773.407779706642032 ], [ 413748.313783902209252, 7630790.566716655157506 ], [ 413774.651503100816626, 7630813.22780654206872 ], [ 413794.868540175375529, 7630832.334799256175756 ], [ 413814.310329489468131, 7630852.30265374854207 ], [ 413837.505117571505252, 7630878.480198943987489 ], [ 413855.175069380435161, 7630900.436433735303581 ], [ 413872.01293985301163, 7630923.291311397217214 ], [ 413887.986170664255042, 7630947.061229202896357 ], [ 413902.921935859194491, 7630971.533700242638588 ], [ 413916.459481823781971, 7630996.020062888041139 ], [ 413928.644858910585754, 7631020.377356044948101 ], [ 413942.099472465110011, 7631050.523911142721772 ], [ 413951.545181138790213, 7631074.329301988705993 ], [ 413961.844007493520621, 7631103.63009319640696 ], [ 413970.606986410042737, 7631132.348090345039964 ], [ 413977.947216393367853, 7631160.28968127258122 ], [ 413983.913383027305827, 7631186.842698799446225 ], [ 413989.539252998656593, 7631216.64990053884685 ], [ 413994.435581682249904, 7631248.529105823487043 ], [ 413998.407725417811889, 7631280.964390791021287 ], [ 414001.649608573759906, 7631314.416944213211536 ], [ 414004.263556228135712, 7631349.508931804448366 ], [ 414008.469206054287497, 7631438.040380984544754 ] ] ] } },
{ "type": "Feature", "properties": { "fid": 258.0, "COMPR_M": 1032.92, "CLASSE": "06 - Acima do limite", "CD_FAZ": " 404027", "TALHOES": "1, 2", "FAZ_tAL": "403941001, 404027002, 404065001, 404065002", "ID_LINHA": 15882 }, "geometry": { "type": "MultiLineString", "coordinates": [ [ [ 413445.942257072892971, 7630667.769231857731938 ], [ 413474.844483722699806, 7630674.450575413182378 ], [ 413508.309175200702157, 7630683.732208957895637 ], [ 413536.699265193659812, 7630692.990733407437801 ], [ 413565.490513983764686, 7630703.772781886160374 ], [ 413594.575327971077058, 7630716.198077915236354 ], [ 413623.831755654304288, 7630730.382996022701263 ], [ 413653.131782547803596, 7630746.444768215529621 ], [ 413676.390359910146799, 7630760.644998175092041 ], [ 413699.080300050671212, 7630775.850845819339156 ], [ 413726.352684237528592, 7630796.057959277182817 ], [ 413752.448864901671186, 7630817.585005121305585 ], [ 413777.3868258020957, 7630840.429778888821602 ], [ 413801.154861501301639, 7630864.588518030941486 ], [ 413819.305885538225994, 7630884.858003976754844 ], [ 413840.915436445735395, 7630911.421519044786692 ], [ 413857.2947354108328, 7630933.653933224268258 ], [ 413872.830255194799975, 7630956.772460187785327 ], [ 413887.356324031949043, 7630980.573671989142895 ], [ 413900.527465759019833, 7631004.397379883565009 ], [ 413915.158462331513874, 7631034.007158735767007 ], [ 413927.89578032749705, 7631063.292114781215787 ], [ 413938.90206236980157, 7631092.154960295185447 ], [ 413948.329150475561619, 7631120.510676434263587 ], [ 413956.321814137161709, 7631148.29390923678875 ], [ 413962.93819948163582, 7631175.090375104919076 ], [ 413969.226078553590924, 7631205.364948076196015 ], [ 413974.729143879434559, 7631237.940367320552468 ], [ 413979.205874747247435, 7631271.40009493008256 ], [ 413982.751354794076178, 7631305.122955441474915 ], [ 413985.852204189926852, 7631343.891561689786613 ], [ 413988.133413817791734, 7631383.218425961211324 ], [ 413990.490595306269825, 7631438.936514543369412 ] ] ] } },
{ "type": "Feature", "properties": { "fid": 338.0, "COMPR_M": 91.79, "CLASSE": "01 - Muito curta", "CD_FAZ": " 404027", "TALHOES": "3, 1", "FAZ_tAL": "404065003, 404027001", "ID_LINHA": 15962 }, "geometry": { "type": "MultiLineString", "coordinates": [ [ [ 412458.809114215604495, 7630736.018964502960443 ], [ 412494.64331060758559, 7630705.429004303179681 ], [ 412529.283798517251853, 7630677.264245072379708 ] ] ] } },
{ "type": "Feature", "properties": { "fid": 339.0, "COMPR_M": 85.77, "CLASSE": "01 - Muito curta", "CD_FAZ": " 404027", "TALHOES": "3, 1", "FAZ_tAL": "404065003, 404027001", "ID_LINHA": 15963 }, "geometry": { "type": "MultiLineString", "coordinates": [ [ [ 412458.577285593142733, 7630732.24179408326745 ], [ 412492.722076750476845, 7630703.124905676580966 ], [ 412524.403913946240209, 7630677.306863303296268 ] ] ] } },
{ "type": "Feature", "properties": { "fid": 340.0, "COMPR_M": 79.76, "CLASSE": "01 - Muito curta", "CD_FAZ": " 404027", "TALHOES": "3, 1", "FAZ_tAL": "404065003, 404027001", "ID_LINHA": 15964 }, "geometry": { "type": "MultiLineString", "coordinates": [ [ [ 412458.345586695009843, 7630728.466737007722259 ], [ 412490.800842893251684, 7630700.820807049050927 ], [ 412519.538184367818758, 7630677.349357914179564 ] ] ] } },
{ "type": "Feature", "properties": { "fid": 341.0, "COMPR_M": 73.77, "CLASSE": "01 - Muito curta", "CD_FAZ": " 404027", "TALHOES": "3, 1", "FAZ_tAL": "404065003, 404027001", "ID_LINHA": 15965 }, "geometry": { "type": "MultiLineString", "coordinates": [ [ [ 412458.114147615619004, 7630724.695913366042078 ], [ 412485.79586344078416, 7630701.093555215746164 ], [ 412514.6867528737057, 7630677.391727650538087 ] ] ] } },
{ "type": "Feature", "properties": { "fid": 342.0, "COMPR_M": 67.79, "CLASSE": "01 - Muito curta", "CD_FAZ": " 404027", "TALHOES": "3, 1", "FAZ_tAL": "404065003, 404027001", "ID_LINHA": 15966 }, "geometry": { "type": "MultiLineString", "coordinates": [ [ [ 412457.882817324367352, 7630720.92686209641397 ], [ 412509.850121112191118, 7630677.433968142606318 ] ] ] } },
{ "type": "Feature", "properties": { "fid": 343.0, "COMPR_M": 61.82, "CLASSE": "01 - Muito curta", "CD_FAZ": " 404027", "TALHOES": "3, 1", "FAZ_tAL": "404065003, 404027001", "ID_LINHA": 15967 }, "geometry": { "type": "MultiLineString", "coordinates": [ [ [ 412457.651685416058172, 7630717.161043035797775 ], [ 412505.02654499898199, 7630677.476094612851739 ] ] ] } },
{ "type": "Feature", "properties": { "fid": 344.0, "COMPR_M": 55.86, "CLASSE": "01 - Muito curta", "CD_FAZ": " 404027", "TALHOES": "3, 1", "FAZ_tAL": "404065003, 404027001", "ID_LINHA": 15968 }, "geometry": { "type": "MultiLineString", "coordinates": [ [ [ 412457.420749391778372, 7630713.398415403440595 ], [ 412500.215724276669789, 7630677.518109668977559 ] ] ] } },
{ "type": "Feature", "properties": { "fid": 345.0, "COMPR_M": 49.92, "CLASSE": "01 - Muito curta", "CD_FAZ": " 404027", "TALHOES": "3, 1", "FAZ_tAL": "404065003, 404027001", "ID_LINHA": 15969 }, "geometry": { "type": "MultiLineString", "coordinates": [ [ [ 412457.189912453410216, 7630709.637402311898768 ], [ 412495.417365255649202, 7630677.560015907511115 ] ] ] } },
{ "type": "Feature", "properties": { "fid": 346.0, "COMPR_M": 43.99, "CLASSE": "01 - Muito curta", "CD_FAZ": " 404027", "TALHOES": "3, 1", "FAZ_tAL": "404065003, 404027001", "ID_LINHA": 15970 }, "geometry": { "type": "MultiLineString", "coordinates": [ [ [ 412456.959373315330595, 7630705.881241288036108 ], [ 412490.631180801719893, 7630677.60181581042707 ] ] ] } },
{ "type": "Feature", "properties": { "fid": 347.0, "COMPR_M": 38.06, "CLASSE": "01 - Muito curta", "CD_FAZ": " 404027", "TALHOES": "3, 1", "FAZ_tAL": "404065003, 404027001", "ID_LINHA": 15971 }, "geometry": { "type": "MultiLineString", "coordinates": [ [ [ 412456.728932490688749, 7630702.126682039350271 ], [ 412485.856889859074727, 7630677.643511848524213 ] ] ] } }
]
}
