{
"type": "FeatureCollection",
"name": "400095",
"crs": { "type": "name", "properties": { "name": "urn:ogc:def:crs:EPSG::32722" } },
"xy_coordinate_resolution": 1e-15,
"features": [
{ "type": "Feature", "properties": { "fid": 1.0, "COMPR_M": 341.36, "CLASSE": "03 - Média", "CD_FAZ": "400095", "TALHOES": "5", "FAZ_tAL": "400095005", "ID_LINHA": 26160 }, "geometry": { "type": "MultiLineString", "coordinates": [ [ [ 416331.801524822425563, 7652217.700162015855312 ], [ 416332.62505620601587, 7652175.422683278098702 ], [ 416331.177615523920394, 7652130.439648560248315 ], [ 416327.520691436540801, 7652085.546023243106902 ], [ 416322.951188023318537, 7652049.841036337427795 ], [ 416316.786449220962822, 7652014.470986947417259 ], [ 416306.835380752570927, 7651970.821526952087879 ], [ 416294.667391729832161, 7651927.733947904780507 ], [ 416279.732854182133451, 7651882.69310477655381 ] ] ] } },
{ "type": "Feature", "properties": { "fid": 5.0, "COMPR_M": 26.43, "CLASSE": "01 - Muito curta", "CD_FAZ": "400095", "TALHOES": "5", "FAZ_tAL": "400095005", "ID_LINHA": 26161 }, "geometry": { "type": "MultiLineString", "coordinates": [ [ [ 416443.370611385966185, 7652203.085193313658237 ], [ 416443.62644274556078, 7652176.660623386502266 ] ] ] } },
{ "type": "Feature", "properties": { "fid": 6.0, "COMPR_M": 33.97, "CLASSE": "01 - Muito curta", "CD_FAZ": "400095", "TALHOES": "5", "FAZ_tAL": "400095005", "ID_LINHA": 26162 }, "geometry": { "type": "MultiLineString", "coordinates": [ [ [ 416440.361514401098248, 7652203.493315358646214 ], [ 416440.563664838555269, 7652169.535356605425477 ] ] ] } },
{ "type": "Feature", "properties": { "fid": 7.0, "COMPR_M": 41.62, "CLASSE": "01 - Muito curta", "CD_FAZ": "400095", "TALHOES": "5", "FAZ_tAL": "400095005", "ID_LINHA": 26163 }, "geometry": { "type": "MultiLineString", "coordinates": [ [ [ 416437.352417415822856, 7652203.901437402702868 ], [ 416437.454480222892016, 7652162.302128952927887 ] ] ] } },
{ "type": "Feature", "properties": { "fid": 8.0, "COMPR_M": 49.39, "CLASSE": "01 - Muito curta", "CD_FAZ": "400095", "TALHOES": "5", "FAZ_tAL": "400095005", "ID_LINHA": 26164 }, "geometry": { "type": "MultiLineString", "coordinates": [ [ [ 416434.34332043066388, 7652204.309559448622167 ], [ 416434.635200719116256, 7652184.859481159597635 ], [ 416434.291059630457312, 7652154.942726356908679 ] ] ] } },
{ "type": "Feature", "properties": { "fid": 9.0, "COMPR_M": 57.35, "CLASSE": "01 - Muito curta", "CD_FAZ": "400095", "TALHOES": "5, 3", "FAZ_tAL": "400095005, 400095003", "ID_LINHA": 26165 }, "geometry": { "type": "MultiLineString", "coordinates": [ [ [ 416431.334223445737734, 7652204.717681493610144 ], [ 416431.624438348750118, 7652174.791703041642904 ], [ 416431.048400875530206, 7652147.398983582854271 ] ] ] } },
{ "type": "Feature", "properties": { "fid": 10.0, "COMPR_M": 65.44, "CLASSE": "01 - Muito curta", "CD_FAZ": "400095", "TALHOES": "5, 3", "FAZ_tAL": "400095005, 400095003", "ID_LINHA": 26166 }, "geometry": { "type": "MultiLineString", "coordinates": [ [ [ 416428.322850622062106, 7652205.126112207770348 ], [ 416428.624457072175574, 7652174.81082365475595 ], [ 416427.746683115372434, 7652139.717845547944307 ] ] ] } },
{ "type": "Feature", "properties": { "fid": 11.0, "COMPR_M": 73.69, "CLASSE": "01 - Muito curta", "CD_FAZ": "400095", "TALHOES": "5, 3", "FAZ_tAL": "400095005, 400095003", "ID_LINHA": 26167 }, "geometry": { "type": "MultiLineString", "coordinates": [ [ [ 416425.30828535312321, 7652205.534975912421942 ], [ 416425.507980337773915, 7652164.854901315644383 ], [ 416424.380593049805611, 7652131.886951351538301 ] ] ] } },
{ "type": "Feature", "properties": { "fid": 12.0, "COMPR_M": 82.29, "CLASSE": "01 - Muito curta", "CD_FAZ": "400095", "TALHOES": "5, 3", "FAZ_tAL": "400095005, 400095003", "ID_LINHA": 26168 }, "geometry": { "type": "MultiLineString", "coordinates": [ [ [ 416422.293720084999222, 7652205.943839617073536 ], [ 416422.508367506437935, 7652164.905570581555367 ], [ 416420.933316288108472, 7652123.713138308376074 ] ] ] } },
{ "type": "Feature", "properties": { "fid": 13.0, "COMPR_M": 91.13, "CLASSE": "01 - Muito curta", "CD_FAZ": "400095", "TALHOES": "5, 3", "FAZ_tAL": "400095005, 400095003", "ID_LINHA": 26169 }, "geometry": { "type": "MultiLineString", "coordinates": [ [ [ 416419.279154817864764, 7652206.35270332172513 ], [ 416419.50875467719743, 7652164.95623984746635 ], [ 416418.970310826029163, 7652145.179490877315402 ], [ 416417.402568720222916, 7652115.30641008913517 ] ] ] } },
{ "type": "Feature", "properties": { "fid": 14.0, "COMPR_M": 100.2, "CLASSE": "02 - Curta", "CD_FAZ": "400095", "TALHOES": "5, 3", "FAZ_tAL": "400095005, 400095003", "ID_LINHA": 26170 }, "geometry": { "type": "MultiLineString", "coordinates": [ [ [ 416416.264589548925869, 7652206.761567026376724 ], [ 416416.635107151290867, 7652184.781557652167976 ], [ 416416.291052796877921, 7652155.141347841359675 ], [ 416413.776376387686469, 7652106.672427399083972 ] ] ] } },
{ "type": "Feature", "properties": { "fid": 15.0, "COMPR_M": 109.5, "CLASSE": "02 - Curta", "CD_FAZ": "400095", "TALHOES": "5, 3", "FAZ_tAL": "400095005, 400095003", "ID_LINHA": 26171 }, "geometry": { "type": "MultiLineString", "coordinates": [ [ [ 416413.250024280860089, 7652207.170430731028318 ], [ 416413.635091556352563, 7652184.768570400774479 ], [ 416413.292125042760745, 7652155.223007531836629 ], [ 416412.046413416974247, 7652125.814514629542828 ], [ 416410.051730524282902, 7652097.804026343859732 ] ] ] } },
{ "type": "Feature", "properties": { "fid": 16.0, "COMPR_M": 119.08, "CLASSE": "02 - Curta", "CD_FAZ": "400095", "TALHOES": "5, 3", "FAZ_tAL": "400095005, 400095003", "ID_LINHA": 26172 }, "geometry": { "type": "MultiLineString", "coordinates": [ [ [ 416410.235459013027139, 7652207.57929443474859 ], [ 416410.624569409876131, 7652174.925547335296869 ], [ 416409.976481592864729, 7652145.515771498903632 ], [ 416408.446830943517853, 7652116.24623610265553 ], [ 416406.220595556427725, 7652088.68207417987287 ] ] ] } },
{ "type": "Feature", "properties": { "fid": 17.0, "COMPR_M": 128.94, "CLASSE": "02 - Curta", "CD_FAZ": "400095", "TALHOES": "5, 3", "FAZ_tAL": "400095005, 400095003", "ID_LINHA": 26173 }, "geometry": { "type": "MultiLineString", "coordinates": [ [ [ 416407.220893744786736, 7652207.988158140331507 ], [ 416407.624588132312056, 7652174.944667949341238 ], [ 416406.978538514929824, 7652145.62786503881216 ], [ 416405.453477279515937, 7652116.446331883780658 ], [ 416402.269079145684373, 7652079.273493178188801 ] ] ] } },
{ "type": "Feature", "properties": { "fid": 18.0, "COMPR_M": 139.15, "CLASSE": "02 - Curta", "CD_FAZ": "400095", "TALHOES": "5, 3", "FAZ_tAL": "400095005, 400095003", "ID_LINHA": 26174 }, "geometry": { "type": "MultiLineString", "coordinates": [ [ [ 416404.206328477419447, 7652208.397021844983101 ], [ 416404.624606855912134, 7652174.963788561522961 ], [ 416403.568474787520245, 7652136.026455864310265 ], [ 416401.767217592685483, 7652106.973842090927064 ], [ 416398.180625982640777, 7652069.538865056820214 ] ] ] } },
{ "type": "Feature", "properties": { "fid": 19.0, "COMPR_M": 149.75, "CLASSE": "02 - Curta", "CD_FAZ": "400095", "TALHOES": "5, 3", "FAZ_tAL": "400095005, 400095003", "ID_LINHA": 26175 }, "geometry": { "type": "MultiLineString", "coordinates": [ [ [ 416401.191763207607437, 7652208.805885548703372 ], [ 416401.624625577474944, 7652174.982909174636006 ], [ 416400.571799427445512, 7652136.168428974226117 ], [ 416397.991993700095918, 7652097.555675804615021 ], [ 416393.935363295371644, 7652059.430872652679682 ] ] ] } },
{ "type": "Feature", "properties": { "fid": 20.0, "COMPR_M": 160.93, "CLASSE": "02 - Curta", "CD_FAZ": "400095", "TALHOES": "5, 3", "FAZ_tAL": "400095005, 400095003", "ID_LINHA": 26176 }, "geometry": { "type": "MultiLineString", "coordinates": [ [ [ 416398.177197940007318, 7652209.214749252423644 ], [ 416398.511464866518509, 7652165.310924710705876 ], [ 416397.070710102503654, 7652126.67102091293782 ], [ 416394.12587456649635, 7652088.188406052067876 ], [ 416389.481833524419926, 7652048.762268585152924 ] ] ] } },
{ "type": "Feature", "properties": { "fid": 21.0, "COMPR_M": 173.18, "CLASSE": "02 - Curta", "CD_FAZ": "400095", "TALHOES": "5, 3", "FAZ_tAL": "400095005, 400095003", "ID_LINHA": 26177 }, "geometry": { "type": "MultiLineString", "coordinates": [ [ [ 416395.162632671941537, 7652209.623612958006561 ], [ 416395.511852036579512, 7652165.361593976616859 ], [ 416394.075569440377876, 7652126.842322169803083 ], [ 416390.167427701759152, 7652078.875825800001621 ], [ 416384.717683344206307, 7652037.053639654070139 ] ] ] } },
{ "type": "Feature", "properties": { "fid": 22.0, "COMPR_M": 186.19, "CLASSE": "02 - Curta", "CD_FAZ": "400095", "TALHOES": "5, 3", "FAZ_tAL": "400095005, 400095003", "ID_LINHA": 26178 }, "geometry": { "type": "MultiLineString", "coordinates": [ [ [ 416392.14806740480708, 7652210.032476662658155 ], [ 416392.512239206873346, 7652165.412263244390488 ], [ 416390.48670895799296, 7652117.446810788474977 ], [ 416386.115312279725913, 7652069.622042187489569 ], [ 416379.659010161005426, 7652024.621175328269601 ] ] ] } },
{ "type": "Feature", "properties": { "fid": 23.0, "COMPR_M": 200.21, "CLASSE": "02 - Curta", "CD_FAZ": "400095", "TALHOES": "5, 3", "FAZ_tAL": "400095005, 400095003", "ID_LINHA": 26179 }, "geometry": { "type": "MultiLineString", "coordinates": [ [ [ 416389.1335021352279, 7652210.441340368241072 ], [ 416389.63496679981472, 7652184.664672391489148 ], [ 416389.300703022221569, 7652155.876285035163164 ], [ 416386.810686351265758, 7652108.117224965244532 ], [ 416381.968262067297474, 7652060.431207037530839 ], [ 416377.83016919286456, 7652031.837925853207707 ], [ 416374.210376692644786, 7652011.230323858559132 ] ] ] } },
{ "type": "Feature", "properties": { "fid": 24.0, "COMPR_M": 215.39, "CLASSE": "02 - Curta", "CD_FAZ": "400095", "TALHOES": "5, 3", "FAZ_tAL": "400095005, 400095003", "ID_LINHA": 26180 }, "geometry": { "type": "MultiLineString", "coordinates": [ [ [ 416386.118936867802404, 7652210.850204071961343 ], [ 416386.634951205458492, 7652184.651685140095651 ], [ 416386.301775268861093, 7652155.95794472284615 ], [ 416385.090147452312522, 7652127.356225939467549 ], [ 416383.047229082498234, 7652098.843858057633042 ], [ 416380.155894220224582, 7652070.319420866668224 ], [ 416376.351372209726833, 7652041.808981092646718 ], [ 416373.274901927332394, 7652022.837245225906372 ], [ 416368.279478115786333, 7651996.756277868524194 ] ] ] } },
{ "type": "Feature", "properties": { "fid": 25.0, "COMPR_M": 231.94, "CLASSE": "02 - Curta", "CD_FAZ": "400095", "TALHOES": "5, 3", "FAZ_tAL": "400095005, 400095003", "ID_LINHA": 26181 }, "geometry": { "type": "MultiLineString", "coordinates": [ [ [ 416383.10437159932917, 7652211.259067775681615 ], [ 416383.634935610229149, 7652184.638697888702154 ], [ 416383.302847516373731, 7652156.039604412391782 ], [ 416382.095006790012121, 7652127.527527197264135 ], [ 416379.19461793336086, 7652089.624807734042406 ], [ 416376.016622182098217, 7652061.192149042151868 ], [ 416371.907433015003335, 7652032.79834632948041 ], [ 416366.809244349307846, 7652004.530755883082747 ], [ 416361.766495064191986, 7651981.003022147342563 ] ] ] } },
{ "type": "Feature", "properties": { "fid": 26.0, "COMPR_M": 250.65, "CLASSE": "02 - Curta", "CD_FAZ": "400095", "TALHOES": "5, 3", "FAZ_tAL": "400095005, 400095003", "ID_LINHA": 26182 }, "geometry": { "type": "MultiLineString", "coordinates": [ [ [ 416380.089806331729051, 7652211.667931480333209 ], [ 416380.624756638891995, 7652175.116753467358649 ], [ 416379.997050812933594, 7652146.636706898920238 ], [ 416377.836767605273053, 7652108.803254690952599 ], [ 416375.251538114272989, 7652080.463968049734831 ], [ 416371.782120672985911, 7652052.133477439172566 ], [ 416367.363839761645067, 7652023.86710549518466 ], [ 416361.958247559552547, 7651995.795595456846058 ], [ 416354.41752959828591, 7651963.227736791595817 ] ] ] } },
{ "type": "Feature", "properties": { "fid": 27.0, "COMPR_M": 272.48, "CLASSE": "02 - Curta", "CD_FAZ": "400095", "TALHOES": "5, 3", "FAZ_tAL": "400095005, 400095003", "ID_LINHA": 26183 }, "geometry": { "type": "MultiLineString", "coordinates": [ [ [ 416377.075241062324494, 7652212.076795184984803 ], [ 416377.624775361909997, 7652175.135874079540372 ], [ 416376.999107734183781, 7652146.748800439760089 ], [ 416374.845461357326712, 7652109.031931268051267 ], [ 416371.216767130070366, 7652071.365488883107901 ], [ 416365.984696837491356, 7652033.758766805753112 ], [ 416360.924209628254175, 7652005.700194831006229 ], [ 416354.916862525744364, 7651977.957352602854371 ], [ 416345.863653674372472, 7651942.538078339770436 ] ] ] } },
{ "type": "Feature", "properties": { "fid": 28.0, "COMPR_M": 299.59, "CLASSE": "02 - Curta", "CD_FAZ": "400095", "TALHOES": "5, 3", "FAZ_tAL": "400095005, 400095003", "ID_LINHA": 26184 }, "geometry": { "type": "MultiLineString", "coordinates": [ [ [ 416374.060675794491544, 7652212.485658889636397 ], [ 416374.624794084113091, 7652175.15499469358474 ], [ 416373.601721193175763, 7652137.446186955086887 ], [ 416371.091417390562128, 7652099.874403858557343 ], [ 416367.089162353659049, 7652062.333562050014734 ], [ 416361.452777596539818, 7652024.896965764462948 ], [ 416354.090748598449863, 7651987.818159820511937 ], [ 416345.147801780840382, 7651951.326295021921396 ], [ 416335.279457512428053, 7651916.93154164031148 ] ] ] } },
{ "type": "Feature", "properties": { "fid": 29.0, "COMPR_M": 342.95, "CLASSE": "03 - Média", "CD_FAZ": "400095", "TALHOES": "5, 3", "FAZ_tAL": "400095005, 400095003", "ID_LINHA": 26185 }, "geometry": { "type": "MultiLineString", "coordinates": [ [ [ 416371.04555981134763, 7652212.894597287289798 ], [ 416371.62481280619977, 7652175.174115305766463 ], [ 416370.114444138482213, 7652128.212732223793864 ], [ 416366.302004362281878, 7652081.416853398084641 ], [ 416361.517987713159528, 7652044.040107551962137 ], [ 416355.03917490580352, 7652006.86963377892971 ], [ 416351.162289506115485, 7651988.469622693024576 ], [ 416344.615156858228147, 7651961.140192740596831 ], [ 416331.945805295894388, 7651916.27319248393178 ], [ 416318.771190102619585, 7651876.160277556627989 ] ] ] } },
{ "type": "Feature", "properties": { "fid": 30.0, "COMPR_M": 351.06, "CLASSE": "03 - Média", "CD_FAZ": "400095", "TALHOES": "5, 3", "FAZ_tAL": "400095005, 400095003", "ID_LINHA": 26186 }, "geometry": { "type": "MultiLineString", "coordinates": [ [ [ 416368.025059091625735, 7652213.304266015067697 ], [ 416368.624831530149095, 7652175.193235918879509 ], [ 416367.119303476065397, 7652128.384033479727805 ], [ 416363.318826445261948, 7652081.73448184877634 ], [ 416359.896181235439144, 7652053.785400592721999 ], [ 416357.100592573347967, 7652035.199397521093488 ], [ 416350.215883398428559, 7651998.269769486039877 ], [ 416339.350830396870151, 7651952.874199913814664 ], [ 416326.31432948919246, 7651908.302504939027131 ], [ 416313.048760902427603, 7651868.935674950480461 ] ] ] } },
{ "type": "Feature", "properties": { "fid": 31.0, "COMPR_M": 350.25, "CLASSE": "03 - Média", "CD_FAZ": "400095", "TALHOES": "5, 3", "FAZ_tAL": "400095005, 400095003", "ID_LINHA": 26187 }, "geometry": { "type": "MultiLineString", "coordinates": [ [ [ 416365.006431308167521, 7652213.67058901488781 ], [ 416365.624850253225304, 7652175.212356531992555 ], [ 416364.124162813473959, 7652128.55533473752439 ], [ 416360.335648527776357, 7652082.052110297605395 ], [ 416356.924696375615895, 7652054.198381382040679 ], [ 416354.139224483631551, 7652035.679607759229839 ], [ 416347.280292357434519, 7651998.888312993571162 ], [ 416336.452344706864096, 7651953.648152359761298 ], [ 416323.454438141663559, 7651909.208695705980062 ], [ 416310.272435343358666, 7651870.082127436064184 ] ] ] } },
{ "type": "Feature", "properties": { "fid": 32.0, "COMPR_M": 349.44, "CLASSE": "03 - Média", "CD_FAZ": "400095", "TALHOES": "5, 3", "FAZ_tAL": "400095005, 400095003", "ID_LINHA": 26188 }, "geometry": { "type": "MultiLineString", "coordinates": [ [ [ 416361.987803445721511, 7652214.036913833580911 ], [ 416362.62486897688359, 7652175.231477147899568 ], [ 416361.129022150940727, 7652128.726635992527008 ], [ 416357.352470611222088, 7652082.369738748297095 ], [ 416353.953211516083684, 7652054.611362170428038 ], [ 416351.177856395079289, 7652036.15981799736619 ], [ 416344.344701316789724, 7651999.506856499239802 ], [ 416333.553859015170019, 7651954.422104805707932 ], [ 416320.594546794658527, 7651910.114886473864317 ], [ 416307.49610978277633, 7651871.228579922579229 ] ] ] } },
{ "type": "Feature", "properties": { "fid": 33.0, "COMPR_M": 348.64, "CLASSE": "03 - Média", "CD_FAZ": "400095", "TALHOES": "5, 3", "FAZ_tAL": "400095005, 400095003", "ID_LINHA": 26189 }, "geometry": { "type": "MultiLineString", "coordinates": [ [ [ 416358.969175582984462, 7652214.40323865134269 ], [ 416359.624887699028477, 7652175.250597760081291 ], [ 416358.133881488349289, 7652128.897937248460948 ], [ 416354.369292691582814, 7652082.68736719712615 ], [ 416350.98172665736638, 7652055.024342960678041 ], [ 416348.216488307807595, 7652036.640028234571218 ], [ 416341.409110276435968, 7652000.12540000770241 ], [ 416330.655373323068488, 7651955.196057250723243 ], [ 416317.734655446955003, 7651911.021077243611217 ], [ 416304.719784223299939, 7651872.375032408162951 ] ] ] } },
{ "type": "Feature", "properties": { "fid": 34.0, "COMPR_M": 347.83, "CLASSE": "03 - Média", "CD_FAZ": "400095", "TALHOES": "5", "FAZ_tAL": "400095005", "ID_LINHA": 26190 }, "geometry": { "type": "MultiLineString", "coordinates": [ [ [ 416355.950547720480245, 7652214.769563470035791 ], [ 416356.624906422337517, 7652175.269718373194337 ], [ 416355.13874082575785, 7652129.069238506257534 ], [ 416351.386114775552414, 7652083.00499564781785 ], [ 416348.010241797659546, 7652055.437323748134077 ], [ 416345.255120219779201, 7652037.120238473638892 ], [ 416338.473519236431457, 7652000.743943515233696 ], [ 416327.756887631840073, 7651955.970009697601199 ], [ 416314.874764099135064, 7651911.927268013358116 ], [ 416301.943458661669865, 7651873.521484892815351 ] ] ] } },
{ "type": "Feature", "properties": { "fid": 35.0, "COMPR_M": 347.02, "CLASSE": "03 - Média", "CD_FAZ": "400095", "TALHOES": "5", "FAZ_tAL": "400095005", "ID_LINHA": 26191 }, "geometry": { "type": "MultiLineString", "coordinates": [ [ [ 416352.931919858325273, 7652215.13588828779757 ], [ 416353.624925145530142, 7652175.28883898537606 ], [ 416352.143600162409712, 7652129.240539763122797 ], [ 416348.402936858357862, 7652083.322624096646905 ], [ 416345.038756938069128, 7652055.85030453838408 ], [ 416342.293752130353823, 7652037.600448712706566 ], [ 416335.537928195379209, 7652001.362487023696303 ], [ 416324.858401940145995, 7651956.74396214261651 ], [ 416312.014872751955409, 7651912.833458781242371 ], [ 416299.167133101145737, 7651874.667937377467752 ] ] ] } },
{ "type": "Feature", "properties": { "fid": 36.0, "COMPR_M": 346.21, "CLASSE": "03 - Média", "CD_FAZ": "400095", "TALHOES": "5", "FAZ_tAL": "400095005", "ID_LINHA": 26192 }, "geometry": { "type": "MultiLineString", "coordinates": [ [ [ 416349.913291996461339, 7652215.502213105559349 ], [ 416350.624943867849652, 7652175.307959599420428 ], [ 416349.148459500400349, 7652129.41184101998806 ], [ 416345.419758940173779, 7652083.64025254547596 ], [ 416342.067272077430971, 7652056.263285325840116 ], [ 416339.332384042849299, 7652038.080658950842917 ], [ 416332.602337155316491, 7652001.981030529364944 ], [ 416321.959916248102672, 7651957.517914588563144 ], [ 416309.154981404077262, 7651913.73964955098927 ], [ 416296.39080754306633, 7651875.814389863982797 ] ] ] } },
{ "type": "Feature", "properties": { "fid": 37.0, "COMPR_M": 345.4, "CLASSE": "03 - Média", "CD_FAZ": "400095", "TALHOES": "5", "FAZ_tAL": "400095005", "ID_LINHA": 26193 }, "geometry": { "type": "MultiLineString", "coordinates": [ [ [ 416346.894664133607876, 7652215.868537925183773 ], [ 416347.624962591333315, 7652175.327080213464797 ], [ 416346.153318837634288, 7652129.583142277784646 ], [ 416342.436581023503095, 7652083.95788099616766 ], [ 416339.095787217724137, 7652056.676266114227474 ], [ 416336.371015954588074, 7652038.560869188979268 ], [ 416329.666746114846319, 7652002.599574036896229 ], [ 416319.061430556874257, 7651958.291867032647133 ], [ 416306.295090057363268, 7651914.645840319804847 ], [ 416293.614481982891448, 7651876.960842348635197 ] ] ] } },
{ "type": "Feature", "properties": { "fid": 38.0, "COMPR_M": 344.59, "CLASSE": "03 - Média", "CD_FAZ": "400095", "TALHOES": "5", "FAZ_tAL": "400095005", "ID_LINHA": 26194 }, "geometry": { "type": "MultiLineString", "coordinates": [ [ [ 416343.876036271685734, 7652216.234862742945552 ], [ 416344.62498131277971, 7652175.34620082564652 ], [ 416343.158178174868226, 7652129.754443532787263 ], [ 416339.453403107123449, 7652084.275509443134069 ], [ 416336.124302359530702, 7652057.089246902614832 ], [ 416333.40964786557015, 7652039.041079428046942 ], [ 416326.731155074143317, 7652003.218117544427514 ], [ 416316.162944865238387, 7651959.065819481387734 ], [ 416303.43519870727323, 7651915.552031087689102 ], [ 416290.838156421785243, 7651878.107294834218919 ] ] ] } },
{ "type": "Feature", "properties": { "fid": 39.0, "COMPR_M": 343.78, "CLASSE": "03 - Média", "CD_FAZ": "400095", "TALHOES": "5", "FAZ_tAL": "400095005", "ID_LINHA": 26195 }, "geometry": { "type": "MultiLineString", "coordinates": [ [ [ 416340.857408409414347, 7652216.601187560707331 ], [ 416341.625000037311111, 7652175.365321438759565 ], [ 416340.163037511985749, 7652129.925744792446494 ], [ 416336.470225188939366, 7652084.593137894757092 ], [ 416330.448279777134303, 7652039.52128966525197 ], [ 416323.795564034313429, 7652003.836661051958799 ], [ 416313.264459173893556, 7651959.839771926403046 ], [ 416300.575307361141313, 7651916.458221855573356 ], [ 416288.061830862483475, 7651879.253747321665287 ] ] ] } },
{ "type": "Feature", "properties": { "fid": 40.0, "COMPR_M": 342.98, "CLASSE": "03 - Média", "CD_FAZ": "400095", "TALHOES": "5", "FAZ_tAL": "400095005", "ID_LINHA": 26196 }, "geometry": { "type": "MultiLineString", "coordinates": [ [ [ 416337.838780546793714, 7652216.96751237846911 ], [ 416338.625018759048544, 7652175.384442050941288 ], [ 416337.167896849103272, 7652130.097046046517789 ], [ 416333.487047270988114, 7652084.910766344517469 ], [ 416328.884541821782477, 7652048.948585755191743 ], [ 416322.671483942365739, 7652013.301547998562455 ], [ 416312.647653999738395, 7651969.33209091797471 ], [ 416300.402532278734725, 7651925.97075476218015 ], [ 416285.285505302366801, 7651880.400199806317687 ] ] ] } },
{ "type": "Feature", "properties": { "fid": 41.0, "COMPR_M": 342.17, "CLASSE": "03 - Média", "CD_FAZ": "400095", "TALHOES": "5", "FAZ_tAL": "400095005", "ID_LINHA": 26197 }, "geometry": { "type": "MultiLineString", "coordinates": [ [ [ 416334.820152684464119, 7652217.333837198093534 ], [ 416335.625037483230699, 7652175.403562665916979 ], [ 416334.172756186861079, 7652130.26834730617702 ], [ 416330.503869353968184, 7652085.228394793346524 ], [ 416325.917864922317676, 7652049.394811047241092 ], [ 416319.7289665818098, 7652013.886267472058535 ], [ 416309.741517375921831, 7651970.07680893316865 ], [ 416297.534962004574481, 7651926.852351332083344 ], [ 416282.509179741377011, 7651881.546652290038764 ] ] ] } },
{ "type": "Feature", "properties": { "fid": 42.0, "COMPR_M": 119.13, "CLASSE": "02 - Curta", "CD_FAZ": "400095", "TALHOES": "5", "FAZ_tAL": "400095005", "ID_LINHA": 26198 }, "geometry": { "type": "MultiLineString", "coordinates": [ [ [ 416242.570579907333013, 7652025.900425638072193 ], [ 416236.170536011108197, 7651997.367795836180449 ], [ 416229.947054409072734, 7651973.579998221248388 ], [ 416220.498349626315758, 7651941.831563379615545 ], [ 416210.315172559698112, 7651911.358357433229685 ] ] ] } },
{ "type": "Feature", "properties": { "fid": 43.0, "COMPR_M": 146.24, "CLASSE": "02 - Curta", "CD_FAZ": "400095", "TALHOES": "5", "FAZ_tAL": "400095005", "ID_LINHA": 26199 }, "geometry": { "type": "MultiLineString", "coordinates": [ [ [ 416250.308531896851491, 7652051.399571811780334 ], [ 416244.534605942899361, 7652020.537335745990276 ], [ 416235.005345497746021, 7651980.736487958580256 ], [ 416225.845705148414709, 7651948.892265602014959 ], [ 416213.092572813678999, 7651910.211461164988577 ] ] ] } },
{ "type": "Feature", "properties": { "fid": 44.0, "COMPR_M": 167.28, "CLASSE": "02 - Curta", "CD_FAZ": "400095", "TALHOES": "5", "FAZ_tAL": "400095005", "ID_LINHA": 26200 }, "geometry": { "type": "MultiLineString", "coordinates": [ [ [ 416256.266848819563165, 7652071.034223773516715 ], [ 416250.651129904901609, 7652035.925993228331208 ], [ 416241.997939736815169, 7651995.93868415709585 ], [ 416231.13138532784069, 7651956.000161165371537 ], [ 416215.869973068591207, 7651909.064564895816147 ] ] ] } },
{ "type": "Feature", "properties": { "fid": 45.0, "COMPR_M": 185.39, "CLASSE": "02 - Curta", "CD_FAZ": "400095", "TALHOES": "5", "FAZ_tAL": "400095005", "ID_LINHA": 26201 }, "geometry": { "type": "MultiLineString", "coordinates": [ [ [ 416261.366479688032996, 7652087.839217284694314 ], [ 416258.865696013439447, 7652067.826747409999371 ], [ 416255.053658616379835, 7652043.434450592845678 ], [ 416246.834217423922382, 7652003.245711978524923 ], [ 416240.802316881134175, 7651979.188583068549633 ], [ 416234.006679072394036, 7651955.144083121791482 ], [ 416218.647373322281055, 7651907.91766862757504 ] ] ] } },
{ "type": "Feature", "properties": { "fid": 46.0, "COMPR_M": 201.69, "CLASSE": "02 - Curta", "CD_FAZ": "400095", "TALHOES": "5", "FAZ_tAL": "400095005", "ID_LINHA": 26202 }, "geometry": { "type": "MultiLineString", "coordinates": [ [ [ 416265.929952599632088, 7652102.877390567213297 ], [ 416263.947242046124302, 7652083.918305084109306 ], [ 416260.650973140553106, 7652059.211767454631627 ], [ 416256.549532746896148, 7652034.825938886962831 ], [ 416251.594680321519263, 7652010.61936035938561 ], [ 416245.806511657719966, 7651986.460605286061764 ], [ 416239.236557296768297, 7651962.328968768939376 ], [ 416231.93791501695523, 7651938.206800304353237 ], [ 416221.424773574748542, 7651906.770772359333932 ] ] ] } },
{ "type": "Feature", "properties": { "fid": 47.0, "COMPR_M": 216.74, "CLASSE": "02 - Curta", "CD_FAZ": "400095", "TALHOES": "5", "FAZ_tAL": "400095005", "ID_LINHA": 26203 }, "geometry": { "type": "MultiLineString", "coordinates": [ [ [ 416270.121709273895249, 7652116.690634213387966 ], [ 416266.926951076311525, 7652083.569615745916963 ], [ 416263.61765003867913, 7652058.765542163513601 ], [ 416259.498734168009833, 7652034.275911716744304 ], [ 416254.523139414377511, 7652009.967897487804294 ], [ 416248.712648281187285, 7651985.715887270867825 ], [ 416242.119594989460893, 7651961.499336494132876 ], [ 416234.797806365066208, 7651937.300609536468983 ], [ 416224.202173830068205, 7651905.623876090161502 ] ] ] } },
{ "type": "Feature", "properties": { "fid": 48.0, "COMPR_M": 230.76, "CLASSE": "02 - Curta", "CD_FAZ": "400095", "TALHOES": "5", "FAZ_tAL": "400095005", "ID_LINHA": 26204 }, "geometry": { "type": "MultiLineString", "coordinates": [ [ [ 416274.009846596280113, 7652129.503350309096277 ], [ 416271.689570175833069, 7652099.966899858787656 ], [ 416268.887104246299714, 7652074.889105135574937 ], [ 416263.920251865172759, 7652041.889660190790892 ], [ 416259.212561144609936, 7652017.444618210196495 ], [ 416253.652747188520152, 7651993.080460804514587 ], [ 416245.002632681862451, 7651960.669704221189022 ], [ 416237.657697712420486, 7651936.394418766722083 ], [ 416226.979574084863998, 7651904.476979821920395 ] ] ] } },
{ "type": "Feature", "properties": { "fid": 49.0, "COMPR_M": 243.98, "CLASSE": "02 - Curta", "CD_FAZ": "400095", "TALHOES": "5", "FAZ_tAL": "400095005", "ID_LINHA": 26205 }, "geometry": { "type": "MultiLineString", "coordinates": [ [ [ 416277.683648925099988, 7652141.521879765205085 ], [ 416275.444923843606375, 7652108.118770267814398 ], [ 416272.886369136511348, 7652082.87223706766963 ], [ 416268.259549920272548, 7652049.605704669840634 ], [ 416263.821136732934974, 7652024.995937486179173 ], [ 416258.518827705294825, 7652000.511835288256407 ], [ 416250.182493643136695, 7651967.964196825399995 ], [ 416240.517589060938917, 7651935.488227998837829 ], [ 416229.756974338437431, 7651903.330083552747965 ] ] ] } },
{ "type": "Feature", "properties": { "fid": 50.0, "COMPR_M": 256.48, "CLASSE": "02 - Curta", "CD_FAZ": "400095", "TALHOES": "5", "FAZ_tAL": "400095005", "ID_LINHA": 26206 }, "geometry": { "type": "MultiLineString", "coordinates": [ [ [ 416281.145733610901516, 7652152.833256211131811 ], [ 416279.123661408142652, 7652116.349581673741341 ], [ 416275.866078166640364, 7652082.523547727614641 ], [ 416271.220918009348679, 7652049.12549443077296 ], [ 416266.763654092734214, 7652024.411218011751771 ], [ 416261.439980275230482, 7651999.828366118483245 ], [ 416253.07327067584265, 7651967.161939484998584 ], [ 416243.377480406838004, 7651934.582037229090929 ], [ 416232.534374592185486, 7651902.18318728543818 ] ] ] } },
{ "type": "Feature", "properties": { "fid": 51.0, "COMPR_M": 268.44, "CLASSE": "02 - Curta", "CD_FAZ": "400095", "TALHOES": "5", "FAZ_tAL": "400095005", "ID_LINHA": 26207 }, "geometry": { "type": "MultiLineString", "coordinates": [ [ [ 416284.446155191748403, 7652163.616444473154843 ], [ 416283.255364920711145, 7652133.180468667298555 ], [ 416280.648324155714363, 7652099.10505884885788 ], [ 416276.694605168886483, 7652065.348862675949931 ], [ 416271.295539853395894, 7652032.075803034007549 ], [ 416264.361132844467647, 7651999.144896946847439 ], [ 416255.964047710353043, 7651966.359682140871882 ], [ 416246.237371755298227, 7651933.675846462137997 ], [ 416235.311645220674109, 7651901.036344543099403 ] ] ] } },
{ "type": "Feature", "properties": { "fid": 52.0, "COMPR_M": 279.94, "CLASSE": "02 - Curta", "CD_FAZ": "400095", "TALHOES": "5", "FAZ_tAL": "400095005", "ID_LINHA": 26208 }, "geometry": { "type": "MultiLineString", "coordinates": [ [ [ 416287.604623102233745, 7652173.935839508660138 ], [ 416286.250505583186168, 7652133.009167412295938 ], [ 416283.634575483039953, 7652098.817778512835503 ], [ 416279.666090029291809, 7652064.935881890356541 ], [ 416274.244741274334956, 7652031.525775863789022 ], [ 416267.282285416848026, 7651998.46142777428031 ], [ 416258.85482474201126, 7651965.557424798607826 ], [ 416249.097263102943543, 7651932.76965569332242 ], [ 416238.087970781722106, 7651899.889892059378326 ] ] ] } },
{ "type": "Feature", "properties": { "fid": 53.0, "COMPR_M": 291.02, "CLASSE": "02 - Curta", "CD_FAZ": "400095", "TALHOES": "5", "FAZ_tAL": "400095005", "ID_LINHA": 26209 }, "geometry": { "type": "MultiLineString", "coordinates": [ [ [ 416290.634021917474456, 7652183.833538006991148 ], [ 416290.058758473431226, 7652149.999513098970056 ], [ 416287.400735536182765, 7652107.088224466890097 ], [ 416283.766203959530685, 7652072.986750122159719 ], [ 416278.697907277964987, 7652039.315009519457817 ], [ 416272.093893976416439, 7652006.059120252728462 ], [ 416263.99020241497783, 7651972.996963502839208 ], [ 416254.521407891064882, 7651940.076299892738461 ], [ 416240.864296339277644, 7651898.743439573794603 ] ] ] } },
{ "type": "Feature", "properties": { "fid": 54.0, "COMPR_M": 301.69, "CLASSE": "03 - Média", "CD_FAZ": "400095", "TALHOES": "5", "FAZ_tAL": "400095005", "ID_LINHA": 26210 }, "geometry": { "type": "MultiLineString", "coordinates": [ [ [ 416293.540505487646442, 7652193.329645922407508 ], [ 416293.335014932847116, 7652158.489395055919886 ], [ 416291.088886401499622, 7652115.434875370934606 ], [ 416286.742023902537767, 7652072.606279119849205 ], [ 416281.653438361478038, 7652038.800079384818673 ], [ 416275.022353069740348, 7652005.407657379284501 ], [ 416266.888688106497284, 7651972.223011057823896 ], [ 416257.388978165399749, 7651939.194703323766589 ], [ 416243.640621900558472, 7651897.596987087279558 ] ] ] } },
{ "type": "Feature", "properties": { "fid": 55.0, "COMPR_M": 312.02, "CLASSE": "03 - Média", "CD_FAZ": "400095", "TALHOES": "5", "FAZ_tAL": "400095005", "ID_LINHA": 26211 }, "geometry": { "type": "MultiLineString", "coordinates": [ [ [ 416296.340225104475394, 7652202.476933008059859 ], [ 416296.524628644343466, 7652167.033679760992527 ], [ 416294.699391703063156, 7652123.849875777959824 ], [ 416290.764623317401856, 7652080.780101032927632 ], [ 416286.02775845117867, 7652046.724443238228559 ], [ 416279.761698426504154, 7652013.114813662134111 ], [ 416269.787173797492869, 7651971.44905861094594 ], [ 416260.256548439909238, 7651938.313106752932072 ], [ 416246.4169474603259, 7651896.450534602627158 ] ] ] } },
{ "type": "Feature", "properties": { "fid": 56.0, "COMPR_M": 322.04, "CLASSE": "03 - Média", "CD_FAZ": "400095", "TALHOES": "5", "FAZ_tAL": "400095005", "ID_LINHA": 26212 }, "geometry": { "type": "MultiLineString", "coordinates": [ [ [ 416299.046466507716104, 7652211.318806627765298 ], [ 416299.625262158631813, 7652175.63301002420485 ], [ 416298.231068233959377, 7652132.323962383903563 ], [ 416294.705734346294776, 7652089.039936188608408 ], [ 416288.989126538333949, 7652046.244233001954854 ], [ 416282.697289468371309, 7652012.496270153671503 ], [ 416272.685659489477985, 7651970.675106165930629 ], [ 416263.124118713953067, 7651937.431510182097554 ], [ 416249.193273021897767, 7651895.304082116112113 ] ] ] } },
{ "type": "Feature", "properties": { "fid": 57.0, "COMPR_M": 331.8, "CLASSE": "03 - Média", "CD_FAZ": "400095", "TALHOES": "5", "FAZ_tAL": "400095005", "ID_LINHA": 26213 }, "geometry": { "type": "MultiLineString", "coordinates": [ [ [ 416301.668384661665186, 7652219.885178033262491 ], [ 416302.634514556033537, 7652184.288042107596993 ], [ 416301.681512563896831, 7652140.853541569784284 ], [ 416298.565832115826197, 7652097.38137682992965 ], [ 416293.284419031697325, 7652054.30328925140202 ], [ 416287.361275616683997, 7652020.318181691691279 ], [ 416277.774014516500756, 7651978.268707111477852 ], [ 416265.99168898811331, 7651936.549913610331714 ], [ 416251.969598580617458, 7651894.15762963052839 ] ] ] } },
{ "type": "Feature", "properties": { "fid": 58.0, "COMPR_M": 334.09, "CLASSE": "03 - Média", "CD_FAZ": "400095", "TALHOES": "5", "FAZ_tAL": "400095005", "ID_LINHA": 26214 }, "geometry": { "type": "MultiLineString", "coordinates": [ [ [ 416304.61244656163035, 7652220.999685707502067 ], [ 416305.634530150447972, 7652184.301029358059168 ], [ 416304.678187924670056, 7652140.711568460799754 ], [ 416301.552083441405557, 7652097.094096491113305 ], [ 416296.251095931103919, 7652053.85706395842135 ], [ 416290.303792976192199, 7652019.733462216332555 ], [ 416280.68015114008449, 7651977.523989094421268 ], [ 416268.859259261749685, 7651935.668317042291164 ], [ 416254.745924141141586, 7651893.01117714587599 ] ] ] } },
{ "type": "Feature", "properties": { "fid": 59.0, "COMPR_M": 334.89, "CLASSE": "03 - Média", "CD_FAZ": "400095", "TALHOES": "5", "FAZ_tAL": "400095005", "ID_LINHA": 26215 }, "geometry": { "type": "MultiLineString", "coordinates": [ [ [ 416307.636705513112247, 7652220.632677532732487 ], [ 416308.634545745153446, 7652184.314016608521342 ], [ 416307.674863284104504, 7652140.569595350883901 ], [ 416304.538334768847562, 7652096.806816155090928 ], [ 416299.217772830335889, 7652053.410838668234646 ], [ 416293.246310338727199, 7652019.148742742836475 ], [ 416283.58628776401747, 7651976.779271079227328 ], [ 416271.726829536317382, 7651934.786720469594002 ], [ 416257.522249702073168, 7651891.864724660292268 ] ] ] } },
{ "type": "Feature", "properties": { "fid": 60.0, "COMPR_M": 335.7, "CLASSE": "03 - Média", "CD_FAZ": "400095", "TALHOES": "5", "FAZ_tAL": "400095005", "ID_LINHA": 26216 }, "geometry": { "type": "MultiLineString", "coordinates": [ [ [ 416310.660964462906122, 7652220.265669353306293 ], [ 416311.634561339567881, 7652184.327003860846162 ], [ 416310.671538643538952, 7652140.427622243762016 ], [ 416307.524586094776168, 7652096.519535819068551 ], [ 416302.184449729393236, 7652052.964613375253975 ], [ 416296.188827698468231, 7652018.564023269340396 ], [ 416286.49242438771762, 7651976.034553063102067 ], [ 416274.594399810303003, 7651933.905123898759484 ], [ 416260.298575261549558, 7651890.718272173777223 ] ] ] } },
{ "type": "Feature", "properties": { "fid": 61.0, "COMPR_M": 336.51, "CLASSE": "03 - Média", "CD_FAZ": "400095", "TALHOES": "5", "FAZ_tAL": "400095005", "ID_LINHA": 26217 }, "geometry": { "type": "MultiLineString", "coordinates": [ [ [ 416313.685223414446227, 7652219.898661175742745 ], [ 416314.634576933691278, 7652184.339991112239659 ], [ 416313.668214002274908, 7652140.285649134777486 ], [ 416310.510837421868928, 7652096.232255482114851 ], [ 416305.151126627635676, 7652052.518388085067272 ], [ 416299.131345059315208, 7652017.979303793981671 ], [ 416289.398561011068523, 7651975.28983504511416 ], [ 416277.461970085219946, 7651933.023527327924967 ], [ 416263.074900820793118, 7651889.571819690056145 ] ] ] } },
{ "type": "Feature", "properties": { "fid": 62.0, "COMPR_M": 337.32, "CLASSE": "03 - Média", "CD_FAZ": "400095", "TALHOES": "5", "FAZ_tAL": "400095005", "ID_LINHA": 26218 }, "geometry": { "type": "MultiLineString", "coordinates": [ [ [ 416316.708385510079097, 7652219.531786106526852 ], [ 416317.634592528804205, 7652184.352978364564478 ], [ 416316.66488936310634, 7652140.143676025792956 ], [ 416313.497088748845272, 7652095.944975145161152 ], [ 416308.117803526343778, 7652052.072162793949246 ], [ 416302.073862419347279, 7652017.394584320485592 ], [ 416292.304697634768672, 7651974.545117028988898 ], [ 416280.329540359554812, 7651932.141930758953094 ], [ 416265.851226381841116, 7651888.425367205403745 ] ] ] } },
{ "type": "Feature", "properties": { "fid": 63.0, "COMPR_M": 338.13, "CLASSE": "03 - Média", "CD_FAZ": "400095", "TALHOES": "5", "FAZ_tAL": "400095005", "ID_LINHA": 26219 }, "geometry": { "type": "MultiLineString", "coordinates": [ [ [ 416319.727013372001238, 7652219.165461288765073 ], [ 416320.634608122869395, 7652184.36596561409533 ], [ 416319.661564722540788, 7652140.001702916808426 ], [ 416316.483340074308217, 7652095.657694809138775 ], [ 416311.084480426856317, 7652051.625937502831221 ], [ 416305.016379779786803, 7652016.809864845126867 ], [ 416295.210834256955422, 7651973.800399014726281 ], [ 416283.19711063336581, 7651931.260334188118577 ], [ 416268.627551942015998, 7651887.278914717957377 ] ] ] } },
{ "type": "Feature", "properties": { "fid": 64.0, "COMPR_M": 338.93, "CLASSE": "03 - Média", "CD_FAZ": "400095", "TALHOES": "5", "FAZ_tAL": "400095005", "ID_LINHA": 26220 }, "geometry": { "type": "MultiLineString", "coordinates": [ [ [ 416322.745641234796494, 7652218.799136469140649 ], [ 416323.625112375244498, 7652175.48004511743784 ], [ 416322.658240081975237, 7652139.859729805961251 ], [ 416319.469591401517391, 7652095.370414471253753 ], [ 416314.051157325971872, 7652051.179712210781872 ], [ 416307.95889713941142, 7652016.225145369768143 ], [ 416298.116970880131703, 7651973.055680997669697 ], [ 416286.064680907409638, 7651930.378737615421414 ], [ 416271.403877502016257, 7651886.132462233304977 ] ] ] } },
{ "type": "Feature", "properties": { "fid": 65.0, "COMPR_M": 339.74, "CLASSE": "03 - Média", "CD_FAZ": "400095", "TALHOES": "5", "FAZ_tAL": "400095005", "ID_LINHA": 26221 }, "geometry": { "type": "MultiLineString", "coordinates": [ [ [ 416325.764269097242504, 7652218.432811652310193 ], [ 416326.625093652284704, 7652175.460924504324794 ], [ 416325.654915441467892, 7652139.717756697908044 ], [ 416322.455842728610151, 7652095.083134134300053 ], [ 416317.017834224738181, 7652050.733486920595169 ], [ 416310.901414499501698, 7652015.640425896272063 ], [ 416301.023107504996005, 7651972.310962980613112 ], [ 416288.932251182268374, 7651929.497141046449542 ], [ 416274.180203061783686, 7651884.986009748652577 ] ] ] } },
{ "type": "Feature", "properties": { "fid": 66.0, "COMPR_M": 340.55, "CLASSE": "03 - Média", "CD_FAZ": "400095", "TALHOES": "5", "FAZ_tAL": "400095005", "ID_LINHA": 26222 }, "geometry": { "type": "MultiLineString", "coordinates": [ [ [ 416328.78289696003776, 7652218.066486834548414 ], [ 416329.625074929208495, 7652175.441803891211748 ], [ 416328.182474861561786, 7652130.610949815250933 ], [ 416324.537513519346248, 7652085.863651692867279 ], [ 416319.984511124785058, 7652050.287261627614498 ], [ 416313.843931859999429, 7652015.055706420913339 ], [ 416303.929244128987193, 7651971.566244966350496 ], [ 416291.799821455264464, 7651928.615544473752379 ], [ 416276.956528621376492, 7651883.839557260274887 ] ] ] } }
]
}
