{
"type": "FeatureCollection",
"name": "400011",
"crs": { "type": "name", "properties": { "name": "urn:ogc:def:crs:EPSG::32722" } },
"xy_coordinate_resolution": 1e-15,
"features": [
{ "type": "Feature", "properties": { "fid": 5.0, "COMPR_M": 26.15, "CLASSE": "01 - Muito curta", "CD_FAZ": "400011", "TALHOES": "2", "FAZ_tAL": "400011002", "ID_LINHA": 63940 }, "geometry": { "type": "MultiLineString", "coordinates": [ [ [ 421583.780067205254454, 7648130.682952876202762 ], [ 421604.953602000605315, 7648115.34992759861052 ] ] ] } },
{ "type": "Feature", "properties": { "fid": 6.0, "COMPR_M": 33.07, "CLASSE": "01 - Muito curta", "CD_FAZ": "400011", "TALHOES": "2", "FAZ_tAL": "400011002", "ID_LINHA": 63941 }, "geometry": { "type": "MultiLineString", "coordinates": [ [ [ 421576.892036766861565, 7648131.966981720179319 ], [ 421603.667135761294048, 7648112.577528124675155 ] ] ] } },
{ "type": "Feature", "properties": { "fid": 7.0, "COMPR_M": 36.67, "CLASSE": "01 - Muito curta", "CD_FAZ": "400011", "TALHOES": "2", "FAZ_tAL": "400011002", "ID_LINHA": 63942 }, "geometry": { "type": "MultiLineString", "coordinates": [ [ [ 421572.692377586499788, 7648131.304199299775064 ], [ 421602.380669349047821, 7648109.805128281936049 ] ] ] } },
{ "type": "Feature", "properties": { "fid": 8.0, "COMPR_M": 39.36, "CLASSE": "01 - Muito curta", "CD_FAZ": "400011", "TALHOES": "2", "FAZ_tAL": "400011002", "ID_LINHA": 63943 }, "geometry": { "type": "MultiLineString", "coordinates": [ [ [ 421569.222038099134807, 7648130.113273181021214 ], [ 421601.094203059270512, 7648107.032728699967265 ] ] ] } },
{ "type": "Feature", "properties": { "fid": 9.0, "COMPR_M": 40.98, "CLASSE": "01 - Muito curta", "CD_FAZ": "400011", "TALHOES": "2", "FAZ_tAL": "400011002", "ID_LINHA": 63944 }, "geometry": { "type": "MultiLineString", "coordinates": [ [ [ 421566.626181609404739, 7648128.289081215858459 ], [ 421599.807736674381886, 7648104.260328913107514 ] ] ] } },
{ "type": "Feature", "properties": { "fid": 131.0, "COMPR_M": 209.77, "CLASSE": "02 - Curta", "CD_FAZ": "400011", "TALHOES": "2", "FAZ_tAL": "400011002", "ID_LINHA": 64066 }, "geometry": { "type": "MultiLineString", "coordinates": [ [ [ 421253.934899250802118, 7647847.278607953339815 ], [ 421423.781122279819101, 7647724.282780474983156 ] ] ] } },
{ "type": "Feature", "properties": { "fid": 132.0, "COMPR_M": 209.83, "CLASSE": "02 - Curta", "CD_FAZ": "400011", "TALHOES": "2", "FAZ_tAL": "400011002", "ID_LINHA": 64067 }, "geometry": { "type": "MultiLineString", "coordinates": [ [ [ 421252.62284411379369, 7647844.524738794192672 ], [ 421422.514046753232833, 7647721.496338821016252 ] ] ] } },
{ "type": "Feature", "properties": { "fid": 715.0, "COMPR_M": 215.21, "CLASSE": "02 - Curta", "CD_FAZ": "400011", "TALHOES": "2", "FAZ_tAL": "400011002", "ID_LINHA": 64650 }, "geometry": { "type": "MultiLineString", "coordinates": [ [ [ 420911.379380586033221, 7647124.893734955228865 ], [ 421085.631381757732015, 7646998.707419479265809 ] ] ] } },
{ "type": "Feature", "properties": { "fid": 716.0, "COMPR_M": 215.21, "CLASSE": "02 - Curta", "CD_FAZ": "400011", "TALHOES": "2", "FAZ_tAL": "400011002", "ID_LINHA": 64651 }, "geometry": { "type": "MultiLineString", "coordinates": [ [ [ 420912.68457096372731, 7647127.652575550600886 ], [ 421086.932093383278698, 7647001.469503369182348 ] ] ] } },
{ "type": "Feature", "properties": { "fid": 717.0, "COMPR_M": 215.2, "CLASSE": "02 - Curta", "CD_FAZ": "400011", "TALHOES": "2", "FAZ_tAL": "400011002", "ID_LINHA": 64652 }, "geometry": { "type": "MultiLineString", "coordinates": [ [ [ 420913.989761240081862, 7647130.411415928974748 ], [ 421088.232804949046113, 7647004.231587132439017 ] ] ] } },
{ "type": "Feature", "properties": { "fid": 718.0, "COMPR_M": 215.2, "CLASSE": "02 - Curta", "CD_FAZ": "400011", "TALHOES": "2", "FAZ_tAL": "400011002", "ID_LINHA": 64653 }, "geometry": { "type": "MultiLineString", "coordinates": [ [ [ 420915.29495153715834, 7647133.170256355777383 ], [ 421089.53351652744459, 7647006.993670923635364 ] ] ] } }
]
}
