{
"type": "FeatureCollection",
"name": "400146",
"crs": { "type": "name", "properties": { "name": "urn:ogc:def:crs:EPSG::32722" } },
"xy_coordinate_resolution": 1e-15,
"features": [
{ "type": "Feature", "properties": { "fid": 1.0, "COMPR_M": 626.71, "CLASSE": "04 - Longa", "CD_FAZ": "400146", "TALHOES": "1", "FAZ_tAL": "400146001", "ID_LINHA": 36232 }, "geometry": { "type": "MultiLineString", "coordinates": [ [ [ 415524.412175456760451, 7633034.23626559600234 ], [ 415260.963444196735509, 7633033.24412877112627 ], [ 414897.902761484321672, 7633033.921005084179342 ] ] ] } },
{ "type": "Feature", "properties": { "fid": 2.0, "COMPR_M": 633.4, "CLASSE": "04 - Longa", "CD_FAZ": "400146", "TALHOES": "1", "FAZ_tAL": "400146001", "ID_LINHA": 36233 }, "geometry": { "type": "MultiLineString", "coordinates": [ [ [ 415524.459467257431243, 7633031.236501263454556 ], [ 415260.966031761665363, 7633030.244129886850715 ], [ 414891.256908154347911, 7633030.936445413157344 ] ] ] } },
{ "type": "Feature", "properties": { "fid": 3.0, "COMPR_M": 632.68, "CLASSE": "04 - Longa", "CD_FAZ": "400146", "TALHOES": "1", "FAZ_tAL": "400146001", "ID_LINHA": 36234 }, "geometry": { "type": "MultiLineString", "coordinates": [ [ [ 415524.404163386381697, 7633010.235755416564643 ], [ 415260.984144721645862, 7633009.244137696921825 ], [ 414891.92879629903473, 7633009.934826759621501 ] ] ] } },
{ "type": "Feature", "properties": { "fid": 4.0, "COMPR_M": 632.17, "CLASSE": "04 - Longa", "CD_FAZ": "400146", "TALHOES": "1", "FAZ_tAL": "400146001", "ID_LINHA": 36235 }, "geometry": { "type": "MultiLineString", "coordinates": [ [ [ 415524.558334499655757, 7632989.236308410763741 ], [ 415261.002257679821923, 7632988.244145509786904 ], [ 414892.59198923711665, 7632988.933228318579495 ] ] ] } },
{ "type": "Feature", "properties": { "fid": 5.0, "COMPR_M": 631.81, "CLASSE": "04 - Longa", "CD_FAZ": "400146", "TALHOES": "1", "FAZ_tAL": "400146001", "ID_LINHA": 36236 }, "geometry": { "type": "MultiLineString", "coordinates": [ [ [ 415524.659233182901517, 7632968.236531076952815 ], [ 415261.0203706381144, 7632967.244153320789337 ], [ 414893.048119701677933, 7632967.932111226022243 ] ] ] } },
{ "type": "Feature", "properties": { "fid": 6.0, "COMPR_M": 174.22, "CLASSE": "02 - Curta", "CD_FAZ": "400146", "TALHOES": "1", "FAZ_tAL": "400146001", "ID_LINHA": 36237 }, "geometry": { "type": "MultiLineString", "coordinates": [ [ [ 415524.311306283576414, 7633043.235812844708562 ], [ 415350.144235912826844, 7633042.404838186688721 ] ] ] } },
{ "type": "Feature", "properties": { "fid": 7.0, "COMPR_M": 338.65, "CLASSE": "03 - Média", "CD_FAZ": "400146", "TALHOES": "1", "FAZ_tAL": "400146001", "ID_LINHA": 36238 }, "geometry": { "type": "MultiLineString", "coordinates": [ [ [ 415524.317591856932268, 7633040.235794261097908 ], [ 415355.319470595801249, 7633039.419503575190902 ], [ 415185.773484046105295, 7633039.260493567213416 ] ] ] } },
{ "type": "Feature", "properties": { "fid": 8.0, "COMPR_M": 566.02, "CLASSE": "03 - Média", "CD_FAZ": "400146", "TALHOES": "1", "FAZ_tAL": "400146001", "ID_LINHA": 36239 }, "geometry": { "type": "MultiLineString", "coordinates": [ [ [ 415524.364883656613529, 7633037.236029928550124 ], [ 415260.960856630466878, 7633036.244127655401826 ], [ 414958.528136230248492, 7633036.766443513333797 ] ] ] } },
{ "type": "Feature", "properties": { "fid": 9.0, "COMPR_M": 633.34, "CLASSE": "04 - Longa", "CD_FAZ": "400146", "TALHOES": "1", "FAZ_tAL": "400146001", "ID_LINHA": 36240 }, "geometry": { "type": "MultiLineString", "coordinates": [ [ [ 415524.4972874688101, 7633028.236678205430508 ], [ 415260.968619328457862, 7633027.244131006300449 ], [ 414891.352892174792942, 7633027.936214175075293 ] ] ] } },
{ "type": "Feature", "properties": { "fid": 10.0, "COMPR_M": 633.27, "CLASSE": "04 - Longa", "CD_FAZ": "400146", "TALHOES": "1", "FAZ_tAL": "400146001", "ID_LINHA": 36241 }, "geometry": { "type": "MultiLineString", "coordinates": [ [ [ 415524.516418188577518, 7633025.236739262938499 ], [ 415260.971206893213093, 7633024.244132120162249 ], [ 414891.448876195878256, 7633024.935982938855886 ] ] ] } },
{ "type": "Feature", "properties": { "fid": 11.0, "COMPR_M": 633.19, "CLASSE": "04 - Longa", "CD_FAZ": "400146", "TALHOES": "1", "FAZ_tAL": "400146001", "ID_LINHA": 36242 }, "geometry": { "type": "MultiLineString", "coordinates": [ [ [ 415524.535548907355405, 7633022.236800319515169 ], [ 415260.97379445983097, 7633021.244133236818016 ], [ 414891.544860216788948, 7633021.935751703567803 ] ] ] } },
{ "type": "Feature", "properties": { "fid": 12.0, "COMPR_M": 633.11, "CLASSE": "04 - Longa", "CD_FAZ": "400146", "TALHOES": "1", "FAZ_tAL": "400146001", "ID_LINHA": 36243 }, "geometry": { "type": "MultiLineString", "coordinates": [ [ [ 415524.554679626482539, 7633019.236861380748451 ], [ 415260.976382025051862, 7633018.244134351611137 ], [ 414891.640844236884732, 7633018.935520466417074 ] ] ] } },
{ "type": "Feature", "properties": { "fid": 13.0, "COMPR_M": 633.0, "CLASSE": "04 - Longa", "CD_FAZ": "400146", "TALHOES": "1", "FAZ_tAL": "400146001", "ID_LINHA": 36244 }, "geometry": { "type": "MultiLineString", "coordinates": [ [ [ 415524.535022129188292, 7633016.236681930720806 ], [ 415260.978969588875771, 7633015.244135467335582 ], [ 414891.736828257562593, 7633015.935289232060313 ] ] ] } },
{ "type": "Feature", "properties": { "fid": 14.0, "COMPR_M": 632.84, "CLASSE": "04 - Longa", "CD_FAZ": "400146", "TALHOES": "1", "FAZ_tAL": "400146001", "ID_LINHA": 36245 }, "geometry": { "type": "MultiLineString", "coordinates": [ [ [ 415524.469592758803628, 7633013.236218675971031 ], [ 415260.981557156017516, 7633012.244136581197381 ], [ 414891.832812278706115, 7633012.935057995840907 ] ] ] } },
{ "type": "Feature", "properties": { "fid": 15.0, "COMPR_M": 632.6, "CLASSE": "04 - Longa", "CD_FAZ": "400146", "TALHOES": "1", "FAZ_tAL": "400146001", "ID_LINHA": 36246 }, "geometry": { "type": "MultiLineString", "coordinates": [ [ [ 415524.426470372069161, 7633007.235836168751121 ], [ 415260.986732285877224, 7633006.24413881637156 ], [ 414892.024780318664853, 7633006.934595520608127 ] ] ] } },
{ "type": "Feature", "properties": { "fid": 16.0, "COMPR_M": 632.54, "CLASSE": "04 - Longa", "CD_FAZ": "400146", "TALHOES": "1", "FAZ_tAL": "400146001", "ID_LINHA": 36247 }, "geometry": { "type": "MultiLineString", "coordinates": [ [ [ 415524.458682344818953, 7633004.23597833327949 ], [ 415260.989319852087647, 7633003.244139930233359 ], [ 414892.120764341438189, 7633003.934364287182689 ] ] ] } },
{ "type": "Feature", "properties": { "fid": 17.0, "COMPR_M": 632.47, "CLASSE": "04 - Longa", "CD_FAZ": "400146", "TALHOES": "1", "FAZ_tAL": "400146001", "ID_LINHA": 36248 }, "geometry": { "type": "MultiLineString", "coordinates": [ [ [ 415524.490894318383653, 7633001.236120501533151 ], [ 415260.991907418181654, 7633000.244141047820449 ], [ 414892.216748360777274, 7633000.934133049100637 ] ] ] } },
{ "type": "Feature", "properties": { "fid": 18.0, "COMPR_M": 632.41, "CLASSE": "04 - Longa", "CD_FAZ": "400146", "TALHOES": "1", "FAZ_tAL": "400146001", "ID_LINHA": 36249 }, "geometry": { "type": "MultiLineString", "coordinates": [ [ [ 415524.523106292064767, 7632998.236262671649456 ], [ 415260.994494982878678, 7632997.244142161682248 ], [ 414892.31273238256108, 7632997.933901812881231 ] ] ] } },
{ "type": "Feature", "properties": { "fid": 19.0, "COMPR_M": 632.34, "CLASSE": "04 - Longa", "CD_FAZ": "400146", "TALHOES": "1", "FAZ_tAL": "400146001", "ID_LINHA": 36250 }, "geometry": { "type": "MultiLineString", "coordinates": [ [ [ 415524.551903094747104, 7632995.236383661627769 ], [ 415260.997082548157778, 7632994.244143277406693 ], [ 414892.408716402307618, 7632994.933670573867857 ] ] ] } },
{ "type": "Feature", "properties": { "fid": 20.0, "COMPR_M": 632.25, "CLASSE": "04 - Longa", "CD_FAZ": "400146", "TALHOES": "1", "FAZ_tAL": "400146001", "ID_LINHA": 36251 }, "geometry": { "type": "MultiLineString", "coordinates": [ [ [ 415524.555118797055911, 7632992.236346036195755 ], [ 415260.999670114018954, 7632991.244144393131137 ], [ 414892.504700422519818, 7632991.933439340442419 ] ] ] } },
{ "type": "Feature", "properties": { "fid": 21.0, "COMPR_M": 632.1, "CLASSE": "04 - Longa", "CD_FAZ": "400146", "TALHOES": "1", "FAZ_tAL": "400146001", "ID_LINHA": 36252 }, "geometry": { "type": "MultiLineString", "coordinates": [ [ [ 415524.561550204467494, 7632986.236270780675113 ], [ 415261.004845244809985, 7632985.244146626442671 ], [ 414892.657150732760783, 7632985.933068731799722 ] ] ] } },
{ "type": "Feature", "properties": { "fid": 22.0, "COMPR_M": 632.04, "CLASSE": "04 - Longa", "CD_FAZ": "400146", "TALHOES": "1", "FAZ_tAL": "400146001", "ID_LINHA": 36253 }, "geometry": { "type": "MultiLineString", "coordinates": [ [ [ 415524.564765906950925, 7632983.236233154311776 ], [ 415261.007432810496539, 7632982.244147738441825 ], [ 414892.722312228346709, 7632982.932909148745239 ] ] ] } },
{ "type": "Feature", "properties": { "fid": 23.0, "COMPR_M": 631.98, "CLASSE": "04 - Longa", "CD_FAZ": "400146", "TALHOES": "1", "FAZ_tAL": "400146001", "ID_LINHA": 36254 }, "geometry": { "type": "MultiLineString", "coordinates": [ [ [ 415524.567981611005962, 7632980.236195527017117 ], [ 415261.010020376066677, 7632979.24414885789156 ], [ 414892.787473722011782, 7632979.932749563828111 ] ] ] } },
{ "type": "Feature", "properties": { "fid": 24.0, "COMPR_M": 631.93, "CLASSE": "04 - Longa", "CD_FAZ": "400146", "TALHOES": "1", "FAZ_tAL": "400146001", "ID_LINHA": 36255 }, "geometry": { "type": "MultiLineString", "coordinates": [ [ [ 415524.58544382546097, 7632977.236246236599982 ], [ 415261.012607941462193, 7632976.244149974547327 ], [ 414892.852635217714123, 7632976.932589979842305 ] ] ] } },
{ "type": "Feature", "properties": { "fid": 25.0, "COMPR_M": 631.89, "CLASSE": "04 - Longa", "CD_FAZ": "400146", "TALHOES": "1", "FAZ_tAL": "400146001", "ID_LINHA": 36256 }, "geometry": { "type": "MultiLineString", "coordinates": [ [ [ 415524.610040279221721, 7632974.236341184005141 ], [ 415261.015195506857708, 7632973.244151089340448 ], [ 414892.91779671277618, 7632973.932430394925177 ] ] ] } },
{ "type": "Feature", "properties": { "fid": 26.0, "COMPR_M": 631.85, "CLASSE": "04 - Longa", "CD_FAZ": "400146", "TALHOES": "1", "FAZ_tAL": "400146001", "ID_LINHA": 36257 }, "geometry": { "type": "MultiLineString", "coordinates": [ [ [ 415524.634636731236242, 7632971.236436130478978 ], [ 415261.017783072195016, 7632970.244152205064893 ], [ 414892.982958207838237, 7632970.932270811870694 ] ] ] } }
]
}
