{
"type": "FeatureCollection",
"name": "400548",
"crs": { "type": "name", "properties": { "name": "urn:ogc:def:crs:EPSG::32722" } },
"xy_coordinate_resolution": 1e-15,
"features": [
{ "type": "Feature", "properties": { "fid": 1.0, "COMPR_M": 107.88, "CLASSE": "02 - Curta", "CD_FAZ": "400548", "TALHOES": "1", "FAZ_tAL": "400548001", "ID_LINHA": 166632 }, "geometry": { "type": "MultiLineString", "coordinates": [ [ [ 401506.717346099205315, 7609293.532727377489209 ], [ 401507.836655728751794, 7609301.237103239633143 ], [ 401513.083406767400447, 7609369.996588027104735 ], [ 401516.080665976507589, 7609400.948094272986054 ] ] ] } },
{ "type": "Feature", "properties": { "fid": 2.0, "COMPR_M": 137.67, "CLASSE": "02 - Curta", "CD_FAZ": "400548", "TALHOES": "1", "FAZ_tAL": "400548001", "ID_LINHA": 166633 }, "geometry": { "type": "MultiLineString", "coordinates": [ [ [ 401509.288845259987283, 7609289.518283311277628 ], [ 401510.838340846356004, 7609302.220097550190985 ], [ 401518.571848631661851, 7609395.726673351600766 ], [ 401520.284887657267973, 7609426.68231781385839 ] ] ] } },
{ "type": "Feature", "properties": { "fid": 3.0, "COMPR_M": 54.3, "CLASSE": "01 - Muito curta", "CD_FAZ": "400548", "TALHOES": "1", "FAZ_tAL": "400548001", "ID_LINHA": 166634 }, "geometry": { "type": "MultiLineString", "coordinates": [ [ [ 401493.630523088329937, 7609198.629771053791046 ], [ 401496.563451897527557, 7609231.378954437561333 ], [ 401496.966485591721721, 7609243.312844063155353 ], [ 401497.835624117928091, 7609252.724196702241898 ] ] ] } },
{ "type": "Feature", "properties": { "fid": 4.0, "COMPR_M": 71.91, "CLASSE": "01 - Muito curta", "CD_FAZ": "400548", "TALHOES": "1", "FAZ_tAL": "400548001", "ID_LINHA": 166635 }, "geometry": { "type": "MultiLineString", "coordinates": [ [ [ 401496.529305953183211, 7609198.196244806051254 ], [ 401499.743689085124061, 7609233.955081331543624 ], [ 401502.247626626631245, 7609269.840998081490397 ] ] ] } },
{ "type": "Feature", "properties": { "fid": 5.0, "COMPR_M": 71.75, "CLASSE": "01 - Muito curta", "CD_FAZ": "400548", "TALHOES": "1", "FAZ_tAL": "400548001", "ID_LINHA": 166636 }, "geometry": { "type": "MultiLineString", "coordinates": [ [ [ 401499.494661938922945, 7609197.766025176271796 ], [ 401505.116856393229682, 7609269.265543391928077 ] ] ] } },
{ "type": "Feature", "properties": { "fid": 6.0, "COMPR_M": 72.97, "CLASSE": "01 - Muito curta", "CD_FAZ": "400548", "TALHOES": "1", "FAZ_tAL": "400548001", "ID_LINHA": 166637 }, "geometry": { "type": "MultiLineString", "coordinates": [ [ [ 401502.43623022781685, 7609197.334334162995219 ], [ 401508.085733902466018, 7609270.05696059204638 ] ] ] } },
{ "type": "Feature", "properties": { "fid": 7.0, "COMPR_M": 326.32, "CLASSE": "03 - Média", "CD_FAZ": "400548", "TALHOES": "1", "FAZ_tAL": "400548001", "ID_LINHA": 166638 }, "geometry": { "type": "MultiLineString", "coordinates": [ [ [ 401505.495072955091018, 7609196.889988703653216 ], [ 401512.78573268384207, 7609294.606194096617401 ], [ 401514.718220785842277, 7609312.472591741941869 ], [ 401516.036554691847414, 7609333.316094040870667 ], [ 401521.732826697058044, 7609399.18527003750205 ], [ 401523.37729677913012, 7609426.126472760923207 ], [ 401526.643755188852083, 7609463.98303291015327 ], [ 401528.555326892528683, 7609480.768267180770636 ], [ 401529.222735806833953, 7609496.717102834023535 ], [ 401531.328708403918426, 7609522.031348591670394 ] ] ] } },
{ "type": "Feature", "properties": { "fid": 8.0, "COMPR_M": 381.54, "CLASSE": "03 - Média", "CD_FAZ": "400548", "TALHOES": "1", "FAZ_tAL": "400548001", "ID_LINHA": 166639 }, "geometry": { "type": "MultiLineString", "coordinates": [ [ [ 401508.565263707423583, 7609196.443611428141594 ], [ 401510.444578229042236, 7609227.343328108079731 ], [ 401512.899198407889344, 7609253.133296655490994 ], [ 401519.769463289529085, 7609341.837501380592585 ], [ 401521.441127873898949, 7609356.766191664151847 ], [ 401522.29174387321109, 7609372.824070018716156 ], [ 401530.267549682117533, 7609472.39783888310194 ], [ 401531.553438258066308, 7609483.291940186172724 ], [ 401532.175252043001819, 7609496.399014921858907 ], [ 401535.28891247138381, 7609531.147679980844259 ], [ 401536.317493197624572, 7609551.10078464820981 ], [ 401538.529236446949653, 7609576.60430233925581 ] ] ] } },
{ "type": "Feature", "properties": { "fid": 9.0, "COMPR_M": 436.25, "CLASSE": "03 - Média", "CD_FAZ": "400548", "TALHOES": "1", "FAZ_tAL": "400548001", "ID_LINHA": 166640 }, "geometry": { "type": "MultiLineString", "coordinates": [ [ [ 401511.47884172142949, 7609196.029505716636777 ], [ 401513.695046761189587, 7609229.886381999589503 ], [ 401521.950044146215077, 7609326.518186828121543 ], [ 401524.697945766907651, 7609360.394628383219242 ], [ 401525.504123838036321, 7609376.3883236348629 ], [ 401538.048689783201553, 7609528.813285229727626 ], [ 401539.345872071688063, 7609549.805268336087465 ], [ 401546.276781356311403, 7609630.701359930448234 ] ] ] } },
{ "type": "Feature", "properties": { "fid": 10.0, "COMPR_M": 438.82, "CLASSE": "03 - Média", "CD_FAZ": "400548", "TALHOES": "1", "FAZ_tAL": "400548001", "ID_LINHA": 166641 }, "geometry": { "type": "MultiLineString", "coordinates": [ [ [ 401549.281961041968316, 7609632.852415692061186 ], [ 401543.081098268681671, 7609559.29168732650578 ], [ 401542.245116475387476, 7609542.411441786214709 ], [ 401539.326043005741667, 7609513.597956822253764 ], [ 401538.486867225903552, 7609495.646319074556231 ], [ 401536.534473332692869, 7609476.596961219795048 ], [ 401532.650530728278682, 7609423.846368892118335 ], [ 401528.493348674848676, 7609376.918900759890676 ], [ 401525.043038219271693, 7609328.189994161948562 ], [ 401517.815333624253981, 7609243.373237320221961 ], [ 401514.293458462459967, 7609195.625720117241144 ] ] ] } },
{ "type": "Feature", "properties": { "fid": 11.0, "COMPR_M": 26.12, "CLASSE": "01 - Muito curta", "CD_FAZ": "400548", "TALHOES": "1", "FAZ_tAL": "400548001", "ID_LINHA": 166642 }, "geometry": { "type": "MultiLineString", "coordinates": [ [ [ 401476.003040993877221, 7609055.948712514713407 ], [ 401478.243220089818351, 7609081.956860697828233 ] ] ] } },
{ "type": "Feature", "properties": { "fid": 12.0, "COMPR_M": 22.09, "CLASSE": "01 - Muito curta", "CD_FAZ": "400548", "TALHOES": "1", "FAZ_tAL": "400548001", "ID_LINHA": 166643 }, "geometry": { "type": "MultiLineString", "coordinates": [ [ [ 401478.865265358646866, 7609053.786238702014089 ], [ 401480.648058016668074, 7609075.795287701301277 ] ] ] } },
{ "type": "Feature", "properties": { "fid": 13.0, "COMPR_M": 22.98, "CLASSE": "01 - Muito curta", "CD_FAZ": "400548", "TALHOES": "1", "FAZ_tAL": "400548001", "ID_LINHA": 166644 }, "geometry": { "type": "MultiLineString", "coordinates": [ [ [ 401481.835745086951647, 7609052.799952184781432 ], [ 401483.604716316855047, 7609075.707738175988197 ] ] ] } },
{ "type": "Feature", "properties": { "fid": 14.0, "COMPR_M": 27.05, "CLASSE": "01 - Muito curta", "CD_FAZ": "400548", "TALHOES": "1", "FAZ_tAL": "400548001", "ID_LINHA": 166645 }, "geometry": { "type": "MultiLineString", "coordinates": [ [ [ 401486.663654800679069, 7609079.130251714959741 ], [ 401484.727061851532198, 7609052.162600934505463 ] ] ] } },
{ "type": "Feature", "properties": { "fid": 15.0, "COMPR_M": 44.3, "CLASSE": "01 - Muito curta", "CD_FAZ": "400548", "TALHOES": "1", "FAZ_tAL": "400548001", "ID_LINHA": 166646 }, "geometry": { "type": "MultiLineString", "coordinates": [ [ [ 401482.346042765479069, 7609095.769658563658595 ], [ 401485.511819648672827, 7609139.933671753853559 ] ] ] } },
{ "type": "Feature", "properties": { "fid": 16.0, "COMPR_M": 45.44, "CLASSE": "01 - Muito curta", "CD_FAZ": "400548", "TALHOES": "1", "FAZ_tAL": "400548001", "ID_LINHA": 166647 }, "geometry": { "type": "MultiLineString", "coordinates": [ [ [ 401485.150498957023956, 7609094.736004847101867 ], [ 401488.61636406002799, 7609140.026245981454849 ] ] ] } },
{ "type": "Feature", "properties": { "fid": 17.0, "COMPR_M": 47.21, "CLASSE": "01 - Muito curta", "CD_FAZ": "400548", "TALHOES": "1", "FAZ_tAL": "400548001", "ID_LINHA": 166648 }, "geometry": { "type": "MultiLineString", "coordinates": [ [ [ 401491.561485534475651, 7609140.045277290046215 ], [ 401489.857383321214002, 7609112.2313317283988 ], [ 401487.977959822455887, 7609092.991144131869078 ] ] ] } },
{ "type": "Feature", "properties": { "fid": 18.0, "COMPR_M": 88.73, "CLASSE": "01 - Muito curta", "CD_FAZ": "400548", "TALHOES": "1", "FAZ_tAL": "400548001", "ID_LINHA": 166649 }, "geometry": { "type": "MultiLineString", "coordinates": [ [ [ 401487.721226924506482, 7609051.623820537701249 ], [ 401493.306105527677573, 7609117.434048913419247 ], [ 401494.59365017071832, 7609140.051291508600116 ] ] ] } },
{ "type": "Feature", "properties": { "fid": 19.0, "COMPR_M": 89.06, "CLASSE": "01 - Muito curta", "CD_FAZ": "400548", "TALHOES": "1", "FAZ_tAL": "400548001", "ID_LINHA": 166650 }, "geometry": { "type": "MultiLineString", "coordinates": [ [ [ 401490.760380390216596, 7609051.091533984988928 ], [ 401495.417437071853783, 7609109.96301793307066 ], [ 401496.845390661794227, 7609122.760745766572654 ], [ 401497.635393503122032, 7609139.848356263712049 ] ] ] } },
{ "type": "Feature", "properties": { "fid": 20.0, "COMPR_M": 89.02, "CLASSE": "01 - Muito curta", "CD_FAZ": "400548", "TALHOES": "1", "FAZ_tAL": "400548001", "ID_LINHA": 166651 }, "geometry": { "type": "MultiLineString", "coordinates": [ [ [ 401493.908903028292116, 7609050.848494149744511 ], [ 401499.977984485274646, 7609125.528772519901395 ], [ 401500.651435735228006, 7609139.577622814103961 ] ] ] } },
{ "type": "Feature", "properties": { "fid": 21.0, "COMPR_M": 88.97, "CLASSE": "01 - Muito curta", "CD_FAZ": "400548", "TALHOES": "1", "FAZ_tAL": "400548001", "ID_LINHA": 166652 }, "geometry": { "type": "MultiLineString", "coordinates": [ [ [ 401496.836239302821923, 7609050.635936044156551 ], [ 401502.963174380478449, 7609126.307423698715866 ], [ 401503.647899237752426, 7609139.313911570236087 ] ] ] } },
{ "type": "Feature", "properties": { "fid": 22.0, "COMPR_M": 88.91, "CLASSE": "01 - Muito curta", "CD_FAZ": "400548", "TALHOES": "1", "FAZ_tAL": "400548001", "ID_LINHA": 166653 }, "geometry": { "type": "MultiLineString", "coordinates": [ [ [ 401506.655900770972949, 7609139.020379146561027 ], [ 401504.098001251579262, 7609102.055161818861961 ], [ 401499.704897460876964, 7609050.409251200035214 ] ] ] } },
{ "type": "Feature", "properties": { "fid": 23.0, "COMPR_M": 90.04, "CLASSE": "01 - Muito curta", "CD_FAZ": "400548", "TALHOES": "1", "FAZ_tAL": "400548001", "ID_LINHA": 166654 }, "geometry": { "type": "MultiLineString", "coordinates": [ [ [ 401509.705067494127434, 7609139.905388310551643 ], [ 401502.831632237648591, 7609050.159561336971819 ] ] ] } },
{ "type": "Feature", "properties": { "fid": 24.0, "COMPR_M": 585.87, "CLASSE": "03 - Média", "CD_FAZ": "400548", "TALHOES": "1", "FAZ_tAL": "400548001", "ID_LINHA": 166655 }, "geometry": { "type": "MultiLineString", "coordinates": [ [ [ 401505.852104087884072, 7609049.92635805811733 ], [ 401511.573321690550074, 7609120.623155145905912 ], [ 401512.825387582357507, 7609141.574304392561316 ], [ 401517.648474561283365, 7609198.381930034607649 ], [ 401521.005800062965136, 7609246.255677189677954 ], [ 401522.895154881523922, 7609264.117110190913081 ], [ 401523.892978679388762, 7609283.124083692207932 ], [ 401529.097193171619438, 7609340.87968142516911 ], [ 401531.434458463045303, 7609376.792391732335091 ], [ 401538.768617058114614, 7609463.457595594227314 ], [ 401540.214112044661306, 7609485.435624895617366 ], [ 401541.81955227808794, 7609500.306632930412889 ], [ 401543.081836556550115, 7609523.286184568889439 ], [ 401545.722136956173927, 7609549.158043291419744 ], [ 401546.099434166098945, 7609560.142466820776463 ], [ 401552.361629546736367, 7609633.692095783539116 ] ] ] } },
{ "type": "Feature", "properties": { "fid": 25.0, "COMPR_M": 586.29, "CLASSE": "03 - Média", "CD_FAZ": "400548", "TALHOES": "1", "FAZ_tAL": "400548001", "ID_LINHA": 166656 }, "geometry": { "type": "MultiLineString", "coordinates": [ [ [ 401508.734239029174205, 7609049.686535299755633 ], [ 401513.656227280036546, 7609107.42268921341747 ], [ 401515.417907600523904, 7609136.375278599560261 ], [ 401519.687021825811826, 7609185.181353645399213 ], [ 401523.963422684755642, 7609245.02152241114527 ], [ 401531.195906411216129, 7609329.715920962393284 ], [ 401534.825120819208678, 7609381.583871189504862 ], [ 401541.980271575856023, 7609465.254746583290398 ], [ 401543.791173952631652, 7609492.190717486664653 ], [ 401545.86855913704494, 7609512.06103814765811 ], [ 401547.490498605184257, 7609539.037747810594738 ], [ 401549.109669436234981, 7609554.931178754195571 ], [ 401555.219601249846164, 7609633.896867638453841 ] ] ] } },
{ "type": "Feature", "properties": { "fid": 26.0, "COMPR_M": 586.47, "CLASSE": "03 - Média", "CD_FAZ": "400548", "TALHOES": "1", "FAZ_tAL": "400548001", "ID_LINHA": 166657 }, "geometry": { "type": "MultiLineString", "coordinates": [ [ [ 401511.47226348874392, 7609049.457522056996822 ], [ 401516.806606239581015, 7609109.154299209825695 ], [ 401518.330942655622493, 7609135.084508085623384 ], [ 401522.907335925381631, 7609187.908323481678963 ], [ 401524.371664718724787, 7609211.873968748375773 ], [ 401534.122475835203659, 7609328.466703677549958 ], [ 401535.174819965381175, 7609348.421691687777638 ], [ 401545.096192532102577, 7609466.986614726483822 ], [ 401546.817435895092785, 7609492.941127302125096 ], [ 401549.241458505392075, 7609516.798993380740285 ], [ 401550.711358097847551, 7609542.790351964533329 ], [ 401552.339279852225445, 7609557.636494290083647 ], [ 401558.307233564904891, 7609633.82252767123282 ] ] ] } },
{ "type": "Feature", "properties": { "fid": 27.0, "COMPR_M": 586.41, "CLASSE": "03 - Média", "CD_FAZ": "400548", "TALHOES": "1", "FAZ_tAL": "400548001", "ID_LINHA": 166658 }, "geometry": { "type": "MultiLineString", "coordinates": [ [ [ 401514.428291533375159, 7609049.229224091395736 ], [ 401519.915021897992119, 7609110.883707147091627 ], [ 401520.982990888005588, 7609129.908185945823789 ], [ 401536.627945993910544, 7609323.230012366548181 ], [ 401538.324902754975483, 7609350.155350901186466 ], [ 401547.596205925045069, 7609459.745618200860918 ], [ 401550.921560949296691, 7609505.663950175046921 ], [ 401552.700315933150705, 7609522.555250520817935 ], [ 401557.897004111495335, 7609594.322618972510099 ], [ 401561.340438836428802, 7609633.531382150016725 ] ] ] } },
{ "type": "Feature", "properties": { "fid": 28.0, "COMPR_M": 134.68, "CLASSE": "02 - Curta", "CD_FAZ": "400548", "TALHOES": "1", "FAZ_tAL": "400548001", "ID_LINHA": 166659 }, "geometry": { "type": "MultiLineString", "coordinates": [ [ [ 401532.5782270320924, 7609047.815428839065135 ], [ 401543.444708902738057, 7609182.007282799109817 ] ] ] } },
{ "type": "Feature", "properties": { "fid": 29.0, "COMPR_M": 133.15, "CLASSE": "02 - Curta", "CD_FAZ": "400548", "TALHOES": "1", "FAZ_tAL": "400548001", "ID_LINHA": 166660 }, "geometry": { "type": "MultiLineString", "coordinates": [ [ [ 401535.652599834720604, 7609047.59294346254319 ], [ 401546.255135543178767, 7609180.27350752428174 ] ] ] } },
{ "type": "Feature", "properties": { "fid": 30.0, "COMPR_M": 135.8, "CLASSE": "02 - Curta", "CD_FAZ": "400548", "TALHOES": "1", "FAZ_tAL": "400548001", "ID_LINHA": 166661 }, "geometry": { "type": "MultiLineString", "coordinates": [ [ [ 401549.497695086582098, 7609182.692125879228115 ], [ 401541.199891586787999, 7609083.208330138586462 ], [ 401538.667447816638742, 7609047.371393825858831 ] ] ] } },
{ "type": "Feature", "properties": { "fid": 31.0, "COMPR_M": 162.31, "CLASSE": "02 - Curta", "CD_FAZ": "400548", "TALHOES": "1", "FAZ_tAL": "400548001", "ID_LINHA": 166662 }, "geometry": { "type": "MultiLineString", "coordinates": [ [ [ 401557.26580290280981, 7609208.684100959450006 ], [ 401555.143902298761532, 7609176.96978129260242 ], [ 401547.909438815375324, 7609090.289097486995161 ], [ 401544.970197475573514, 7609046.898194803856313 ] ] ] } },
{ "type": "Feature", "properties": { "fid": 32.0, "COMPR_M": 158.74, "CLASSE": "02 - Curta", "CD_FAZ": "400548", "TALHOES": "1", "FAZ_tAL": "400548001", "ID_LINHA": 166663 }, "geometry": { "type": "MultiLineString", "coordinates": [ [ [ 401547.377226487209555, 7609046.590044405311346 ], [ 401548.41897058673203, 7609054.504519706591964 ], [ 401559.935466098890174, 7609204.752148675732315 ] ] ] } },
{ "type": "Feature", "properties": { "fid": 33.0, "COMPR_M": 155.98, "CLASSE": "02 - Curta", "CD_FAZ": "400548", "TALHOES": "1", "FAZ_tAL": "400548001", "ID_LINHA": 166664 }, "geometry": { "type": "MultiLineString", "coordinates": [ [ [ 401550.418908751627896, 7609046.407559484243393 ], [ 401562.78621120727621, 7609201.838916225358844 ] ] ] } },
{ "type": "Feature", "properties": { "fid": 34.0, "COMPR_M": 156.44, "CLASSE": "02 - Curta", "CD_FAZ": "400548", "TALHOES": "1", "FAZ_tAL": "400548001", "ID_LINHA": 166665 }, "geometry": { "type": "MultiLineString", "coordinates": [ [ [ 401565.813347982708365, 7609202.079174492508173 ], [ 401553.5001263495069, 7609046.182562185451388 ] ] ] } },
{ "type": "Feature", "properties": { "fid": 35.0, "COMPR_M": 431.9, "CLASSE": "03 - Média", "CD_FAZ": "400548", "TALHOES": "1", "FAZ_tAL": "400548001", "ID_LINHA": 166666 }, "geometry": { "type": "MultiLineString", "coordinates": [ [ [ 401557.873403649777174, 7609215.357920526526868 ], [ 401563.87823041761294, 7609287.080765049904585 ], [ 401565.991812058782671, 7609319.392685112543404 ], [ 401572.879964933556039, 7609398.65801595710218 ], [ 401576.566095227317419, 7609449.547622513957322 ], [ 401582.718862994923256, 7609522.276416447944939 ], [ 401585.690827636222821, 7609565.171927079558372 ], [ 401592.488579569442663, 7609645.713581077754498 ] ] ] } },
{ "type": "Feature", "properties": { "fid": 36.0, "COMPR_M": 441.17, "CLASSE": "03 - Média", "CD_FAZ": "400548", "TALHOES": "1", "FAZ_tAL": "400548001", "ID_LINHA": 166667 }, "geometry": { "type": "MultiLineString", "coordinates": [ [ [ 401560.965017364942469, 7609217.151302574202418 ], [ 401566.963963234098628, 7609287.378253151662648 ], [ 401568.589897312398534, 7609313.340809762477875 ], [ 401575.999902145238593, 7609400.344882970675826 ], [ 401586.703025384456851, 7609535.927382355555892 ], [ 401588.815473285620101, 7609567.52598537504673 ], [ 401594.554651463986374, 7609633.281889364123344 ], [ 401596.16021059313789, 7609656.770385274663568 ] ] ] } },
{ "type": "Feature", "properties": { "fid": 37.0, "COMPR_M": 439.85, "CLASSE": "03 - Média", "CD_FAZ": "400548", "TALHOES": "1", "FAZ_tAL": "400548001", "ID_LINHA": 166668 }, "geometry": { "type": "MultiLineString", "coordinates": [ [ [ 401564.456182480498683, 7609222.742700614966452 ], [ 401570.116663327324204, 7609288.452033179812133 ], [ 401572.216147036815528, 7609321.374890049919486 ], [ 401579.264374188962393, 7609404.039120756089687 ], [ 401581.285787657659966, 7609435.005727875046432 ], [ 401599.529554480686784, 7609661.037279572337866 ] ] ] } },
{ "type": "Feature", "properties": { "fid": 38.0, "COMPR_M": 442.28, "CLASSE": "03 - Média", "CD_FAZ": "400548", "TALHOES": "1", "FAZ_tAL": "400548001", "ID_LINHA": 166669 }, "geometry": { "type": "MultiLineString", "coordinates": [ [ [ 401602.751811615889892, 7609663.266213173978031 ], [ 401583.861110078520142, 7609432.224942202679813 ], [ 401582.634744126466103, 7609408.219106037169695 ], [ 401574.915310405311175, 7609318.208259744569659 ], [ 401573.140139271039516, 7609288.265328395180404 ], [ 401567.293222703039646, 7609222.580058410763741 ] ] ] } },
{ "type": "Feature", "properties": { "fid": 39.0, "COMPR_M": 621.08, "CLASSE": "04 - Longa", "CD_FAZ": "400548", "TALHOES": "1", "FAZ_tAL": "400548001", "ID_LINHA": 166670 }, "geometry": { "type": "MultiLineString", "coordinates": [ [ [ 401556.568251307238825, 7609045.943789383396506 ], [ 401560.529842549469322, 7609100.723441710695624 ], [ 401563.439652384549845, 7609132.56100064702332 ], [ 401570.062420154106803, 7609219.344454683363438 ], [ 401576.187787172733806, 7609289.073571724817157 ], [ 401577.764386085094884, 7609315.975928798317909 ], [ 401585.95519831974525, 7609412.651736145839095 ], [ 401586.918055604968686, 7609432.620932610705495 ], [ 401593.743959134910256, 7609512.293766396120191 ], [ 401598.354111899912823, 7609576.10655455943197 ], [ 401603.551230910583399, 7609634.891720101237297 ], [ 401605.73767893173499, 7609664.825158185325563 ] ] ] } },
{ "type": "Feature", "properties": { "fid": 40.0, "COMPR_M": 622.67, "CLASSE": "04 - Longa", "CD_FAZ": "400548", "TALHOES": "1", "FAZ_tAL": "400548001", "ID_LINHA": 166671 }, "geometry": { "type": "MultiLineString", "coordinates": [ [ [ 401559.689475402585231, 7609045.66670254804194 ], [ 401563.544407454959583, 7609102.429394751787186 ], [ 401568.883311171550304, 7609164.236061793752015 ], [ 401580.901720154564828, 7609319.718744301237166 ], [ 401589.090544819715433, 7609416.364185785874724 ], [ 401589.763419254566543, 7609432.339904244057834 ], [ 401596.815560793329496, 7609513.011750160716474 ], [ 401601.410932496248279, 7609576.837375483475626 ], [ 401608.844229210866615, 7609666.149915448389947 ] ] ] } },
{ "type": "Feature", "properties": { "fid": 41.0, "COMPR_M": 623.73, "CLASSE": "04 - Longa", "CD_FAZ": "400548", "TALHOES": "1", "FAZ_tAL": "400548001", "ID_LINHA": 166672 }, "geometry": { "type": "MultiLineString", "coordinates": [ [ [ 401562.425664784736, 7609045.441973969340324 ], [ 401563.596281197736971, 7609056.285559134557843 ], [ 401563.990008158900309, 7609068.223636522889137 ], [ 401572.967625162738841, 7609175.899076625704765 ], [ 401576.132431414036546, 7609219.760735115036368 ], [ 401580.815282635216136, 7609274.563417870551348 ], [ 401582.262809567968361, 7609298.498818788677454 ], [ 401592.625628409907222, 7609422.041611520573497 ], [ 401593.114928445022088, 7609434.037454695440829 ], [ 401600.349452470603865, 7609518.755990065634251 ], [ 401604.468689799658023, 7609575.575512316077948 ], [ 401611.889563440519851, 7609666.973235513083637 ] ] ] } },
{ "type": "Feature", "properties": { "fid": 42.0, "COMPR_M": 624.09, "CLASSE": "04 - Longa", "CD_FAZ": "400548", "TALHOES": "1", "FAZ_tAL": "400548001", "ID_LINHA": 166673 }, "geometry": { "type": "MultiLineString", "coordinates": [ [ [ 401565.119042516569607, 7609045.181472295895219 ], [ 401566.476377297018189, 7609057.041932511143386 ], [ 401566.96035279694479, 7609070.030158586800098 ], [ 401569.592952749924734, 7609097.908246019855142 ], [ 401578.649712636251934, 7609216.571053802967072 ], [ 401583.6226160984952, 7609273.345489838160574 ], [ 401585.507445319206454, 7609303.256572496145964 ], [ 401595.74015770223923, 7609424.821281645447016 ], [ 401596.263259268598631, 7609437.796442788094282 ], [ 401602.848984406737145, 7609514.520043827593327 ], [ 401604.783702442189679, 7609543.428134210407734 ], [ 401614.840835841663647, 7609667.040367661975324 ] ] ] } },
{ "type": "Feature", "properties": { "fid": 43.0, "COMPR_M": 624.44, "CLASSE": "04 - Longa", "CD_FAZ": "400548", "TALHOES": "1", "FAZ_tAL": "400548001", "ID_LINHA": 166674 }, "geometry": { "type": "MultiLineString", "coordinates": [ [ [ 401568.312986033386551, 7609044.893408987671137 ], [ 401578.639139793172944, 7609170.369689079932868 ], [ 401582.33080010471167, 7609222.240418802015483 ], [ 401586.944421923020855, 7609275.032399341464043 ], [ 401587.986438850930426, 7609295.016040503978729 ], [ 401597.447376045456622, 7609406.616653507575393 ], [ 401599.945005034387577, 7609443.525387705303729 ], [ 401605.528580053593032, 7609509.26994127035141 ], [ 401607.726237554103136, 7609542.179681807756424 ], [ 401613.314574902993627, 7609606.95989391207695 ], [ 401617.902530455146916, 7609667.13375435769558 ] ] ] } },
{ "type": "Feature", "properties": { "fid": 44.0, "COMPR_M": 586.38, "CLASSE": "03 - Média", "CD_FAZ": "400548", "TALHOES": "1", "FAZ_tAL": "400548001", "ID_LINHA": 166675 }, "geometry": { "type": "MultiLineString", "coordinates": [ [ [ 401564.368067172705196, 7609633.261752183549106 ], [ 401561.140014425793197, 7609597.099572043865919 ], [ 401556.022905180230737, 7609527.692528458312154 ], [ 401550.881906310212798, 7609467.946584573015571 ], [ 401543.629788473190274, 7609373.202432266436517 ], [ 401540.695769625599496, 7609342.357956602238119 ], [ 401538.960741848335601, 7609314.412033785134554 ], [ 401534.363731724966783, 7609261.616929031908512 ], [ 401522.108140245487448, 7609102.732332374900579 ], [ 401519.048148652655073, 7609064.849378690123558 ], [ 401517.307456318347249, 7609048.998999940231442 ] ] ] } },
{ "type": "Feature", "properties": { "fid": 45.0, "COMPR_M": 586.26, "CLASSE": "03 - Média", "CD_FAZ": "400548", "TALHOES": "1", "FAZ_tAL": "400548001", "ID_LINHA": 166676 }, "geometry": { "type": "MultiLineString", "coordinates": [ [ [ 401520.598452130099759, 7609048.753882969729602 ], [ 401522.877173912769649, 7609075.605624865740538 ], [ 401523.67771576641826, 7609092.579465271905065 ], [ 401532.042404406005517, 7609190.187852198258042 ], [ 401532.637590527534485, 7609203.160142412409186 ], [ 401567.328667301277164, 7609632.939530872739851 ] ] ] } },
{ "type": "Feature", "properties": { "fid": 46.0, "COMPR_M": 586.05, "CLASSE": "03 - Média", "CD_FAZ": "400548", "TALHOES": "1", "FAZ_tAL": "400548001", "ID_LINHA": 166677 }, "geometry": { "type": "MultiLineString", "coordinates": [ [ [ 401523.607531224261038, 7609048.521549314260483 ], [ 401525.739959614758845, 7609073.346713898703456 ], [ 401526.623004886088893, 7609091.314257064834237 ], [ 401533.021993393660523, 7609165.045647839084268 ], [ 401538.25898045336362, 7609234.840915649197996 ], [ 401544.752952927374281, 7609312.559121906757355 ], [ 401545.501725789741613, 7609326.548825170844793 ], [ 401570.340155500220135, 7609632.501487262547016 ] ] ] } },
{ "type": "Feature", "properties": { "fid": 47.0, "COMPR_M": 585.77, "CLASSE": "03 - Média", "CD_FAZ": "400548", "TALHOES": "1", "FAZ_tAL": "400548001", "ID_LINHA": 166678 }, "geometry": { "type": "MultiLineString", "coordinates": [ [ [ 401526.628050430386793, 7609048.283005557954311 ], [ 401528.708925031125546, 7609072.135448115877807 ], [ 401530.580171276000328, 7609102.06365318223834 ], [ 401536.476531302265357, 7609169.8312953915447 ], [ 401538.628823536681011, 7609201.754347775131464 ], [ 401545.408304192824289, 7609282.465302161872387 ], [ 401548.496113117667846, 7609326.347488339990377 ], [ 401566.196457619429566, 7609542.58012306317687 ], [ 401568.632088093087077, 7609577.496797329746187 ], [ 401571.835167128941976, 7609617.396349543705583 ], [ 401573.463024894183036, 7609631.97317067719996 ] ] ] } },
{ "type": "Feature", "properties": { "fid": 48.0, "COMPR_M": 585.14, "CLASSE": "03 - Média", "CD_FAZ": "400548", "TALHOES": "1", "FAZ_tAL": "400548001", "ID_LINHA": 166679 }, "geometry": { "type": "MultiLineString", "coordinates": [ [ [ 401529.654661606240552, 7609048.065159674733877 ], [ 401531.768851488479413, 7609072.913791509345174 ], [ 401532.162786142667755, 7609083.910074256360531 ], [ 401548.509839423408266, 7609283.22401209268719 ], [ 401551.529019533540122, 7609326.105153441429138 ], [ 401569.294330644304864, 7609543.362264959141612 ], [ 401572.73301011841977, 7609591.247538717463613 ], [ 401576.43008827167796, 7609631.12952712085098 ] ] ] } },
{ "type": "Feature", "properties": { "fid": 49.0, "COMPR_M": 573.42, "CLASSE": "03 - Média", "CD_FAZ": "400548", "TALHOES": "1", "FAZ_tAL": "400548001", "ID_LINHA": 166680 }, "geometry": { "type": "MultiLineString", "coordinates": [ [ [ 401541.806190550269093, 7609047.090575738810003 ], [ 401544.696937611442991, 7609088.908789075911045 ], [ 401552.057644423097372, 7609176.605812162160873 ], [ 401555.978200321667828, 7609230.448926847428083 ], [ 401562.14629410818452, 7609303.213048996403813 ], [ 401562.921144042862579, 7609317.190335623919964 ], [ 401569.443580288963858, 7609394.870423535816371 ], [ 401587.038095919357147, 7609618.529400425031781 ] ] ] } },
{ "type": "Feature", "properties": { "fid": 50.0, "COMPR_M": 438.32, "CLASSE": "03 - Média", "CD_FAZ": "400548", "TALHOES": "1", "FAZ_tAL": "400548001", "ID_LINHA": 166681 }, "geometry": { "type": "MultiLineString", "coordinates": [ [ [ 401543.687500098254532, 7609186.490601033903658 ], [ 401544.248886120505631, 7609197.818171914666891 ], [ 401551.741330544929951, 7609286.045766150578856 ], [ 401578.556513817340601, 7609623.277950471267104 ] ] ] } },
{ "type": "Feature", "properties": { "fid": 51.0, "COMPR_M": 417.17, "CLASSE": "03 - Média", "CD_FAZ": "400548", "TALHOES": "1", "FAZ_tAL": "400548001", "ID_LINHA": 166682 }, "geometry": { "type": "MultiLineString", "coordinates": [ [ [ 401547.63177968445234, 7609200.651016404852271 ], [ 401566.09917762351688, 7609427.801047417335212 ], [ 401580.817635760409757, 7609616.364930834621191 ] ] ] } },
{ "type": "Feature", "properties": { "fid": 52.0, "COMPR_M": 428.33, "CLASSE": "03 - Média", "CD_FAZ": "400548", "TALHOES": "1", "FAZ_tAL": "400548001", "ID_LINHA": 166683 }, "geometry": { "type": "MultiLineString", "coordinates": [ [ [ 401583.62335183902178, 7609616.001082055270672 ], [ 401579.026701175898779, 7609552.291016794741154 ], [ 401549.892865230911411, 7609189.145433971658349 ] ] ] } },
{ "type": "Feature", "properties": { "fid": 53.0, "COMPR_M": 624.58, "CLASSE": "04 - Longa", "CD_FAZ": "400548", "TALHOES": "1", "FAZ_tAL": "400548001", "ID_LINHA": 166684 }, "geometry": { "type": "MultiLineString", "coordinates": [ [ [ 401571.421054189850111, 7609044.622768902219832 ], [ 401575.12737208994804, 7609095.405380389653146 ], [ 401581.551076336880215, 7609171.124567886814475 ], [ 401585.040511301835068, 7609221.004723200574517 ], [ 401589.762751266360283, 7609274.789246657863259 ], [ 401591.029200616350863, 7609297.742318510077894 ], [ 401600.32002897845814, 7609407.344824125058949 ], [ 401602.977449060766958, 7609446.220955777913332 ], [ 401608.783838802657556, 7609514.000117413699627 ], [ 401609.965369036188349, 7609534.956701905466616 ], [ 401616.405786242976319, 7609608.669845240190625 ], [ 401620.907377119990997, 7609666.998176420107484 ] ] ] } },
{ "type": "Feature", "properties": { "fid": 54.0, "COMPR_M": 624.74, "CLASSE": "04 - Longa", "CD_FAZ": "400548", "TALHOES": "1", "FAZ_tAL": "400548001", "ID_LINHA": 166685 }, "geometry": { "type": "MultiLineString", "coordinates": [ [ [ 401574.295625082799233, 7609044.356545340269804 ], [ 401592.273283767979592, 7609269.558468656614423 ], [ 401594.156563166063279, 7609298.520048473030329 ], [ 401595.743674986180849, 7609313.432215958833694 ], [ 401602.633548015961424, 7609397.145542409271002 ], [ 401604.296575969608966, 7609422.077504355460405 ], [ 401612.232242898782715, 7609517.742370422929525 ], [ 401612.987929809372872, 7609532.708684304729104 ], [ 401623.974157586460933, 7609666.894585528410971 ] ] ] } },
{ "type": "Feature", "properties": { "fid": 55.0, "COMPR_M": 624.87, "CLASSE": "04 - Longa", "CD_FAZ": "400548", "TALHOES": "1", "FAZ_tAL": "400548001", "ID_LINHA": 166686 }, "geometry": { "type": "MultiLineString", "coordinates": [ [ [ 401577.256104714411777, 7609044.112377762794495 ], [ 401581.884329989668913, 7609102.865191743709147 ], [ 401583.749630716629326, 7609120.691748858429492 ], [ 401597.426127342681866, 7609299.228261673822999 ], [ 401605.781694776262157, 7609398.852666925638914 ], [ 401615.255127577809617, 7609517.462011450901628 ], [ 401616.704018119955435, 7609541.344341620802879 ], [ 401627.017546106711961, 7609666.78167091216892 ] ] ] } },
{ "type": "Feature", "properties": { "fid": 56.0, "COMPR_M": 625.18, "CLASSE": "04 - Longa", "CD_FAZ": "400548", "TALHOES": "1", "FAZ_tAL": "400548001", "ID_LINHA": 166687 }, "geometry": { "type": "MultiLineString", "coordinates": [ [ [ 401579.961920085595921, 7609043.864668032154441 ], [ 401586.559851312777027, 7609121.481800934299827 ], [ 401591.097182251513004, 7609183.264631761237979 ], [ 401618.171106243389659, 7609518.137519765645266 ], [ 401619.198932670871727, 7609537.087898690253496 ], [ 401630.013976838788949, 7609666.816929041408002 ] ] ] } },
{ "type": "Feature", "properties": { "fid": 57.0, "COMPR_M": 625.23, "CLASSE": "04 - Longa", "CD_FAZ": "400548", "TALHOES": "1", "FAZ_tAL": "400548001", "ID_LINHA": 166688 }, "geometry": { "type": "MultiLineString", "coordinates": [ [ [ 401583.625646486529149, 7609043.486531086266041 ], [ 401584.200836390838958, 7609058.386701554991305 ], [ 401593.201515830762219, 7609167.077606126666069 ], [ 401594.228235696558841, 7609185.049625296145678 ], [ 401599.696731839852873, 7609248.805249131284654 ], [ 401603.830112560477573, 7609305.590254181064665 ], [ 401620.986364088952541, 7609515.933185037225485 ], [ 401621.827544544707052, 7609532.837505387142301 ], [ 401632.985761851945426, 7609666.524888141080737 ] ] ] } },
{ "type": "Feature", "properties": { "fid": 58.0, "COMPR_M": 625.17, "CLASSE": "04 - Longa", "CD_FAZ": "400548", "TALHOES": "1", "FAZ_tAL": "400548001", "ID_LINHA": 166689 }, "geometry": { "type": "MultiLineString", "coordinates": [ [ [ 401586.703994109411724, 7609043.261978845112026 ], [ 401587.181971517100465, 7609055.145386602729559 ], [ 401594.155554365599528, 7609137.841468743979931 ], [ 401607.15215423173504, 7609308.353182564489543 ], [ 401614.163611647556536, 7609391.039875511080027 ], [ 401624.104224688955583, 7609515.650238789618015 ], [ 401624.479225683026016, 7609526.637642925605178 ], [ 401635.940157408942468, 7609666.255214442498982 ] ] ] } },
{ "type": "Feature", "properties": { "fid": 59.0, "COMPR_M": 625.22, "CLASSE": "04 - Longa", "CD_FAZ": "400548", "TALHOES": "1", "FAZ_tAL": "400548001", "ID_LINHA": 166690 }, "geometry": { "type": "MultiLineString", "coordinates": [ [ [ 401589.943909247464035, 7609042.967390522360802 ], [ 401590.469429240969475, 7609058.903711576014757 ], [ 401595.734666926786304, 7609125.65011135302484 ], [ 401597.220618315390311, 7609139.569275137037039 ], [ 401607.627531660429668, 7609271.158687287941575 ], [ 401610.46377330517862, 7609312.090686170384288 ], [ 401617.237928638467565, 7609391.759553879499435 ], [ 401620.312721132882871, 7609434.683194791898131 ], [ 401626.233424983453006, 7609504.398709516040981 ], [ 401628.414902062795591, 7609538.324055394157767 ], [ 401634.284313476353418, 7609606.09730298537761 ], [ 401638.795641966513358, 7609666.031154278665781 ] ] ] } },
{ "type": "Feature", "properties": { "fid": 60.0, "COMPR_M": 625.24, "CLASSE": "04 - Longa", "CD_FAZ": "400548", "TALHOES": "1", "FAZ_tAL": "400548001", "ID_LINHA": 166691 }, "geometry": { "type": "MultiLineString", "coordinates": [ [ [ 401592.621568368864246, 7609042.703951861709356 ], [ 401593.341301097185351, 7609059.629459738731384 ], [ 401600.435029682703316, 7609143.354090889915824 ], [ 401613.723683196236379, 7609314.782362099736929 ], [ 401641.921665033733007, 7609665.769091537222266 ] ] ] } },
{ "type": "Feature", "properties": { "fid": 61.0, "COMPR_M": 625.23, "CLASSE": "04 - Longa", "CD_FAZ": "400548", "TALHOES": "1", "FAZ_tAL": "400548001", "ID_LINHA": 166692 }, "geometry": { "type": "MultiLineString", "coordinates": [ [ [ 401595.541037789080292, 7609042.456554002128541 ], [ 401596.307167483260855, 7609057.302206488326192 ], [ 401602.770789849513676, 7609137.133835561573505 ], [ 401604.110246700176504, 7609149.028536098077893 ], [ 401605.270837815303821, 7609168.941137658432126 ], [ 401612.993771382898558, 7609262.683012953028083 ], [ 401614.318807274918072, 7609283.648630375042558 ], [ 401645.070560863474384, 7609665.503414584323764 ] ] ] } },
{ "type": "Feature", "properties": { "fid": 62.0, "COMPR_M": 625.1, "CLASSE": "04 - Longa", "CD_FAZ": "400548", "TALHOES": "1", "FAZ_tAL": "400548001", "ID_LINHA": 166693 }, "geometry": { "type": "MultiLineString", "coordinates": [ [ [ 401598.160263824160211, 7609042.271652463823557 ], [ 401606.929177548678126, 7609147.804958211258054 ], [ 401607.960644531063735, 7609165.779557026922703 ], [ 401626.022404818097129, 7609388.014264833182096 ], [ 401627.869047077547293, 7609415.925445960834622 ], [ 401636.119605431333184, 7609514.593088867142797 ], [ 401637.076704899722245, 7609532.550218284130096 ], [ 401641.872306574019603, 7609587.352162479422987 ], [ 401646.872910047299229, 7609653.149973925203085 ], [ 401648.194561265176162, 7609665.143267842009664 ] ] ] } },
{ "type": "Feature", "properties": { "fid": 63.0, "COMPR_M": 625.03, "CLASSE": "04 - Longa", "CD_FAZ": "400548", "TALHOES": "1", "FAZ_tAL": "400548001", "ID_LINHA": 166694 }, "geometry": { "type": "MultiLineString", "coordinates": [ [ [ 401601.195483251241967, 7609041.990614552050829 ], [ 401609.489599654567428, 7609144.581746369600296 ], [ 401610.329797086014878, 7609160.560709879733622 ], [ 401619.01751900324598, 7609262.157708834856749 ], [ 401620.421608709730208, 7609286.116723842918873 ], [ 401622.72065640706569, 7609309.961961179971695 ], [ 401639.033538844960276, 7609514.31905703805387 ], [ 401640.745295191358309, 7609542.256518958136439 ], [ 401644.611028842860833, 7609585.080195774324238 ], [ 401649.849291092774365, 7609653.879807450808585 ], [ 401651.144167313352227, 7609664.784134114161134 ] ] ] } },
{ "type": "Feature", "properties": { "fid": 64.0, "COMPR_M": 625.11, "CLASSE": "04 - Longa", "CD_FAZ": "400548", "TALHOES": "1", "FAZ_tAL": "400548001", "ID_LINHA": 166695 }, "geometry": { "type": "MultiLineString", "coordinates": [ [ [ 401604.157286474539433, 7609041.695004667155445 ], [ 401613.559172574314289, 7609163.238727375864983 ], [ 401622.046651420241687, 7609262.844785964116454 ], [ 401623.700789726397488, 7609290.766137024387717 ], [ 401642.014811392116826, 7609514.991473352536559 ], [ 401643.060121963557322, 7609534.961494693532586 ], [ 401647.430575056583621, 7609582.76233762037009 ], [ 401652.968812962411903, 7609654.51847284194082 ], [ 401654.161805070121773, 7609664.556188725866377 ] ] ] } },
{ "type": "Feature", "properties": { "fid": 65.0, "COMPR_M": 171.11, "CLASSE": "02 - Curta", "CD_FAZ": "400548", "TALHOES": "1", "FAZ_tAL": "400548001", "ID_LINHA": 166696 }, "geometry": { "type": "MultiLineString", "coordinates": [ [ [ 401663.952282662503421, 7609491.184674622491002 ], [ 401665.70041872386355, 7609515.806080985814333 ], [ 401671.622479136043694, 7609582.529116008430719 ], [ 401677.638340249832254, 7609661.690835658460855 ] ] ] } },
{ "type": "Feature", "properties": { "fid": 66.0, "COMPR_M": 170.09, "CLASSE": "02 - Curta", "CD_FAZ": "400548", "TALHOES": "1", "FAZ_tAL": "400548001", "ID_LINHA": 166697 }, "geometry": { "type": "MultiLineString", "coordinates": [ [ [ 401666.971301090205088, 7609491.843427744694054 ], [ 401674.587738704402, 7609582.419844586402178 ], [ 401680.56383051967714, 7609661.323400021530688 ] ] ] } },
{ "type": "Feature", "properties": { "fid": 67.0, "COMPR_M": 173.08, "CLASSE": "02 - Curta", "CD_FAZ": "400548", "TALHOES": "1", "FAZ_tAL": "400548001", "ID_LINHA": 166698 }, "geometry": { "type": "MultiLineString", "coordinates": [ [ [ 401683.631329518277198, 7609660.82308395486325 ], [ 401669.936617081344593, 7609488.344317575916648 ] ] ] } },
{ "type": "Feature", "properties": { "fid": 68.0, "COMPR_M": 624.91, "CLASSE": "04 - Longa", "CD_FAZ": "400548", "TALHOES": "1", "FAZ_tAL": "400548001", "ID_LINHA": 166699 }, "geometry": { "type": "MultiLineString", "coordinates": [ [ [ 401607.229962214361876, 7609041.432350916787982 ], [ 401614.106694087618962, 7609127.016927759163082 ], [ 401615.046241101226769, 7609144.007604563608766 ], [ 401633.981692949309945, 7609376.202640920877457 ], [ 401635.309350197843742, 7609398.155072845518589 ], [ 401644.878256670664996, 7609512.748423426412046 ], [ 401646.069134075194597, 7609534.687585592269897 ], [ 401649.871915232681204, 7609575.509273779578507 ], [ 401656.880390171543695, 7609664.134359819814563 ] ] ] } },
{ "type": "Feature", "properties": { "fid": 69.0, "COMPR_M": 625.08, "CLASSE": "04 - Longa", "CD_FAZ": "400548", "TALHOES": "1", "FAZ_tAL": "400548001", "ID_LINHA": 166700 }, "geometry": { "type": "MultiLineString", "coordinates": [ [ [ 401610.249092284822837, 7609041.159080194309354 ], [ 401659.852039314573631, 7609664.038879765197635 ] ] ] } },
{ "type": "Feature", "properties": { "fid": 70.0, "COMPR_M": 624.91, "CLASSE": "04 - Longa", "CD_FAZ": "400548", "TALHOES": "1", "FAZ_tAL": "400548001", "ID_LINHA": 166701 }, "geometry": { "type": "MultiLineString", "coordinates": [ [ [ 401662.96231930173235, 7609663.58534717746079 ], [ 401651.143526817206293, 7609521.222278784960508 ], [ 401650.600562835752498, 7609507.226443262770772 ], [ 401645.66666771681048, 7609450.431963425129652 ], [ 401613.252175913890824, 7609040.8863191511482 ] ] ] } },
{ "type": "Feature", "properties": { "fid": 71.0, "COMPR_M": 624.81, "CLASSE": "04 - Longa", "CD_FAZ": "400548", "TALHOES": "1", "FAZ_tAL": "400548001", "ID_LINHA": 166702 }, "geometry": { "type": "MultiLineString", "coordinates": [ [ [ 401616.34013560944004, 7609040.5990334674716 ], [ 401625.069899141206406, 7609154.250564413145185 ], [ 401626.515689622727223, 7609168.155296875163913 ], [ 401634.31294533907203, 7609269.84637726098299 ], [ 401651.455027396732476, 7609481.137079336680472 ], [ 401654.176919791381806, 7609521.012848572805524 ], [ 401665.47972774511436, 7609656.526454774662852 ], [ 401665.670803019136656, 7609663.237472744658589 ] ] ] } },
{ "type": "Feature", "properties": { "fid": 72.0, "COMPR_M": 624.75, "CLASSE": "04 - Longa", "CD_FAZ": "400548", "TALHOES": "1", "FAZ_tAL": "400548001", "ID_LINHA": 166703 }, "geometry": { "type": "MultiLineString", "coordinates": [ [ [ 401619.492005433130544, 7609040.315111826173961 ], [ 401620.62700857152231, 7609061.208045253530145 ], [ 401668.61060858820565, 7609662.911775417625904 ] ] ] } },
{ "type": "Feature", "properties": { "fid": 73.0, "COMPR_M": 624.59, "CLASSE": "04 - Longa", "CD_FAZ": "400548", "TALHOES": "1", "FAZ_tAL": "400548001", "ID_LINHA": 166704 }, "geometry": { "type": "MultiLineString", "coordinates": [ [ [ 401622.406080302142072, 7609040.097018918953836 ], [ 401623.992733882507309, 7609065.000012949109077 ], [ 401656.899194172816351, 7609474.658694615587592 ], [ 401658.658959126332775, 7609502.567433511838317 ], [ 401665.302457076963037, 7609579.281164175830781 ], [ 401671.638980127754621, 7609662.535943700931966 ] ] ] } },
{ "type": "Feature", "properties": { "fid": 74.0, "COMPR_M": 624.46, "CLASSE": "04 - Longa", "CD_FAZ": "400548", "TALHOES": "1", "FAZ_tAL": "400548001", "ID_LINHA": 166705 }, "geometry": { "type": "MultiLineString", "coordinates": [ [ [ 401625.274071432242636, 7609039.834163710474968 ], [ 401674.653773507568985, 7609662.128624058328569 ] ] ] } },
{ "type": "Feature", "properties": { "fid": 75.0, "COMPR_M": 437.39, "CLASSE": "03 - Média", "CD_FAZ": "400548", "TALHOES": "1", "FAZ_tAL": "400548001", "ID_LINHA": 166706 }, "geometry": { "type": "MultiLineString", "coordinates": [ [ [ 401628.138649403757881, 7609039.572973348200321 ], [ 401662.945928381755948, 7609475.434872860088944 ] ] ] } },
{ "type": "Feature", "properties": { "fid": 76.0, "COMPR_M": 432.43, "CLASSE": "03 - Média", "CD_FAZ": "400548", "TALHOES": "1", "FAZ_tAL": "400548001", "ID_LINHA": 166707 }, "geometry": { "type": "MultiLineString", "coordinates": [ [ [ 401631.099580766167492, 7609039.324217094108462 ], [ 401665.483398132608272, 7609470.255497051402926 ] ] ] } },
{ "type": "Feature", "properties": { "fid": 77.0, "COMPR_M": 436.99, "CLASSE": "03 - Média", "CD_FAZ": "400548", "TALHOES": "1", "FAZ_tAL": "400548001", "ID_LINHA": 166708 }, "geometry": { "type": "MultiLineString", "coordinates": [ [ [ 401668.786446300568059, 7609474.513407890684903 ], [ 401651.460551451717038, 7609261.37210007570684 ], [ 401634.138521993765607, 7609039.038456175476313 ] ] ] } },
{ "type": "Feature", "properties": { "fid": 78.0, "COMPR_M": 623.45, "CLASSE": "04 - Longa", "CD_FAZ": "400548", "TALHOES": "1", "FAZ_tAL": "400548001", "ID_LINHA": 166709 }, "geometry": { "type": "MultiLineString", "coordinates": [ [ [ 401637.162757798505481, 7609038.764967672526836 ], [ 401654.958935796224978, 7609266.01133456081152 ], [ 401672.234852361201774, 7609477.295816119760275 ], [ 401673.438315219595097, 7609498.246393878012896 ], [ 401677.500172038038727, 7609544.074643010273576 ], [ 401686.62993788626045, 7609660.039558308199048 ] ] ] } },
{ "type": "Feature", "properties": { "fid": 79.0, "COMPR_M": 623.06, "CLASSE": "04 - Longa", "CD_FAZ": "400548", "TALHOES": "1", "FAZ_tAL": "400548001", "ID_LINHA": 166710 }, "geometry": { "type": "MultiLineString", "coordinates": [ [ [ 401640.155182298272848, 7609038.498426923528314 ], [ 401648.986488205846399, 7609154.077228704467416 ], [ 401653.607553842710331, 7609205.870871558785439 ], [ 401689.535983795416541, 7609659.384875847026706 ] ] ] } },
{ "type": "Feature", "properties": { "fid": 80.0, "COMPR_M": 623.07, "CLASSE": "04 - Longa", "CD_FAZ": "400548", "TALHOES": "1", "FAZ_tAL": "400548001", "ID_LINHA": 166711 }, "geometry": { "type": "MultiLineString", "coordinates": [ [ [ 401643.151737552136183, 7609038.233974939212203 ], [ 401663.468945414177142, 7609295.368593361228704 ], [ 401666.353363699221518, 7609327.196412557736039 ], [ 401669.691967895487323, 7609373.121648235246539 ], [ 401678.702535296441056, 7609480.737573351711035 ], [ 401680.490662409341894, 7609509.682110814377666 ], [ 401683.759560535021592, 7609544.507109593600035 ], [ 401692.464610600378364, 7609659.132975577376783 ] ] ] } },
{ "type": "Feature", "properties": { "fid": 81.0, "COMPR_M": 622.91, "CLASSE": "04 - Longa", "CD_FAZ": "400548", "TALHOES": "1", "FAZ_tAL": "400548001", "ID_LINHA": 166712 }, "geometry": { "type": "MultiLineString", "coordinates": [ [ [ 401645.865201921435073, 7609037.997387150302529 ], [ 401650.482748804264702, 7609090.698477843776345 ], [ 401653.737491656909697, 7609135.584558734670281 ], [ 401695.59772117016837, 7609658.710841437801719 ] ] ] } },
{ "type": "Feature", "properties": { "fid": 82.0, "COMPR_M": 622.8, "CLASSE": "04 - Longa", "CD_FAZ": "400548", "TALHOES": "1", "FAZ_tAL": "400548001", "ID_LINHA": 166713 }, "geometry": { "type": "MultiLineString", "coordinates": [ [ [ 401648.797071457433049, 7609037.757719385437667 ], [ 401654.029775191040244, 7609097.446578071452677 ], [ 401655.025611727964133, 7609114.417620107531548 ], [ 401672.693860579573084, 7609330.650629265233874 ], [ 401674.252084924315568, 7609354.60627337358892 ], [ 401691.335672396235168, 7609565.910255253314972 ], [ 401693.734671808197163, 7609600.860662415623665 ], [ 401698.656208568136208, 7609658.344967192038894 ] ] ] } },
{ "type": "Feature", "properties": { "fid": 83.0, "COMPR_M": 622.77, "CLASSE": "04 - Longa", "CD_FAZ": "400548", "TALHOES": "1", "FAZ_tAL": "400548001", "ID_LINHA": 166714 }, "geometry": { "type": "MultiLineString", "coordinates": [ [ [ 401651.760632534802426, 7609037.479019713588059 ], [ 401656.837539395259228, 7609095.170690212398767 ], [ 401657.804444321373012, 7609112.153186812065542 ], [ 401666.611332531028893, 7609217.761368820443749 ], [ 401667.599143933155574, 7609234.731218513101339 ], [ 401674.05545320326928, 7609314.477030029520392 ], [ 401675.919986023043748, 7609333.369770940393209 ], [ 401678.937654714798555, 7609376.298195672221482 ], [ 401687.60644881404005, 7609480.882261423394084 ], [ 401688.225613760994747, 7609493.902562441304326 ], [ 401701.596354240493383, 7609658.02999400626868 ] ] ] } },
{ "type": "Feature", "properties": { "fid": 84.0, "COMPR_M": 622.73, "CLASSE": "04 - Longa", "CD_FAZ": "400548", "TALHOES": "1", "FAZ_tAL": "400548001", "ID_LINHA": 166715 }, "geometry": { "type": "MultiLineString", "coordinates": [ [ [ 401654.805488110461738, 7609037.207664325833321 ], [ 401659.602186389267445, 7609095.846488414332271 ], [ 401660.203630793490447, 7609107.838550277985632 ], [ 401669.520598682924174, 7609218.530493075028062 ], [ 401670.965790725895204, 7609241.471358512528241 ], [ 401678.584365956659894, 7609331.073449563235044 ], [ 401680.627760688774288, 7609361.988830130547285 ], [ 401690.413923073210754, 7609479.578499034047127 ], [ 401690.944379351160023, 7609492.640993035398424 ], [ 401695.763248554838356, 7609548.438733022660017 ], [ 401699.817825076403096, 7609603.202479786239564 ], [ 401704.638114036642946, 7609657.711868655867875 ] ] ] } },
{ "type": "Feature", "properties": { "fid": 85.0, "COMPR_M": 622.6, "CLASSE": "04 - Longa", "CD_FAZ": "400548", "TALHOES": "1", "FAZ_tAL": "400548001", "ID_LINHA": 166716 }, "geometry": { "type": "MultiLineString", "coordinates": [ [ [ 401657.75391624373151, 7609036.950379051268101 ], [ 401672.531918262131512, 7609219.239020898938179 ], [ 401673.184702384518459, 7609232.229111097753048 ], [ 401681.828784839075524, 7609334.801711957901716 ], [ 401685.218786775658373, 7609382.68434832431376 ], [ 401693.19373981753597, 7609477.342819767072797 ], [ 401693.908066191943362, 7609492.330587601289153 ], [ 401697.913129989639856, 7609538.193498909473419 ], [ 401704.681630839593709, 7609626.944827159866691 ], [ 401707.530833855038509, 7609657.327302982099354 ] ] ] } },
{ "type": "Feature", "properties": { "fid": 86.0, "COMPR_M": 622.5, "CLASSE": "04 - Longa", "CD_FAZ": "400548", "TALHOES": "1", "FAZ_tAL": "400548001", "ID_LINHA": 166717 }, "geometry": { "type": "MultiLineString", "coordinates": [ [ [ 401660.787737347418442, 7609036.685932277701795 ], [ 401710.464268538111355, 7609656.983503398485482 ] ] ] } },
{ "type": "Feature", "properties": { "fid": 87.0, "COMPR_M": 622.37, "CLASSE": "04 - Longa", "CD_FAZ": "400548", "TALHOES": "1", "FAZ_tAL": "400548001", "ID_LINHA": 166718 }, "geometry": { "type": "MultiLineString", "coordinates": [ [ [ 401663.969389359408524, 7609036.438440479338169 ], [ 401679.702824282168876, 7609238.75981112383306 ], [ 401713.399121294962242, 7609656.639766561798751 ] ] ] } },
{ "type": "Feature", "properties": { "fid": 88.0, "COMPR_M": 622.28, "CLASSE": "04 - Longa", "CD_FAZ": "400548", "TALHOES": "1", "FAZ_tAL": "400548001", "ID_LINHA": 166719 }, "geometry": { "type": "MultiLineString", "coordinates": [ [ [ 401666.969230462680571, 7609036.188448192551732 ], [ 401692.771170402294956, 7609363.09481680765748 ], [ 401700.82637071958743, 7609457.739707391709089 ], [ 401702.296796626469586, 7609481.682672783732414 ], [ 401716.493852175481152, 7609656.297932410612702 ] ] ] } },
{ "type": "Feature", "properties": { "fid": 89.0, "COMPR_M": 622.16, "CLASSE": "04 - Longa", "CD_FAZ": "400548", "TALHOES": "1", "FAZ_tAL": "400548001", "ID_LINHA": 166720 }, "geometry": { "type": "MultiLineString", "coordinates": [ [ [ 401669.868713424715679, 7609035.956521944142878 ], [ 401686.104338771547191, 7609243.242526017129421 ], [ 401703.781953553494532, 7609458.445227805525064 ], [ 401704.620746509928722, 7609475.409434510394931 ], [ 401714.644593856588472, 7609601.010361642576754 ], [ 401719.39496918336954, 7609655.938903158530593 ] ] ] } },
{ "type": "Feature", "properties": { "fid": 90.0, "COMPR_M": 621.99, "CLASSE": "04 - Longa", "CD_FAZ": "400548", "TALHOES": "1", "FAZ_tAL": "400548001", "ID_LINHA": 166721 }, "geometry": { "type": "MultiLineString", "coordinates": [ [ [ 401672.813388555136044, 7609035.704481840133667 ], [ 401700.896260609966703, 7609390.527966810390353 ], [ 401706.689240733394399, 7609457.296362183988094 ], [ 401707.421251549560111, 7609473.264259416610003 ], [ 401713.05237907753326, 7609538.979670915752649 ], [ 401717.244744293915574, 7609596.829893880523741 ], [ 401722.329894566209987, 7609655.511567017994821 ] ] ] } },
{ "type": "Feature", "properties": { "fid": 91.0, "COMPR_M": 621.75, "CLASSE": "04 - Longa", "CD_FAZ": "400548", "TALHOES": "1", "FAZ_tAL": "400548001", "ID_LINHA": 166722 }, "geometry": { "type": "MultiLineString", "coordinates": [ [ [ 401675.795951022650115, 7609035.474838680587709 ], [ 401699.012193865841255, 7609330.463722161017358 ], [ 401709.281241671589669, 7609454.055400399491191 ], [ 401709.888156671193428, 7609467.004048224538565 ], [ 401716.292746882420033, 7609542.757018405012786 ], [ 401719.783447820867877, 7609591.612147014588118 ], [ 401725.387846636236645, 7609655.045146824792027 ] ] ] } },
{ "type": "Feature", "properties": { "fid": 92.0, "COMPR_M": 621.61, "CLASSE": "04 - Longa", "CD_FAZ": "400548", "TALHOES": "1", "FAZ_tAL": "400548001", "ID_LINHA": 166723 }, "geometry": { "type": "MultiLineString", "coordinates": [ [ [ 401678.846253905678168, 7609035.199408889748156 ], [ 401692.364931527408771, 7609202.504371017217636 ], [ 401701.860203250369523, 7609328.126029102131724 ], [ 401728.291042662749533, 7609654.636527456343174 ] ] ] } },
{ "type": "Feature", "properties": { "fid": 93.0, "COMPR_M": 621.49, "CLASSE": "04 - Longa", "CD_FAZ": "400548", "TALHOES": "1", "FAZ_tAL": "400548001", "ID_LINHA": 166724 }, "geometry": { "type": "MultiLineString", "coordinates": [ [ [ 401681.892466545512434, 7609034.965202085673809 ], [ 401702.770907838596031, 7609295.975350992754102 ], [ 401704.847985199885443, 7609327.920090511441231 ], [ 401714.100297835888341, 7609436.505726487375796 ], [ 401716.118076421611477, 7609466.426974486559629 ], [ 401731.225229676463641, 7609654.297976289875805 ] ] ] } },
{ "type": "Feature", "properties": { "fid": 94.0, "COMPR_M": 621.33, "CLASSE": "04 - Longa", "CD_FAZ": "400548", "TALHOES": "1", "FAZ_tAL": "400548001", "ID_LINHA": 166725 }, "geometry": { "type": "MultiLineString", "coordinates": [ [ [ 401684.755136135499924, 7609034.709224171936512 ], [ 401706.002050709736068, 7609298.711945950053632 ], [ 401707.655682297830936, 7609324.665625032037497 ], [ 401716.929982063535135, 7609434.349286180920899 ], [ 401717.586355958657805, 7609447.269294683821499 ], [ 401725.01454750780249, 7609536.93058436177671 ], [ 401726.520057122281287, 7609559.969217365607619 ], [ 401734.38820031407522, 7609653.855934118852019 ] ] ] } },
{ "type": "Feature", "properties": { "fid": 95.0, "COMPR_M": 621.0, "CLASSE": "04 - Longa", "CD_FAZ": "400548", "TALHOES": "1", "FAZ_tAL": "400548001", "ID_LINHA": 166726 }, "geometry": { "type": "MultiLineString", "coordinates": [ [ [ 401687.71005396626424, 7609034.47051758132875 ], [ 401727.867181632260326, 7609534.748486851342022 ], [ 401730.310647030826658, 7609569.671548606827855 ], [ 401737.432970356661826, 7609653.281811905093491 ] ] ] } },
{ "type": "Feature", "properties": { "fid": 96.0, "COMPR_M": 620.79, "CLASSE": "04 - Longa", "CD_FAZ": "400548", "TALHOES": "1", "FAZ_tAL": "400548001", "ID_LINHA": 166727 }, "geometry": { "type": "MultiLineString", "coordinates": [ [ [ 401690.711370025877841, 7609034.228286780416965 ], [ 401722.552671174926218, 7609434.880792572163045 ], [ 401729.039594400208443, 7609511.602408770471811 ], [ 401732.306228370289318, 7609557.444161521270871 ], [ 401740.356441531330347, 7609652.828046040609479 ] ] ] } },
{ "type": "Feature", "properties": { "fid": 97.0, "COMPR_M": 620.54, "CLASSE": "04 - Longa", "CD_FAZ": "400548", "TALHOES": "1", "FAZ_tAL": "400548001", "ID_LINHA": 166728 }, "geometry": { "type": "MultiLineString", "coordinates": [ [ [ 401693.571325778204482, 7609033.985488887876272 ], [ 401731.977228933072183, 7609511.27198948059231 ], [ 401737.257306480081752, 7609582.05250312294811 ], [ 401743.429912752704695, 7609652.307458911091089 ] ] ] } },
{ "type": "Feature", "properties": { "fid": 98.0, "COMPR_M": 620.37, "CLASSE": "04 - Longa", "CD_FAZ": "400548", "TALHOES": "1", "FAZ_tAL": "400548001", "ID_LINHA": 166729 }, "geometry": { "type": "MultiLineString", "coordinates": [ [ [ 401696.525832107523456, 7609033.745191607624292 ], [ 401698.235792635299731, 7609050.524382848292589 ], [ 401707.996865956112742, 7609178.198291866108775 ], [ 401717.890013585798442, 7609297.724393745884299 ], [ 401745.936519073555246, 7609651.93926761392504 ] ] ] } },
{ "type": "Feature", "properties": { "fid": 99.0, "COMPR_M": 620.25, "CLASSE": "04 - Longa", "CD_FAZ": "400548", "TALHOES": "1", "FAZ_tAL": "400548001", "ID_LINHA": 166730 }, "geometry": { "type": "MultiLineString", "coordinates": [ [ [ 401699.507211023999844, 7609033.496071112342179 ], [ 401702.120091086195316, 7609061.290571954101324 ], [ 401732.567397415172309, 7609448.112734138034284 ], [ 401738.805234265164472, 7609521.856612166389823 ], [ 401743.466597667662427, 7609585.661851547658443 ], [ 401746.206166578107513, 7609614.544862806797028 ], [ 401748.745240215852391, 7609651.575478276237845 ] ] ] } },
{ "type": "Feature", "properties": { "fid": 100.0, "COMPR_M": 620.08, "CLASSE": "04 - Longa", "CD_FAZ": "400548", "TALHOES": "1", "FAZ_tAL": "400548001", "ID_LINHA": 166731 }, "geometry": { "type": "MultiLineString", "coordinates": [ [ [ 401702.532105217687786, 7609033.229962821118534 ], [ 401703.506677869940177, 7609041.274292105808854 ], [ 401712.961943499918561, 7609159.745596959255636 ], [ 401715.053725770791061, 7609191.673244105651975 ], [ 401732.961044156516436, 7609410.07286904938519 ], [ 401751.7404047222808, 7609651.133807523176074 ] ] ] } },
{ "type": "Feature", "properties": { "fid": 101.0, "COMPR_M": 619.59, "CLASSE": "04 - Longa", "CD_FAZ": "400548", "TALHOES": "1", "FAZ_tAL": "400548001", "ID_LINHA": 166732 }, "geometry": { "type": "MultiLineString", "coordinates": [ [ [ 401754.811128575762268, 7609650.589691529050469 ], [ 401705.752554569859058, 7609033.144856043159962 ] ] ] } },
{ "type": "Feature", "properties": { "fid": 102.0, "COMPR_M": 619.39, "CLASSE": "04 - Longa", "CD_FAZ": "400548", "TALHOES": "1", "FAZ_tAL": "400548001", "ID_LINHA": 166733 }, "geometry": { "type": "MultiLineString", "coordinates": [ [ [ 401708.56799041503109, 7609032.961585450917482 ], [ 401710.248410783940926, 7609048.86641445197165 ], [ 401731.137453500065021, 7609316.441761773079634 ], [ 401747.399538703379221, 7609516.372274045832455 ], [ 401752.64678775210632, 7609587.155612414702773 ], [ 401757.125502746843267, 7609643.004966592416167 ], [ 401758.095484427292831, 7609650.156101793050766 ] ] ] } },
{ "type": "Feature", "properties": { "fid": 103.0, "COMPR_M": 619.01, "CLASSE": "04 - Longa", "CD_FAZ": "400548", "TALHOES": "1", "FAZ_tAL": "400548001", "ID_LINHA": 166734 }, "geometry": { "type": "MultiLineString", "coordinates": [ [ [ 401711.588312453066465, 7609032.776328144595027 ], [ 401713.179423224413767, 7609047.56861543096602 ], [ 401760.654602547932882, 7609649.642596052028239 ] ] ] } },
{ "type": "Feature", "properties": { "fid": 104.0, "COMPR_M": 619.1, "CLASSE": "04 - Longa", "CD_FAZ": "400548", "TALHOES": "1", "FAZ_tAL": "400548001", "ID_LINHA": 166735 }, "geometry": { "type": "MultiLineString", "coordinates": [ [ [ 401714.591926160792354, 7609032.609569932334125 ], [ 401716.12262473203009, 7609047.41181330755353 ], [ 401721.319898000860121, 7609117.222866345196962 ], [ 401752.537034554756247, 7609506.066231138072908 ], [ 401758.715391759877093, 7609589.699561954475939 ], [ 401761.657032285176683, 7609619.560271851718426 ], [ 401763.310923194163479, 7609649.578166461549699 ] ] ] } },
{ "type": "Feature", "properties": { "fid": 105.0, "COMPR_M": 618.66, "CLASSE": "04 - Longa", "CD_FAZ": "400548", "TALHOES": "1", "FAZ_tAL": "400548001", "ID_LINHA": 166736 }, "geometry": { "type": "MultiLineString", "coordinates": [ [ [ 401717.640997220005374, 7609032.4320896146819 ], [ 401727.827004088670947, 7609155.951918032951653 ], [ 401731.699481541290879, 7609208.808081990107894 ], [ 401755.342465583526064, 7609503.853189983405173 ], [ 401761.653362684301101, 7609588.611488858237863 ], [ 401764.329060874413699, 7609613.583636302500963 ], [ 401766.202673721476458, 7609648.950751874595881 ] ] ] } },
{ "type": "Feature", "properties": { "fid": 106.0, "COMPR_M": 618.17, "CLASSE": "04 - Longa", "CD_FAZ": "400548", "TALHOES": "1", "FAZ_tAL": "400548001", "ID_LINHA": 166737 }, "geometry": { "type": "MultiLineString", "coordinates": [ [ [ 401720.726382705848664, 7609032.430231492035091 ], [ 401757.291662524861749, 7609490.852134396322072 ], [ 401763.656199456658214, 7609576.603255508467555 ], [ 401765.473317029769532, 7609598.534713229164481 ], [ 401767.159447759739123, 7609612.438835566863418 ], [ 401769.156832818698604, 7609648.479363432154059 ] ] ] } },
{ "type": "Feature", "properties": { "fid": 107.0, "COMPR_M": 617.73, "CLASSE": "04 - Longa", "CD_FAZ": "400548", "TALHOES": "1", "FAZ_tAL": "400548001", "ID_LINHA": 166738 }, "geometry": { "type": "MultiLineString", "coordinates": [ [ [ 401723.522452951758169, 7609032.405143277719617 ], [ 401734.24283534794813, 7609161.994966412894428 ], [ 401745.613949981983751, 7609309.548340794630349 ], [ 401762.266719443723559, 7609514.754240592941642 ], [ 401767.595707652275451, 7609588.665612274780869 ], [ 401770.104518681997433, 7609612.531414967030287 ], [ 401772.177548024919815, 7609647.994606772437692 ] ] ] } },
{ "type": "Feature", "properties": { "fid": 108.0, "COMPR_M": 617.26, "CLASSE": "04 - Longa", "CD_FAZ": "400548", "TALHOES": "1", "FAZ_tAL": "400548001", "ID_LINHA": 166739 }, "geometry": { "type": "MultiLineString", "coordinates": [ [ [ 401726.457357483508531, 7609032.357644999399781 ], [ 401736.558822507213335, 7609152.96243411116302 ], [ 401740.182154433103278, 7609203.832047887146473 ], [ 401764.362524159660097, 7609503.847668960690498 ], [ 401770.659176076413132, 7609588.511552156880498 ], [ 401774.213534621929284, 7609627.438451886177063 ], [ 401775.368104289635085, 7609647.47170568164438 ] ] ] } },
{ "type": "Feature", "properties": { "fid": 109.0, "COMPR_M": 616.76, "CLASSE": "04 - Longa", "CD_FAZ": "400548", "TALHOES": "1", "FAZ_tAL": "400548001", "ID_LINHA": 166740 }, "geometry": { "type": "MultiLineString", "coordinates": [ [ [ 401729.580965492757969, 7609032.325382954441011 ], [ 401739.991219728661235, 7609158.846519339829683 ], [ 401778.429417400737293, 7609646.947278942912817 ] ] ] } },
{ "type": "Feature", "properties": { "fid": 110.0, "COMPR_M": 615.97, "CLASSE": "04 - Longa", "CD_FAZ": "400548", "TALHOES": "1", "FAZ_tAL": "400548001", "ID_LINHA": 166741 }, "geometry": { "type": "MultiLineString", "coordinates": [ [ [ 401781.35490354540525, 7609646.270553815178573 ], [ 401778.865803753491491, 7609610.291259664110839 ], [ 401773.221800397033803, 7609545.556862575933337 ], [ 401766.347862468741369, 7609454.001823770813644 ], [ 401763.164340771036223, 7609418.151548648253083 ], [ 401762.118164264771622, 7609400.18102472089231 ], [ 401732.564137009088881, 7609032.458714181557298 ] ] ] } },
{ "type": "Feature", "properties": { "fid": 111.0, "COMPR_M": 615.11, "CLASSE": "04 - Longa", "CD_FAZ": "400548", "TALHOES": "1", "FAZ_tAL": "400548001", "ID_LINHA": 166742 }, "geometry": { "type": "MultiLineString", "coordinates": [ [ [ 401735.777970393188298, 7609032.656004257500172 ], [ 401750.945115075388458, 7609220.945412315428257 ], [ 401757.064798970182892, 7609302.709836011752486 ], [ 401764.826491392916068, 7609394.387287210673094 ], [ 401773.792532962514088, 7609512.246450196951628 ], [ 401775.217631734965835, 7609524.966733276844025 ], [ 401779.375843927264214, 7609583.781245068646967 ], [ 401783.231972113717347, 7609625.861829513683915 ], [ 401784.283462293387856, 7609645.627863094210625 ] ] ] } },
{ "type": "Feature", "properties": { "fid": 112.0, "COMPR_M": 614.2, "CLASSE": "04 - Longa", "CD_FAZ": "400548", "TALHOES": "1", "FAZ_tAL": "400548001", "ID_LINHA": 166743 }, "geometry": { "type": "MultiLineString", "coordinates": [ [ [ 401738.901239563710988, 7609032.846791047602892 ], [ 401787.231967532075942, 7609644.933059779927135 ] ] ] } },
{ "type": "Feature", "properties": { "fid": 113.0, "COMPR_M": 613.09, "CLASSE": "04 - Longa", "CD_FAZ": "400548", "TALHOES": "1", "FAZ_tAL": "400548001", "ID_LINHA": 166744 }, "geometry": { "type": "MultiLineString", "coordinates": [ [ [ 401741.847100154205691, 7609033.215881482698023 ], [ 401759.927411603857763, 7609258.664138246327639 ], [ 401762.297602331556845, 7609293.315814454108477 ], [ 401768.551260293286759, 7609366.305950060486794 ], [ 401790.1818039555219, 7609644.175941137596965 ] ] ] } },
{ "type": "Feature", "properties": { "fid": 114.0, "COMPR_M": 611.09, "CLASSE": "04 - Longa", "CD_FAZ": "400548", "TALHOES": "1", "FAZ_tAL": "400548001", "ID_LINHA": 166745 }, "geometry": { "type": "MultiLineString", "coordinates": [ [ [ 401744.812704713840503, 7609033.777921872213483 ], [ 401763.496328566106968, 7609265.591299428604543 ], [ 401764.843933526717592, 7609288.547759423032403 ], [ 401771.666796091769356, 7609367.56970620341599 ], [ 401778.927731947449502, 7609463.95891563501209 ], [ 401780.873462244868279, 7609484.192242647521198 ], [ 401781.967729938798584, 7609503.839149290695786 ], [ 401783.303874133212958, 7609515.785744708031416 ], [ 401784.408102395827882, 7609534.727252911776304 ], [ 401790.408401717315428, 7609609.47021016292274 ], [ 401791.465559551375918, 7609618.429734727367759 ], [ 401793.124623182229698, 7609642.718971631489694 ] ] ] } },
{ "type": "Feature", "properties": { "fid": 115.0, "COMPR_M": 607.76, "CLASSE": "04 - Longa", "CD_FAZ": "400548", "TALHOES": "1", "FAZ_tAL": "400548001", "ID_LINHA": 166746 }, "geometry": { "type": "MultiLineString", "coordinates": [ [ [ 401795.980580294679385, 7609640.84510263800621 ], [ 401794.312753084872384, 7609616.513335663825274 ], [ 401792.952150832803454, 7609604.250702871009707 ], [ 401791.520914443186484, 7609582.645275132730603 ], [ 401787.279026293719653, 7609533.853597891516984 ], [ 401785.809848104545381, 7609507.898180168122053 ], [ 401770.210754780389834, 7609318.605988372117281 ], [ 401764.794747498701327, 7609244.807642415165901 ], [ 401760.944340298359748, 7609203.024166963994503 ], [ 401760.173288674559444, 7609189.012571299448609 ], [ 401758.406923878821544, 7609170.73175383079797 ], [ 401747.927741293853614, 7609035.233591047115624 ] ] ] } }
]
}
