{
"type": "FeatureCollection",
"name": "400508",
"crs": { "type": "name", "properties": { "name": "urn:ogc:def:crs:EPSG::32722" } },
"xy_coordinate_resolution": 1e-15,
"features": [
{ "type": "Feature", "properties": { "fid": 1.0, "COMPR_M": 177.24, "CLASSE": "02 - Curta", "CD_FAZ": "400508", "TALHOES": "1", "FAZ_tAL": "400508001", "ID_LINHA": 157619 }, "geometry": { "type": "MultiLineString", "coordinates": [ [ [ 419830.637676207930781, 7646606.769796969369054 ], [ 419996.726358500192873, 7646545.043170899152756 ] ] ] } },
{ "type": "Feature", "properties": { "fid": 5.0, "COMPR_M": 52.06, "CLASSE": "01 - Muito curta", "CD_FAZ": "400508", "TALHOES": "1", "FAZ_tAL": "400508001", "ID_LINHA": 157620 }, "geometry": { "type": "MultiLineString", "coordinates": [ [ [ 419937.276734996587038, 7646544.734145293012261 ], [ 419986.056100341200363, 7646526.60536250565201 ] ] ] } },
{ "type": "Feature", "properties": { "fid": 6.0, "COMPR_M": 68.75, "CLASSE": "01 - Muito curta", "CD_FAZ": "400508", "TALHOES": "1", "FAZ_tAL": "400508001", "ID_LINHA": 157621 }, "geometry": { "type": "MultiLineString", "coordinates": [ [ [ 419923.160884858458303, 7646553.180766207166016 ], [ 419987.580422936589457, 7646529.23933513648808 ] ] ] } },
{ "type": "Feature", "properties": { "fid": 7.0, "COMPR_M": 86.02, "CLASSE": "01 - Muito curta", "CD_FAZ": "400508", "TALHOES": "1", "FAZ_tAL": "400508001", "ID_LINHA": 157622 }, "geometry": { "type": "MultiLineString", "coordinates": [ [ [ 419908.49576332513243, 7646561.831523059867322 ], [ 419989.104745531280059, 7646531.873307762667537 ] ] ] } },
{ "type": "Feature", "properties": { "fid": 8.0, "COMPR_M": 103.32, "CLASSE": "02 - Curta", "CD_FAZ": "400508", "TALHOES": "1", "FAZ_tAL": "400508001", "ID_LINHA": 157623 }, "geometry": { "type": "MultiLineString", "coordinates": [ [ [ 419893.813648294075392, 7646570.488595522940159 ], [ 419990.629068124573678, 7646534.507280390709639 ] ] ] } },
{ "type": "Feature", "properties": { "fid": 9.0, "COMPR_M": 121.39, "CLASSE": "02 - Curta", "CD_FAZ": "400508", "TALHOES": "1", "FAZ_tAL": "400508001", "ID_LINHA": 157624 }, "geometry": { "type": "MultiLineString", "coordinates": [ [ [ 419878.40010131202871, 7646579.417503647506237 ], [ 419992.153390717750881, 7646537.141253016889095 ] ] ] } },
{ "type": "Feature", "properties": { "fid": 10.0, "COMPR_M": 140.59, "CLASSE": "02 - Curta", "CD_FAZ": "400508", "TALHOES": "1", "FAZ_tAL": "400508001", "ID_LINHA": 157625 }, "geometry": { "type": "MultiLineString", "coordinates": [ [ [ 419861.937488847819623, 7646588.736295488663018 ], [ 419993.677713312907144, 7646539.775225642137229 ] ] ] } },
{ "type": "Feature", "properties": { "fid": 11.0, "COMPR_M": 160.15, "CLASSE": "02 - Curta", "CD_FAZ": "400508", "TALHOES": "1", "FAZ_tAL": "400508001", "ID_LINHA": 157626 }, "geometry": { "type": "MultiLineString", "coordinates": [ [ [ 419845.133875912695657, 7646598.181819673627615 ], [ 419995.202035906550009, 7646542.409198272973299 ] ] ] } },
{ "type": "Feature", "properties": { "fid": 19.0, "COMPR_M": 116.48, "CLASSE": "02 - Curta", "CD_FAZ": "400508", "TALHOES": "1", "FAZ_tAL": "400508001", "ID_LINHA": 157627 }, "geometry": { "type": "MultiLineString", "coordinates": [ [ [ 419791.721742565452587, 7646662.839153970591724 ], [ 419900.865520014776848, 7646622.276021998375654 ] ] ] } },
{ "type": "Feature", "properties": { "fid": 20.0, "COMPR_M": 126.42, "CLASSE": "02 - Curta", "CD_FAZ": "400508", "TALHOES": "1", "FAZ_tAL": "400508001", "ID_LINHA": 157628 }, "geometry": { "type": "MultiLineString", "coordinates": [ [ [ 419792.502584543894045, 7646659.348470157012343 ], [ 419910.964840541768353, 7646615.322138692252338 ] ] ] } },
{ "type": "Feature", "properties": { "fid": 21.0, "COMPR_M": 136.16, "CLASSE": "02 - Curta", "CD_FAZ": "400508", "TALHOES": "1", "FAZ_tAL": "400508001", "ID_LINHA": 157629 }, "geometry": { "type": "MultiLineString", "coordinates": [ [ [ 419793.471472533536144, 7646655.787899309769273 ], [ 419921.064161067362875, 7646608.368255386129022 ] ] ] } },
{ "type": "Feature", "properties": { "fid": 22.0, "COMPR_M": 145.62, "CLASSE": "02 - Curta", "CD_FAZ": "400508", "TALHOES": "1", "FAZ_tAL": "400508001", "ID_LINHA": 157630 }, "geometry": { "type": "MultiLineString", "coordinates": [ [ [ 419794.712014029209968, 7646652.126368817873299 ], [ 419931.163481593015604, 7646601.414372079074383 ] ] ] } },
{ "type": "Feature", "properties": { "fid": 23.0, "COMPR_M": 154.67, "CLASSE": "02 - Curta", "CD_FAZ": "400508", "TALHOES": "1", "FAZ_tAL": "400508001", "ID_LINHA": 157631 }, "geometry": { "type": "MultiLineString", "coordinates": [ [ [ 419796.328367569542024, 7646648.325168306007981 ], [ 419941.262802117969841, 7646594.460488772951066 ] ] ] } },
{ "type": "Feature", "properties": { "fid": 24.0, "COMPR_M": 163.27, "CLASSE": "02 - Curta", "CD_FAZ": "400508", "TALHOES": "1", "FAZ_tAL": "400508001", "ID_LINHA": 157632 }, "geometry": { "type": "MultiLineString", "coordinates": [ [ [ 419798.364767085178755, 7646644.36785829719156 ], [ 419951.362122648162767, 7646587.506605462171137 ] ] ] } },
{ "type": "Feature", "properties": { "fid": 25.0, "COMPR_M": 171.44, "CLASSE": "02 - Curta", "CD_FAZ": "400508", "TALHOES": "1", "FAZ_tAL": "400508001", "ID_LINHA": 157633 }, "geometry": { "type": "MultiLineString", "coordinates": [ [ [ 419800.811272580176592, 7646640.258132972754538 ], [ 419961.46144317172002, 7646580.552722157910466 ] ] ] } },
{ "type": "Feature", "properties": { "fid": 26.0, "COMPR_M": 178.89, "CLASSE": "02 - Curta", "CD_FAZ": "400508", "TALHOES": "1", "FAZ_tAL": "400508001", "ID_LINHA": 157634 }, "geometry": { "type": "MultiLineString", "coordinates": [ [ [ 419803.934615532227326, 7646635.896861959248781 ], [ 419971.560763700515963, 7646573.598838847130537 ] ] ] } },
{ "type": "Feature", "properties": { "fid": 27.0, "COMPR_M": 185.28, "CLASSE": "02 - Curta", "CD_FAZ": "400508", "TALHOES": "1", "FAZ_tAL": "400508001", "ID_LINHA": 157635 }, "geometry": { "type": "MultiLineString", "coordinates": [ [ [ 419808.042011472862214, 7646631.169869028031826 ], [ 419981.66008422523737, 7646566.644955543801188 ] ] ] } },
{ "type": "Feature", "properties": { "fid": 28.0, "COMPR_M": 191.36, "CLASSE": "02 - Curta", "CD_FAZ": "400508", "TALHOES": "1", "FAZ_tAL": "400508001", "ID_LINHA": 157636 }, "geometry": { "type": "MultiLineString", "coordinates": [ [ [ 419812.43969123106217, 7646626.334992522373796 ], [ 419991.759404753160197, 7646559.691072234883904 ] ] ] } },
{ "type": "Feature", "properties": { "fid": 29.0, "COMPR_M": 197.24, "CLASSE": "02 - Curta", "CD_FAZ": "400508", "TALHOES": "1", "FAZ_tAL": "400508001", "ID_LINHA": 157637 }, "geometry": { "type": "MultiLineString", "coordinates": [ [ [ 419816.956609339511488, 7646621.455801251344383 ], [ 420001.779704509244766, 7646552.766556886956096 ] ] ] } },
{ "type": "Feature", "properties": { "fid": 30.0, "COMPR_M": 190.08, "CLASSE": "02 - Curta", "CD_FAZ": "400508", "TALHOES": "1", "FAZ_tAL": "400508001", "ID_LINHA": 157638 }, "geometry": { "type": "MultiLineString", "coordinates": [ [ [ 419821.654519428848289, 7646616.509344566613436 ], [ 419999.77500368776964, 7646550.311116151511669 ] ] ] } },
{ "type": "Feature", "properties": { "fid": 31.0, "COMPR_M": 183.61, "CLASSE": "02 - Curta", "CD_FAZ": "400508", "TALHOES": "1", "FAZ_tAL": "400508001", "ID_LINHA": 157639 }, "geometry": { "type": "MultiLineString", "coordinates": [ [ [ 419826.197623532905709, 7646611.620421308092773 ], [ 419998.250681094999891, 7646547.677143527194858 ] ] ] } },
{ "type": "Feature", "properties": { "fid": 42.0, "COMPR_M": 36.57, "CLASSE": "01 - Muito curta", "CD_FAZ": "400508", "TALHOES": "2", "FAZ_tAL": "400508002", "ID_LINHA": 157650 }, "geometry": { "type": "MultiLineString", "coordinates": [ [ [ 419775.921874661929905, 7646418.939687358215451 ], [ 419761.092529051995371, 7646412.596247561275959 ], [ 419742.987769447965547, 7646403.140106303617358 ] ] ] } },
{ "type": "Feature", "properties": { "fid": 43.0, "COMPR_M": 17.67, "CLASSE": "01 - Muito curta", "CD_FAZ": "400508", "TALHOES": "2", "FAZ_tAL": "400508002", "ID_LINHA": 157651 }, "geometry": { "type": "MultiLineString", "coordinates": [ [ [ 419766.535184664069675, 7646418.338796043768525 ], [ 419750.602507291128859, 7646410.724788412451744 ] ] ] } },
{ "type": "Feature", "properties": { "fid": 44.0, "COMPR_M": 17.5, "CLASSE": "01 - Muito curta", "CD_FAZ": "400508", "TALHOES": "2", "FAZ_tAL": "400508002", "ID_LINHA": 157652 }, "geometry": { "type": "MultiLineString", "coordinates": [ [ [ 419570.857342215313111, 7646360.447345748543739 ], [ 419567.565807415696327, 7646353.443914592266083 ], [ 419562.474015084560961, 7646345.121916204690933 ] ] ] } },
{ "type": "Feature", "properties": { "fid": 53.0, "COMPR_M": 67.48, "CLASSE": "01 - Muito curta", "CD_FAZ": "400508", "TALHOES": "2", "FAZ_tAL": "400508002", "ID_LINHA": 157655 }, "geometry": { "type": "MultiLineString", "coordinates": [ [ [ 419811.89636996993795, 7646598.782935435883701 ], [ 419793.567933768208604, 7646604.422965209931135 ], [ 419770.983262777794152, 7646609.666046627797186 ], [ 419758.708120151946787, 7646611.852599998004735 ], [ 419746.136962299817242, 7646612.895087085664272 ] ] ] } },
{ "type": "Feature", "properties": { "fid": 55.0, "COMPR_M": 120.19, "CLASSE": "02 - Curta", "CD_FAZ": "400508", "TALHOES": "2", "FAZ_tAL": "400508002", "ID_LINHA": 157656 }, "geometry": { "type": "MultiLineString", "coordinates": [ [ [ 419822.458334775641561, 7646591.768561122007668 ], [ 419806.563422441657167, 7646597.409342310391366 ], [ 419791.293212088756263, 7646601.920577995479107 ], [ 419768.448463037319016, 7646607.14153703302145 ], [ 419755.399123610812239, 7646609.227330071851611 ], [ 419741.738816195342224, 7646609.993351323530078 ], [ 419730.264398692001123, 7646609.599560480564833 ], [ 419716.299016329227015, 7646608.037555907852948 ], [ 419705.046474292408675, 7646605.756404630839825 ] ] ] } },
{ "type": "Feature", "properties": { "fid": 56.0, "COMPR_M": 135.79, "CLASSE": "02 - Curta", "CD_FAZ": "400508", "TALHOES": "2", "FAZ_tAL": "400508002", "ID_LINHA": 157657 }, "geometry": { "type": "MultiLineString", "coordinates": [ [ [ 419834.952116124972235, 7646583.471235712058842 ], [ 419815.179733648546971, 7646591.268338678404689 ], [ 419796.325170396536123, 7646597.429444593377411 ], [ 419769.696276187547483, 7646603.805626928806305 ], [ 419757.925996333942749, 7646605.903390199877322 ], [ 419744.266922922572121, 7646606.955487348139286 ], [ 419730.478582767536864, 7646606.607160042971373 ], [ 419716.765304491156712, 7646605.073871722444892 ], [ 419703.073805993306451, 7646602.150200487114489 ] ] ] } },
{ "type": "Feature", "properties": { "fid": 57.0, "COMPR_M": 153.27, "CLASSE": "02 - Curta", "CD_FAZ": "400508", "TALHOES": "2", "FAZ_tAL": "400508002", "ID_LINHA": 157658 }, "geometry": { "type": "MultiLineString", "coordinates": [ [ [ 419849.00325295701623, 7646574.139644944109023 ], [ 419823.447355645301286, 7646584.953254984691739 ], [ 419802.167667327274103, 7646592.523418851196766 ], [ 419785.319796956377104, 7646597.224083118140697 ], [ 419760.280650141125079, 7646602.535462868399918 ], [ 419746.743838944938034, 7646603.86909597646445 ], [ 419730.692766843247227, 7646603.614759599789977 ], [ 419714.616664901725017, 7646601.67271070741117 ], [ 419701.07012961152941, 7646598.487310953438282 ] ] ] } },
{ "type": "Feature", "properties": { "fid": 58.0, "COMPR_M": 174.2, "CLASSE": "02 - Curta", "CD_FAZ": "400508", "TALHOES": "2", "FAZ_tAL": "400508002", "ID_LINHA": 157659 }, "geometry": { "type": "MultiLineString", "coordinates": [ [ [ 419865.914376758097205, 7646562.908689851872623 ], [ 419855.06327848136425, 7646568.219512788578868 ], [ 419832.432118557277136, 7646578.023348266258836 ], [ 419810.841540965600871, 7646586.444996608421206 ], [ 419790.46683026489336, 7646592.830520138144493 ], [ 419764.589814884180669, 7646598.737568494863808 ], [ 419749.16011325729778, 7646600.733522105030715 ], [ 419732.861310784937814, 7646600.750261313281953 ], [ 419715.144894057011697, 7646598.719389239326119 ], [ 419699.023628579569049, 7646594.746134344488382 ] ] ] } },
{ "type": "Feature", "properties": { "fid": 59.0, "COMPR_M": 201.54, "CLASSE": "02 - Curta", "CD_FAZ": "400508", "TALHOES": "2", "FAZ_tAL": "400508002", "ID_LINHA": 157660 }, "geometry": { "type": "MultiLineString", "coordinates": [ [ [ 419888.145176999270916, 7646548.144850259646773 ], [ 419856.489620951644611, 7646564.258989881724119 ], [ 419825.809446938510519, 7646577.543180577456951 ], [ 419801.598142721282784, 7646586.405619899742305 ], [ 419781.24485872418154, 7646592.007634319365025 ], [ 419756.752810608013533, 7646596.979575507342815 ], [ 419748.966288528172299, 7646597.739626713097095 ], [ 419739.370784983446356, 7646597.98459929972887 ], [ 419729.302864425699227, 7646597.488655734807253 ], [ 419718.164168974617496, 7646596.182819167152047 ], [ 419708.315718878875487, 7646594.20528064109385 ], [ 419696.929015475674532, 7646590.917004808783531 ] ] ] } },
{ "type": "Feature", "properties": { "fid": 61.0, "COMPR_M": 126.55, "CLASSE": "02 - Curta", "CD_FAZ": "400508", "TALHOES": "2", "FAZ_tAL": "400508002", "ID_LINHA": 157662 }, "geometry": { "type": "MultiLineString", "coordinates": [ [ [ 419598.589906642620917, 7646411.144814122468233 ], [ 419591.503962046816014, 7646393.068158021196723 ], [ 419580.095668979454786, 7646359.391258560121059 ], [ 419575.451733838475775, 7646349.106506476178765 ], [ 419569.326627256348729, 7646339.169476700015366 ], [ 419559.053981197648682, 7646324.521939290687442 ], [ 419549.664383927825838, 7646312.903455910272896 ], [ 419538.682542674825527, 7646301.629096657037735 ] ] ] } },
{ "type": "Feature", "properties": { "fid": 68.0, "COMPR_M": 67.48, "CLASSE": "01 - Muito curta", "CD_FAZ": "400508", "TALHOES": "2", "FAZ_tAL": "400508002", "ID_LINHA": 157663 }, "geometry": { "type": "MultiLineString", "coordinates": [ [ [ 419811.896369968599174, 7646598.782935435883701 ], [ 419793.567933766928036, 7646604.422965209931135 ], [ 419770.983262766560074, 7646609.666046632453799 ], [ 419758.708120157942176, 7646611.852599998004735 ], [ 419746.136962299817242, 7646612.895087085664272 ] ] ] } },
{ "type": "Feature", "properties": { "fid": 70.0, "COMPR_M": 120.19, "CLASSE": "02 - Curta", "CD_FAZ": "400508", "TALHOES": "2", "FAZ_tAL": "400508002", "ID_LINHA": 157664 }, "geometry": { "type": "MultiLineString", "coordinates": [ [ [ 419822.458334778319113, 7646591.768561120145023 ], [ 419806.563422435021494, 7646597.409342315979302 ], [ 419791.293212090095039, 7646601.920577995479107 ], [ 419768.448463038657792, 7646607.14153703302145 ], [ 419755.399123606854118, 7646609.227330071851611 ], [ 419741.738816190045327, 7646609.993351323530078 ], [ 419730.264398694678675, 7646609.599560478702188 ], [ 419716.299016329227015, 7646608.037555907852948 ], [ 419705.046474291768391, 7646605.75640463270247 ] ] ] } },
{ "type": "Feature", "properties": { "fid": 71.0, "COMPR_M": 135.79, "CLASSE": "02 - Curta", "CD_FAZ": "400508", "TALHOES": "2", "FAZ_tAL": "400508002", "ID_LINHA": 157665 }, "geometry": { "type": "MultiLineString", "coordinates": [ [ [ 419834.952116126252804, 7646583.471235712058842 ], [ 419815.179733646567911, 7646591.268338678404689 ], [ 419796.325170403113589, 7646597.429444593377411 ], [ 419769.696276176255196, 7646603.80562693439424 ], [ 419757.925996340520214, 7646605.903390199877322 ], [ 419744.266922925889958, 7646606.955487348139286 ], [ 419730.478582770796493, 7646606.607160042971373 ], [ 419716.765304491156712, 7646605.073871722444892 ], [ 419703.073805993306451, 7646602.150200487114489 ] ] ] } },
{ "type": "Feature", "properties": { "fid": 72.0, "COMPR_M": 153.27, "CLASSE": "02 - Curta", "CD_FAZ": "400508", "TALHOES": "2", "FAZ_tAL": "400508002", "ID_LINHA": 157666 }, "geometry": { "type": "MultiLineString", "coordinates": [ [ [ 419849.00325295899529, 7646574.139644944109023 ], [ 419823.447355634707492, 7646584.953254988417029 ], [ 419802.167667327274103, 7646592.523418851196766 ], [ 419785.319796953059267, 7646597.224083120934665 ], [ 419760.280650143802632, 7646602.535462863743305 ], [ 419746.743838950875215, 7646603.869095975533128 ], [ 419730.692766846506856, 7646603.614759603515267 ], [ 419714.616664901725017, 7646601.67271070741117 ], [ 419701.07012961152941, 7646598.487310953438282 ] ] ] } },
{ "type": "Feature", "properties": { "fid": 73.0, "COMPR_M": 174.2, "CLASSE": "02 - Curta", "CD_FAZ": "400508", "TALHOES": "2", "FAZ_tAL": "400508002", "ID_LINHA": 157667 }, "geometry": { "type": "MultiLineString", "coordinates": [ [ [ 419865.914376756118145, 7646562.908689853735268 ], [ 419855.063278479326982, 7646568.219512788578868 ], [ 419832.432118554657791, 7646578.023348266258836 ], [ 419810.841540959023405, 7646586.444996609352529 ], [ 419790.46683026489336, 7646592.830520138144493 ], [ 419764.589814886159729, 7646598.737568494863808 ], [ 419749.160113252641167, 7646600.733522104099393 ], [ 419732.861310784937814, 7646600.750261313281953 ], [ 419715.144894057011697, 7646598.719389239326119 ], [ 419699.023628579569049, 7646594.746134345419705 ] ] ] } },
{ "type": "Feature", "properties": { "fid": 74.0, "COMPR_M": 201.54, "CLASSE": "02 - Curta", "CD_FAZ": "400508", "TALHOES": "2", "FAZ_tAL": "400508002", "ID_LINHA": 157668 }, "geometry": { "type": "MultiLineString", "coordinates": [ [ [ 419888.145176988677122, 7646548.144850267097354 ], [ 419856.489620953623671, 7646564.258989881724119 ], [ 419825.809446935832966, 7646577.543180579319596 ], [ 419801.598142717964947, 7646586.405619900673628 ], [ 419781.24485872418154, 7646592.007634319365025 ], [ 419756.752810613950714, 7646596.979575507342815 ], [ 419748.96628852491267, 7646597.739626713097095 ], [ 419739.370784986705985, 7646597.98459929972887 ], [ 419729.302864426397718, 7646597.488655734807253 ], [ 419718.164168974617496, 7646596.182819170877337 ], [ 419708.315718878875487, 7646594.20528064109385 ], [ 419696.929015475674532, 7646590.917004808783531 ] ] ] } },
{ "type": "Feature", "properties": { "fid": 75.0, "COMPR_M": 294.8, "CLASSE": "02 - Curta", "CD_FAZ": "400508", "TALHOES": "2", "FAZ_tAL": "400508002", "ID_LINHA": 157669 }, "geometry": { "type": "MultiLineString", "coordinates": [ [ [ 419963.307893360732123, 7646493.940923197194934 ], [ 419911.218884675123263, 7646530.633909665048122 ], [ 419891.226172609312925, 7646543.038928301073611 ], [ 419852.587454851833172, 7646562.754110207781196 ], [ 419824.673473552393261, 7646574.76656496617943 ], [ 419806.577413355640601, 7646581.577888512983918 ], [ 419788.916278514021542, 7646587.034297600388527 ], [ 419767.122302998439409, 7646592.084787531755865 ], [ 419756.361748704337515, 7646594.004970608279109 ], [ 419746.346211239346303, 7646594.877430448308587 ], [ 419733.212747459183447, 7646594.760425694286823 ], [ 419718.630457136197947, 7646593.219134983606637 ], [ 419707.043255880067591, 7646590.789712278172374 ], [ 419694.775917074584868, 7646586.980959208682179 ] ] ] } },
{ "type": "Feature", "properties": { "fid": 80.0, "COMPR_M": 59.58, "CLASSE": "01 - Muito curta", "CD_FAZ": "400508", "TALHOES": "2", "FAZ_tAL": "400508002", "ID_LINHA": 157674 }, "geometry": { "type": "MultiLineString", "coordinates": [ [ [ 419579.489037082297727, 7646376.226812470704317 ], [ 419574.023707001178991, 7646360.303581147454679 ], [ 419570.194449556758627, 7646351.998111886903644 ], [ 419561.664965738542378, 7646338.568611051887274 ], [ 419551.140811569057405, 7646324.403863665647805 ] ] ] } },
{ "type": "Feature", "properties": { "fid": 82.0, "COMPR_M": 91.76, "CLASSE": "01 - Muito curta", "CD_FAZ": "400508", "TALHOES": "2", "FAZ_tAL": "400508002", "ID_LINHA": 157676 }, "geometry": { "type": "MultiLineString", "coordinates": [ [ [ 419587.633038150670473, 7646391.114733768627048 ], [ 419577.763106074882671, 7646361.736889992840588 ], [ 419572.823091697646305, 7646350.55230918340385 ], [ 419567.252010717871599, 7646341.468380473554134 ], [ 419557.341214463871438, 7646327.2359015699476 ], [ 419547.402797405142337, 7646314.875149685889482 ], [ 419544.12867539137369, 7646311.585086913779378 ] ] ] } },
{ "type": "Feature", "properties": { "fid": 84.0, "COMPR_M": 176.62, "CLASSE": "02 - Curta", "CD_FAZ": "400508", "TALHOES": "2", "FAZ_tAL": "400508002", "ID_LINHA": 157678 }, "geometry": { "type": "MultiLineString", "coordinates": [ [ [ 419615.656436048564501, 7646442.343870278447866 ], [ 419597.927496435295325, 7646401.657992197200656 ], [ 419583.152392900548875, 7646359.004896618425846 ], [ 419578.080375979247037, 7646347.660703768953681 ], [ 419571.823055416811258, 7646337.50578473880887 ], [ 419561.417247127275914, 7646322.673869809135795 ], [ 419551.913274154881947, 7646310.917709226720035 ], [ 419540.740350020001642, 7646299.436491426080465 ], [ 419531.944577482994646, 7646289.311527609825134 ] ] ] } },
{ "type": "Feature", "properties": { "fid": 100.0, "COMPR_M": 428.13, "CLASSE": "03 - Média", "CD_FAZ": "400508", "TALHOES": "2", "FAZ_tAL": "400508002", "ID_LINHA": 157694 }, "geometry": { "type": "MultiLineString", "coordinates": [ [ [ 419833.679921009810641, 7646498.505018159747124 ], [ 419825.353394942416344, 7646502.63468180783093 ], [ 419805.062338375253603, 7646511.420089544728398 ], [ 419786.897044936078601, 7646518.543037033639848 ], [ 419770.896396905067377, 7646523.530212833546102 ], [ 419748.838000831136014, 7646528.409008651040494 ], [ 419738.118089609371964, 7646528.926191287115216 ], [ 419725.691303984378465, 7646527.408719832077622 ], [ 419719.62870208354434, 7646525.751451600342989 ], [ 419714.430944275925867, 7646523.721092382445931 ], [ 419707.530234018282499, 7646519.126423806883395 ], [ 419700.872820717806462, 7646512.382603256031871 ], [ 419694.04353786772117, 7646503.385725752450526 ], [ 419683.963040016125888, 7646485.431879976764321 ], [ 419677.34470253350446, 7646472.315231253392994 ], [ 419672.329667876998428, 7646460.543442107737064 ], [ 419664.429975012084469, 7646439.25474266987294 ], [ 419654.301531147095375, 7646418.805779294110835 ], [ 419640.882640479132533, 7646387.867825286462903 ], [ 419635.733498519402929, 7646374.16305048763752 ], [ 419625.05083913897397, 7646342.56725499778986 ], [ 419621.583841481769923, 7646334.091204829514027 ], [ 419617.948184745269828, 7646326.776803961023688 ], [ 419609.787027977406979, 7646313.329791078343987 ], [ 419596.866236075817142, 7646294.952827575616539 ], [ 419585.646627567592077, 7646281.131508972495794 ], [ 419568.624256370472722, 7646263.074834844097495 ] ] ] } },
{ "type": "Feature", "properties": { "fid": 108.0, "COMPR_M": 13.96, "CLASSE": "01 - Muito curta", "CD_FAZ": "400508", "TALHOES": "2", "FAZ_tAL": "400508002", "ID_LINHA": 157702 }, "geometry": { "type": "MultiLineString", "coordinates": [ [ [ 419734.798843336699065, 7646506.48596877977252 ], [ 419721.556234144954942, 7646502.120146948844194 ] ] ] } },
{ "type": "Feature", "properties": { "fid": 109.0, "COMPR_M": 34.09, "CLASSE": "01 - Muito curta", "CD_FAZ": "400508", "TALHOES": "2", "FAZ_tAL": "400508002", "ID_LINHA": 157703 }, "geometry": { "type": "MultiLineString", "coordinates": [ [ [ 419748.510550938779488, 7646506.129543827846646 ], [ 419738.757592654670589, 7646504.362984634004533 ], [ 419731.295412250037771, 7646502.396700725890696 ], [ 419723.884429506026208, 7646499.83025761321187 ], [ 419716.029134007927496, 7646496.314554343000054 ] ] ] } },
{ "type": "Feature", "properties": { "fid": 110.0, "COMPR_M": 49.15, "CLASSE": "01 - Muito curta", "CD_FAZ": "400508", "TALHOES": "2", "FAZ_tAL": "400508002", "ID_LINHA": 157704 }, "geometry": { "type": "MultiLineString", "coordinates": [ [ [ 419758.804288855928462, 7646504.143149783834815 ], [ 419746.692686801601667, 7646502.828237092122436 ], [ 419734.578504117031116, 7646500.223759322427213 ], [ 419722.608887840528041, 7646496.069151090458035 ], [ 419712.028522874927148, 7646490.683639005757868 ] ] ] } },
{ "type": "Feature", "properties": { "fid": 111.0, "COMPR_M": 62.9, "CLASSE": "01 - Muito curta", "CD_FAZ": "400508", "TALHOES": "2", "FAZ_tAL": "400508002", "ID_LINHA": 157705 }, "geometry": { "type": "MultiLineString", "coordinates": [ [ [ 419768.463990275631659, 7646501.413465538993478 ], [ 419751.884535940655041, 7646500.515121255069971 ], [ 419742.438645920483395, 7646499.014883980154991 ], [ 419735.377329739683773, 7646497.331836136057973 ], [ 419721.506984514533542, 7646492.302244259975851 ], [ 419714.814858356607147, 7646488.852074628695846 ], [ 419708.784076766460203, 7646485.019884929060936 ] ] ] } },
{ "type": "Feature", "properties": { "fid": 112.0, "COMPR_M": 77.71, "CLASSE": "01 - Muito curta", "CD_FAZ": "400508", "TALHOES": "2", "FAZ_tAL": "400508002", "ID_LINHA": 157706 }, "geometry": { "type": "MultiLineString", "coordinates": [ [ [ 419778.671947166498285, 7646498.01103612780571 ], [ 419768.250124148849864, 7646498.415596002712846 ], [ 419756.83519788342528, 7646497.988956026732922 ], [ 419745.331113973399624, 7646496.513131216168404 ], [ 419736.176155361579731, 7646494.439912953414023 ], [ 419727.17063916742336, 7646491.45073611382395 ], [ 419720.584899991459679, 7646488.537432314828038 ], [ 419712.18627977988217, 7646483.706815028563142 ], [ 419705.384364570025355, 7646478.696716951206326 ] ] ] } },
{ "type": "Feature", "properties": { "fid": 113.0, "COMPR_M": 95.77, "CLASSE": "01 - Muito curta", "CD_FAZ": "400508", "TALHOES": "2", "FAZ_tAL": "400508002", "ID_LINHA": 157707 }, "geometry": { "type": "MultiLineString", "coordinates": [ [ [ 419790.31504330196185, 7646493.661801974289119 ], [ 419777.07963189878501, 7646495.117677627131343 ], [ 419763.790208907041233, 7646495.359677800908685 ], [ 419750.342227527289651, 7646494.269905907101929 ], [ 419739.18414644052973, 7646492.129281708970666 ], [ 419728.266042386880144, 7646488.657562283799052 ], [ 419717.807426885818131, 7646483.650808562524617 ], [ 419710.029505217331462, 7646478.527268599718809 ], [ 419701.048670011223294, 7646470.76461533550173 ] ] ] } },
{ "type": "Feature", "properties": { "fid": 114.0, "COMPR_M": 119.69, "CLASSE": "02 - Curta", "CD_FAZ": "400508", "TALHOES": "2", "FAZ_tAL": "400508002", "ID_LINHA": 157708 }, "geometry": { "type": "MultiLineString", "coordinates": [ [ [ 419805.433449977717828, 7646487.404106432572007 ], [ 419789.711609369667713, 7646490.720465634018183 ], [ 419772.568692876258865, 7646492.335460727103055 ], [ 419755.124916094180662, 7646491.81266450509429 ], [ 419739.913269430864602, 7646489.21901785209775 ], [ 419727.303022264037281, 7646485.024041946977377 ], [ 419721.263391811633483, 7646482.13764457590878 ], [ 419715.48896377341589, 7646478.696800271980464 ], [ 419704.969125599949621, 7646470.381427528336644 ], [ 419695.994190930796321, 7646460.562765107490122 ] ] ] } },
{ "type": "Feature", "properties": { "fid": 116.0, "COMPR_M": 20.54, "CLASSE": "01 - Muito curta", "CD_FAZ": "400508", "TALHOES": "2", "FAZ_tAL": "400508002", "ID_LINHA": 157710 }, "geometry": { "type": "MultiLineString", "coordinates": [ [ [ 419759.431793423194904, 7646434.94310337305069 ], [ 419753.766606249148026, 7646433.924004580825567 ], [ 419748.590326031204313, 7646432.096314545720816 ], [ 419744.928893915202934, 7646429.652531525120139 ], [ 419741.505880438082386, 7646426.196572225540876 ] ] ] } },
{ "type": "Feature", "properties": { "fid": 117.0, "COMPR_M": 66.91, "CLASSE": "01 - Muito curta", "CD_FAZ": "400508", "TALHOES": "2", "FAZ_tAL": "400508002", "ID_LINHA": 157711 }, "geometry": { "type": "MultiLineString", "coordinates": [ [ [ 419792.311312899924815, 7646435.013301333412528 ], [ 419781.458588191890158, 7646437.353398471139371 ], [ 419770.746284956578165, 7646438.364646207541227 ], [ 419760.421385883702897, 7646438.070686310529709 ], [ 419752.152667813643347, 7646436.601449256762862 ], [ 419746.734904781042133, 7646434.515174547210336 ], [ 419741.856947142456193, 7646430.937628629617393 ], [ 419737.500833847909234, 7646425.900999125093222 ], [ 419733.500497183180414, 7646419.283814894035459 ] ] ] } }
]
}
