{
"type": "FeatureCollection",
"name": "400537",
"crs": { "type": "name", "properties": { "name": "urn:ogc:def:crs:EPSG::32722" } },
"xy_coordinate_resolution": 1e-15,
"features": [
{ "type": "Feature", "properties": { "fid": 1.0, "COMPR_M": 787.54, "CLASSE": "04 - Longa", "CD_FAZ": "400537", "TALHOES": "1", "FAZ_tAL": "400537001", "ID_LINHA": 133536 }, "geometry": { "type": "MultiLineString", "coordinates": [ [ [ 432272.779018478118815, 7675717.867422292008996 ], [ 432441.029465916391928, 7676486.947156181558967 ] ] ] } },
{ "type": "Feature", "properties": { "fid": 2.0, "COMPR_M": 702.31, "CLASSE": "04 - Longa", "CD_FAZ": "400537", "TALHOES": "1", "FAZ_tAL": "400537001", "ID_LINHA": 133537 }, "geometry": { "type": "MultiLineString", "coordinates": [ [ [ 432275.732622357725631, 7675717.331025991588831 ], [ 432425.775285457144491, 7676403.182226782664657 ] ] ] } },
{ "type": "Feature", "properties": { "fid": 3.0, "COMPR_M": 617.09, "CLASSE": "04 - Longa", "CD_FAZ": "400537", "TALHOES": "1", "FAZ_tAL": "400537001", "ID_LINHA": 133538 }, "geometry": { "type": "MultiLineString", "coordinates": [ [ [ 432278.686226237099618, 7675716.794629694893956 ], [ 432410.521104999468662, 7676319.417297385632992 ] ] ] } },
{ "type": "Feature", "properties": { "fid": 4.0, "COMPR_M": 531.86, "CLASSE": "03 - Média", "CD_FAZ": "400537", "TALHOES": "1", "FAZ_tAL": "400537001", "ID_LINHA": 133539 }, "geometry": { "type": "MultiLineString", "coordinates": [ [ [ 432281.639830116298981, 7675716.258233392611146 ], [ 432395.266924540395848, 7676235.652367986738682 ] ] ] } },
{ "type": "Feature", "properties": { "fid": 5.0, "COMPR_M": 446.63, "CLASSE": "03 - Média", "CD_FAZ": "400537", "TALHOES": "1", "FAZ_tAL": "400537001", "ID_LINHA": 133540 }, "geometry": { "type": "MultiLineString", "coordinates": [ [ [ 432284.593433995905798, 7675715.721837094053626 ], [ 432380.012744082720019, 7676151.887438593432307 ] ] ] } },
{ "type": "Feature", "properties": { "fid": 6.0, "COMPR_M": 361.41, "CLASSE": "03 - Média", "CD_FAZ": "400537", "TALHOES": "1", "FAZ_tAL": "400537001", "ID_LINHA": 133541 }, "geometry": { "type": "MultiLineString", "coordinates": [ [ [ 432287.547037874697708, 7675715.185440793633461 ], [ 432364.758563622832298, 7676068.122509192675352 ] ] ] } },
{ "type": "Feature", "properties": { "fid": 7.0, "COMPR_M": 276.18, "CLASSE": "02 - Curta", "CD_FAZ": "400537", "TALHOES": "1", "FAZ_tAL": "400537001", "ID_LINHA": 133542 }, "geometry": { "type": "MultiLineString", "coordinates": [ [ [ 432290.500641755235847, 7675714.649044495075941 ], [ 432349.504383164690807, 7675984.35757979284972 ] ] ] } },
{ "type": "Feature", "properties": { "fid": 8.0, "COMPR_M": 190.96, "CLASSE": "02 - Curta", "CD_FAZ": "400537", "TALHOES": "1", "FAZ_tAL": "400537001", "ID_LINHA": 133543 }, "geometry": { "type": "MultiLineString", "coordinates": [ [ [ 432293.454245634900872, 7675714.112648194655776 ], [ 432334.250202706782147, 7675900.592650398612022 ] ] ] } },
{ "type": "Feature", "properties": { "fid": 9.0, "COMPR_M": 105.73, "CLASSE": "02 - Curta", "CD_FAZ": "400537", "TALHOES": "1", "FAZ_tAL": "400537001", "ID_LINHA": 133544 }, "geometry": { "type": "MultiLineString", "coordinates": [ [ [ 432296.407849513692781, 7675713.576251896098256 ], [ 432318.996022247709334, 7675816.827721000649035 ] ] ] } },
{ "type": "Feature", "properties": { "fid": 10.0, "COMPR_M": 1241.99, "CLASSE": "06 - Acima do limite", "CD_FAZ": "400537", "TALHOES": "1", "FAZ_tAL": "400537001", "ID_LINHA": 133545 }, "geometry": { "type": "MultiLineString", "coordinates": [ [ [ 432200.001355937682092, 7675539.609581302851439 ], [ 432465.34077038790565, 7676752.486987352371216 ] ] ] } },
{ "type": "Feature", "properties": { "fid": 11.0, "COMPR_M": 1242.43, "CLASSE": "06 - Acima do limite", "CD_FAZ": "400537", "TALHOES": "1", "FAZ_tAL": "400537001", "ID_LINHA": 133546 }, "geometry": { "type": "MultiLineString", "coordinates": [ [ [ 432202.943724544311408, 7675539.021828109398484 ], [ 432468.377496610337403, 7676752.330546706914902 ] ] ] } },
{ "type": "Feature", "properties": { "fid": 12.0, "COMPR_M": 1242.87, "CLASSE": "06 - Acima do limite", "CD_FAZ": "400537", "TALHOES": "1", "FAZ_tAL": "400537001", "ID_LINHA": 133547 }, "geometry": { "type": "MultiLineString", "coordinates": [ [ [ 432205.886093152686954, 7675538.43407491594553 ], [ 432471.414222832303494, 7676752.174106065183878 ] ] ] } },
{ "type": "Feature", "properties": { "fid": 13.0, "COMPR_M": 1243.31, "CLASSE": "06 - Acima do limite", "CD_FAZ": "400537", "TALHOES": "1", "FAZ_tAL": "400537001", "ID_LINHA": 133548 }, "geometry": { "type": "MultiLineString", "coordinates": [ [ [ 432208.828461758093908, 7675537.846321724355221 ], [ 432474.450949054677039, 7676752.017665420658886 ] ] ] } },
{ "type": "Feature", "properties": { "fid": 14.0, "COMPR_M": 1243.76, "CLASSE": "06 - Acima do limite", "CD_FAZ": "400537", "TALHOES": "1", "FAZ_tAL": "400537001", "ID_LINHA": 133549 }, "geometry": { "type": "MultiLineString", "coordinates": [ [ [ 432211.770830366585869, 7675537.258568530902267 ], [ 432477.487675276643131, 7676751.86122477799654 ] ] ] } },
{ "type": "Feature", "properties": { "fid": 15.0, "COMPR_M": 2220.44, "CLASSE": "06 - Acima do limite", "CD_FAZ": "400537", "TALHOES": "1", "FAZ_tAL": "400537001", "ID_LINHA": 133550 }, "geometry": { "type": "MultiLineString", "coordinates": [ [ [ 431942.377196959569119, 7674586.597989222034812 ], [ 432416.753150834992994, 7676754.990037649869919 ] ] ] } },
{ "type": "Feature", "properties": { "fid": 16.0, "COMPR_M": 2222.14, "CLASSE": "06 - Acima do limite", "CD_FAZ": "400537", "TALHOES": "1", "FAZ_tAL": "400537001", "ID_LINHA": 133551 }, "geometry": { "type": "MultiLineString", "coordinates": [ [ [ 431945.049049575813115, 7674584.773696277290583 ], [ 432419.789877058123238, 7676754.833597008138895 ] ] ] } },
{ "type": "Feature", "properties": { "fid": 17.0, "COMPR_M": 2223.85, "CLASSE": "06 - Acima do limite", "CD_FAZ": "400537", "TALHOES": "1", "FAZ_tAL": "400537001", "ID_LINHA": 133552 }, "geometry": { "type": "MultiLineString", "coordinates": [ [ [ 431947.720902191242203, 7674582.949403330683708 ], [ 432422.826603280147538, 7676754.677156362682581 ] ] ] } },
{ "type": "Feature", "properties": { "fid": 18.0, "COMPR_M": 2225.56, "CLASSE": "06 - Acima do limite", "CD_FAZ": "400537", "TALHOES": "1", "FAZ_tAL": "400537001", "ID_LINHA": 133553 }, "geometry": { "type": "MultiLineString", "coordinates": [ [ [ 431950.392754805798177, 7674581.125110384076834 ], [ 432425.863329501240514, 7676754.520715719088912 ] ] ] } },
{ "type": "Feature", "properties": { "fid": 19.0, "COMPR_M": 2227.27, "CLASSE": "06 - Acima do limite", "CD_FAZ": "400537", "TALHOES": "1", "FAZ_tAL": "400537001", "ID_LINHA": 133554 }, "geometry": { "type": "MultiLineString", "coordinates": [ [ [ 431953.064607422915287, 7674579.300817437469959 ], [ 432428.900055723788682, 7676754.364275077357888 ] ] ] } },
{ "type": "Feature", "properties": { "fid": 20.0, "COMPR_M": 2228.98, "CLASSE": "06 - Acima do limite", "CD_FAZ": "400537", "TALHOES": "1", "FAZ_tAL": "400537001", "ID_LINHA": 133555 }, "geometry": { "type": "MultiLineString", "coordinates": [ [ [ 431955.736460037180223, 7674577.476524491794407 ], [ 432431.936781945405528, 7676754.207834430970252 ] ] ] } },
{ "type": "Feature", "properties": { "fid": 21.0, "COMPR_M": 2230.68, "CLASSE": "06 - Acima do limite", "CD_FAZ": "400537", "TALHOES": "1", "FAZ_tAL": "400537001", "ID_LINHA": 133556 }, "geometry": { "type": "MultiLineString", "coordinates": [ [ [ 431958.408312653948087, 7674575.652231546118855 ], [ 432434.973508167953696, 7676754.051393789239228 ] ] ] } },
{ "type": "Feature", "properties": { "fid": 22.0, "COMPR_M": 2232.39, "CLASSE": "06 - Acima do limite", "CD_FAZ": "400537", "TALHOES": "1", "FAZ_tAL": "400537001", "ID_LINHA": 133557 }, "geometry": { "type": "MultiLineString", "coordinates": [ [ [ 431961.080165269202553, 7674573.827938599511981 ], [ 432438.010234390094411, 7676753.894953146576881 ] ] ] } },
{ "type": "Feature", "properties": { "fid": 23.0, "COMPR_M": 2234.1, "CLASSE": "06 - Acima do limite", "CD_FAZ": "400537", "TALHOES": "1", "FAZ_tAL": "400537001", "ID_LINHA": 133558 }, "geometry": { "type": "MultiLineString", "coordinates": [ [ [ 431963.752017884980887, 7674572.003645654767752 ], [ 432441.046960611885879, 7676753.738512501120567 ] ] ] } },
{ "type": "Feature", "properties": { "fid": 24.0, "COMPR_M": 2235.81, "CLASSE": "06 - Acima do limite", "CD_FAZ": "400537", "TALHOES": "1", "FAZ_tAL": "400537001", "ID_LINHA": 133559 }, "geometry": { "type": "MultiLineString", "coordinates": [ [ [ 431966.423870500002522, 7674570.179352706298232 ], [ 432444.08368683460867, 7676753.582071857526898 ] ] ] } },
{ "type": "Feature", "properties": { "fid": 25.0, "COMPR_M": 2237.52, "CLASSE": "06 - Acima do limite", "CD_FAZ": "400537", "TALHOES": "1", "FAZ_tAL": "400537001", "ID_LINHA": 133560 }, "geometry": { "type": "MultiLineString", "coordinates": [ [ [ 431969.095723116130102, 7674568.355059761554003 ], [ 432447.120413055643439, 7676753.425631212070584 ] ] ] } },
{ "type": "Feature", "properties": { "fid": 26.0, "COMPR_M": 2239.22, "CLASSE": "06 - Acima do limite", "CD_FAZ": "400537", "TALHOES": "1", "FAZ_tAL": "400537001", "ID_LINHA": 133561 }, "geometry": { "type": "MultiLineString", "coordinates": [ [ [ 431971.767575731442776, 7674566.530766814947128 ], [ 432450.157139277609531, 7676753.269190568476915 ] ] ] } },
{ "type": "Feature", "properties": { "fid": 27.0, "COMPR_M": 2242.64, "CLASSE": "06 - Acima do limite", "CD_FAZ": "400537", "TALHOES": "1", "FAZ_tAL": "400537001", "ID_LINHA": 133562 }, "geometry": { "type": "MultiLineString", "coordinates": [ [ [ 431977.111280962941237, 7674562.882180922664702 ], [ 432456.23059172113426, 7676752.956309284083545 ] ] ] } },
{ "type": "Feature", "properties": { "fid": 28.0, "COMPR_M": 2244.35, "CLASSE": "06 - Acima do limite", "CD_FAZ": "400537", "TALHOES": "1", "FAZ_tAL": "400537001", "ID_LINHA": 133563 }, "geometry": { "type": "MultiLineString", "coordinates": [ [ [ 431979.783133578486741, 7674561.05788797698915 ], [ 432459.267317943973467, 7676752.799868637695909 ] ] ] } },
{ "type": "Feature", "properties": { "fid": 29.0, "COMPR_M": 2246.06, "CLASSE": "06 - Acima do limite", "CD_FAZ": "400537", "TALHOES": "1", "FAZ_tAL": "400537001", "ID_LINHA": 133564 }, "geometry": { "type": "MultiLineString", "coordinates": [ [ [ 431982.454986193799414, 7674559.233595031313598 ], [ 432462.304044165823143, 7676752.643427995964885 ] ] ] } },
{ "type": "Feature", "properties": { "fid": 30.0, "COMPR_M": 960.14, "CLASSE": "05 - Muito longa", "CD_FAZ": "400537", "TALHOES": "1", "FAZ_tAL": "400537001", "ID_LINHA": 133565 }, "geometry": { "type": "MultiLineString", "coordinates": [ [ [ 431985.126838809694164, 7674557.409302086569369 ], [ 432190.251442789449356, 7675495.042326213791966 ] ] ] } },
{ "type": "Feature", "properties": { "fid": 31.0, "COMPR_M": 796.61, "CLASSE": "04 - Longa", "CD_FAZ": "400537", "TALHOES": "1", "FAZ_tAL": "400537001", "ID_LINHA": 133566 }, "geometry": { "type": "MultiLineString", "coordinates": [ [ [ 431987.798691425356083, 7674555.585009139031172 ], [ 432157.988009642460383, 7675333.527401315048337 ] ] ] } },
{ "type": "Feature", "properties": { "fid": 32.0, "COMPR_M": 633.09, "CLASSE": "04 - Longa", "CD_FAZ": "400537", "TALHOES": "1", "FAZ_tAL": "400537001", "ID_LINHA": 133567 }, "geometry": { "type": "MultiLineString", "coordinates": [ [ [ 431990.470544040261302, 7674553.76071619335562 ], [ 432125.724576494307257, 7675172.012476410716772 ] ] ] } },
{ "type": "Feature", "properties": { "fid": 33.0, "COMPR_M": 469.57, "CLASSE": "03 - Média", "CD_FAZ": "400537", "TALHOES": "1", "FAZ_tAL": "400537001", "ID_LINHA": 133568 }, "geometry": { "type": "MultiLineString", "coordinates": [ [ [ 431993.142396656970959, 7674551.936423246748745 ], [ 432093.461143347609323, 7675010.497551513835788 ] ] ] } },
{ "type": "Feature", "properties": { "fid": 34.0, "COMPR_M": 306.04, "CLASSE": "03 - Média", "CD_FAZ": "400537", "TALHOES": "1", "FAZ_tAL": "400537001", "ID_LINHA": 133569 }, "geometry": { "type": "MultiLineString", "coordinates": [ [ [ 431995.814249272225425, 7674550.112130301073194 ], [ 432061.197710196953267, 7674848.982626600190997 ] ] ] } },
{ "type": "Feature", "properties": { "fid": 35.0, "COMPR_M": 1244.2, "CLASSE": "06 - Acima do limite", "CD_FAZ": "400537", "TALHOES": "1", "FAZ_tAL": "400537001", "ID_LINHA": 133570 }, "geometry": { "type": "MultiLineString", "coordinates": [ [ [ 432214.713198973506223, 7675536.670815337449312 ], [ 432480.524401498900261, 7676751.704784131608903 ] ] ] } },
{ "type": "Feature", "properties": { "fid": 36.0, "COMPR_M": 1400.28, "CLASSE": "06 - Acima do limite", "CD_FAZ": "400537", "TALHOES": "1", "FAZ_tAL": "400537001", "ID_LINHA": 133571 }, "geometry": { "type": "MultiLineString", "coordinates": [ [ [ 432184.403970958956052, 7675384.088642690330744 ], [ 432483.561127720808145, 7676751.548343490809202 ] ] ] } },
{ "type": "Feature", "properties": { "fid": 37.0, "COMPR_M": 1565.51, "CLASSE": "06 - Acima do limite", "CD_FAZ": "400537", "TALHOES": "1", "FAZ_tAL": "400537001", "ID_LINHA": 133572 }, "geometry": { "type": "MultiLineString", "coordinates": [ [ [ 432152.14053781144321, 7675222.573717790655792 ], [ 432486.597853942366783, 7676751.391902845352888 ] ] ] } },
{ "type": "Feature", "properties": { "fid": 38.0, "COMPR_M": 1717.44, "CLASSE": "06 - Acima do limite", "CD_FAZ": "400537", "TALHOES": "1", "FAZ_tAL": "400537001", "ID_LINHA": 133573 }, "geometry": { "type": "MultiLineString", "coordinates": [ [ [ 432119.877104664337821, 7675061.058792897500098 ], [ 432486.792007292388007, 7676738.241944374516606 ] ] ] } },
{ "type": "Feature", "properties": { "fid": 39.0, "COMPR_M": 1797.05, "CLASSE": "06 - Acima do limite", "CD_FAZ": "400537", "TALHOES": "1", "FAZ_tAL": "400537001", "ID_LINHA": 133574 }, "geometry": { "type": "MultiLineString", "coordinates": [ [ [ 432087.613671518338379, 7674899.543868000619113 ], [ 432471.53782683191821, 7676654.477014973759651 ] ] ] } },
{ "type": "Feature", "properties": { "fid": 40.0, "COMPR_M": 1876.67, "CLASSE": "06 - Acima do limite", "CD_FAZ": "400537", "TALHOES": "1", "FAZ_tAL": "400537001", "ID_LINHA": 133575 }, "geometry": { "type": "MultiLineString", "coordinates": [ [ [ 432055.350238370010629, 7674738.028943097218871 ], [ 432456.283646374591626, 7676570.712085581384599 ] ] ] } },
{ "type": "Feature", "properties": { "fid": 41.0, "COMPR_M": 1154.81, "CLASSE": "06 - Acima do limite", "CD_FAZ": "400537", "TALHOES": "1", "FAZ_tAL": "400537001", "ID_LINHA": 133576 }, "geometry": { "type": "MultiLineString", "coordinates": [ [ [ 432014.517217582266312, 7674537.342079678550363 ], [ 432261.231085082981735, 7675665.081342503428459 ] ] ] } },
{ "type": "Feature", "properties": { "fid": 42.0, "COMPR_M": 1156.13, "CLASSE": "06 - Acima do limite", "CD_FAZ": "400537", "TALHOES": "1", "FAZ_tAL": "400537001", "ID_LINHA": 133577 }, "geometry": { "type": "MultiLineString", "coordinates": [ [ [ 432017.189070197520778, 7674535.517786731943488 ], [ 432264.184688962122891, 7675664.544946204870939 ] ] ] } },
{ "type": "Feature", "properties": { "fid": 43.0, "COMPR_M": 1157.44, "CLASSE": "06 - Acima do limite", "CD_FAZ": "400537", "TALHOES": "1", "FAZ_tAL": "400537001", "ID_LINHA": 133578 }, "geometry": { "type": "MultiLineString", "coordinates": [ [ [ 432019.860922813299112, 7674533.693493787199259 ], [ 432267.138292841729708, 7675664.008549908176064 ] ] ] } },
{ "type": "Feature", "properties": { "fid": 44.0, "COMPR_M": 1158.76, "CLASSE": "06 - Acima do limite", "CD_FAZ": "400537", "TALHOES": "1", "FAZ_tAL": "400537001", "ID_LINHA": 133579 }, "geometry": { "type": "MultiLineString", "coordinates": [ [ [ 432022.532775428262539, 7674531.869200838729739 ], [ 432270.091896721743979, 7675663.472153607755899 ] ] ] } },
{ "type": "Feature", "properties": { "fid": 45.0, "COMPR_M": 1160.08, "CLASSE": "06 - Acima do limite", "CD_FAZ": "400537", "TALHOES": "1", "FAZ_tAL": "400537001", "ID_LINHA": 133580 }, "geometry": { "type": "MultiLineString", "coordinates": [ [ [ 432025.204628043691628, 7674530.04490789398551 ], [ 432273.045500600303058, 7675662.935757307335734 ] ] ] } },
{ "type": "Feature", "properties": { "fid": 46.0, "COMPR_M": 1161.4, "CLASSE": "06 - Acima do limite", "CD_FAZ": "400537", "TALHOES": "1", "FAZ_tAL": "400537001", "ID_LINHA": 133581 }, "geometry": { "type": "MultiLineString", "coordinates": [ [ [ 432027.876480659702793, 7674528.220614947378635 ], [ 432275.999104479909874, 7675662.399361008778214 ] ] ] } },
{ "type": "Feature", "properties": { "fid": 47.0, "COMPR_M": 1162.72, "CLASSE": "06 - Acima do limite", "CD_FAZ": "400537", "TALHOES": "1", "FAZ_tAL": "400537001", "ID_LINHA": 133582 }, "geometry": { "type": "MultiLineString", "coordinates": [ [ [ 432030.548333276121411, 7674526.396322002634406 ], [ 432278.952708359924145, 7675661.862964708358049 ] ] ] } },
{ "type": "Feature", "properties": { "fid": 48.0, "COMPR_M": 1164.04, "CLASSE": "06 - Acima do limite", "CD_FAZ": "400537", "TALHOES": "1", "FAZ_tAL": "400537001", "ID_LINHA": 133583 }, "geometry": { "type": "MultiLineString", "coordinates": [ [ [ 432033.220185890444554, 7674524.572029057890177 ], [ 432281.906312239123508, 7675661.326568408869207 ] ] ] } },
{ "type": "Feature", "properties": { "fid": 49.0, "COMPR_M": 1165.36, "CLASSE": "06 - Acima do limite", "CD_FAZ": "400537", "TALHOES": "1", "FAZ_tAL": "400537001", "ID_LINHA": 133584 }, "geometry": { "type": "MultiLineString", "coordinates": [ [ [ 432035.892038506572135, 7674522.747736109420657 ], [ 432284.859916118730325, 7675660.790172110311687 ] ] ] } },
{ "type": "Feature", "properties": { "fid": 50.0, "COMPR_M": 1166.68, "CLASSE": "06 - Acima do limite", "CD_FAZ": "400537", "TALHOES": "1", "FAZ_tAL": "400537001", "ID_LINHA": 133585 }, "geometry": { "type": "MultiLineString", "coordinates": [ [ [ 432038.563891122525092, 7674520.923443162813783 ], [ 432287.813519998104312, 7675660.253775810822845 ] ] ] } },
{ "type": "Feature", "properties": { "fid": 51.0, "COMPR_M": 1157.33, "CLASSE": "06 - Acima do limite", "CD_FAZ": "400537", "TALHOES": "1", "FAZ_tAL": "400537001", "ID_LINHA": 133586 }, "geometry": { "type": "MultiLineString", "coordinates": [ [ [ 432041.235743737663142, 7674519.099150219000876 ], [ 432288.487661330320407, 7675649.297862205654383 ] ] ] } },
{ "type": "Feature", "properties": { "fid": 52.0, "COMPR_M": 1073.42, "CLASSE": "06 - Acima do limite", "CD_FAZ": "400537", "TALHOES": "1", "FAZ_tAL": "400537001", "ID_LINHA": 133587 }, "geometry": { "type": "MultiLineString", "coordinates": [ [ [ 432043.907596351928078, 7674517.274857271462679 ], [ 432273.233480873110238, 7675565.532932806760073 ] ] ] } },
{ "type": "Feature", "properties": { "fid": 53.0, "COMPR_M": 989.51, "CLASSE": "06 - Acima do limite", "CD_FAZ": "400537", "TALHOES": "1", "FAZ_tAL": "400537001", "ID_LINHA": 133588 }, "geometry": { "type": "MultiLineString", "coordinates": [ [ [ 432046.579448969394434, 7674515.45056432671845 ], [ 432257.979300413513556, 7675481.768003414385021 ] ] ] } },
{ "type": "Feature", "properties": { "fid": 54.0, "COMPR_M": 905.6, "CLASSE": "05 - Muito longa", "CD_FAZ": "400537", "TALHOES": "1", "FAZ_tAL": "400537001", "ID_LINHA": 133589 }, "geometry": { "type": "MultiLineString", "coordinates": [ [ [ 432049.251301584707107, 7674513.626271380111575 ], [ 432242.72511995624518, 7675398.003074012696743 ] ] ] } },
{ "type": "Feature", "properties": { "fid": 55.0, "COMPR_M": 821.7, "CLASSE": "04 - Longa", "CD_FAZ": "400537", "TALHOES": "1", "FAZ_tAL": "400537001", "ID_LINHA": 133590 }, "geometry": { "type": "MultiLineString", "coordinates": [ [ [ 432051.923154199204873, 7674511.801978434436023 ], [ 432227.470939497812651, 7675314.238144619390368 ] ] ] } },
{ "type": "Feature", "properties": { "fid": 56.0, "COMPR_M": 737.79, "CLASSE": "04 - Longa", "CD_FAZ": "400537", "TALHOES": "1", "FAZ_tAL": "400537001", "ID_LINHA": 133591 }, "geometry": { "type": "MultiLineString", "coordinates": [ [ [ 432054.595006816205569, 7674509.977685488760471 ], [ 432212.216759039380122, 7675230.473215218633413 ] ] ] } },
{ "type": "Feature", "properties": { "fid": 57.0, "COMPR_M": 653.88, "CLASSE": "04 - Longa", "CD_FAZ": "400537", "TALHOES": "1", "FAZ_tAL": "400537001", "ID_LINHA": 133592 }, "geometry": { "type": "MultiLineString", "coordinates": [ [ [ 432057.266859432274941, 7674508.153392544016242 ], [ 432196.962578579550609, 7675146.708285819739103 ] ] ] } },
{ "type": "Feature", "properties": { "fid": 58.0, "COMPR_M": 569.97, "CLASSE": "03 - Média", "CD_FAZ": "400537", "TALHOES": "1", "FAZ_tAL": "400537001", "ID_LINHA": 133593 }, "geometry": { "type": "MultiLineString", "coordinates": [ [ [ 432059.938712047645822, 7674506.329099597409368 ], [ 432181.708398121583741, 7675062.943356426432729 ] ] ] } },
{ "type": "Feature", "properties": { "fid": 59.0, "COMPR_M": 486.07, "CLASSE": "03 - Média", "CD_FAZ": "400537", "TALHOES": "1", "FAZ_tAL": "400537001", "ID_LINHA": 133594 }, "geometry": { "type": "MultiLineString", "coordinates": [ [ [ 432062.610564663424157, 7674504.504806649871171 ], [ 432166.454217663907912, 7674979.178427027538419 ] ] ] } },
{ "type": "Feature", "properties": { "fid": 60.0, "COMPR_M": 402.16, "CLASSE": "03 - Média", "CD_FAZ": "400537", "TALHOES": "1", "FAZ_tAL": "400537001", "ID_LINHA": 133595 }, "geometry": { "type": "MultiLineString", "coordinates": [ [ [ 432065.282417278387584, 7674502.680513706058264 ], [ 432151.200037205882836, 7674895.413497632369399 ] ] ] } },
{ "type": "Feature", "properties": { "fid": 61.0, "COMPR_M": 318.25, "CLASSE": "03 - Média", "CD_FAZ": "400537", "TALHOES": "1", "FAZ_tAL": "400537001", "ID_LINHA": 133596 }, "geometry": { "type": "MultiLineString", "coordinates": [ [ [ 432067.954269893234596, 7674500.856220757588744 ], [ 432135.945856746693607, 7674811.648568231612444 ] ] ] } },
{ "type": "Feature", "properties": { "fid": 62.0, "COMPR_M": 234.34, "CLASSE": "02 - Curta", "CD_FAZ": "400537", "TALHOES": "1", "FAZ_tAL": "400537001", "ID_LINHA": 133597 }, "geometry": { "type": "MultiLineString", "coordinates": [ [ [ 432070.626122509827837, 7674499.031927812844515 ], [ 432120.691676288202871, 7674727.883638834580779 ] ] ] } },
{ "type": "Feature", "properties": { "fid": 63.0, "COMPR_M": 150.44, "CLASSE": "02 - Curta", "CD_FAZ": "400537", "TALHOES": "1", "FAZ_tAL": "400537001", "ID_LINHA": 133598 }, "geometry": { "type": "MultiLineString", "coordinates": [ [ [ 432073.297975125024095, 7674497.20763486623764 ], [ 432105.43749583029421, 7674644.118709441274405 ] ] ] } },
{ "type": "Feature", "properties": { "fid": 65.0, "COMPR_M": 2240.93, "CLASSE": "06 - Acima do limite", "CD_FAZ": "400537", "TALHOES": "1", "FAZ_tAL": "400537001", "ID_LINHA": 133599 }, "geometry": { "type": "MultiLineString", "coordinates": [ [ [ 431974.439428347279318, 7674564.706473869271576 ], [ 432453.193865499866661, 7676753.112749925814569 ] ] ] } },
{ "type": "Feature", "properties": { "fid": 66.0, "COMPR_M": 20.3, "CLASSE": "01 - Muito curta", "CD_FAZ": "400537", "TALHOES": "1", "FAZ_tAL": "400537001", "ID_LINHA": 133600 }, "geometry": { "type": "MultiLineString", "coordinates": [ [ [ 432211.003908297570888, 7675238.966665906831622 ], [ 432215.340160821622703, 7675258.787855019792914 ] ] ] } },
{ "type": "Feature", "properties": { "fid": 67.0, "COMPR_M": 2214.54, "CLASSE": "06 - Acima do limite", "CD_FAZ": "400537", "TALHOES": "1", "FAZ_tAL": "400537001", "ID_LINHA": 133601 }, "geometry": { "type": "MultiLineString", "coordinates": [ [ [ 431940.166290136519819, 7674590.529284393414855 ], [ 432413.283189978799783, 7676753.166144911199808 ] ] ] } }
]
}
