{
"type": "FeatureCollection",
"name": "400527",
"crs": { "type": "name", "properties": { "name": "urn:ogc:def:crs:EPSG::32722" } },
"xy_coordinate_resolution": 1e-15,
"features": [
{ "type": "Feature", "properties": { "fid": 2.0, "COMPR_M": 101.65, "CLASSE": "02 - Curta", "CD_FAZ": "400527", "TALHOES": "1", "FAZ_tAL": "400527001", "ID_LINHA": 700 }, "geometry": { "type": "MultiLineString", "coordinates": [ [ [ 404361.425464622792788, 7611511.000094982795417 ], [ 404462.935157217842061, 7611506.253671869635582 ] ] ] } },
{ "type": "Feature", "properties": { "fid": 3.0, "COMPR_M": 135.66, "CLASSE": "02 - Curta", "CD_FAZ": "400527", "TALHOES": "1", "FAZ_tAL": "400527001", "ID_LINHA": 701 }, "geometry": { "type": "MultiLineString", "coordinates": [ [ [ 404328.595807125442661, 7611515.538432472385466 ], [ 404464.069295554421842, 7611509.203919187188148 ] ] ] } },
{ "type": "Feature", "properties": { "fid": 4.0, "COMPR_M": 169.67, "CLASSE": "02 - Curta", "CD_FAZ": "400527", "TALHOES": "1", "FAZ_tAL": "400527001", "ID_LINHA": 702 }, "geometry": { "type": "MultiLineString", "coordinates": [ [ [ 404295.766149648407008, 7611520.076769955456257 ], [ 404465.20343389181653, 7611512.15416649915278 ] ] ] } },
{ "type": "Feature", "properties": { "fid": 5.0, "COMPR_M": 237.69, "CLASSE": "02 - Curta", "CD_FAZ": "400527", "TALHOES": "1", "FAZ_tAL": "400527001", "ID_LINHA": 703 }, "geometry": { "type": "MultiLineString", "coordinates": [ [ [ 404230.106834675476421, 7611529.153444931842387 ], [ 404467.471710565383546, 7611518.054661123082042 ] ] ] } },
{ "type": "Feature", "properties": { "fid": 6.0, "COMPR_M": 271.7, "CLASSE": "02 - Curta", "CD_FAZ": "400527", "TALHOES": "1", "FAZ_tAL": "400527001", "ID_LINHA": 704 }, "geometry": { "type": "MultiLineString", "coordinates": [ [ [ 404197.27717719663633, 7611533.691782416775823 ], [ 404468.605848900799174, 7611521.004908438771963 ] ] ] } },
{ "type": "Feature", "properties": { "fid": 7.0, "COMPR_M": 305.91, "CLASSE": "03 - Média", "CD_FAZ": "400527", "TALHOES": "1", "FAZ_tAL": "400527001", "ID_LINHA": 705 }, "geometry": { "type": "MultiLineString", "coordinates": [ [ [ 404164.254970502806827, 7611538.239123186096549 ], [ 404469.739987239066977, 7611523.955155752599239 ] ] ] } },
{ "type": "Feature", "properties": { "fid": 8.0, "COMPR_M": 342.01, "CLASSE": "03 - Média", "CD_FAZ": "400527", "TALHOES": "1", "FAZ_tAL": "400527001", "ID_LINHA": 706 }, "geometry": { "type": "MultiLineString", "coordinates": [ [ [ 404129.331646107253619, 7611542.875357028096914 ], [ 404470.874125575646758, 7611526.90540306456387 ] ] ] } },
{ "type": "Feature", "properties": { "fid": 9.0, "COMPR_M": 376.29, "CLASSE": "03 - Média", "CD_FAZ": "400527", "TALHOES": "1", "FAZ_tAL": "400527001", "ID_LINHA": 707 }, "geometry": { "type": "MultiLineString", "coordinates": [ [ [ 404096.238222089130431, 7611547.426027795299888 ], [ 404472.008263912983239, 7611529.855650376528502 ] ] ] } },
{ "type": "Feature", "properties": { "fid": 10.0, "COMPR_M": 444.84, "CLASSE": "03 - Média", "CD_FAZ": "400527", "TALHOES": "1", "FAZ_tAL": "400527001", "ID_LINHA": 708 }, "geometry": { "type": "MultiLineString", "coordinates": [ [ [ 404030.051374039030634, 7611556.527369329705834 ], [ 404474.276540586492047, 7611535.756145001389086 ] ] ] } },
{ "type": "Feature", "properties": { "fid": 11.0, "COMPR_M": 480.48, "CLASSE": "03 - Média", "CD_FAZ": "400527", "TALHOES": "1", "FAZ_tAL": "400527001", "ID_LINHA": 709 }, "geometry": { "type": "MultiLineString", "coordinates": [ [ [ 403995.588404152309522, 7611561.142077768221498 ], [ 404475.410678923886735, 7611538.70639231428504 ] ] ] } },
{ "type": "Feature", "properties": { "fid": 12.0, "COMPR_M": 513.33, "CLASSE": "03 - Média", "CD_FAZ": "400527", "TALHOES": "1", "FAZ_tAL": "400527001", "ID_LINHA": 710 }, "geometry": { "type": "MultiLineString", "coordinates": [ [ [ 403963.92080771230394, 7611565.626079231500626 ], [ 404476.54481726011727, 7611541.656639627180994 ] ] ] } },
{ "type": "Feature", "properties": { "fid": 13.0, "COMPR_M": 517.5, "CLASSE": "03 - Média", "CD_FAZ": "400527", "TALHOES": "1", "FAZ_tAL": "400527001", "ID_LINHA": 711 }, "geometry": { "type": "MultiLineString", "coordinates": [ [ [ 403960.893212923198007, 7611568.770922210067511 ], [ 404477.678955597279128, 7611544.606886941939592 ] ] ] } },
{ "type": "Feature", "properties": { "fid": 14.0, "COMPR_M": 522.98, "CLASSE": "03 - Média", "CD_FAZ": "400527", "TALHOES": "1", "FAZ_tAL": "400527001", "ID_LINHA": 712 }, "geometry": { "type": "MultiLineString", "coordinates": [ [ [ 403956.553918197285384, 7611571.97709808126092 ], [ 404478.813093934615608, 7611547.557134250178933 ] ] ] } },
{ "type": "Feature", "properties": { "fid": 15.0, "COMPR_M": 525.0, "CLASSE": "03 - Média", "CD_FAZ": "400527", "TALHOES": "1", "FAZ_tAL": "400527001", "ID_LINHA": 713 }, "geometry": { "type": "MultiLineString", "coordinates": [ [ [ 403956.807924259337597, 7611577.971776622347534 ], [ 404481.081370607949793, 7611553.457628877833486 ] ] ] } },
{ "type": "Feature", "properties": { "fid": 16.0, "COMPR_M": 526.01, "CLASSE": "03 - Média", "CD_FAZ": "400527", "TALHOES": "1", "FAZ_tAL": "400527001", "ID_LINHA": 714 }, "geometry": { "type": "MultiLineString", "coordinates": [ [ [ 403956.934927289839834, 7611580.969115894287825 ], [ 404482.21550894388929, 7611556.407876191660762 ] ] ] } },
{ "type": "Feature", "properties": { "fid": 17.0, "COMPR_M": 527.01, "CLASSE": "03 - Média", "CD_FAZ": "400527", "TALHOES": "1", "FAZ_tAL": "400527001", "ID_LINHA": 715 }, "geometry": { "type": "MultiLineString", "coordinates": [ [ [ 403957.061930320400279, 7611583.966455165296793 ], [ 404483.349647282098886, 7611559.358123503625393 ] ] ] } },
{ "type": "Feature", "properties": { "fid": 18.0, "COMPR_M": 528.02, "CLASSE": "03 - Média", "CD_FAZ": "400527", "TALHOES": "1", "FAZ_tAL": "400527001", "ID_LINHA": 716 }, "geometry": { "type": "MultiLineString", "coordinates": [ [ [ 403957.188933351018932, 7611586.963794440962374 ], [ 404484.483785618504044, 7611562.308370815590024 ] ] ] } },
{ "type": "Feature", "properties": { "fid": 19.0, "COMPR_M": 529.03, "CLASSE": "03 - Média", "CD_FAZ": "400527", "TALHOES": "1", "FAZ_tAL": "400527001", "ID_LINHA": 717 }, "geometry": { "type": "MultiLineString", "coordinates": [ [ [ 403957.315936382510699, 7611589.961133712902665 ], [ 404485.617923955782317, 7611565.258618127554655 ] ] ] } },
{ "type": "Feature", "properties": { "fid": 20.0, "COMPR_M": 531.05, "CLASSE": "03 - Média", "CD_FAZ": "400527", "TALHOES": "1", "FAZ_tAL": "400527001", "ID_LINHA": 718 }, "geometry": { "type": "MultiLineString", "coordinates": [ [ [ 403957.569942444213666, 7611595.955812254920602 ], [ 404487.886200629465748, 7611571.159112757071853 ] ] ] } },
{ "type": "Feature", "properties": { "fid": 21.0, "COMPR_M": 532.06, "CLASSE": "03 - Média", "CD_FAZ": "400527", "TALHOES": "1", "FAZ_tAL": "400527001", "ID_LINHA": 719 }, "geometry": { "type": "MultiLineString", "coordinates": [ [ [ 403957.696945475880057, 7611598.95315152592957 ], [ 404489.020338966744021, 7611574.109360066242516 ] ] ] } },
{ "type": "Feature", "properties": { "fid": 22.0, "COMPR_M": 533.06, "CLASSE": "03 - Média", "CD_FAZ": "400527", "TALHOES": "1", "FAZ_tAL": "400527001", "ID_LINHA": 720 }, "geometry": { "type": "MultiLineString", "coordinates": [ [ [ 403957.823948505625594, 7611601.950490798801184 ], [ 404490.154477304080501, 7611577.05960737913847 ] ] ] } },
{ "type": "Feature", "properties": { "fid": 23.0, "COMPR_M": 534.07, "CLASSE": "03 - Média", "CD_FAZ": "400527", "TALHOES": "1", "FAZ_tAL": "400527001", "ID_LINHA": 721 }, "geometry": { "type": "MultiLineString", "coordinates": [ [ [ 403957.950951537466608, 7611604.947830069810152 ], [ 404491.288615640369244, 7611580.009854694828391 ] ] ] } },
{ "type": "Feature", "properties": { "fid": 24.0, "COMPR_M": 535.08, "CLASSE": "03 - Média", "CD_FAZ": "400527", "TALHOES": "1", "FAZ_tAL": "400527001", "ID_LINHA": 722 }, "geometry": { "type": "MultiLineString", "coordinates": [ [ [ 403958.0779545661062, 7611607.945169342681766 ], [ 404492.42275397683261, 7611582.9601020058617 ] ] ] } },
{ "type": "Feature", "properties": { "fid": 25.0, "COMPR_M": 537.1, "CLASSE": "03 - Média", "CD_FAZ": "400527", "TALHOES": "1", "FAZ_tAL": "400527001", "ID_LINHA": 723 }, "geometry": { "type": "MultiLineString", "coordinates": [ [ [ 403958.331960628798697, 7611613.939847884699702 ], [ 404494.691030649701133, 7611588.860596630722284 ] ] ] } },
{ "type": "Feature", "properties": { "fid": 26.0, "COMPR_M": 538.11, "CLASSE": "03 - Média", "CD_FAZ": "400527", "TALHOES": "1", "FAZ_tAL": "400527001", "ID_LINHA": 724 }, "geometry": { "type": "MultiLineString", "coordinates": [ [ [ 403958.45896365965018, 7611616.937187155708671 ], [ 404495.825168988085352, 7611591.810843944549561 ] ] ] } },
{ "type": "Feature", "properties": { "fid": 27.0, "COMPR_M": 539.12, "CLASSE": "03 - Média", "CD_FAZ": "400527", "TALHOES": "1", "FAZ_tAL": "400527001", "ID_LINHA": 725 }, "geometry": { "type": "MultiLineString", "coordinates": [ [ [ 403958.585966689919587, 7611619.934526428580284 ], [ 404496.959307324606925, 7611594.761091256514192 ] ] ] } },
{ "type": "Feature", "properties": { "fid": 28.0, "COMPR_M": 540.12, "CLASSE": "03 - Média", "CD_FAZ": "400527", "TALHOES": "1", "FAZ_tAL": "400527001", "ID_LINHA": 726 }, "geometry": { "type": "MultiLineString", "coordinates": [ [ [ 403958.712969720247202, 7611622.931865701451898 ], [ 404498.093445660779253, 7611597.711338568478823 ] ] ] } },
{ "type": "Feature", "properties": { "fid": 29.0, "COMPR_M": 541.14, "CLASSE": "03 - Média", "CD_FAZ": "400527", "TALHOES": "1", "FAZ_tAL": "400527001", "ID_LINHA": 727 }, "geometry": { "type": "MultiLineString", "coordinates": [ [ [ 403958.836856903624721, 7611625.929350666701794 ], [ 404499.227583998348564, 7611600.661585882306099 ] ] ] } },
{ "type": "Feature", "properties": { "fid": 30.0, "COMPR_M": 543.16, "CLASSE": "03 - Média", "CD_FAZ": "400527", "TALHOES": "1", "FAZ_tAL": "400527001", "ID_LINHA": 728 }, "geometry": { "type": "MultiLineString", "coordinates": [ [ [ 403959.083518025290687, 7611631.924372645094991 ], [ 404501.495860672206618, 7611606.562080508098006 ] ] ] } },
{ "type": "Feature", "properties": { "fid": 31.0, "COMPR_M": 544.17, "CLASSE": "03 - Média", "CD_FAZ": "400527", "TALHOES": "1", "FAZ_tAL": "400527001", "ID_LINHA": 729 }, "geometry": { "type": "MultiLineString", "coordinates": [ [ [ 403959.206848587142304, 7611634.921883636154234 ], [ 404502.629999008378945, 7611609.512327820062637 ] ] ] } },
{ "type": "Feature", "properties": { "fid": 32.0, "COMPR_M": 545.19, "CLASSE": "03 - Média", "CD_FAZ": "400527", "TALHOES": "1", "FAZ_tAL": "400527001", "ID_LINHA": 730 }, "geometry": { "type": "MultiLineString", "coordinates": [ [ [ 403959.330179149052128, 7611637.919394625350833 ], [ 404503.76413734612288, 7611612.462575132958591 ] ] ] } },
{ "type": "Feature", "properties": { "fid": 33.0, "COMPR_M": 546.2, "CLASSE": "03 - Média", "CD_FAZ": "400527", "TALHOES": "1", "FAZ_tAL": "400527001", "ID_LINHA": 731 }, "geometry": { "type": "MultiLineString", "coordinates": [ [ [ 403959.453509710321669, 7611640.916905616410077 ], [ 404504.898275682702661, 7611615.41282244771719 ] ] ] } },
{ "type": "Feature", "properties": { "fid": 34.0, "COMPR_M": 547.21, "CLASSE": "03 - Média", "CD_FAZ": "400527", "TALHOES": "1", "FAZ_tAL": "400527001", "ID_LINHA": 732 }, "geometry": { "type": "MultiLineString", "coordinates": [ [ [ 403959.576840271649417, 7611643.91441660746932 ], [ 404506.032414020854048, 7611618.363069757819176 ] ] ] } },
{ "type": "Feature", "properties": { "fid": 35.0, "COMPR_M": 549.23, "CLASSE": "03 - Média", "CD_FAZ": "400527", "TALHOES": "1", "FAZ_tAL": "400527001", "ID_LINHA": 733 }, "geometry": { "type": "MultiLineString", "coordinates": [ [ [ 403959.82350139436312, 7611649.909438588656485 ], [ 404508.300690692965873, 7611624.26356438267976 ] ] ] } },
{ "type": "Feature", "properties": { "fid": 36.0, "COMPR_M": 550.25, "CLASSE": "03 - Média", "CD_FAZ": "400527", "TALHOES": "1", "FAZ_tAL": "400527001", "ID_LINHA": 734 }, "geometry": { "type": "MultiLineString", "coordinates": [ [ [ 403959.946831955865491, 7611652.906949577853084 ], [ 404509.43482903088443, 7611627.213811697438359 ] ] ] } },
{ "type": "Feature", "properties": { "fid": 37.0, "COMPR_M": 551.26, "CLASSE": "03 - Média", "CD_FAZ": "400527", "TALHOES": "1", "FAZ_tAL": "400527001", "ID_LINHA": 735 }, "geometry": { "type": "MultiLineString", "coordinates": [ [ [ 403960.070162517367862, 7611655.904460567981005 ], [ 404510.568967366416473, 7611630.164059011265635 ] ] ] } },
{ "type": "Feature", "properties": { "fid": 38.0, "COMPR_M": 552.27, "CLASSE": "03 - Média", "CD_FAZ": "400527", "TALHOES": "1", "FAZ_tAL": "400527001", "ID_LINHA": 736 }, "geometry": { "type": "MultiLineString", "coordinates": [ [ [ 403960.193493077531457, 7611658.901971559971571 ], [ 404511.703105704043992, 7611633.114306325092912 ] ] ] } },
{ "type": "Feature", "properties": { "fid": 39.0, "COMPR_M": 553.28, "CLASSE": "03 - Média", "CD_FAZ": "400527", "TALHOES": "1", "FAZ_tAL": "400527001", "ID_LINHA": 737 }, "geometry": { "type": "MultiLineString", "coordinates": [ [ [ 403960.316823639790528, 7611661.899482549168169 ], [ 404512.837244039983489, 7611636.064553635194898 ] ] ] } },
{ "type": "Feature", "properties": { "fid": 40.0, "COMPR_M": 555.31, "CLASSE": "03 - Média", "CD_FAZ": "400527", "TALHOES": "1", "FAZ_tAL": "400527001", "ID_LINHA": 738 }, "geometry": { "type": "MultiLineString", "coordinates": [ [ [ 403960.56348476104904, 7611667.894504530355334 ], [ 404515.105520714947488, 7611641.965048260986805 ] ] ] } },
{ "type": "Feature", "properties": { "fid": 41.0, "COMPR_M": 556.32, "CLASSE": "03 - Média", "CD_FAZ": "400527", "TALHOES": "1", "FAZ_tAL": "400527001", "ID_LINHA": 739 }, "geometry": { "type": "MultiLineString", "coordinates": [ [ [ 403960.686815324123017, 7611670.892015520483255 ], [ 404516.23965905199293, 7611644.915295572020113 ] ] ] } },
{ "type": "Feature", "properties": { "fid": 42.0, "COMPR_M": 557.33, "CLASSE": "03 - Média", "CD_FAZ": "400527", "TALHOES": "1", "FAZ_tAL": "400527001", "ID_LINHA": 740 }, "geometry": { "type": "MultiLineString", "coordinates": [ [ [ 403960.810145883820951, 7611673.889526511542499 ], [ 404517.373797388630919, 7611647.865542886778712 ] ] ] } },
{ "type": "Feature", "properties": { "fid": 43.0, "COMPR_M": 558.34, "CLASSE": "03 - Média", "CD_FAZ": "400527", "TALHOES": "1", "FAZ_tAL": "400527001", "ID_LINHA": 741 }, "geometry": { "type": "MultiLineString", "coordinates": [ [ [ 403960.933476446312852, 7611676.887037500739098 ], [ 404518.507935726025607, 7611650.815790200605989 ] ] ] } },
{ "type": "Feature", "properties": { "fid": 44.0, "COMPR_M": 559.36, "CLASSE": "03 - Média", "CD_FAZ": "400527", "TALHOES": "1", "FAZ_tAL": "400527001", "ID_LINHA": 742 }, "geometry": { "type": "MultiLineString", "coordinates": [ [ [ 403961.056807008106261, 7611679.884548492729664 ], [ 404519.642074061674066, 7611653.766037510707974 ] ] ] } },
{ "type": "Feature", "properties": { "fid": 45.0, "COMPR_M": 561.38, "CLASSE": "03 - Média", "CD_FAZ": "400527", "TALHOES": "1", "FAZ_tAL": "400527001", "ID_LINHA": 743 }, "geometry": { "type": "MultiLineString", "coordinates": [ [ [ 403961.303468131867703, 7611685.879570472985506 ], [ 404521.910350736055989, 7611659.666532138362527 ] ] ] } },
{ "type": "Feature", "properties": { "fid": 46.0, "COMPR_M": 562.39, "CLASSE": "03 - Média", "CD_FAZ": "400527", "TALHOES": "1", "FAZ_tAL": "400527001", "ID_LINHA": 744 }, "geometry": { "type": "MultiLineString", "coordinates": [ [ [ 403961.426798692496959, 7611688.877081463113427 ], [ 404523.044489072170109, 7611662.616779450327158 ] ] ] } },
{ "type": "Feature", "properties": { "fid": 47.0, "COMPR_M": 563.41, "CLASSE": "03 - Média", "CD_FAZ": "400527", "TALHOES": "1", "FAZ_tAL": "400527001", "ID_LINHA": 745 }, "geometry": { "type": "MultiLineString", "coordinates": [ [ [ 403961.54875912074931, 7611691.874656518921256 ], [ 404524.178627410496119, 7611665.567026762291789 ] ] ] } },
{ "type": "Feature", "properties": { "fid": 48.0, "COMPR_M": 564.42, "CLASSE": "03 - Média", "CD_FAZ": "400527", "TALHOES": "1", "FAZ_tAL": "400527001", "ID_LINHA": 746 }, "geometry": { "type": "MultiLineString", "coordinates": [ [ [ 403961.670666349295061, 7611694.872234059497714 ], [ 404525.312765746959485, 7611668.517274076119065 ] ] ] } },
{ "type": "Feature", "properties": { "fid": 49.0, "COMPR_M": 565.43, "CLASSE": "03 - Média", "CD_FAZ": "400527", "TALHOES": "1", "FAZ_tAL": "400527001", "ID_LINHA": 747 }, "geometry": { "type": "MultiLineString", "coordinates": [ [ [ 403961.792573575978167, 7611697.869811603799462 ], [ 404526.446904083597474, 7611671.467521388083696 ] ] ] } },
{ "type": "Feature", "properties": { "fid": 50.0, "COMPR_M": 567.46, "CLASSE": "03 - Média", "CD_FAZ": "400527", "TALHOES": "1", "FAZ_tAL": "400527001", "ID_LINHA": 748 }, "geometry": { "type": "MultiLineString", "coordinates": [ [ [ 403962.036388030624948, 7611703.864966691471636 ], [ 404528.71518075739732, 7611677.368016014806926 ] ] ] } },
{ "type": "Feature", "properties": { "fid": 51.0, "COMPR_M": 568.47, "CLASSE": "03 - Média", "CD_FAZ": "400527", "TALHOES": "1", "FAZ_tAL": "400527001", "ID_LINHA": 749 }, "geometry": { "type": "MultiLineString", "coordinates": [ [ [ 403962.158295257191639, 7611706.862544234842062 ], [ 404529.849319094559178, 7611680.31826332770288 ] ] ] } },
{ "type": "Feature", "properties": { "fid": 52.0, "COMPR_M": 569.49, "CLASSE": "03 - Média", "CD_FAZ": "400527", "TALHOES": "1", "FAZ_tAL": "400527001", "ID_LINHA": 750 }, "geometry": { "type": "MultiLineString", "coordinates": [ [ [ 403962.280202484631445, 7611709.860121776349843 ], [ 404530.983457431895658, 7611683.268510640598834 ] ] ] } },
{ "type": "Feature", "properties": { "fid": 53.0, "COMPR_M": 570.5, "CLASSE": "03 - Média", "CD_FAZ": "400527", "TALHOES": "1", "FAZ_tAL": "400527001", "ID_LINHA": 751 }, "geometry": { "type": "MultiLineString", "coordinates": [ [ [ 403962.40210971084889, 7611712.857699316926301 ], [ 404532.117595768067986, 7611686.218757953494787 ] ] ] } },
{ "type": "Feature", "properties": { "fid": 54.0, "COMPR_M": 571.52, "CLASSE": "03 - Média", "CD_FAZ": "400527", "TALHOES": "1", "FAZ_tAL": "400527001", "ID_LINHA": 752 }, "geometry": { "type": "MultiLineString", "coordinates": [ [ [ 403962.524016937240958, 7611715.855276864022017 ], [ 404533.251734104997013, 7611689.169005267322063 ] ] ] } },
{ "type": "Feature", "properties": { "fid": 55.0, "COMPR_M": 573.54, "CLASSE": "03 - Média", "CD_FAZ": "400527", "TALHOES": "1", "FAZ_tAL": "400527001", "ID_LINHA": 753 }, "geometry": { "type": "MultiLineString", "coordinates": [ [ [ 403962.767831392004155, 7611721.850431948900223 ], [ 404535.520010779437143, 7611695.069499891251326 ] ] ] } },
{ "type": "Feature", "properties": { "fid": 56.0, "COMPR_M": 574.56, "CLASSE": "03 - Média", "CD_FAZ": "400527", "TALHOES": "1", "FAZ_tAL": "400527001", "ID_LINHA": 754 }, "geometry": { "type": "MultiLineString", "coordinates": [ [ [ 403962.889738618920092, 7611724.848009493201971 ], [ 404536.654149115609471, 7611698.019747201353312 ] ] ] } },
{ "type": "Feature", "properties": { "fid": 57.0, "COMPR_M": 575.57, "CLASSE": "03 - Média", "CD_FAZ": "400527", "TALHOES": "1", "FAZ_tAL": "400527001", "ID_LINHA": 755 }, "geometry": { "type": "MultiLineString", "coordinates": [ [ [ 403963.011645847349428, 7611727.845587037503719 ], [ 404537.788287452596705, 7611700.969994515180588 ] ] ] } },
{ "type": "Feature", "properties": { "fid": 58.0, "COMPR_M": 576.58, "CLASSE": "03 - Média", "CD_FAZ": "400527", "TALHOES": "1", "FAZ_tAL": "400527001", "ID_LINHA": 756 }, "geometry": { "type": "MultiLineString", "coordinates": [ [ [ 403963.133553073334042, 7611730.843164577148855 ], [ 404538.922425789060071, 7611703.920241830870509 ] ] ] } },
{ "type": "Feature", "properties": { "fid": 59.0, "COMPR_M": 577.6, "CLASSE": "03 - Média", "CD_FAZ": "400527", "TALHOES": "1", "FAZ_tAL": "400527001", "ID_LINHA": 757 }, "geometry": { "type": "MultiLineString", "coordinates": [ [ [ 403963.255460300133564, 7611733.840742122381926 ], [ 404540.056564126338344, 7611706.870489140972495 ] ] ] } },
{ "type": "Feature", "properties": { "fid": 60.0, "COMPR_M": 579.62, "CLASSE": "03 - Média", "CD_FAZ": "400527", "TALHOES": "1", "FAZ_tAL": "400527001", "ID_LINHA": 758 }, "geometry": { "type": "MultiLineString", "coordinates": [ [ [ 403963.499274755595252, 7611739.835897207260132 ], [ 404542.324840800021775, 7611712.770983766764402 ] ] ] } },
{ "type": "Feature", "properties": { "fid": 61.0, "COMPR_M": 580.64, "CLASSE": "03 - Média", "CD_FAZ": "400527", "TALHOES": "1", "FAZ_tAL": "400527001", "ID_LINHA": 759 }, "geometry": { "type": "MultiLineString", "coordinates": [ [ [ 403963.621181982918642, 7611742.83347475156188 ], [ 404543.458979136426933, 7611715.721231078729033 ] ] ] } },
{ "type": "Feature", "properties": { "fid": 62.0, "COMPR_M": 581.65, "CLASSE": "03 - Média", "CD_FAZ": "400527", "TALHOES": "1", "FAZ_tAL": "400527001", "ID_LINHA": 760 }, "geometry": { "type": "MultiLineString", "coordinates": [ [ [ 403963.743089209718164, 7611745.831052294000983 ], [ 404544.593117473705206, 7611718.671478393487632 ] ] ] } },
{ "type": "Feature", "properties": { "fid": 63.0, "COMPR_M": 582.67, "CLASSE": "03 - Média", "CD_FAZ": "400527", "TALHOES": "1", "FAZ_tAL": "400527001", "ID_LINHA": 761 }, "geometry": { "type": "MultiLineString", "coordinates": [ [ [ 403963.864996436634101, 7611748.828629836440086 ], [ 404545.727255811099894, 7611721.621725707314909 ] ] ] } },
{ "type": "Feature", "properties": { "fid": 64.0, "COMPR_M": 569.13, "CLASSE": "03 - Média", "CD_FAZ": "400527", "TALHOES": "1", "FAZ_tAL": "400527001", "ID_LINHA": 762 }, "geometry": { "type": "MultiLineString", "coordinates": [ [ [ 403978.514558344730176, 7611751.146918594837189 ], [ 404546.861394147970714, 7611724.571973017416894 ] ] ] } },
{ "type": "Feature", "properties": { "fid": 65.0, "COMPR_M": 571.11, "CLASSE": "03 - Média", "CD_FAZ": "400527", "TALHOES": "1", "FAZ_tAL": "400527001", "ID_LINHA": 763 }, "geometry": { "type": "MultiLineString", "coordinates": [ [ [ 403978.809273480786942, 7611757.139693649485707 ], [ 404549.129670820315368, 7611730.472467640414834 ] ] ] } },
{ "type": "Feature", "properties": { "fid": 66.0, "COMPR_M": 572.1, "CLASSE": "03 - Média", "CD_FAZ": "400527", "TALHOES": "1", "FAZ_tAL": "400527001", "ID_LINHA": 764 }, "geometry": { "type": "MultiLineString", "coordinates": [ [ [ 403978.956631048000418, 7611760.136081178672612 ], [ 404550.263809156953357, 7611733.422714955173433 ] ] ] } },
{ "type": "Feature", "properties": { "fid": 67.0, "COMPR_M": 573.08, "CLASSE": "03 - Média", "CD_FAZ": "400527", "TALHOES": "1", "FAZ_tAL": "400527001", "ID_LINHA": 765 }, "geometry": { "type": "MultiLineString", "coordinates": [ [ [ 403979.103988616960123, 7611763.132468704134226 ], [ 404551.397947496385314, 7611736.372962269000709 ] ] ] } },
{ "type": "Feature", "properties": { "fid": 68.0, "COMPR_M": 574.07, "CLASSE": "03 - Média", "CD_FAZ": "400527", "TALHOES": "1", "FAZ_tAL": "400527001", "ID_LINHA": 766 }, "geometry": { "type": "MultiLineString", "coordinates": [ [ [ 403979.251346184930298, 7611766.128856230527163 ], [ 404552.532085832033772, 7611739.323209580034018 ] ] ] } },
{ "type": "Feature", "properties": { "fid": 69.0, "COMPR_M": 575.06, "CLASSE": "03 - Média", "CD_FAZ": "400527", "TALHOES": "1", "FAZ_tAL": "400527001", "ID_LINHA": 767 }, "geometry": { "type": "MultiLineString", "coordinates": [ [ [ 403979.398703751852736, 7611769.12524376064539 ], [ 404553.666224168497138, 7611742.273456895723939 ] ] ] } },
{ "type": "Feature", "properties": { "fid": 70.0, "COMPR_M": 577.04, "CLASSE": "03 - Média", "CD_FAZ": "400527", "TALHOES": "1", "FAZ_tAL": "400527001", "ID_LINHA": 768 }, "geometry": { "type": "MultiLineString", "coordinates": [ [ [ 403979.693418888142332, 7611775.118018817156553 ], [ 404555.934500843170099, 7611748.173951521515846 ] ] ] } },
{ "type": "Feature", "properties": { "fid": 71.0, "COMPR_M": 578.02, "CLASSE": "03 - Média", "CD_FAZ": "400527", "TALHOES": "1", "FAZ_tAL": "400527001", "ID_LINHA": 769 }, "geometry": { "type": "MultiLineString", "coordinates": [ [ [ 403979.840776456170715, 7611778.11440634354949 ], [ 404557.06863918073941, 7611751.124198832549155 ] ] ] } },
{ "type": "Feature", "properties": { "fid": 72.0, "COMPR_M": 579.01, "CLASSE": "03 - Média", "CD_FAZ": "400527", "TALHOES": "1", "FAZ_tAL": "400527001", "ID_LINHA": 770 }, "geometry": { "type": "MultiLineString", "coordinates": [ [ [ 403979.988134023209568, 7611781.110793871805072 ], [ 404558.202777517086361, 7611754.074446145445108 ] ] ] } },
{ "type": "Feature", "properties": { "fid": 73.0, "COMPR_M": 580.0, "CLASSE": "03 - Média", "CD_FAZ": "400527", "TALHOES": "1", "FAZ_tAL": "400527001", "ID_LINHA": 771 }, "geometry": { "type": "MultiLineString", "coordinates": [ [ [ 403980.135491591878235, 7611784.107181401923299 ], [ 404559.336915853666142, 7611757.024693457409739 ] ] ] } },
{ "type": "Feature", "properties": { "fid": 74.0, "COMPR_M": 580.99, "CLASSE": "03 - Média", "CD_FAZ": "400527", "TALHOES": "1", "FAZ_tAL": "400527001", "ID_LINHA": 772 }, "geometry": { "type": "MultiLineString", "coordinates": [ [ [ 403980.282849160255864, 7611787.103568928316236 ], [ 404560.471054191584699, 7611759.974940773099661 ] ] ] } },
{ "type": "Feature", "properties": { "fid": 75.0, "COMPR_M": 582.96, "CLASSE": "03 - Média", "CD_FAZ": "400527", "TALHOES": "1", "FAZ_tAL": "400527001", "ID_LINHA": 773 }, "geometry": { "type": "MultiLineString", "coordinates": [ [ [ 403980.5775642960798, 7611793.096343982964754 ], [ 404562.739330864045769, 7611765.8754353960976 ] ] ] } },
{ "type": "Feature", "properties": { "fid": 76.0, "COMPR_M": 583.95, "CLASSE": "03 - Média", "CD_FAZ": "400527", "TALHOES": "1", "FAZ_tAL": "400527001", "ID_LINHA": 774 }, "geometry": { "type": "MultiLineString", "coordinates": [ [ [ 403980.724921863467898, 7611796.092731509357691 ], [ 404563.873469201149419, 7611768.825682707130909 ] ] ] } },
{ "type": "Feature", "properties": { "fid": 77.0, "COMPR_M": 584.94, "CLASSE": "03 - Média", "CD_FAZ": "400527", "TALHOES": "1", "FAZ_tAL": "400527001", "ID_LINHA": 775 }, "geometry": { "type": "MultiLineString", "coordinates": [ [ [ 403980.872279431961942, 7611799.089119037613273 ], [ 404565.007607537670992, 7611771.775930020958185 ] ] ] } },
{ "type": "Feature", "properties": { "fid": 78.0, "COMPR_M": 585.93, "CLASSE": "03 - Média", "CD_FAZ": "400527", "TALHOES": "1", "FAZ_tAL": "400527001", "ID_LINHA": 776 }, "geometry": { "type": "MultiLineString", "coordinates": [ [ [ 403981.019636998709757, 7611802.085506569594145 ], [ 404566.141745875647757, 7611774.726177336648107 ] ] ] } },
{ "type": "Feature", "properties": { "fid": 79.0, "COMPR_M": 586.92, "CLASSE": "03 - Média", "CD_FAZ": "400527", "TALHOES": "1", "FAZ_tAL": "400527001", "ID_LINHA": 777 }, "geometry": { "type": "MultiLineString", "coordinates": [ [ [ 403981.166994567203801, 7611805.081894094124436 ], [ 404567.275884211820085, 7611777.676424646750093 ] ] ] } },
{ "type": "Feature", "properties": { "fid": 80.0, "COMPR_M": 598.23, "CLASSE": "03 - Média", "CD_FAZ": "400527", "TALHOES": "1", "FAZ_tAL": "400527001", "ID_LINHA": 778 }, "geometry": { "type": "MultiLineString", "coordinates": [ [ [ 403966.476980293518864, 7611811.775329984724522 ], [ 404563.881268901866861, 7611783.841706614010036 ] ] ] } },
{ "type": "Feature", "properties": { "fid": 81.0, "COMPR_M": 598.24, "CLASSE": "03 - Média", "CD_FAZ": "400527", "TALHOES": "1", "FAZ_tAL": "400527001", "ID_LINHA": 779 }, "geometry": { "type": "MultiLineString", "coordinates": [ [ [ 403966.60261275304947, 7611814.772733341902494 ], [ 404564.021390782261733, 7611786.838432468473911 ] ] ] } },
{ "type": "Feature", "properties": { "fid": 82.0, "COMPR_M": 598.26, "CLASSE": "03 - Média", "CD_FAZ": "400527", "TALHOES": "1", "FAZ_tAL": "400527001", "ID_LINHA": 780 }, "geometry": { "type": "MultiLineString", "coordinates": [ [ [ 403966.728245211357716, 7611817.770136699080467 ], [ 404564.161512661492452, 7611789.835158323869109 ] ] ] } },
{ "type": "Feature", "properties": { "fid": 83.0, "COMPR_M": 598.27, "CLASSE": "03 - Média", "CD_FAZ": "400527", "TALHOES": "1", "FAZ_tAL": "400527001", "ID_LINHA": 781 }, "geometry": { "type": "MultiLineString", "coordinates": [ [ [ 403966.853877669957001, 7611820.76754005625844 ], [ 404564.301634540141094, 7611792.831884181126952 ] ] ] } },
{ "type": "Feature", "properties": { "fid": 84.0, "COMPR_M": 59.04, "CLASSE": "01 - Muito curta", "CD_FAZ": "400527", "TALHOES": "1", "FAZ_tAL": "400527001", "ID_LINHA": 782 }, "geometry": { "type": "MultiLineString", "coordinates": [ [ [ 403979.381712099886499, 7612129.519364752806723 ], [ 404038.340278584975749, 7612126.762560987845063 ] ] ] } },
{ "type": "Feature", "properties": { "fid": 85.0, "COMPR_M": 70.53, "CLASSE": "01 - Muito curta", "CD_FAZ": "400527", "TALHOES": "1", "FAZ_tAL": "400527001", "ID_LINHA": 783 }, "geometry": { "type": "MultiLineString", "coordinates": [ [ [ 403979.263253542187158, 7612126.521625952795148 ], [ 404049.691244284447748, 7612123.228531133383512 ] ] ] } },
{ "type": "Feature", "properties": { "fid": 86.0, "COMPR_M": 79.65, "CLASSE": "01 - Muito curta", "CD_FAZ": "400527", "TALHOES": "1", "FAZ_tAL": "400527001", "ID_LINHA": 784 }, "geometry": { "type": "MultiLineString", "coordinates": [ [ [ 403979.144794986001216, 7612123.523887157440186 ], [ 404058.683682712959126, 7612119.804782063700259 ] ] ] } },
{ "type": "Feature", "properties": { "fid": 87.0, "COMPR_M": 85.8, "CLASSE": "01 - Muito curta", "CD_FAZ": "400527", "TALHOES": "1", "FAZ_tAL": "400527001", "ID_LINHA": 785 }, "geometry": { "type": "MultiLineString", "coordinates": [ [ [ 403979.026336428010836, 7612120.526148359291255 ], [ 404064.71173700527288, 7612116.519642623141408 ] ] ] } },
{ "type": "Feature", "properties": { "fid": 88.0, "COMPR_M": 90.21, "CLASSE": "01 - Muito curta", "CD_FAZ": "400527", "TALHOES": "1", "FAZ_tAL": "400527001", "ID_LINHA": 786 }, "geometry": { "type": "MultiLineString", "coordinates": [ [ [ 403978.907877872232348, 7612117.528409563004971 ], [ 404068.995729583024513, 7612113.316052589565516 ] ] ] } },
{ "type": "Feature", "properties": { "fid": 89.0, "COMPR_M": 96.23, "CLASSE": "01 - Muito curta", "CD_FAZ": "400527", "TALHOES": "1", "FAZ_tAL": "400527001", "ID_LINHA": 787 }, "geometry": { "type": "MultiLineString", "coordinates": [ [ [ 403978.670960756600834, 7612111.53293196670711 ], [ 404074.770196016586851, 7612107.039492774754763 ] ] ] } },
{ "type": "Feature", "properties": { "fid": 90.0, "COMPR_M": 98.71, "CLASSE": "01 - Muito curta", "CD_FAZ": "400527", "TALHOES": "1", "FAZ_tAL": "400527001", "ID_LINHA": 788 }, "geometry": { "type": "MultiLineString", "coordinates": [ [ [ 403978.552502199425362, 7612108.535193171352148 ], [ 404077.13148489658488, 7612103.925805144011974 ] ] ] } },
{ "type": "Feature", "properties": { "fid": 91.0, "COMPR_M": 101.14, "CLASSE": "02 - Curta", "CD_FAZ": "400527", "TALHOES": "1", "FAZ_tAL": "400527001", "ID_LINHA": 789 }, "geometry": { "type": "MultiLineString", "coordinates": [ [ [ 403978.434043643763289, 7612105.537454374134541 ], [ 404079.435451837547589, 7612100.814797790721059 ] ] ] } },
{ "type": "Feature", "properties": { "fid": 92.0, "COMPR_M": 103.58, "CLASSE": "02 - Curta", "CD_FAZ": "400527", "TALHOES": "1", "FAZ_tAL": "400527001", "ID_LINHA": 790 }, "geometry": { "type": "MultiLineString", "coordinates": [ [ [ 403978.315585086354986, 7612102.53971557598561 ], [ 404081.753995908598881, 7612097.703108832240105 ] ] ] } },
{ "type": "Feature", "properties": { "fid": 93.0, "COMPR_M": 106.1, "CLASSE": "02 - Curta", "CD_FAZ": "400527", "TALHOES": "1", "FAZ_tAL": "400527001", "ID_LINHA": 791 }, "geometry": { "type": "MultiLineString", "coordinates": [ [ [ 403978.197126529703382, 7612099.541976779699326 ], [ 404084.15134631114779, 7612094.587735027074814 ] ] ] } },
{ "type": "Feature", "properties": { "fid": 94.0, "COMPR_M": 111.24, "CLASSE": "02 - Curta", "CD_FAZ": "400527", "TALHOES": "1", "FAZ_tAL": "400527001", "ID_LINHA": 792 }, "geometry": { "type": "MultiLineString", "coordinates": [ [ [ 403977.959406335488893, 7612093.546536738052964 ], [ 404089.047312732494902, 7612088.352252402342856 ] ] ] } },
{ "type": "Feature", "properties": { "fid": 95.0, "COMPR_M": 113.6, "CLASSE": "02 - Curta", "CD_FAZ": "400527", "TALHOES": "1", "FAZ_tAL": "400527001", "ID_LINHA": 793 }, "geometry": { "type": "MultiLineString", "coordinates": [ [ [ 403977.840522752085235, 7612090.548817813396454 ], [ 404091.282783840375487, 7612085.24444779753685 ] ] ] } },
{ "type": "Feature", "properties": { "fid": 96.0, "COMPR_M": 115.79, "CLASSE": "02 - Curta", "CD_FAZ": "400527", "TALHOES": "1", "FAZ_tAL": "400527001", "ID_LINHA": 794 }, "geometry": { "type": "MultiLineString", "coordinates": [ [ [ 403977.721639169729315, 7612087.551098890602589 ], [ 404093.347974864766002, 7612082.144605203531682 ] ] ] } },
{ "type": "Feature", "properties": { "fid": 97.0, "COMPR_M": 117.89, "CLASSE": "02 - Curta", "CD_FAZ": "400527", "TALHOES": "1", "FAZ_tAL": "400527001", "ID_LINHA": 795 }, "geometry": { "type": "MultiLineString", "coordinates": [ [ [ 403977.602755587024149, 7612084.553379965946078 ], [ 404095.335054279188626, 7612079.048414980992675 ] ] ] } },
{ "type": "Feature", "properties": { "fid": 98.0, "COMPR_M": 120.01, "CLASSE": "02 - Curta", "CD_FAZ": "400527", "TALHOES": "1", "FAZ_tAL": "400527001", "ID_LINHA": 796 }, "geometry": { "type": "MultiLineString", "coordinates": [ [ [ 403977.483872004027944, 7612081.555661043152213 ], [ 404097.325318817805964, 7612075.952075822278857 ] ] ] } },
{ "type": "Feature", "properties": { "fid": 99.0, "COMPR_M": 124.09, "CLASSE": "02 - Curta", "CD_FAZ": "400527", "TALHOES": "1", "FAZ_tAL": "400527001", "ID_LINHA": 797 }, "geometry": { "type": "MultiLineString", "coordinates": [ [ [ 403977.246104838501196, 7612075.56022319290787 ], [ 404101.166978143912274, 7612069.765890831127763 ] ] ] } },
{ "type": "Feature", "properties": { "fid": 100.0, "COMPR_M": 125.89, "CLASSE": "02 - Curta", "CD_FAZ": "400527", "TALHOES": "1", "FAZ_tAL": "400527001", "ID_LINHA": 798 }, "geometry": { "type": "MultiLineString", "coordinates": [ [ [ 403977.127221254515462, 7612072.562504271045327 ], [ 404102.844839834724553, 7612066.684159107506275 ] ] ] } },
{ "type": "Feature", "properties": { "fid": 101.0, "COMPR_M": 127.5, "CLASSE": "02 - Curta", "CD_FAZ": "400527", "TALHOES": "1", "FAZ_tAL": "400527001", "ID_LINHA": 799 }, "geometry": { "type": "MultiLineString", "coordinates": [ [ [ 403977.008337673032656, 7612069.564785346388817 ], [ 404104.335916900949087, 7612063.611161124892533 ] ] ] } },
{ "type": "Feature", "properties": { "fid": 102.0, "COMPR_M": 128.98, "CLASSE": "02 - Curta", "CD_FAZ": "400527", "TALHOES": "1", "FAZ_tAL": "400527001", "ID_LINHA": 800 }, "geometry": { "type": "MultiLineString", "coordinates": [ [ [ 403976.889454089803621, 7612066.567066423594952 ], [ 404105.69070142909186, 7612060.544535950757563 ] ] ] } },
{ "type": "Feature", "properties": { "fid": 103.0, "COMPR_M": 130.36, "CLASSE": "02 - Curta", "CD_FAZ": "400527", "TALHOES": "1", "FAZ_tAL": "400527001", "ID_LINHA": 801 }, "geometry": { "type": "MultiLineString", "coordinates": [ [ [ 403976.77057050698204, 7612063.569347498938441 ], [ 404106.952454149781261, 7612057.482260786928236 ] ] ] } },
{ "type": "Feature", "properties": { "fid": 104.0, "COMPR_M": 132.92, "CLASSE": "02 - Curta", "CD_FAZ": "400527", "TALHOES": "1", "FAZ_tAL": "400527001", "ID_LINHA": 802 }, "geometry": { "type": "MultiLineString", "coordinates": [ [ [ 403976.53280334174633, 7612057.573909654282033 ], [ 404109.271965712541714, 7612051.367248872295022 ] ] ] } },
{ "type": "Feature", "properties": { "fid": 105.0, "COMPR_M": 134.11, "CLASSE": "02 - Curta", "CD_FAZ": "400527", "TALHOES": "1", "FAZ_tAL": "400527001", "ID_LINHA": 803 }, "geometry": { "type": "MultiLineString", "coordinates": [ [ [ 403976.413919758691918, 7612054.576190729625523 ], [ 404110.340566067199688, 7612048.314005188643932 ] ] ] } },
{ "type": "Feature", "properties": { "fid": 106.0, "COMPR_M": 135.21, "CLASSE": "02 - Curta", "CD_FAZ": "400527", "TALHOES": "1", "FAZ_tAL": "400527001", "ID_LINHA": 804 }, "geometry": { "type": "MultiLineString", "coordinates": [ [ [ 403976.295036174647976, 7612051.57847180776298 ], [ 404111.318574586184695, 7612045.264997428283095 ] ] ] } },
{ "type": "Feature", "properties": { "fid": 107.0, "COMPR_M": 136.15, "CLASSE": "02 - Curta", "CD_FAZ": "400527", "TALHOES": "1", "FAZ_tAL": "400527001", "ID_LINHA": 805 }, "geometry": { "type": "MultiLineString", "coordinates": [ [ [ 403976.176152592292055, 7612048.580752877518535 ], [ 404112.138055366638582, 7612042.223402161151171 ] ] ] } },
{ "type": "Feature", "properties": { "fid": 108.0, "COMPR_M": 136.87, "CLASSE": "02 - Curta", "CD_FAZ": "400527", "TALHOES": "1", "FAZ_tAL": "400527001", "ID_LINHA": 806 }, "geometry": { "type": "MultiLineString", "coordinates": [ [ [ 403976.057269010285381, 7612045.583033956587315 ], [ 404112.739776705740951, 7612039.191988957114518 ] ] ] } },
{ "type": "Feature", "properties": { "fid": 109.0, "COMPR_M": 137.6, "CLASSE": "02 - Curta", "CD_FAZ": "400527", "TALHOES": "1", "FAZ_tAL": "400527001", "ID_LINHA": 807 }, "geometry": { "type": "MultiLineString", "coordinates": [ [ [ 403975.81950184336165, 7612039.587596110999584 ], [ 404113.233908412163146, 7612033.162328746169806 ] ] ] } },
{ "type": "Feature", "properties": { "fid": 110.0, "COMPR_M": 137.7, "CLASSE": "02 - Curta", "CD_FAZ": "400527", "TALHOES": "1", "FAZ_tAL": "400527001", "ID_LINHA": 808 }, "geometry": { "type": "MultiLineString", "coordinates": [ [ [ 403975.70061826048186, 7612036.589877186343074 ], [ 404113.212013012846, 7612030.160074817016721 ] ] ] } },
{ "type": "Feature", "properties": { "fid": 111.0, "COMPR_M": 137.67, "CLASSE": "02 - Curta", "CD_FAZ": "400527", "TALHOES": "1", "FAZ_tAL": "400527001", "ID_LINHA": 809 }, "geometry": { "type": "MultiLineString", "coordinates": [ [ [ 403975.581734678591602, 7612033.592158263549209 ], [ 404113.063474597758614, 7612027.163742503151298 ] ] ] } },
{ "type": "Feature", "properties": { "fid": 112.0, "COMPR_M": 137.56, "CLASSE": "02 - Curta", "CD_FAZ": "400527", "TALHOES": "1", "FAZ_tAL": "400527001", "ID_LINHA": 810 }, "geometry": { "type": "MultiLineString", "coordinates": [ [ [ 403975.462851095711812, 7612030.594439338892698 ], [ 404112.830521769239567, 7612024.171357268467546 ] ] ] } },
{ "type": "Feature", "properties": { "fid": 113.0, "COMPR_M": 137.41, "CLASSE": "02 - Curta", "CD_FAZ": "400527", "TALHOES": "1", "FAZ_tAL": "400527001", "ID_LINHA": 811 }, "geometry": { "type": "MultiLineString", "coordinates": [ [ [ 403975.343967513181269, 7612027.596720416098833 ], [ 404112.560584186867345, 7612021.180701374076307 ] ] ] } },
{ "type": "Feature", "properties": { "fid": 114.0, "COMPR_M": 137.21, "CLASSE": "02 - Curta", "CD_FAZ": "400527", "TALHOES": "1", "FAZ_tAL": "400527001", "ID_LINHA": 812 }, "geometry": { "type": "MultiLineString", "coordinates": [ [ [ 403975.106200347305275, 7612021.601282568648458 ], [ 404112.129674131632783, 7612015.194294564425945 ] ] ] } },
{ "type": "Feature", "properties": { "fid": 115.0, "COMPR_M": 137.35, "CLASSE": "02 - Curta", "CD_FAZ": "400527", "TALHOES": "1", "FAZ_tAL": "400527001", "ID_LINHA": 813 }, "geometry": { "type": "MultiLineString", "coordinates": [ [ [ 403974.987316764541902, 7612018.603563645854592 ], [ 404112.146439211792313, 7612012.190232937224209 ] ] ] } },
{ "type": "Feature", "properties": { "fid": 116.0, "COMPR_M": 137.84, "CLASSE": "02 - Curta", "CD_FAZ": "400527", "TALHOES": "1", "FAZ_tAL": "400527001", "ID_LINHA": 814 }, "geometry": { "type": "MultiLineString", "coordinates": [ [ [ 403974.868433182185981, 7612015.605844720266759 ], [ 404112.522938827285543, 7612009.169350726529956 ] ] ] } },
{ "type": "Feature", "properties": { "fid": 117.0, "COMPR_M": 138.92, "CLASSE": "02 - Curta", "CD_FAZ": "400527", "TALHOES": "1", "FAZ_tAL": "400527001", "ID_LINHA": 815 }, "geometry": { "type": "MultiLineString", "coordinates": [ [ [ 403974.749549598840531, 7612012.608125797472894 ], [ 404113.476601878239308, 7612006.121481317095459 ] ] ] } },
{ "type": "Feature", "properties": { "fid": 118.0, "COMPR_M": 140.64, "CLASSE": "02 - Curta", "CD_FAZ": "400527", "TALHOES": "1", "FAZ_tAL": "400527001", "ID_LINHA": 816 }, "geometry": { "type": "MultiLineString", "coordinates": [ [ [ 403974.630666015844326, 7612009.610406872816384 ], [ 404115.078553000581451, 7612003.043299047276378 ] ] ] } },
{ "type": "Feature", "properties": { "fid": 119.0, "COMPR_M": 145.92, "CLASSE": "02 - Curta", "CD_FAZ": "400527", "TALHOES": "1", "FAZ_tAL": "400527001", "ID_LINHA": 817 }, "geometry": { "type": "MultiLineString", "coordinates": [ [ [ 403974.392898850259371, 7612003.614969029091299 ], [ 404120.111066236160696, 7611996.801431722939014 ] ] ] } },
{ "type": "Feature", "properties": { "fid": 120.0, "COMPR_M": 149.96, "CLASSE": "02 - Curta", "CD_FAZ": "400527", "TALHOES": "1", "FAZ_tAL": "400527001", "ID_LINHA": 818 }, "geometry": { "type": "MultiLineString", "coordinates": [ [ [ 403974.274015267728828, 7612000.617250103503466 ], [ 404124.023559252440464, 7611993.615212385542691 ] ] ] } },
{ "type": "Feature", "properties": { "fid": 121.0, "COMPR_M": 200.66, "CLASSE": "02 - Curta", "CD_FAZ": "400527", "TALHOES": "1", "FAZ_tAL": "400527001", "ID_LINHA": 819 }, "geometry": { "type": "MultiLineString", "coordinates": [ [ [ 403974.155131684150547, 7611997.619531177915633 ], [ 404174.543109018122777, 7611988.249725177884102 ] ] ] } },
{ "type": "Feature", "properties": { "fid": 122.0, "COMPR_M": 211.2, "CLASSE": "02 - Curta", "CD_FAZ": "400527", "TALHOES": "1", "FAZ_tAL": "400527001", "ID_LINHA": 820 }, "geometry": { "type": "MultiLineString", "coordinates": [ [ [ 403974.036248100339435, 7611994.62181225605309 ], [ 404184.944812527683098, 7611984.760081235319376 ] ] ] } },
{ "type": "Feature", "properties": { "fid": 123.0, "COMPR_M": 219.05, "CLASSE": "02 - Curta", "CD_FAZ": "400527", "TALHOES": "1", "FAZ_tAL": "400527001", "ID_LINHA": 821 }, "geometry": { "type": "MultiLineString", "coordinates": [ [ [ 403973.917364518158138, 7611991.62409333139658 ], [ 404192.670251602539793, 7611981.395574931055307 ] ] ] } },
{ "type": "Feature", "properties": { "fid": 124.0, "COMPR_M": 234.76, "CLASSE": "02 - Curta", "CD_FAZ": "400527", "TALHOES": "1", "FAZ_tAL": "400527001", "ID_LINHA": 822 }, "geometry": { "type": "MultiLineString", "coordinates": [ [ [ 403973.679597352282144, 7611985.628655483946204 ], [ 404208.120869559119456, 7611974.666574485599995 ] ] ] } },
{ "type": "Feature", "properties": { "fid": 125.0, "COMPR_M": 242.44, "CLASSE": "02 - Curta", "CD_FAZ": "400527", "TALHOES": "1", "FAZ_tAL": "400527001", "ID_LINHA": 823 }, "geometry": { "type": "MultiLineString", "coordinates": [ [ [ 403973.56071376928594, 7611982.630936561152339 ], [ 404215.667285211384296, 7611971.310439013876021 ] ] ] } },
{ "type": "Feature", "properties": { "fid": 126.0, "COMPR_M": 250.12, "CLASSE": "02 - Curta", "CD_FAZ": "400527", "TALHOES": "1", "FAZ_tAL": "400527001", "ID_LINHA": 824 }, "geometry": { "type": "MultiLineString", "coordinates": [ [ [ 403973.441830187279265, 7611979.633217637427151 ], [ 404223.221435181912966, 7611967.953941903077066 ] ] ] } },
{ "type": "Feature", "properties": { "fid": 127.0, "COMPR_M": 257.69, "CLASSE": "02 - Curta", "CD_FAZ": "400527", "TALHOES": "1", "FAZ_tAL": "400527001", "ID_LINHA": 825 }, "geometry": { "type": "MultiLineString", "coordinates": [ [ [ 403973.322946604224853, 7611976.635498714633286 ], [ 404230.657296391553245, 7611964.602975773625076 ] ] ] } },
{ "type": "Feature", "properties": { "fid": 128.0, "COMPR_M": 264.86, "CLASSE": "02 - Curta", "CD_FAZ": "400527", "TALHOES": "1", "FAZ_tAL": "400527001", "ID_LINHA": 826 }, "geometry": { "type": "MultiLineString", "coordinates": [ [ [ 403973.204063022276387, 7611973.637779789976776 ], [ 404237.703916337457485, 7611961.270209912210703 ] ] ] } },
{ "type": "Feature", "properties": { "fid": 129.0, "COMPR_M": 280.53, "CLASSE": "02 - Curta", "CD_FAZ": "400527", "TALHOES": "1", "FAZ_tAL": "400527001", "ID_LINHA": 827 }, "geometry": { "type": "MultiLineString", "coordinates": [ [ [ 403972.966295856109355, 7611967.642341943457723 ], [ 404253.106489869183861, 7611954.543455945327878 ] ] ] } },
{ "type": "Feature", "properties": { "fid": 130.0, "COMPR_M": 288.45, "CLASSE": "02 - Curta", "CD_FAZ": "400527", "TALHOES": "1", "FAZ_tAL": "400527001", "ID_LINHA": 828 }, "geometry": { "type": "MultiLineString", "coordinates": [ [ [ 403972.847412272589281, 7611964.644623020663857 ], [ 404260.898605166294146, 7611951.175831973552704 ] ] ] } },
{ "type": "Feature", "properties": { "fid": 131.0, "COMPR_M": 296.18, "CLASSE": "02 - Curta", "CD_FAZ": "400527", "TALHOES": "1", "FAZ_tAL": "400527001", "ID_LINHA": 829 }, "geometry": { "type": "MultiLineString", "coordinates": [ [ [ 403972.728528691397514, 7611961.646904097869992 ], [ 404268.504682806611527, 7611947.816906807012856 ] ] ] } },
{ "type": "Feature", "properties": { "fid": 132.0, "COMPR_M": 303.65, "CLASSE": "03 - Média", "CD_FAZ": "400527", "TALHOES": "1", "FAZ_tAL": "400527001", "ID_LINHA": 830 }, "geometry": { "type": "MultiLineString", "coordinates": [ [ [ 403972.609645107237156, 7611958.649185171350837 ], [ 404275.839418303454295, 7611944.47066914755851 ] ] ] } },
{ "type": "Feature", "properties": { "fid": 133.0, "COMPR_M": 311.07, "CLASSE": "03 - Média", "CD_FAZ": "400527", "TALHOES": "1", "FAZ_tAL": "400527001", "ID_LINHA": 831 }, "geometry": { "type": "MultiLineString", "coordinates": [ [ [ 403972.490761524823029, 7611955.651466247625649 ], [ 404283.130774549965281, 7611941.126459827646613 ] ] ] } },
{ "type": "Feature", "properties": { "fid": 134.0, "COMPR_M": 325.55, "CLASSE": "03 - Média", "CD_FAZ": "400527", "TALHOES": "1", "FAZ_tAL": "400527001", "ID_LINHA": 832 }, "geometry": { "type": "MultiLineString", "coordinates": [ [ [ 403972.252994357724674, 7611949.656028400175273 ], [ 404297.353675846941769, 7611934.454865356907248 ] ] ] } },
{ "type": "Feature", "properties": { "fid": 135.0, "COMPR_M": 332.93, "CLASSE": "03 - Média", "CD_FAZ": "400527", "TALHOES": "1", "FAZ_tAL": "400527001", "ID_LINHA": 833 }, "geometry": { "type": "MultiLineString", "coordinates": [ [ [ 403972.130440954118967, 7611946.658481072634459 ], [ 404304.601802608231083, 7611931.112677374854684 ] ] ] } },
{ "type": "Feature", "properties": { "fid": 136.0, "COMPR_M": 340.17, "CLASSE": "03 - Média", "CD_FAZ": "400527", "TALHOES": "1", "FAZ_tAL": "400527001", "ID_LINHA": 834 }, "geometry": { "type": "MultiLineString", "coordinates": [ [ [ 403972.004808494704776, 7611943.661077713593841 ], [ 404311.706088276929222, 7611927.7772151613608 ] ] ] } },
{ "type": "Feature", "properties": { "fid": 137.0, "COMPR_M": 348.0, "CLASSE": "03 - Média", "CD_FAZ": "400527", "TALHOES": "1", "FAZ_tAL": "400527001", "ID_LINHA": 835 }, "geometry": { "type": "MultiLineString", "coordinates": [ [ [ 403971.879176037502475, 7611940.663674356415868 ], [ 404319.396996221039444, 7611924.414323475211859 ] ] ] } },
{ "type": "Feature", "properties": { "fid": 138.0, "COMPR_M": 354.98, "CLASSE": "03 - Média", "CD_FAZ": "400527", "TALHOES": "1", "FAZ_tAL": "400527001", "ID_LINHA": 836 }, "geometry": { "type": "MultiLineString", "coordinates": [ [ [ 403971.753543577855453, 7611937.66627099737525 ], [ 404326.245831326057669, 7611921.090805701911449 ] ] ] } },
{ "type": "Feature", "properties": { "fid": 139.0, "COMPR_M": 362.56, "CLASSE": "03 - Média", "CD_FAZ": "400527", "TALHOES": "1", "FAZ_tAL": "400527001", "ID_LINHA": 837 }, "geometry": { "type": "MultiLineString", "coordinates": [ [ [ 403971.502278659318108, 7611931.671464283950627 ], [ 404333.56458150933031, 7611914.742037767544389 ] ] ] } },
{ "type": "Feature", "properties": { "fid": 140.0, "COMPR_M": 365.44, "CLASSE": "03 - Média", "CD_FAZ": "400527", "TALHOES": "1", "FAZ_tAL": "400527001", "ID_LINHA": 838 }, "geometry": { "type": "MultiLineString", "coordinates": [ [ [ 403971.376646201009862, 7611928.674060928635299 ], [ 404336.308561314363033, 7611911.610456150956452 ] ] ] } },
{ "type": "Feature", "properties": { "fid": 141.0, "COMPR_M": 368.08, "CLASSE": "03 - Média", "CD_FAZ": "400527", "TALHOES": "1", "FAZ_tAL": "400527001", "ID_LINHA": 839 }, "geometry": { "type": "MultiLineString", "coordinates": [ [ [ 403971.251013741595671, 7611925.676657568663359 ], [ 404338.827962076524273, 7611908.489375470206141 ] ] ] } },
{ "type": "Feature", "properties": { "fid": 142.0, "COMPR_M": 370.58, "CLASSE": "03 - Média", "CD_FAZ": "400527", "TALHOES": "1", "FAZ_tAL": "400527001", "ID_LINHA": 840 }, "geometry": { "type": "MultiLineString", "coordinates": [ [ [ 403971.125381281774025, 7611922.679254211485386 ], [ 404341.192038499866612, 7611905.375557499006391 ] ] ] } },
{ "type": "Feature", "properties": { "fid": 143.0, "COMPR_M": 373.11, "CLASSE": "03 - Média", "CD_FAZ": "400527", "TALHOES": "1", "FAZ_tAL": "400527001", "ID_LINHA": 841 }, "geometry": { "type": "MultiLineString", "coordinates": [ [ [ 403970.999748824106064, 7611919.681850856170058 ], [ 404343.596994046296459, 7611902.259828086942434 ] ] ] } },
{ "type": "Feature", "properties": { "fid": 144.0, "COMPR_M": 410.5, "CLASSE": "03 - Média", "CD_FAZ": "400527", "TALHOES": "1", "FAZ_tAL": "400527001", "ID_LINHA": 842 }, "geometry": { "type": "MultiLineString", "coordinates": [ [ [ 403970.748483905568719, 7611913.687044139951468 ], [ 404380.68422400316922, 7611894.519135924987495 ] ] ] } },
{ "type": "Feature", "properties": { "fid": 145.0, "COMPR_M": 418.1, "CLASSE": "03 - Média", "CD_FAZ": "400527", "TALHOES": "1", "FAZ_tAL": "400527001", "ID_LINHA": 843 }, "geometry": { "type": "MultiLineString", "coordinates": [ [ [ 403970.622851445921697, 7611910.68964078463614 ], [ 404388.148273851082195, 7611891.166851740330458 ] ] ] } },
{ "type": "Feature", "properties": { "fid": 146.0, "COMPR_M": 426.06, "CLASSE": "03 - Média", "CD_FAZ": "400527", "TALHOES": "1", "FAZ_tAL": "400527001", "ID_LINHA": 844 }, "geometry": { "type": "MultiLineString", "coordinates": [ [ [ 403970.497218985925429, 7611907.692237423732877 ], [ 404395.97459061362315, 7611887.797628566622734 ] ] ] } },
{ "type": "Feature", "properties": { "fid": 147.0, "COMPR_M": 433.89, "CLASSE": "03 - Média", "CD_FAZ": "400527", "TALHOES": "1", "FAZ_tAL": "400527001", "ID_LINHA": 845 }, "geometry": { "type": "MultiLineString", "coordinates": [ [ [ 403970.371586527384352, 7611904.694834067486227 ], [ 404403.666340894473251, 7611884.434697492979467 ] ] ] } },
{ "type": "Feature", "properties": { "fid": 148.0, "COMPR_M": 442.16, "CLASSE": "03 - Média", "CD_FAZ": "400527", "TALHOES": "1", "FAZ_tAL": "400527001", "ID_LINHA": 846 }, "geometry": { "type": "MultiLineString", "coordinates": [ [ [ 403970.245954067155253, 7611901.697430709376931 ], [ 404411.798939392203465, 7611881.051153095439076 ] ] ] } },
{ "type": "Feature", "properties": { "fid": 149.0, "COMPR_M": 459.43, "CLASSE": "03 - Média", "CD_FAZ": "400527", "TALHOES": "1", "FAZ_tAL": "400527001", "ID_LINHA": 847 }, "geometry": { "type": "MultiLineString", "coordinates": [ [ [ 403969.994689148617908, 7611895.702623996883631 ], [ 404428.788163281744346, 7611874.250210015103221 ] ] ] } },
{ "type": "Feature", "properties": { "fid": 150.0, "COMPR_M": 466.79, "CLASSE": "03 - Média", "CD_FAZ": "400527", "TALHOES": "1", "FAZ_tAL": "400527001", "ID_LINHA": 848 }, "geometry": { "type": "MultiLineString", "coordinates": [ [ [ 403969.869056691008154, 7611892.705220637843013 ], [ 404436.020115179533605, 7611870.908778342418373 ] ] ] } },
{ "type": "Feature", "properties": { "fid": 151.0, "COMPR_M": 473.62, "CLASSE": "03 - Média", "CD_FAZ": "400527", "TALHOES": "1", "FAZ_tAL": "400527001", "ID_LINHA": 849 }, "geometry": { "type": "MultiLineString", "coordinates": [ [ [ 403969.743424231593963, 7611889.707817278802395 ], [ 404442.711005406919867, 7611867.59264580719173 ] ] ] } },
{ "type": "Feature", "properties": { "fid": 152.0, "COMPR_M": 479.8, "CLASSE": "03 - Média", "CD_FAZ": "400527", "TALHOES": "1", "FAZ_tAL": "400527001", "ID_LINHA": 850 }, "geometry": { "type": "MultiLineString", "coordinates": [ [ [ 403969.61779177247081, 7611886.710413922555745 ], [ 404448.75830287655117, 7611864.306606591679156 ] ] ] } },
{ "type": "Feature", "properties": { "fid": 153.0, "COMPR_M": 485.73, "CLASSE": "03 - Média", "CD_FAZ": "400527", "TALHOES": "1", "FAZ_tAL": "400527001", "ID_LINHA": 851 }, "geometry": { "type": "MultiLineString", "coordinates": [ [ [ 403969.492159312183503, 7611883.71301056817174 ], [ 404454.551386415841989, 7611861.032453993335366 ] ] ] } },
{ "type": "Feature", "properties": { "fid": 154.0, "COMPR_M": 498.8, "CLASSE": "03 - Média", "CD_FAZ": "400527", "TALHOES": "1", "FAZ_tAL": "400527001", "ID_LINHA": 852 }, "geometry": { "type": "MultiLineString", "coordinates": [ [ [ 403969.24089439510135, 7611877.718203850090504 ], [ 404467.357467251596972, 7611854.427107675932348 ] ] ] } },
{ "type": "Feature", "properties": { "fid": 155.0, "COMPR_M": 505.03, "CLASSE": "03 - Média", "CD_FAZ": "400527", "TALHOES": "1", "FAZ_tAL": "400527001", "ID_LINHA": 853 }, "geometry": { "type": "MultiLineString", "coordinates": [ [ [ 403969.115261935512535, 7611874.720800491981208 ], [ 404473.4460124761099, 7611851.13913977984339 ] ] ] } },
{ "type": "Feature", "properties": { "fid": 156.0, "COMPR_M": 509.93, "CLASSE": "03 - Média", "CD_FAZ": "400527", "TALHOES": "1", "FAZ_tAL": "400527001", "ID_LINHA": 854 }, "geometry": { "type": "MultiLineString", "coordinates": [ [ [ 403968.989629476156551, 7611871.723397134803236 ], [ 404478.214345308893826, 7611847.912902808748186 ] ] ] } },
{ "type": "Feature", "properties": { "fid": 157.0, "COMPR_M": 513.87, "CLASSE": "03 - Média", "CD_FAZ": "400527", "TALHOES": "1", "FAZ_tAL": "400527001", "ID_LINHA": 855 }, "geometry": { "type": "MultiLineString", "coordinates": [ [ [ 403968.863997017673682, 7611868.725993777625263 ], [ 404482.022498503676616, 7611844.731562225148082 ] ] ] } },
{ "type": "Feature", "properties": { "fid": 158.0, "COMPR_M": 517.19, "CLASSE": "03 - Média", "CD_FAZ": "400527", "TALHOES": "1", "FAZ_tAL": "400527001", "ID_LINHA": 856 }, "geometry": { "type": "MultiLineString", "coordinates": [ [ [ 403968.73836455878336, 7611865.728590419515967 ], [ 404485.212870400573593, 7611841.579108061268926 ] ] ] } },
{ "type": "Feature", "properties": { "fid": 159.0, "COMPR_M": 522.96, "CLASSE": "03 - Média", "CD_FAZ": "400527", "TALHOES": "1", "FAZ_tAL": "400527001", "ID_LINHA": 857 }, "geometry": { "type": "MultiLineString", "coordinates": [ [ [ 403968.487099640304223, 7611859.733783707022667 ], [ 404490.727422621916048, 7611835.314701400697231 ] ] ] } },
{ "type": "Feature", "properties": { "fid": 160.0, "COMPR_M": 525.88, "CLASSE": "03 - Média", "CD_FAZ": "400527", "TALHOES": "1", "FAZ_tAL": "400527001", "ID_LINHA": 858 }, "geometry": { "type": "MultiLineString", "coordinates": [ [ [ 403968.361467180773616, 7611856.736380347982049 ], [ 404493.515867330424953, 7611832.181040676310658 ] ] ] } },
{ "type": "Feature", "properties": { "fid": 161.0, "COMPR_M": 529.51, "CLASSE": "03 - Média", "CD_FAZ": "400527", "TALHOES": "1", "FAZ_tAL": "400527001", "ID_LINHA": 859 }, "geometry": { "type": "MultiLineString", "coordinates": [ [ [ 403968.235834722756408, 7611853.738976988941431 ], [ 404497.017012645839714, 7611829.014055270701647 ] ] ] } },
{ "type": "Feature", "properties": { "fid": 162.0, "COMPR_M": 535.86, "CLASSE": "03 - Média", "CD_FAZ": "400527", "TALHOES": "1", "FAZ_tAL": "400527001", "ID_LINHA": 860 }, "geometry": { "type": "MultiLineString", "coordinates": [ [ [ 403968.110202262992971, 7611850.741573631763458 ], [ 404503.232771588140167, 7611825.72013907879591 ] ] ] } },
{ "type": "Feature", "properties": { "fid": 163.0, "COMPR_M": 545.63, "CLASSE": "03 - Média", "CD_FAZ": "400527", "TALHOES": "1", "FAZ_tAL": "400527001", "ID_LINHA": 861 }, "geometry": { "type": "MultiLineString", "coordinates": [ [ [ 403967.984569803462364, 7611847.744170277379453 ], [ 404512.857917539426126, 7611822.266805663704872 ] ] ] } },
{ "type": "Feature", "properties": { "fid": 164.0, "COMPR_M": 566.36, "CLASSE": "03 - Média", "CD_FAZ": "400527", "TALHOES": "1", "FAZ_tAL": "400527001", "ID_LINHA": 862 }, "geometry": { "type": "MultiLineString", "coordinates": [ [ [ 403967.733304884459358, 7611841.74936355650425 ], [ 404533.311539283720776, 7611815.303873145021498 ] ] ] } },
{ "type": "Feature", "properties": { "fid": 165.0, "COMPR_M": 571.14, "CLASSE": "03 - Média", "CD_FAZ": "400527", "TALHOES": "1", "FAZ_tAL": "400527001", "ID_LINHA": 863 }, "geometry": { "type": "MultiLineString", "coordinates": [ [ [ 403967.607672426267527, 7611838.751960201188922 ], [ 404537.960857499565464, 7611812.083201095461845 ] ] ] } },
{ "type": "Feature", "properties": { "fid": 166.0, "COMPR_M": 575.89, "CLASSE": "03 - Média", "CD_FAZ": "400527", "TALHOES": "1", "FAZ_tAL": "400527001", "ID_LINHA": 864 }, "geometry": { "type": "MultiLineString", "coordinates": [ [ [ 403967.482039966969751, 7611835.754556844010949 ], [ 404542.582324487913866, 7611808.863831324502826 ] ] ] } },
{ "type": "Feature", "properties": { "fid": 167.0, "COMPR_M": 581.87, "CLASSE": "03 - Média", "CD_FAZ": "400527", "TALHOES": "1", "FAZ_tAL": "400527001", "ID_LINHA": 865 }, "geometry": { "type": "MultiLineString", "coordinates": [ [ [ 403967.356407508603297, 7611832.757153486832976 ], [ 404548.423937751096673, 7611805.587409558705986 ] ] ] } },
{ "type": "Feature", "properties": { "fid": 168.0, "COMPR_M": 587.5, "CLASSE": "03 - Média", "CD_FAZ": "400527", "TALHOES": "1", "FAZ_tAL": "400527001", "ID_LINHA": 866 }, "geometry": { "type": "MultiLineString", "coordinates": [ [ [ 403967.23077504907269, 7611829.759750131517649 ], [ 404553.920033659669571, 7611802.327143603004515 ] ] ] } },
{ "type": "Feature", "properties": { "fid": 169.0, "COMPR_M": 594.35, "CLASSE": "03 - Média", "CD_FAZ": "400527", "TALHOES": "1", "FAZ_tAL": "400527001", "ID_LINHA": 867 }, "geometry": { "type": "MultiLineString", "coordinates": [ [ [ 403966.979510130127892, 7611823.764943413436413 ], [ 404560.511658663104754, 7611796.012374822050333 ] ] ] } },
{ "type": "Feature", "properties": { "fid": 170.0, "COMPR_M": 583.69, "CLASSE": "03 - Média", "CD_FAZ": "400527", "TALHOES": "1", "FAZ_tAL": "400527001", "ID_LINHA": 868 }, "geometry": { "type": "MultiLineString", "coordinates": [ [ [ 403981.314352135290392, 7611808.078281624242663 ], [ 404564.200312170549296, 7611780.823510963469744 ] ] ] } },
{ "type": "Feature", "properties": { "fid": 172.0, "COMPR_M": 155.26, "CLASSE": "02 - Curta", "CD_FAZ": "400527", "TALHOES": "1", "FAZ_tAL": "400527001", "ID_LINHA": 869 }, "geometry": { "type": "MultiLineString", "coordinates": [ [ [ 404307.077412303420715, 7611522.551151992753148 ], [ 404462.127861850138288, 7611515.301252815872431 ] ] ] } },
{ "type": "Feature", "properties": { "fid": 173.0, "COMPR_M": 361.8, "CLASSE": "03 - Média", "CD_FAZ": "400527", "TALHOES": "1", "FAZ_tAL": "400527001", "ID_LINHA": 870 }, "geometry": { "type": "MultiLineString", "coordinates": [ [ [ 404107.635974499164149, 7611549.896365713328123 ], [ 404468.932691871421412, 7611533.002736689522862 ] ] ] } },
{ "type": "Feature", "properties": { "fid": 174.0, "COMPR_M": 519.77, "CLASSE": "03 - Média", "CD_FAZ": "400527", "TALHOES": "1", "FAZ_tAL": "400527001", "ID_LINHA": 871 }, "geometry": { "type": "MultiLineString", "coordinates": [ [ [ 403956.680921226972714, 7611574.974437350407243 ], [ 404475.737521891715005, 7611550.704220566898584 ] ] ] } },
{ "type": "Feature", "properties": { "fid": 175.0, "COMPR_M": 525.82, "CLASSE": "03 - Média", "CD_FAZ": "400527", "TALHOES": "1", "FAZ_tAL": "400527001", "ID_LINHA": 872 }, "geometry": { "type": "MultiLineString", "coordinates": [ [ [ 403957.442939413245767, 7611592.958472982048988 ], [ 404482.54235191422049, 7611568.405704445205629 ] ] ] } },
{ "type": "Feature", "properties": { "fid": 176.0, "COMPR_M": 531.87, "CLASSE": "03 - Média", "CD_FAZ": "400527", "TALHOES": "1", "FAZ_tAL": "400527001", "ID_LINHA": 873 }, "geometry": { "type": "MultiLineString", "coordinates": [ [ [ 403958.204957597423345, 7611610.942508613690734 ], [ 404489.347181934746914, 7611586.107188317924738 ] ] ] } },
{ "type": "Feature", "properties": { "fid": 177.0, "COMPR_M": 537.93, "CLASSE": "03 - Média", "CD_FAZ": "400527", "TALHOES": "1", "FAZ_tAL": "400527001", "ID_LINHA": 874 }, "geometry": { "type": "MultiLineString", "coordinates": [ [ [ 403958.96018746343907, 7611628.926861656829715 ], [ 404496.152011957019567, 7611603.80867219902575 ] ] ] } },
{ "type": "Feature", "properties": { "fid": 178.0, "COMPR_M": 544.01, "CLASSE": "03 - Média", "CD_FAZ": "400527", "TALHOES": "1", "FAZ_tAL": "400527001", "ID_LINHA": 875 }, "geometry": { "type": "MultiLineString", "coordinates": [ [ [ 403959.700170832977165, 7611646.911927599459887 ], [ 404502.956841977545992, 7611621.510156072676182 ] ] ] } },
{ "type": "Feature", "properties": { "fid": 179.0, "COMPR_M": 550.08, "CLASSE": "03 - Média", "CD_FAZ": "400527", "TALHOES": "1", "FAZ_tAL": "400527001", "ID_LINHA": 876 }, "geometry": { "type": "MultiLineString", "coordinates": [ [ [ 403960.44015420076903, 7611664.896993542090058 ], [ 404509.761671999469399, 7611639.211639950051904 ] ] ] } },
{ "type": "Feature", "properties": { "fid": 180.0, "COMPR_M": 556.15, "CLASSE": "03 - Média", "CD_FAZ": "400527", "TALHOES": "1", "FAZ_tAL": "400527001", "ID_LINHA": 877 }, "geometry": { "type": "MultiLineString", "coordinates": [ [ [ 403961.180137569317594, 7611682.88205948099494 ], [ 404516.566502021159977, 7611656.913123826496303 ] ] ] } },
{ "type": "Feature", "properties": { "fid": 181.0, "COMPR_M": 562.23, "CLASSE": "03 - Média", "CD_FAZ": "400527", "TALHOES": "1", "FAZ_tAL": "400527001", "ID_LINHA": 878 }, "geometry": { "type": "MultiLineString", "coordinates": [ [ [ 403961.914480803534389, 7611700.867389149963856 ], [ 404523.371332041861024, 7611674.614607700146735 ] ] ] } },
{ "type": "Feature", "properties": { "fid": 182.0, "COMPR_M": 568.31, "CLASSE": "03 - Média", "CD_FAZ": "400527", "TALHOES": "1", "FAZ_tAL": "400527001", "ID_LINHA": 879 }, "geometry": { "type": "MultiLineString", "coordinates": [ [ [ 403962.645924166543409, 7611718.852854405529797 ], [ 404530.176162063376978, 7611692.316091580316424 ] ] ] } },
{ "type": "Feature", "properties": { "fid": 183.0, "COMPR_M": 574.4, "CLASSE": "03 - Média", "CD_FAZ": "400527", "TALHOES": "1", "FAZ_tAL": "400527001", "ID_LINHA": 880 }, "geometry": { "type": "MultiLineString", "coordinates": [ [ [ 403963.377367527747992, 7611736.838319664821029 ], [ 404536.980992084718309, 7611710.017575456760824 ] ] ] } },
{ "type": "Feature", "properties": { "fid": 184.0, "COMPR_M": 565.9, "CLASSE": "03 - Média", "CD_FAZ": "400527", "TALHOES": "1", "FAZ_tAL": "400527001", "ID_LINHA": 881 }, "geometry": { "type": "MultiLineString", "coordinates": [ [ [ 403978.661915912583936, 7611754.143306123092771 ], [ 404543.785822107107379, 7611727.719059334136546 ] ] ] } },
{ "type": "Feature", "properties": { "fid": 185.0, "COMPR_M": 571.83, "CLASSE": "03 - Média", "CD_FAZ": "400527", "TALHOES": "1", "FAZ_tAL": "400527001", "ID_LINHA": 882 }, "geometry": { "type": "MultiLineString", "coordinates": [ [ [ 403979.546061320521403, 7611772.121631288900971 ], [ 404550.590652128332295, 7611745.420543210580945 ] ] ] } },
{ "type": "Feature", "properties": { "fid": 186.0, "COMPR_M": 577.76, "CLASSE": "03 - Média", "CD_FAZ": "400527", "TALHOES": "1", "FAZ_tAL": "400527001", "ID_LINHA": 883 }, "geometry": { "type": "MultiLineString", "coordinates": [ [ [ 403980.430206728342455, 7611790.099956455640495 ], [ 404557.395482149557211, 7611763.122027086094022 ] ] ] } },
{ "type": "Feature", "properties": { "fid": 188.0, "COMPR_M": 26.43, "CLASSE": "01 - Muito curta", "CD_FAZ": "400527", "TALHOES": "1", "FAZ_tAL": "400527001", "ID_LINHA": 884 }, "geometry": { "type": "MultiLineString", "coordinates": [ [ [ 403979.737087771529332, 7612138.512581139802933 ], [ 404006.127262578753289, 7612137.278620792552829 ] ] ] } },
{ "type": "Feature", "properties": { "fid": 189.0, "COMPR_M": 33.09, "CLASSE": "01 - Muito curta", "CD_FAZ": "400527", "TALHOES": "1", "FAZ_tAL": "400527001", "ID_LINHA": 885 }, "geometry": { "type": "MultiLineString", "coordinates": [ [ [ 403979.61862921458669, 7612135.514842343516648 ], [ 404012.661959841963835, 7612133.969791579060256 ] ] ] } },
{ "type": "Feature", "properties": { "fid": 190.0, "COMPR_M": 39.72, "CLASSE": "01 - Muito curta", "CD_FAZ": "400527", "TALHOES": "1", "FAZ_tAL": "400527001", "ID_LINHA": 886 }, "geometry": { "type": "MultiLineString", "coordinates": [ [ [ 403979.500170656479895, 7612132.517103547230363 ], [ 404019.165353453718126, 7612130.662426073104143 ] ] ] } },
{ "type": "Feature", "properties": { "fid": 191.0, "COMPR_M": 87.53, "CLASSE": "01 - Muito curta", "CD_FAZ": "400527", "TALHOES": "1", "FAZ_tAL": "400527001", "ID_LINHA": 887 }, "geometry": { "type": "MultiLineString", "coordinates": [ [ [ 403978.789419314707629, 7612114.530670762062073 ], [ 404066.200905466568656, 7612110.443456163629889 ] ] ] } },
{ "type": "Feature", "properties": { "fid": 192.0, "COMPR_M": 103.39, "CLASSE": "02 - Curta", "CD_FAZ": "400527", "TALHOES": "1", "FAZ_tAL": "400527001", "ID_LINHA": 888 }, "geometry": { "type": "MultiLineString", "coordinates": [ [ [ 403978.078289917903021, 7612096.544255658052862 ], [ 404081.321215399890207, 7612091.71678948495537 ] ] ] } },
{ "type": "Feature", "properties": { "fid": 193.0, "COMPR_M": 117.21, "CLASSE": "02 - Curta", "CD_FAZ": "400527", "TALHOES": "1", "FAZ_tAL": "400527001", "ID_LINHA": 889 }, "geometry": { "type": "MultiLineString", "coordinates": [ [ [ 403977.364988420042209, 7612078.557942116633058 ], [ 404094.414541643462144, 7612073.084901168011129 ] ] ] } },
{ "type": "Feature", "properties": { "fid": 194.0, "COMPR_M": 127.3, "CLASSE": "02 - Curta", "CD_FAZ": "400527", "TALHOES": "1", "FAZ_tAL": "400527001", "ID_LINHA": 890 }, "geometry": { "type": "MultiLineString", "coordinates": [ [ [ 403976.651686924509704, 7612060.571628576144576 ], [ 404103.779837894719094, 7612054.62732928711921 ] ] ] } },
{ "type": "Feature", "properties": { "fid": 195.0, "COMPR_M": 133.31, "CLASSE": "02 - Curta", "CD_FAZ": "400527", "TALHOES": "1", "FAZ_tAL": "400527001", "ID_LINHA": 891 }, "geometry": { "type": "MultiLineString", "coordinates": [ [ [ 403975.938385427289177, 7612042.585315033793449 ], [ 404109.061055197555106, 7612036.360722087323666 ] ] ] } },
{ "type": "Feature", "properties": { "fid": 196.0, "COMPR_M": 133.27, "CLASSE": "02 - Curta", "CD_FAZ": "400527", "TALHOES": "1", "FAZ_tAL": "400527001", "ID_LINHA": 892 }, "geometry": { "type": "MultiLineString", "coordinates": [ [ [ 403975.225083930417895, 7612024.599001493304968 ], [ 404108.309020454878919, 7612018.376219648867846 ] ] ] } },
{ "type": "Feature", "properties": { "fid": 197.0, "COMPR_M": 137.84, "CLASSE": "02 - Curta", "CD_FAZ": "400527", "TALHOES": "1", "FAZ_tAL": "400527001", "ID_LINHA": 893 }, "geometry": { "type": "MultiLineString", "coordinates": [ [ [ 403974.511782433837652, 7612006.612687950953841 ], [ 404112.165955110569485, 7612000.176209524273872 ] ] ] } },
{ "type": "Feature", "properties": { "fid": 198.0, "COMPR_M": 215.68, "CLASSE": "02 - Curta", "CD_FAZ": "400527", "TALHOES": "1", "FAZ_tAL": "400527001", "ID_LINHA": 894 }, "geometry": { "type": "MultiLineString", "coordinates": [ [ [ 403973.798480936442502, 7611988.626374409534037 ], [ 404189.184677152195945, 7611978.555276829749346 ] ] ] } },
{ "type": "Feature", "properties": { "fid": 199.0, "COMPR_M": 261.64, "CLASSE": "02 - Curta", "CD_FAZ": "400527", "TALHOES": "1", "FAZ_tAL": "400527001", "ID_LINHA": 895 }, "geometry": { "type": "MultiLineString", "coordinates": [ [ [ 403973.085179438698106, 7611970.640060865320265 ], [ 404234.360687354928814, 7611958.423255978152156 ] ] ] } },
{ "type": "Feature", "properties": { "fid": 200.0, "COMPR_M": 307.79, "CLASSE": "03 - Média", "CD_FAZ": "400527", "TALHOES": "1", "FAZ_tAL": "400527001", "ID_LINHA": 896 }, "geometry": { "type": "MultiLineString", "coordinates": [ [ [ 403972.371877942059655, 7611952.653747322037816 ], [ 404279.735232812934555, 7611938.281951947137713 ] ] ] } },
{ "type": "Feature", "properties": { "fid": 201.0, "COMPR_M": 352.09, "CLASSE": "03 - Média", "CD_FAZ": "400527", "TALHOES": "1", "FAZ_tAL": "400527001", "ID_LINHA": 897 }, "geometry": { "type": "MultiLineString", "coordinates": [ [ [ 403971.627911119139753, 7611934.668867642059922 ], [ 404323.231379125965759, 7611918.228478712961078 ] ] ] } },
{ "type": "Feature", "properties": { "fid": 202.0, "COMPR_M": 370.43, "CLASSE": "03 - Média", "CD_FAZ": "400527", "TALHOES": "1", "FAZ_tAL": "400527001", "ID_LINHA": 898 }, "geometry": { "type": "MultiLineString", "coordinates": [ [ [ 403970.874116364051588, 7611916.684447498992085 ], [ 404340.789745442394633, 7611899.387812606990337 ] ] ] } },
{ "type": "Feature", "properties": { "fid": 203.0, "COMPR_M": 438.59, "CLASSE": "03 - Média", "CD_FAZ": "400527", "TALHOES": "1", "FAZ_tAL": "400527001", "ID_LINHA": 899 }, "geometry": { "type": "MultiLineString", "coordinates": [ [ [ 403970.120321608439554, 7611898.700027350336313 ], [ 404408.105550409352873, 7611878.220572053454816 ] ] ] } },
{ "type": "Feature", "properties": { "fid": 204.0, "COMPR_M": 482.76, "CLASSE": "03 - Média", "CD_FAZ": "400527", "TALHOES": "1", "FAZ_tAL": "400527001", "ID_LINHA": 900 }, "geometry": { "type": "MultiLineString", "coordinates": [ [ [ 403969.366526854224503, 7611880.715607205405831 ], [ 404451.464881393476389, 7611858.173496074974537 ] ] ] } },
{ "type": "Feature", "properties": { "fid": 205.0, "COMPR_M": 514.52, "CLASSE": "03 - Média", "CD_FAZ": "400527", "TALHOES": "1", "FAZ_tAL": "400527001", "ID_LINHA": 901 }, "geometry": { "type": "MultiLineString", "coordinates": [ [ [ 403968.612732099485584, 7611862.731187061406672 ], [ 404482.424035851494409, 7611838.706231571733952 ] ] ] } },
{ "type": "Feature", "properties": { "fid": 206.0, "COMPR_M": 541.55, "CLASSE": "03 - Média", "CD_FAZ": "400527", "TALHOES": "1", "FAZ_tAL": "400527001", "ID_LINHA": 902 }, "geometry": { "type": "MultiLineString", "coordinates": [ [ [ 403967.858937344222795, 7611844.74676691647619 ], [ 404508.664805391745176, 7611819.459590841084719 ] ] ] } },
{ "type": "Feature", "properties": { "fid": 207.0, "COMPR_M": 584.76, "CLASSE": "03 - Média", "CD_FAZ": "400527", "TALHOES": "1", "FAZ_tAL": "400527001", "ID_LINHA": 903 }, "geometry": { "type": "MultiLineString", "coordinates": [ [ [ 403967.105142589833122, 7611826.762346770614386 ], [ 404551.05608219129499, 7611799.457779452204704 ] ] ] } }
]
}
