{
"type": "FeatureCollection",
"name": "403886",
"crs": { "type": "name", "properties": { "name": "urn:ogc:def:crs:EPSG::32722" } },
"xy_coordinate_resolution": 1e-15,
"features": [
{ "type": "Feature", "properties": { "fid": 969.0, "COMPR_M": 583.14, "CLASSE": "03 - Média", "CD_FAZ": "403886", "TALHOES": "1, 2", "FAZ_tAL": "403886001, 403991001, 403884002", "ID_LINHA": 215430 }, "geometry": { "type": "MultiLineString", "coordinates": [ [ [ 417480.61653897742508, 7621391.780782572925091 ], [ 416938.916663516371045, 7621607.190642001107335 ] ] ] } },
{ "type": "Feature", "properties": { "fid": 970.0, "COMPR_M": 586.36, "CLASSE": "03 - Média", "CD_FAZ": "403886", "TALHOES": "1, 2", "FAZ_tAL": "403886001, 403991001, 403884002", "ID_LINHA": 215431 }, "geometry": { "type": "MultiLineString", "coordinates": [ [ [ 417477.292289422708564, 7621396.331181388348341 ], [ 416932.606971790664829, 7621612.928217899054289 ] ] ] } },
{ "type": "Feature", "properties": { "fid": 971.0, "COMPR_M": 589.62, "CLASSE": "03 - Média", "CD_FAZ": "403886", "TALHOES": "1, 2", "FAZ_tAL": "403886001, 403884002", "ID_LINHA": 215432 }, "geometry": { "type": "MultiLineString", "coordinates": [ [ [ 417473.925761477265041, 7621400.898392429575324 ], [ 416926.205192648689263, 7621618.702412853948772 ] ] ] } },
{ "type": "Feature", "properties": { "fid": 972.0, "COMPR_M": 632.09, "CLASSE": "04 - Longa", "CD_FAZ": "403886", "TALHOES": "1, 2", "FAZ_tAL": "403886001, 403884002", "ID_LINHA": 215433 }, "geometry": { "type": "MultiLineString", "coordinates": [ [ [ 417470.551725314813666, 7621405.468589156866074 ], [ 416883.385439044854138, 7621638.958410579711199 ] ] ] } },
{ "type": "Feature", "properties": { "fid": 973.0, "COMPR_M": 633.89, "CLASSE": "04 - Longa", "CD_FAZ": "403886", "TALHOES": "1, 2", "FAZ_tAL": "403886001, 403884002", "ID_LINHA": 215434 }, "geometry": { "type": "MultiLineString", "coordinates": [ [ [ 417467.1776891501504, 7621410.038785883225501 ], [ 416878.339442976051942, 7621644.193471128121018 ] ] ] } },
{ "type": "Feature", "properties": { "fid": 974.0, "COMPR_M": 635.67, "CLASSE": "04 - Longa", "CD_FAZ": "403886", "TALHOES": "1, 2", "FAZ_tAL": "403886001, 403884002", "ID_LINHA": 215435 }, "geometry": { "type": "MultiLineString", "coordinates": [ [ [ 417463.787941216782201, 7621414.615230481140316 ], [ 416873.293446908064652, 7621649.428531670942903 ] ] ] } },
{ "type": "Feature", "properties": { "fid": 975.0, "COMPR_M": 637.16, "CLASSE": "04 - Longa", "CD_FAZ": "403886", "TALHOES": "1, 2", "FAZ_tAL": "403886001, 403884002", "ID_LINHA": 215436 }, "geometry": { "type": "MultiLineString", "coordinates": [ [ [ 417460.126744946639519, 7621419.299617961980402 ], [ 416868.247450840193778, 7621654.663592213764787 ] ] ] } },
{ "type": "Feature", "properties": { "fid": 976.0, "COMPR_M": 638.65, "CLASSE": "04 - Longa", "CD_FAZ": "403886", "TALHOES": "1, 2", "FAZ_tAL": "403886001, 403884002", "ID_LINHA": 215437 }, "geometry": { "type": "MultiLineString", "coordinates": [ [ [ 417456.465548673993908, 7621423.984005445614457 ], [ 416863.201454771158751, 7621659.898652764037251 ] ] ] } },
{ "type": "Feature", "properties": { "fid": 977.0, "COMPR_M": 640.14, "CLASSE": "04 - Longa", "CD_FAZ": "403886", "TALHOES": "1, 2", "FAZ_tAL": "403886001, 403884002", "ID_LINHA": 215438 }, "geometry": { "type": "MultiLineString", "coordinates": [ [ [ 417452.804352400999051, 7621428.668392927385867 ], [ 416858.155458702996839, 7621665.133713308721781 ] ] ] } },
{ "type": "Feature", "properties": { "fid": 978.0, "COMPR_M": 641.9, "CLASSE": "04 - Longa", "CD_FAZ": "403886", "TALHOES": "1, 2", "FAZ_tAL": "403886001, 403884002", "ID_LINHA": 215439 }, "geometry": { "type": "MultiLineString", "coordinates": [ [ [ 417449.388753334758803, 7621433.255117364227772 ], [ 416853.10946263500955, 7621670.36877385340631 ] ] ] } },
{ "type": "Feature", "properties": { "fid": 979.0, "COMPR_M": 643.69, "CLASSE": "04 - Longa", "CD_FAZ": "403886", "TALHOES": "1, 2", "FAZ_tAL": "403886001, 403884002", "ID_LINHA": 215440 }, "geometry": { "type": "MultiLineString", "coordinates": [ [ [ 417446.012812572764233, 7621437.826071464456618 ], [ 416848.063466563879047, 7621675.603834399953485 ] ] ] } },
{ "type": "Feature", "properties": { "fid": 980.0, "COMPR_M": 645.49, "CLASSE": "04 - Longa", "CD_FAZ": "403886", "TALHOES": "1, 2", "FAZ_tAL": "403886001, 403884002", "ID_LINHA": 215441 }, "geometry": { "type": "MultiLineString", "coordinates": [ [ [ 417442.636871811177116, 7621442.397025566548109 ], [ 416843.017470496881288, 7621680.838894947431982 ] ] ] } },
{ "type": "Feature", "properties": { "fid": 981.0, "COMPR_M": 647.29, "CLASSE": "04 - Longa", "CD_FAZ": "403886", "TALHOES": "1, 2", "FAZ_tAL": "403886001, 403884002", "ID_LINHA": 215442 }, "geometry": { "type": "MultiLineString", "coordinates": [ [ [ 417439.263798936503008, 7621446.966839235275984 ], [ 416837.971474428777583, 7621686.073955492116511 ] ] ] } },
{ "type": "Feature", "properties": { "fid": 982.0, "COMPR_M": 649.19, "CLASSE": "04 - Longa", "CD_FAZ": "403886", "TALHOES": "1, 2", "FAZ_tAL": "403886001, 403884002", "ID_LINHA": 215443 }, "geometry": { "type": "MultiLineString", "coordinates": [ [ [ 417435.97774192225188, 7621451.502050581388175 ], [ 416832.925478358345572, 7621691.30901603680104 ] ] ] } },
{ "type": "Feature", "properties": { "fid": 983.0, "COMPR_M": 651.08, "CLASSE": "04 - Longa", "CD_FAZ": "403886", "TALHOES": "1, 2", "FAZ_tAL": "403886001, 403884002", "ID_LINHA": 215444 }, "geometry": { "type": "MultiLineString", "coordinates": [ [ [ 417432.691684911085758, 7621456.037261925637722 ], [ 416827.879482290009037, 7621696.544076581485569 ] ] ] } },
{ "type": "Feature", "properties": { "fid": 984.0, "COMPR_M": 652.98, "CLASSE": "04 - Longa", "CD_FAZ": "403886", "TALHOES": "1, 2", "FAZ_tAL": "403886001, 403884002", "ID_LINHA": 215445 }, "geometry": { "type": "MultiLineString", "coordinates": [ [ [ 417429.405627899686806, 7621460.572473272681236 ], [ 416822.833486221323255, 7621701.779137128964067 ] ] ] } },
{ "type": "Feature", "properties": { "fid": 985.0, "COMPR_M": 654.87, "CLASSE": "04 - Longa", "CD_FAZ": "403886", "TALHOES": "1, 2", "FAZ_tAL": "403886001, 403884002", "ID_LINHA": 215446 }, "geometry": { "type": "MultiLineString", "coordinates": [ [ [ 417426.119570886250585, 7621465.10768461599946 ], [ 416817.787490152870305, 7621707.014197673648596 ] ] ] } },
{ "type": "Feature", "properties": { "fid": 986.0, "COMPR_M": 656.8, "CLASSE": "04 - Longa", "CD_FAZ": "403886", "TALHOES": "1, 2", "FAZ_tAL": "403886001, 403884002", "ID_LINHA": 215447 }, "geometry": { "type": "MultiLineString", "coordinates": [ [ [ 417422.865656671987381, 7621469.630114205181599 ], [ 416812.741494085290469, 7621712.249258219264448 ] ] ] } },
{ "type": "Feature", "properties": { "fid": 987.0, "COMPR_M": 658.75, "CLASSE": "04 - Longa", "CD_FAZ": "403886", "TALHOES": "1, 2", "FAZ_tAL": "403886001, 403884002", "ID_LINHA": 215448 }, "geometry": { "type": "MultiLineString", "coordinates": [ [ [ 417419.631100042432081, 7621474.144846145994961 ], [ 416807.695498017361388, 7621717.4843187648803 ] ] ] } },
{ "type": "Feature", "properties": { "fid": 988.0, "COMPR_M": 660.7, "CLASSE": "04 - Longa", "CD_FAZ": "403886", "TALHOES": "1, 2", "FAZ_tAL": "403886001, 403884002", "ID_LINHA": 215449 }, "geometry": { "type": "MultiLineString", "coordinates": [ [ [ 417416.396543411188759, 7621478.659578091464937 ], [ 416802.649501947686076, 7621722.719379312358797 ] ] ] } },
{ "type": "Feature", "properties": { "fid": 989.0, "COMPR_M": 662.62, "CLASSE": "04 - Longa", "CD_FAZ": "403886", "TALHOES": "1, 2", "FAZ_tAL": "403886001, 403884002", "ID_LINHA": 215450 }, "geometry": { "type": "MultiLineString", "coordinates": [ [ [ 417413.133069327333942, 7621483.185809211805463 ], [ 416797.603505879640579, 7621727.954439857974648 ] ] ] } },
{ "type": "Feature", "properties": { "fid": 990.0, "COMPR_M": 664.47, "CLASSE": "04 - Longa", "CD_FAZ": "403886", "TALHOES": "1, 2", "FAZ_tAL": "403886001, 403884002", "ID_LINHA": 215451 }, "geometry": { "type": "MultiLineString", "coordinates": [ [ [ 417409.806646637793165, 7621487.737072186544538 ], [ 416792.557509811187629, 7621733.189500402659178 ] ] ] } },
{ "type": "Feature", "properties": { "fid": 991.0, "COMPR_M": 666.32, "CLASSE": "04 - Longa", "CD_FAZ": "403886", "TALHOES": "1, 2", "FAZ_tAL": "403886001, 403884002", "ID_LINHA": 215452 }, "geometry": { "type": "MultiLineString", "coordinates": [ [ [ 417406.480223945574835, 7621492.288335159420967 ], [ 416787.511513741745148, 7621738.424560949206352 ] ] ] } },
{ "type": "Feature", "properties": { "fid": 992.0, "COMPR_M": 668.17, "CLASSE": "04 - Longa", "CD_FAZ": "403886", "TALHOES": "1, 2", "FAZ_tAL": "403886001, 403884002", "ID_LINHA": 215453 }, "geometry": { "type": "MultiLineString", "coordinates": [ [ [ 417403.153801254695281, 7621496.839598134160042 ], [ 416782.465517674572766, 7621743.659621493890882 ] ] ] } },
{ "type": "Feature", "properties": { "fid": 993.0, "COMPR_M": 670.02, "CLASSE": "04 - Longa", "CD_FAZ": "403886", "TALHOES": "1, 2", "FAZ_tAL": "403886001, 403884002", "ID_LINHA": 215454 }, "geometry": { "type": "MultiLineString", "coordinates": [ [ [ 417399.827378565154504, 7621501.390861107036471 ], [ 416777.419521606469061, 7621748.894682038575411 ] ] ] } },
{ "type": "Feature", "properties": { "fid": 994.0, "COMPR_M": 671.88, "CLASSE": "04 - Longa", "CD_FAZ": "403886", "TALHOES": "1, 2", "FAZ_tAL": "403886001, 403884002", "ID_LINHA": 215455 }, "geometry": { "type": "MultiLineString", "coordinates": [ [ [ 417396.50095587229589, 7621505.942124081775546 ], [ 416772.373525535978843, 7621754.129742584191263 ] ] ] } },
{ "type": "Feature", "properties": { "fid": 995.0, "COMPR_M": 673.69, "CLASSE": "04 - Longa", "CD_FAZ": "403886", "TALHOES": "1, 2", "FAZ_tAL": "403886001, 403884002", "ID_LINHA": 215456 }, "geometry": { "type": "MultiLineString", "coordinates": [ [ [ 417393.140579655824695, 7621510.50688885524869 ], [ 416767.327529468457215, 7621759.364803129807115 ] ] ] } },
{ "type": "Feature", "properties": { "fid": 996.0, "COMPR_M": 675.44, "CLASSE": "04 - Longa", "CD_FAZ": "403886", "TALHOES": "1, 2", "FAZ_tAL": "403886001, 403884002", "ID_LINHA": 215457 }, "geometry": { "type": "MultiLineString", "coordinates": [ [ [ 417389.715809363173321, 7621515.097260281443596 ], [ 416762.281533400644548, 7621764.599863675422966 ] ] ] } },
{ "type": "Feature", "properties": { "fid": 997.0, "COMPR_M": 677.18, "CLASSE": "04 - Longa", "CD_FAZ": "403886", "TALHOES": "1, 2", "FAZ_tAL": "403886001, 403884002", "ID_LINHA": 215458 }, "geometry": { "type": "MultiLineString", "coordinates": [ [ [ 417386.291039067727979, 7621519.687631708569825 ], [ 416757.235537329281215, 7621769.834924221970141 ] ] ] } },
{ "type": "Feature", "properties": { "fid": 998.0, "COMPR_M": 678.93, "CLASSE": "04 - Longa", "CD_FAZ": "403886", "TALHOES": "1, 2", "FAZ_tAL": "403886001, 403884002", "ID_LINHA": 215459 }, "geometry": { "type": "MultiLineString", "coordinates": [ [ [ 417382.866268775425851, 7621524.278003131970763 ], [ 416752.189541263505816, 7621775.069984767585993 ] ] ] } },
{ "type": "Feature", "properties": { "fid": 999.0, "COMPR_M": 680.65, "CLASSE": "04 - Longa", "CD_FAZ": "403886", "TALHOES": "1, 2", "FAZ_tAL": "403886001, 403884002", "ID_LINHA": 215460 }, "geometry": { "type": "MultiLineString", "coordinates": [ [ [ 417379.420130888640415, 7621528.87687149271369 ], [ 416747.143545194878243, 7621780.305045314133167 ] ] ] } },
{ "type": "Feature", "properties": { "fid": 1000.0, "COMPR_M": 682.26, "CLASSE": "04 - Longa", "CD_FAZ": "403886", "TALHOES": "1, 2", "FAZ_tAL": "403886001, 403884002", "ID_LINHA": 215461 }, "geometry": { "type": "MultiLineString", "coordinates": [ [ [ 417375.869019978970755, 7621533.517482942901552 ], [ 416742.097549123922363, 7621785.540105858817697 ] ] ] } },
{ "type": "Feature", "properties": { "fid": 1001.0, "COMPR_M": 683.87, "CLASSE": "04 - Longa", "CD_FAZ": "403886", "TALHOES": "1, 2", "FAZ_tAL": "403886001, 403884002", "ID_LINHA": 215462 }, "geometry": { "type": "MultiLineString", "coordinates": [ [ [ 417372.317909071862232, 7621538.158094390295446 ], [ 416737.051553056051489, 7621790.775166403502226 ] ] ] } },
{ "type": "Feature", "properties": { "fid": 1002.0, "COMPR_M": 685.48, "CLASSE": "04 - Longa", "CD_FAZ": "403886", "TALHOES": "1, 2", "FAZ_tAL": "403886001, 403884002", "ID_LINHA": 215463 }, "geometry": { "type": "MultiLineString", "coordinates": [ [ [ 417368.76679816347314, 7621542.798705838620663 ], [ 416732.005556989868637, 7621796.0102269500494 ] ] ] } },
{ "type": "Feature", "properties": { "fid": 1003.0, "COMPR_M": 687.06, "CLASSE": "04 - Longa", "CD_FAZ": "403886", "TALHOES": "1, 2", "FAZ_tAL": "403886001, 403884002", "ID_LINHA": 215464 }, "geometry": { "type": "MultiLineString", "coordinates": [ [ [ 417365.188652717974037, 7621547.450067717581987 ], [ 416726.959560919494834, 7621801.24528749473393 ] ] ] } },
{ "type": "Feature", "properties": { "fid": 1004.0, "COMPR_M": 688.61, "CLASSE": "04 - Longa", "CD_FAZ": "403886", "TALHOES": "1, 2", "FAZ_tAL": "403886001, 403884002", "ID_LINHA": 215465 }, "geometry": { "type": "MultiLineString", "coordinates": [ [ [ 417361.584909794619307, 7621552.111608567647636 ], [ 416721.913564850925468, 7621806.480348041281104 ] ] ] } },
{ "type": "Feature", "properties": { "fid": 1005.0, "COMPR_M": 690.16, "CLASSE": "04 - Longa", "CD_FAZ": "403886", "TALHOES": "1, 2", "FAZ_tAL": "403886001, 403884002", "ID_LINHA": 215466 }, "geometry": { "type": "MultiLineString", "coordinates": [ [ [ 417357.981166870857123, 7621556.773149416781962 ], [ 416716.867568783345632, 7621811.715408584102988 ] ] ] } },
{ "type": "Feature", "properties": { "fid": 1006.0, "COMPR_M": 691.91, "CLASSE": "04 - Longa", "CD_FAZ": "403886", "TALHOES": "1, 2", "FAZ_tAL": "403886001, 403884002", "ID_LINHA": 215467 }, "geometry": { "type": "MultiLineString", "coordinates": [ [ [ 417354.56419816124253, 7621561.36041850131005 ], [ 416711.821572713612113, 7621816.950469132512808 ] ] ] } },
{ "type": "Feature", "properties": { "fid": 1007.0, "COMPR_M": 693.74, "CLASSE": "04 - Longa", "CD_FAZ": "403886", "TALHOES": "1, 2", "FAZ_tAL": "403886001, 403884002", "ID_LINHA": 215468 }, "geometry": { "type": "MultiLineString", "coordinates": [ [ [ 417351.216265922470484, 7621565.920234862715006 ], [ 416706.775576646323316, 7621822.185529676266015 ] ] ] } },
{ "type": "Feature", "properties": { "fid": 1008.0, "COMPR_M": 695.57, "CLASSE": "04 - Longa", "CD_FAZ": "403886", "TALHOES": "1, 2", "FAZ_tAL": "403886001, 403884002", "ID_LINHA": 215469 }, "geometry": { "type": "MultiLineString", "coordinates": [ [ [ 417347.86833368439693, 7621570.480051224119961 ], [ 416701.729580576880835, 7621827.420590223744512 ] ] ] } },
{ "type": "Feature", "properties": { "fid": 1009.0, "COMPR_M": 697.4, "CLASSE": "04 - Longa", "CD_FAZ": "403886", "TALHOES": "1, 2", "FAZ_tAL": "403886001, 403884002", "ID_LINHA": 215470 }, "geometry": { "type": "MultiLineString", "coordinates": [ [ [ 417344.520401444460731, 7621575.039867583662271 ], [ 416696.683584507845808, 7621832.655650769360363 ] ] ] } },
{ "type": "Feature", "properties": { "fid": 1010.0, "COMPR_M": 699.23, "CLASSE": "04 - Longa", "CD_FAZ": "403886", "TALHOES": "1, 2", "FAZ_tAL": "403886001, 403884002", "ID_LINHA": 215471 }, "geometry": { "type": "MultiLineString", "coordinates": [ [ [ 417341.172469206620008, 7621579.599683943204582 ], [ 416691.63758843933465, 7621837.89071131311357 ] ] ] } },
{ "type": "Feature", "properties": { "fid": 1011.0, "COMPR_M": 701.17, "CLASSE": "04 - Longa", "CD_FAZ": "403886", "TALHOES": "1, 2", "FAZ_tAL": "403886001, 403884002", "ID_LINHA": 215472 }, "geometry": { "type": "MultiLineString", "coordinates": [ [ [ 417337.928402226476464, 7621584.118197725154459 ], [ 416686.591592371929437, 7621843.125771860592067 ] ] ] } },
{ "type": "Feature", "properties": { "fid": 1012.0, "COMPR_M": 703.18, "CLASSE": "04 - Longa", "CD_FAZ": "403886", "TALHOES": "1, 2", "FAZ_tAL": "403886001, 403884002", "ID_LINHA": 215473 }, "geometry": { "type": "MultiLineString", "coordinates": [ [ [ 417334.753251578949858, 7621588.609306564554572 ], [ 416681.54559630312724, 7621848.360832405276597 ] ] ] } },
{ "type": "Feature", "properties": { "fid": 1013.0, "COMPR_M": 705.19, "CLASSE": "04 - Longa", "CD_FAZ": "403886", "TALHOES": "1, 2", "FAZ_tAL": "403886001, 403884002", "ID_LINHA": 215474 }, "geometry": { "type": "MultiLineString", "coordinates": [ [ [ 417331.578100930608343, 7621593.100415397435427 ], [ 416676.499600236071274, 7621853.595892950892448 ] ] ] } },
{ "type": "Feature", "properties": { "fid": 1014.0, "COMPR_M": 707.21, "CLASSE": "04 - Longa", "CD_FAZ": "403886", "TALHOES": "1, 2", "FAZ_tAL": "403886001, 403884002", "ID_LINHA": 215475 }, "geometry": { "type": "MultiLineString", "coordinates": [ [ [ 417328.402950280869845, 7621597.591524232178926 ], [ 416671.453604166279547, 7621858.830953497439623 ] ] ] } },
{ "type": "Feature", "properties": { "fid": 1015.0, "COMPR_M": 709.23, "CLASSE": "04 - Longa", "CD_FAZ": "403886", "TALHOES": "1, 2", "FAZ_tAL": "403886001, 403884002", "ID_LINHA": 215476 }, "geometry": { "type": "MultiLineString", "coordinates": [ [ [ 417325.238455283921212, 7621602.078395791351795 ], [ 416666.407608095672913, 7621864.066014042124152 ] ] ] } },
{ "type": "Feature", "properties": { "fid": 1016.0, "COMPR_M": 711.27, "CLASSE": "04 - Longa", "CD_FAZ": "403886", "TALHOES": "1, 2", "FAZ_tAL": "403886001, 403884002", "ID_LINHA": 215477 }, "geometry": { "type": "MultiLineString", "coordinates": [ [ [ 417322.084883395989891, 7621606.560923717916012 ], [ 416661.3616120282677, 7621869.301074589602649 ] ] ] } },
{ "type": "Feature", "properties": { "fid": 1017.0, "COMPR_M": 713.31, "CLASSE": "04 - Longa", "CD_FAZ": "403886", "TALHOES": "1, 2", "FAZ_tAL": "403886001, 403884002", "ID_LINHA": 215478 }, "geometry": { "type": "MultiLineString", "coordinates": [ [ [ 417318.931311507592909, 7621611.043451640754938 ], [ 416656.315615960746072, 7621874.536135133355856 ] ] ] } },
{ "type": "Feature", "properties": { "fid": 1018.0, "COMPR_M": 715.35, "CLASSE": "04 - Longa", "CD_FAZ": "403886", "TALHOES": "1, 2", "FAZ_tAL": "403886001, 403884002", "ID_LINHA": 215479 }, "geometry": { "type": "MultiLineString", "coordinates": [ [ [ 417315.777739617449697, 7621615.5259795691818 ], [ 416651.269619891769253, 7621879.771195680834353 ] ] ] } },
{ "type": "Feature", "properties": { "fid": 1019.0, "COMPR_M": 717.38, "CLASSE": "04 - Longa", "CD_FAZ": "403886", "TALHOES": "1, 2", "FAZ_tAL": "403886001, 403884002", "ID_LINHA": 215480 }, "geometry": { "type": "MultiLineString", "coordinates": [ [ [ 417312.624167728878092, 7621620.008507490158081 ], [ 416646.223623824073002, 7621885.00625622458756 ] ] ] } },
{ "type": "Feature", "properties": { "fid": 1020.0, "COMPR_M": 719.39, "CLASSE": "04 - Longa", "CD_FAZ": "403886", "TALHOES": "1, 2", "FAZ_tAL": "403886001, 403884002", "ID_LINHA": 215481 }, "geometry": { "type": "MultiLineString", "coordinates": [ [ [ 417309.442238879099023, 7621624.502311718650162 ], [ 416641.177627754281275, 7621890.241316771134734 ] ] ] } },
{ "type": "Feature", "properties": { "fid": 1021.0, "COMPR_M": 721.35, "CLASSE": "04 - Longa", "CD_FAZ": "403886", "TALHOES": "1, 2", "FAZ_tAL": "403886001, 403884002", "ID_LINHA": 215482 }, "geometry": { "type": "MultiLineString", "coordinates": [ [ [ 417306.215840589720756, 7621629.013799453154206 ], [ 416636.131631685129832, 7621895.476377315819263 ] ] ] } },
{ "type": "Feature", "properties": { "fid": 1022.0, "COMPR_M": 723.31, "CLASSE": "04 - Longa", "CD_FAZ": "403886", "TALHOES": "1, 2", "FAZ_tAL": "403886001, 403884002", "ID_LINHA": 215483 }, "geometry": { "type": "MultiLineString", "coordinates": [ [ [ 417302.989442300284281, 7621633.525287184864283 ], [ 416631.085635617200751, 7621900.711437860503793 ] ] ] } },
{ "type": "Feature", "properties": { "fid": 1023.0, "COMPR_M": 725.27, "CLASSE": "04 - Longa", "CD_FAZ": "403886", "TALHOES": "1, 2", "FAZ_tAL": "403886001, 403884002", "ID_LINHA": 215484 }, "geometry": { "type": "MultiLineString", "coordinates": [ [ [ 417299.763044009974692, 7621638.036774921230972 ], [ 416626.03963954851497, 7621905.946498407050967 ] ] ] } },
{ "type": "Feature", "properties": { "fid": 1024.0, "COMPR_M": 727.22, "CLASSE": "04 - Longa", "CD_FAZ": "403886", "TALHOES": "1, 2", "FAZ_tAL": "403886001, 403884002", "ID_LINHA": 215485 }, "geometry": { "type": "MultiLineString", "coordinates": [ [ [ 417296.536645718326326, 7621642.548262653872371 ], [ 416620.993643479770981, 7621911.181558954529464 ] ] ] } },
{ "type": "Feature", "properties": { "fid": 1025.0, "COMPR_M": 729.18, "CLASSE": "04 - Longa", "CD_FAZ": "403886", "TALHOES": "1, 2", "FAZ_tAL": "403886001, 403884002", "ID_LINHA": 215486 }, "geometry": { "type": "MultiLineString", "coordinates": [ [ [ 417293.310247431159951, 7621647.059750388376415 ], [ 416615.947647411725484, 7621916.416619499213994 ] ] ] } },
{ "type": "Feature", "properties": { "fid": 1026.0, "COMPR_M": 731.06, "CLASSE": "04 - Longa", "CD_FAZ": "403886", "TALHOES": "1, 2", "FAZ_tAL": "403886001, 403884002", "ID_LINHA": 215487 }, "geometry": { "type": "MultiLineString", "coordinates": [ [ [ 417290.004349938419182, 7621651.602851407602429 ], [ 416610.901651343621779, 7621921.651680044829845 ] ] ] } },
{ "type": "Feature", "properties": { "fid": 1027.0, "COMPR_M": 732.93, "CLASSE": "04 - Longa", "CD_FAZ": "403886", "TALHOES": "1, 2", "FAZ_tAL": "403886001, 403884002", "ID_LINHA": 215488 }, "geometry": { "type": "MultiLineString", "coordinates": [ [ [ 417286.695882672269363, 7621656.146974310278893 ], [ 416605.855655274819583, 7621926.886740592308342 ] ] ] } },
{ "type": "Feature", "properties": { "fid": 1028.0, "COMPR_M": 727.53, "CLASSE": "04 - Longa", "CD_FAZ": "403886", "TALHOES": "1, 2", "FAZ_tAL": "403886001, 403884002", "ID_LINHA": 215489 }, "geometry": { "type": "MultiLineString", "coordinates": [ [ [ 417283.387415406294167, 7621660.69109721109271 ], [ 416607.555911214381922, 7621929.439117860049009 ] ] ] } },
{ "type": "Feature", "properties": { "fid": 1029.0, "COMPR_M": 721.86, "CLASSE": "04 - Longa", "CD_FAZ": "403886", "TALHOES": "1, 2", "FAZ_tAL": "403886001, 403884002", "ID_LINHA": 215490 }, "geometry": { "type": "MultiLineString", "coordinates": [ [ [ 417280.078948139795102, 7621665.235220117494464 ], [ 416609.519491630489938, 7621931.886782738380134 ] ] ] } },
{ "type": "Feature", "properties": { "fid": 1030.0, "COMPR_M": 716.18, "CLASSE": "04 - Longa", "CD_FAZ": "403886", "TALHOES": "1, 2", "FAZ_tAL": "403886001, 403884002", "ID_LINHA": 215491 }, "geometry": { "type": "MultiLineString", "coordinates": [ [ [ 417276.770480874169152, 7621669.779343019239604 ], [ 416611.483072044327855, 7621934.334447620436549 ] ] ] } },
{ "type": "Feature", "properties": { "fid": 1031.0, "COMPR_M": 710.51, "CLASSE": "04 - Longa", "CD_FAZ": "403886", "TALHOES": "1, 2", "FAZ_tAL": "403886001, 403884002", "ID_LINHA": 215492 }, "geometry": { "type": "MultiLineString", "coordinates": [ [ [ 417273.462013606738765, 7621674.32346592284739 ], [ 416613.446652459097095, 7621936.782112501561642 ] ] ] } },
{ "type": "Feature", "properties": { "fid": 1032.0, "COMPR_M": 704.86, "CLASSE": "04 - Longa", "CD_FAZ": "403886", "TALHOES": "1, 2", "FAZ_tAL": "403886001, 403884002", "ID_LINHA": 215493 }, "geometry": { "type": "MultiLineString", "coordinates": [ [ [ 417270.176099652308039, 7621678.858620380051434 ], [ 416615.410232876252849, 7621939.229777380824089 ] ] ] } },
{ "type": "Feature", "properties": { "fid": 1033.0, "COMPR_M": 699.22, "CLASSE": "04 - Longa", "CD_FAZ": "403886", "TALHOES": "1, 2", "FAZ_tAL": "403886001, 403884002", "ID_LINHA": 215494 }, "geometry": { "type": "MultiLineString", "coordinates": [ [ [ 417266.898429014428984, 7621683.390496836975217 ], [ 416617.373813290498219, 7621941.677442256361246 ] ] ] } },
{ "type": "Feature", "properties": { "fid": 1034.0, "COMPR_M": 693.57, "CLASSE": "04 - Longa", "CD_FAZ": "403886", "TALHOES": "1, 2", "FAZ_tAL": "403886001, 403884002", "ID_LINHA": 215495 }, "geometry": { "type": "MultiLineString", "coordinates": [ [ [ 417263.620758377481252, 7621687.922373294830322 ], [ 416619.337393707013689, 7621944.125107139348984 ] ] ] } },
{ "type": "Feature", "properties": { "fid": 1035.0, "COMPR_M": 687.93, "CLASSE": "04 - Longa", "CD_FAZ": "403886", "TALHOES": "1, 2", "FAZ_tAL": "403886001, 403884002", "ID_LINHA": 215496 }, "geometry": { "type": "MultiLineString", "coordinates": [ [ [ 417260.343087739543989, 7621692.45424975361675 ], [ 416621.300974122539628, 7621946.572772016748786 ] ] ] } },
{ "type": "Feature", "properties": { "fid": 1036.0, "COMPR_M": 682.29, "CLASSE": "04 - Longa", "CD_FAZ": "403886", "TALHOES": "1, 2", "FAZ_tAL": "403886001, 403884002", "ID_LINHA": 215497 }, "geometry": { "type": "MultiLineString", "coordinates": [ [ [ 417257.065417102538049, 7621696.986126211471856 ], [ 416623.264554537774529, 7621949.020436898805201 ] ] ] } },
{ "type": "Feature", "properties": { "fid": 1037.0, "COMPR_M": 676.65, "CLASSE": "04 - Longa", "CD_FAZ": "403886", "TALHOES": "1, 2", "FAZ_tAL": "403886001, 403884002", "ID_LINHA": 215498 }, "geometry": { "type": "MultiLineString", "coordinates": [ [ [ 417253.787746465182863, 7621701.518002669326961 ], [ 416625.228134952660184, 7621951.468101778998971 ] ] ] } },
{ "type": "Feature", "properties": { "fid": 1038.0, "COMPR_M": 670.87, "CLASSE": "04 - Longa", "CD_FAZ": "403886", "TALHOES": "1, 2", "FAZ_tAL": "403886001, 403884002", "ID_LINHA": 215499 }, "geometry": { "type": "MultiLineString", "coordinates": [ [ [ 417250.385700058657676, 7621706.099337819963694 ], [ 416627.19171536853537, 7621953.915766660124063 ] ] ] } },
{ "type": "Feature", "properties": { "fid": 1039.0, "COMPR_M": 665.09, "CLASSE": "04 - Longa", "CD_FAZ": "403886", "TALHOES": "1, 2", "FAZ_tAL": "403886001, 403884002", "ID_LINHA": 215500 }, "geometry": { "type": "MultiLineString", "coordinates": [ [ [ 417246.975579315330833, 7621710.683883775025606 ], [ 416629.155295784177724, 7621956.363431536592543 ] ] ] } },
{ "type": "Feature", "properties": { "fid": 1040.0, "COMPR_M": 659.3, "CLASSE": "04 - Longa", "CD_FAZ": "403886", "TALHOES": "1, 2", "FAZ_tAL": "403886001, 403884002", "ID_LINHA": 215501 }, "geometry": { "type": "MultiLineString", "coordinates": [ [ [ 417243.565458570432384, 7621715.268429724499583 ], [ 416631.118876199470833, 7621958.811096416786313 ] ] ] } },
{ "type": "Feature", "properties": { "fid": 1041.0, "COMPR_M": 653.55, "CLASSE": "04 - Longa", "CD_FAZ": "403886", "TALHOES": "1, 2", "FAZ_tAL": "403886001, 403884002", "ID_LINHA": 215502 }, "geometry": { "type": "MultiLineString", "coordinates": [ [ [ 417240.183983878465369, 7621719.841584424488246 ], [ 416633.082456614414696, 7621961.25876129604876 ] ] ] } },
{ "type": "Feature", "properties": { "fid": 1042.0, "COMPR_M": 647.91, "CLASSE": "04 - Longa", "CD_FAZ": "403886", "TALHOES": "1, 2", "FAZ_tAL": "403886001, 403884002", "ID_LINHA": 215503 }, "geometry": { "type": "MultiLineString", "coordinates": [ [ [ 417236.911675396957435, 7621724.37132859043777 ], [ 416635.046037029707804, 7621963.706426177173853 ] ] ] } },
{ "type": "Feature", "properties": { "fid": 1043.0, "COMPR_M": 642.27, "CLASSE": "04 - Longa", "CD_FAZ": "403886", "TALHOES": "1, 2", "FAZ_tAL": "403886001, 403884002", "ID_LINHA": 215504 }, "geometry": { "type": "MultiLineString", "coordinates": [ [ [ 417233.639366915682331, 7621728.901072760112584 ], [ 416637.009617444011383, 7621966.154091054573655 ] ] ] } },
{ "type": "Feature", "properties": { "fid": 1044.0, "COMPR_M": 636.64, "CLASSE": "04 - Longa", "CD_FAZ": "403886", "TALHOES": "1, 2", "FAZ_tAL": "403886001, 403884002", "ID_LINHA": 215505 }, "geometry": { "type": "MultiLineString", "coordinates": [ [ [ 417230.367058434057981, 7621733.430816928856075 ], [ 416638.973197860643268, 7621968.601755937561393 ] ] ] } },
{ "type": "Feature", "properties": { "fid": 1155.0, "COMPR_M": 579.94, "CLASSE": "03 - Média", "CD_FAZ": "403886", "TALHOES": "1, 2", "FAZ_tAL": "403886001, 403991001, 403884002", "ID_LINHA": 215616 }, "geometry": { "type": "MultiLineString", "coordinates": [ [ [ 417483.940788532956503, 7621387.230383761227131 ], [ 416945.219195011421107, 7621601.455913408659399 ] ] ] } },
{ "type": "Feature", "properties": { "fid": 1156.0, "COMPR_M": 573.52, "CLASSE": "03 - Média", "CD_FAZ": "403886", "TALHOES": "1, 2", "FAZ_tAL": "403886001, 403991001, 403884002", "ID_LINHA": 215617 }, "geometry": { "type": "MultiLineString", "coordinates": [ [ [ 417490.585197986802086, 7621378.131212405860424 ], [ 416957.824258001230191, 7621589.986456220969558 ] ] ] } },
{ "type": "Feature", "properties": { "fid": 1157.0, "COMPR_M": 570.31, "CLASSE": "03 - Média", "CD_FAZ": "403886", "TALHOES": "1, 2", "FAZ_tAL": "403886001, 403991001, 403884002", "ID_LINHA": 215618 }, "geometry": { "type": "MultiLineString", "coordinates": [ [ [ 417493.906711648916826, 7621373.581901531666517 ], [ 416964.126789497327991, 7621584.251727623865008 ] ] ] } },
{ "type": "Feature", "properties": { "fid": 1158.0, "COMPR_M": 567.1, "CLASSE": "03 - Média", "CD_FAZ": "403886", "TALHOES": "1, 2", "FAZ_tAL": "403886001, 403991001, 403884002", "ID_LINHA": 215619 }, "geometry": { "type": "MultiLineString", "coordinates": [ [ [ 417497.228225312544964, 7621369.032590659335256 ], [ 416970.429320993949659, 7621578.516999030485749 ] ] ] } },
{ "type": "Feature", "properties": { "fid": 1159.0, "COMPR_M": 563.89, "CLASSE": "03 - Média", "CD_FAZ": "403886", "TALHOES": "1, 2", "FAZ_tAL": "403886001, 403991001, 403884002", "ID_LINHA": 215620 }, "geometry": { "type": "MultiLineString", "coordinates": [ [ [ 417500.54973897425225, 7621364.483279788866639 ], [ 416976.731852488417644, 7621572.782270438969135 ] ] ] } },
{ "type": "Feature", "properties": { "fid": 1160.0, "COMPR_M": 560.62, "CLASSE": "03 - Média", "CD_FAZ": "403886", "TALHOES": "1, 2", "FAZ_tAL": "403886001, 403991001, 403884002", "ID_LINHA": 215621 }, "geometry": { "type": "MultiLineString", "coordinates": [ [ [ 417503.812054913025349, 7621359.957509206607938 ], [ 416983.034383986028843, 7621567.047541843727231 ] ] ] } },
{ "type": "Feature", "properties": { "fid": 1161.0, "COMPR_M": 557.23, "CLASSE": "03 - Média", "CD_FAZ": "403886", "TALHOES": "1, 2", "FAZ_tAL": "403886001, 403991001, 403884002", "ID_LINHA": 215622 }, "geometry": { "type": "MultiLineString", "coordinates": [ [ [ 417506.963139537896495, 7621355.475970354862511 ], [ 416989.336915480904281, 7621561.312813246622682 ] ] ] } },
{ "type": "Feature", "properties": { "fid": 1162.0, "COMPR_M": 553.83, "CLASSE": "03 - Média", "CD_FAZ": "403886", "TALHOES": "1, 2", "FAZ_tAL": "403886001, 403991001, 403884002", "ID_LINHA": 215623 }, "geometry": { "type": "MultiLineString", "coordinates": [ [ [ 417510.114224161836319, 7621350.994431503117085 ], [ 416995.639446976943873, 7621555.578084654174745 ] ] ] } },
{ "type": "Feature", "properties": { "fid": 1163.0, "COMPR_M": 550.4, "CLASSE": "03 - Média", "CD_FAZ": "403886", "TALHOES": "1, 2", "FAZ_tAL": "403886001, 403991001, 403884002", "ID_LINHA": 215624 }, "geometry": { "type": "MultiLineString", "coordinates": [ [ [ 417513.227616343763657, 7621346.527881253510714 ], [ 417001.94197847408941, 7621549.843356059864163 ] ] ] } },
{ "type": "Feature", "properties": { "fid": 1164.0, "COMPR_M": 546.85, "CLASSE": "03 - Média", "CD_FAZ": "403886", "TALHOES": "1, 2", "FAZ_tAL": "403886001, 403991001, 403884002", "ID_LINHA": 215625 }, "geometry": { "type": "MultiLineString", "coordinates": [ [ [ 417516.231232976075262, 7621342.104983842000365 ], [ 417008.244509969721548, 7621544.108627465553582 ] ] ] } },
{ "type": "Feature", "properties": { "fid": 1165.0, "COMPR_M": 543.3, "CLASSE": "03 - Média", "CD_FAZ": "403886", "TALHOES": "1, 2", "FAZ_tAL": "403886001, 403991001, 403884002", "ID_LINHA": 215626 }, "geometry": { "type": "MultiLineString", "coordinates": [ [ [ 417519.236664961790666, 7621337.681364543735981 ], [ 417014.547041465120856, 7621538.373898870311677 ] ] ] } },
{ "type": "Feature", "properties": { "fid": 1166.0, "COMPR_M": 539.77, "CLASSE": "03 - Média", "CD_FAZ": "403886", "TALHOES": "1, 2", "FAZ_tAL": "403886001, 403991001, 403884002", "ID_LINHA": 215627 }, "geometry": { "type": "MultiLineString", "coordinates": [ [ [ 417522.257158559164964, 7621333.25175591185689 ], [ 417020.849572961684316, 7621532.639170276932418 ] ] ] } },
{ "type": "Feature", "properties": { "fid": 1167.0, "COMPR_M": 533.37, "CLASSE": "03 - Média", "CD_FAZ": "403886", "TALHOES": "1, 2", "FAZ_tAL": "403886001, 403991001, 403884002", "ID_LINHA": 215628 }, "geometry": { "type": "MultiLineString", "coordinates": [ [ [ 417522.619456161919516, 7621329.87919316906482 ], [ 417027.152104457316454, 7621526.904441682621837 ] ] ] } },
{ "type": "Feature", "properties": { "fid": 1168.0, "COMPR_M": 526.68, "CLASSE": "03 - Média", "CD_FAZ": "403886", "TALHOES": "1, 2", "FAZ_tAL": "403886001, 403991001, 403884002", "ID_LINHA": 215629 }, "geometry": { "type": "MultiLineString", "coordinates": [ [ [ 417522.704665594385006, 7621326.616816021502018 ], [ 417033.454635952715762, 7621521.16971308644861 ] ] ] } },
{ "type": "Feature", "properties": { "fid": 1169.0, "COMPR_M": 519.99, "CLASSE": "03 - Média", "CD_FAZ": "403886", "TALHOES": "1, 2", "FAZ_tAL": "403886001, 403991001, 403884002", "ID_LINHA": 215630 }, "geometry": { "type": "MultiLineString", "coordinates": [ [ [ 417522.789875026093796, 7621323.354438877664506 ], [ 417039.757167450501584, 7621515.434984492138028 ] ] ] } },
{ "type": "Feature", "properties": { "fid": 1170.0, "COMPR_M": 513.29, "CLASSE": "03 - Média", "CD_FAZ": "403886", "TALHOES": "1, 2", "FAZ_tAL": "403886001, 403991001, 403884002", "ID_LINHA": 215631 }, "geometry": { "type": "MultiLineString", "coordinates": [ [ [ 417522.875084459141362, 7621320.09206173196435 ], [ 417046.05969894467853, 7621509.700255897827446 ] ] ] } },
{ "type": "Feature", "properties": { "fid": 1171.0, "COMPR_M": 506.6, "CLASSE": "03 - Média", "CD_FAZ": "403886", "TALHOES": "1, 2", "FAZ_tAL": "403886001, 403991001, 403884002", "ID_LINHA": 215632 }, "geometry": { "type": "MultiLineString", "coordinates": [ [ [ 417522.960293892188929, 7621316.82968458533287 ], [ 417052.362230440601707, 7621503.96552730537951 ] ] ] } },
{ "type": "Feature", "properties": { "fid": 1172.0, "COMPR_M": 499.91, "CLASSE": "03 - Média", "CD_FAZ": "403886", "TALHOES": "1, 2", "FAZ_tAL": "403886001, 403991001, 403884002", "ID_LINHA": 215633 }, "geometry": { "type": "MultiLineString", "coordinates": [ [ [ 417523.045503325178288, 7621313.567307437770069 ], [ 417058.664761937514413, 7621498.230798708274961 ] ] ] } },
{ "type": "Feature", "properties": { "fid": 1173.0, "COMPR_M": 493.21, "CLASSE": "03 - Média", "CD_FAZ": "403886", "TALHOES": "1, 2", "FAZ_tAL": "403886001, 403991001, 403884002", "ID_LINHA": 215634 }, "geometry": { "type": "MultiLineString", "coordinates": [ [ [ 417523.130712756887078, 7621310.304930293932557 ], [ 417064.967293432855513, 7621492.496070113033056 ] ] ] } },
{ "type": "Feature", "properties": { "fid": 1174.0, "COMPR_M": 486.52, "CLASSE": "03 - Média", "CD_FAZ": "403886", "TALHOES": "1, 2", "FAZ_tAL": "403886001, 403991001, 403884002", "ID_LINHA": 215635 }, "geometry": { "type": "MultiLineString", "coordinates": [ [ [ 417523.215922189177945, 7621307.042553147301078 ], [ 417071.269824929186143, 7621486.761341519653797 ] ] ] } },
{ "type": "Feature", "properties": { "fid": 1175.0, "COMPR_M": 479.83, "CLASSE": "03 - Média", "CD_FAZ": "403886", "TALHOES": "1, 2", "FAZ_tAL": "403886001, 403991001, 403884002", "ID_LINHA": 215636 }, "geometry": { "type": "MultiLineString", "coordinates": [ [ [ 417523.301131623389665, 7621303.780176001600921 ], [ 417077.572356426448096, 7621481.026612924411893 ] ] ] } },
{ "type": "Feature", "properties": { "fid": 1176.0, "COMPR_M": 473.14, "CLASSE": "03 - Média", "CD_FAZ": "403886", "TALHOES": "1, 2", "FAZ_tAL": "403886001, 403991001, 403884002", "ID_LINHA": 215637 }, "geometry": { "type": "MultiLineString", "coordinates": [ [ [ 417523.386341053643264, 7621300.517798854038119 ], [ 417083.874887921381742, 7621475.291884332895279 ] ] ] } },
{ "type": "Feature", "properties": { "fid": 1177.0, "COMPR_M": 466.44, "CLASSE": "03 - Média", "CD_FAZ": "403886", "TALHOES": "1, 2", "FAZ_tAL": "403886001, 403991001, 403884002", "ID_LINHA": 215638 }, "geometry": { "type": "MultiLineString", "coordinates": [ [ [ 417523.47155048919376, 7621297.25542170740664 ], [ 417090.177419416722842, 7621469.557155737653375 ] ] ] } },
{ "type": "Feature", "properties": { "fid": 1178.0, "COMPR_M": 459.75, "CLASSE": "03 - Média", "CD_FAZ": "403886", "TALHOES": "1, 2", "FAZ_tAL": "403886001, 403991001, 403884002", "ID_LINHA": 215639 }, "geometry": { "type": "MultiLineString", "coordinates": [ [ [ 417523.556759920029435, 7621293.993044561706483 ], [ 417096.479950912937056, 7621463.822427143342793 ] ] ] } },
{ "type": "Feature", "properties": { "fid": 1179.0, "COMPR_M": 453.06, "CLASSE": "03 - Média", "CD_FAZ": "403886", "TALHOES": "1, 2", "FAZ_tAL": "403886001, 403991001, 403884002", "ID_LINHA": 215640 }, "geometry": { "type": "MultiLineString", "coordinates": [ [ [ 417523.641969353484455, 7621290.730667417868972 ], [ 417102.782482407463249, 7621458.087698549032211 ] ] ] } },
{ "type": "Feature", "properties": { "fid": 1180.0, "COMPR_M": 446.36, "CLASSE": "03 - Média", "CD_FAZ": "403886", "TALHOES": "1, 2", "FAZ_tAL": "403886001, 403991001, 403884002", "ID_LINHA": 215641 }, "geometry": { "type": "MultiLineString", "coordinates": [ [ [ 417523.727178786939476, 7621287.468290269374847 ], [ 417109.08501390425954, 7621452.35296995472163 ] ] ] } },
{ "type": "Feature", "properties": { "fid": 1181.0, "COMPR_M": 439.67, "CLASSE": "03 - Média", "CD_FAZ": "403886", "TALHOES": "1, 2", "FAZ_tAL": "403886001, 403991001, 403884002", "ID_LINHA": 215642 }, "geometry": { "type": "MultiLineString", "coordinates": [ [ [ 417523.812388218997512, 7621284.205913123674691 ], [ 417115.387545401928946, 7621446.618241358548403 ] ] ] } },
{ "type": "Feature", "properties": { "fid": 1182.0, "COMPR_M": 432.98, "CLASSE": "03 - Média", "CD_FAZ": "403886", "TALHOES": "1, 2", "FAZ_tAL": "403886001, 403991001, 403884002", "ID_LINHA": 215643 }, "geometry": { "type": "MultiLineString", "coordinates": [ [ [ 417523.897597651695833, 7621280.943535977974534 ], [ 417121.690076896571554, 7621440.883512765169144 ] ] ] } },
{ "type": "Feature", "properties": { "fid": 1183.0, "COMPR_M": 426.29, "CLASSE": "03 - Média", "CD_FAZ": "403886", "TALHOES": "1, 2", "FAZ_tAL": "403886001, 403991001, 403884002", "ID_LINHA": 215644 }, "geometry": { "type": "MultiLineString", "coordinates": [ [ [ 417523.982807085092645, 7621277.681158830411732 ], [ 417127.992608392145485, 7621435.148784169927239 ] ] ] } },
{ "type": "Feature", "properties": { "fid": 1184.0, "COMPR_M": 419.59, "CLASSE": "03 - Média", "CD_FAZ": "403886", "TALHOES": "1, 2", "FAZ_tAL": "403886001, 403991001, 403884002", "ID_LINHA": 215645 }, "geometry": { "type": "MultiLineString", "coordinates": [ [ [ 417524.06801651843125, 7621274.418781686574221 ], [ 417134.295139889232814, 7621429.41405557282269 ] ] ] } },
{ "type": "Feature", "properties": { "fid": 1185.0, "COMPR_M": 412.9, "CLASSE": "03 - Média", "CD_FAZ": "403886", "TALHOES": "1, 2", "FAZ_tAL": "403886001, 403991001, 403884002", "ID_LINHA": 215646 }, "geometry": { "type": "MultiLineString", "coordinates": [ [ [ 417524.153225949092302, 7621271.156404538080096 ], [ 417140.597671384457499, 7621423.679326983168721 ] ] ] } },
{ "type": "Feature", "properties": { "fid": 1186.0, "COMPR_M": 406.21, "CLASSE": "03 - Média", "CD_FAZ": "403886", "TALHOES": "1, 2", "FAZ_tAL": "403886001, 403991001, 403884002", "ID_LINHA": 215647 }, "geometry": { "type": "MultiLineString", "coordinates": [ [ [ 417524.2384353823727, 7621267.894027393311262 ], [ 417146.900202880613506, 7621417.944598387926817 ] ] ] } },
{ "type": "Feature", "properties": { "fid": 1187.0, "COMPR_M": 399.51, "CLASSE": "03 - Média", "CD_FAZ": "403886", "TALHOES": "1, 2", "FAZ_tAL": "403886001, 403991001, 403884002", "ID_LINHA": 215648 }, "geometry": { "type": "MultiLineString", "coordinates": [ [ [ 417524.323644814896397, 7621264.631650247611105 ], [ 417153.202734376303852, 7621412.209869790822268 ] ] ] } },
{ "type": "Feature", "properties": { "fid": 1188.0, "COMPR_M": 392.82, "CLASSE": "03 - Média", "CD_FAZ": "403886", "TALHOES": "1, 2", "FAZ_tAL": "403886001, 403991001, 403884002", "ID_LINHA": 215649 }, "geometry": { "type": "MultiLineString", "coordinates": [ [ [ 417524.408854248118587, 7621261.369273100048304 ], [ 417159.505265873449389, 7621406.475141197443008 ] ] ] } },
{ "type": "Feature", "properties": { "fid": 1189.0, "COMPR_M": 386.13, "CLASSE": "03 - Média", "CD_FAZ": "403886", "TALHOES": "1, 2", "FAZ_tAL": "403886001, 403991001, 403884002", "ID_LINHA": 215650 }, "geometry": { "type": "MultiLineString", "coordinates": [ [ [ 417524.494063680642284, 7621258.106895955279469 ], [ 417165.807797368150204, 7621400.740412602201104 ] ] ] } },
{ "type": "Feature", "properties": { "fid": 1190.0, "COMPR_M": 379.43, "CLASSE": "03 - Média", "CD_FAZ": "403886", "TALHOES": "1, 2", "FAZ_tAL": "403886001, 403991001, 403884002", "ID_LINHA": 215651 }, "geometry": { "type": "MultiLineString", "coordinates": [ [ [ 417524.579273113165982, 7621254.844518810510635 ], [ 417172.110328866227064, 7621395.0056840069592 ] ] ] } },
{ "type": "Feature", "properties": { "fid": 1191.0, "COMPR_M": 372.74, "CLASSE": "03 - Média", "CD_FAZ": "403886", "TALHOES": "1, 2", "FAZ_tAL": "403886001, 403991001, 403884002", "ID_LINHA": 215652 }, "geometry": { "type": "MultiLineString", "coordinates": [ [ [ 417524.664482546271756, 7621251.582141662016511 ], [ 417178.412860361800995, 7621389.270955415442586 ] ] ] } },
{ "type": "Feature", "properties": { "fid": 1192.0, "COMPR_M": 366.15, "CLASSE": "03 - Média", "CD_FAZ": "403886", "TALHOES": "1, 2", "FAZ_tAL": "403886001, 403991001, 403884002", "ID_LINHA": 215653 }, "geometry": { "type": "MultiLineString", "coordinates": [ [ [ 417524.749691979377531, 7621248.319764517247677 ], [ 417184.618572914623655, 7621383.574727391824126 ] ] ] } },
{ "type": "Feature", "properties": { "fid": 1193.0, "COMPR_M": 359.62, "CLASSE": "03 - Média", "CD_FAZ": "403886", "TALHOES": "1, 2", "FAZ_tAL": "403886001, 403991001, 403884002", "ID_LINHA": 215654 }, "geometry": { "type": "MultiLineString", "coordinates": [ [ [ 417524.834901411784813, 7621245.057387370616198 ], [ 417190.770139415864833, 7621377.900030836462975 ] ] ] } },
{ "type": "Feature", "properties": { "fid": 1194.0, "COMPR_M": 353.09, "CLASSE": "03 - Média", "CD_FAZ": "403886", "TALHOES": "1, 2", "FAZ_tAL": "403886001, 403991001, 403884002", "ID_LINHA": 215655 }, "geometry": { "type": "MultiLineString", "coordinates": [ [ [ 417524.920110844832379, 7621241.795010225847363 ], [ 417196.921705919550732, 7621372.2253342801705 ] ] ] } },
{ "type": "Feature", "properties": { "fid": 1195.0, "COMPR_M": 346.56, "CLASSE": "03 - Média", "CD_FAZ": "403886", "TALHOES": "1, 2", "FAZ_tAL": "403886001, 403991001, 403884002", "ID_LINHA": 215656 }, "geometry": { "type": "MultiLineString", "coordinates": [ [ [ 417525.005320277821738, 7621238.532633080147207 ], [ 417203.073272421490401, 7621366.550637728534639 ] ] ] } },
{ "type": "Feature", "properties": { "fid": 1196.0, "COMPR_M": 333.5, "CLASSE": "03 - Média", "CD_FAZ": "403886", "TALHOES": "1, 2", "FAZ_tAL": "403886001, 403991001, 403884002", "ID_LINHA": 215657 }, "geometry": { "type": "MultiLineString", "coordinates": [ [ [ 417525.175739143043756, 7621232.007878787815571 ], [ 417215.376405427115969, 7621355.201244615018368 ] ] ] } },
{ "type": "Feature", "properties": { "fid": 1197.0, "COMPR_M": 326.97, "CLASSE": "03 - Média", "CD_FAZ": "403886", "TALHOES": "1, 2", "FAZ_tAL": "403886001, 403991001, 403884002", "ID_LINHA": 215658 }, "geometry": { "type": "MultiLineString", "coordinates": [ [ [ 417525.2609485766734, 7621228.745501639321446 ], [ 417221.527971928822808, 7621349.526548057794571 ] ] ] } },
{ "type": "Feature", "properties": { "fid": 1198.0, "COMPR_M": 320.44, "CLASSE": "03 - Média", "CD_FAZ": "403886", "TALHOES": "1, 2", "FAZ_tAL": "403886001, 403884002", "ID_LINHA": 215659 }, "geometry": { "type": "MultiLineString", "coordinates": [ [ [ 417525.346158008906059, 7621225.483124492689967 ], [ 417227.67953843268333, 7621343.851851502433419 ] ] ] } },
{ "type": "Feature", "properties": { "fid": 1199.0, "COMPR_M": 313.76, "CLASSE": "03 - Média", "CD_FAZ": "403886", "TALHOES": "1, 2", "FAZ_tAL": "403886001, 403884002", "ID_LINHA": 215660 }, "geometry": { "type": "MultiLineString", "coordinates": [ [ [ 417525.431367440382019, 7621222.220747349783778 ], [ 417233.969650896615349, 7621338.122061405330896 ] ] ] } },
{ "type": "Feature", "properties": { "fid": 1200.0, "COMPR_M": 307.08, "CLASSE": "03 - Média", "CD_FAZ": "403886", "TALHOES": "1, 2", "FAZ_tAL": "403886001, 403884002", "ID_LINHA": 215661 }, "geometry": { "type": "MultiLineString", "coordinates": [ [ [ 417525.515478411631193, 7621218.95880701392889 ], [ 417240.25865286285989, 7621332.392712897621095 ] ] ] } },
{ "type": "Feature", "properties": { "fid": 1201.0, "COMPR_M": 300.4, "CLASSE": "03 - Média", "CD_FAZ": "403886", "TALHOES": "1, 2", "FAZ_tAL": "403886001, 403884002", "ID_LINHA": 215662 }, "geometry": { "type": "MultiLineString", "coordinates": [ [ [ 417525.595676779921632, 7621215.69842254370451 ], [ 417246.547654825262725, 7621326.663364397361875 ] ] ] } },
{ "type": "Feature", "properties": { "fid": 1202.0, "COMPR_M": 293.71, "CLASSE": "02 - Curta", "CD_FAZ": "403886", "TALHOES": "1", "FAZ_tAL": "403886001", "ID_LINHA": 215663 }, "geometry": { "type": "MultiLineString", "coordinates": [ [ [ 417525.675875147455372, 7621212.438038075342774 ], [ 417252.836656788596883, 7621320.934015894308686 ] ] ] } },
{ "type": "Feature", "properties": { "fid": 1203.0, "COMPR_M": 287.03, "CLASSE": "02 - Curta", "CD_FAZ": "403886", "TALHOES": "1", "FAZ_tAL": "403886001", "ID_LINHA": 215664 }, "geometry": { "type": "MultiLineString", "coordinates": [ [ [ 417525.756073516386095, 7621209.177653603255749 ], [ 417259.125658754142933, 7621315.204667390324175 ] ] ] } },
{ "type": "Feature", "properties": { "fid": 1204.0, "COMPR_M": 280.34, "CLASSE": "02 - Curta", "CD_FAZ": "403886", "TALHOES": "1", "FAZ_tAL": "403886001", "ID_LINHA": 215665 }, "geometry": { "type": "MultiLineString", "coordinates": [ [ [ 417525.836271883337758, 7621205.917269133962691 ], [ 417265.414660715148784, 7621309.475318886339664 ] ] ] } },
{ "type": "Feature", "properties": { "fid": 1205.0, "COMPR_M": 273.66, "CLASSE": "02 - Curta", "CD_FAZ": "403886", "TALHOES": "1", "FAZ_tAL": "403886001", "ID_LINHA": 215666 }, "geometry": { "type": "MultiLineString", "coordinates": [ [ [ 417525.916470250231214, 7621202.656884665600955 ], [ 417271.703662678366527, 7621303.745970381423831 ] ] ] } },
{ "type": "Feature", "properties": { "fid": 1206.0, "COMPR_M": 266.98, "CLASSE": "02 - Curta", "CD_FAZ": "403886", "TALHOES": "1", "FAZ_tAL": "403886001", "ID_LINHA": 215667 }, "geometry": { "type": "MultiLineString", "coordinates": [ [ [ 417525.996668619802222, 7621199.39650019723922 ], [ 417277.992664644378237, 7621298.016621876507998 ] ] ] } },
{ "type": "Feature", "properties": { "fid": 1207.0, "COMPR_M": 260.29, "CLASSE": "02 - Curta", "CD_FAZ": "403886", "TALHOES": "1", "FAZ_tAL": "403886001", "ID_LINHA": 215668 }, "geometry": { "type": "MultiLineString", "coordinates": [ [ [ 417526.076866988674738, 7621196.136115727946162 ], [ 417284.281666607188527, 7621292.287273375317454 ] ] ] } },
{ "type": "Feature", "properties": { "fid": 1208.0, "COMPR_M": 253.61, "CLASSE": "02 - Curta", "CD_FAZ": "403886", "TALHOES": "1", "FAZ_tAL": "403886001", "ID_LINHA": 215669 }, "geometry": { "type": "MultiLineString", "coordinates": [ [ [ 417526.157065355626401, 7621192.875731255859137 ], [ 417290.570668570755515, 7621286.557924874126911 ] ] ] } },
{ "type": "Feature", "properties": { "fid": 1209.0, "COMPR_M": 246.93, "CLASSE": "02 - Curta", "CD_FAZ": "403886", "TALHOES": "1", "FAZ_tAL": "403886001", "ID_LINHA": 215670 }, "geometry": { "type": "MultiLineString", "coordinates": [ [ [ 417526.237263722519856, 7621189.615346789360046 ], [ 417296.859670535195619, 7621280.828576369211078 ] ] ] } },
{ "type": "Feature", "properties": { "fid": 1210.0, "COMPR_M": 240.74, "CLASSE": "02 - Curta", "CD_FAZ": "403886", "TALHOES": "1", "FAZ_tAL": "403886001", "ID_LINHA": 215671 }, "geometry": { "type": "MultiLineString", "coordinates": [ [ [ 417526.778202784771565, 7621186.171746311709285 ], [ 417303.14867249771487, 7621275.099227866157889 ] ] ] } },
{ "type": "Feature", "properties": { "fid": 1211.0, "COMPR_M": 233.56, "CLASSE": "02 - Curta", "CD_FAZ": "403886", "TALHOES": "1", "FAZ_tAL": "403886001", "ID_LINHA": 215672 }, "geometry": { "type": "MultiLineString", "coordinates": [ [ [ 417526.397660459042527, 7621183.094577852636576 ], [ 417309.437674461572897, 7621269.369879364967346 ] ] ] } },
{ "type": "Feature", "properties": { "fid": 1212.0, "COMPR_M": 226.87, "CLASSE": "02 - Curta", "CD_FAZ": "403886", "TALHOES": "1", "FAZ_tAL": "403886001", "ID_LINHA": 215673 }, "geometry": { "type": "MultiLineString", "coordinates": [ [ [ 417526.477858825935982, 7621179.83419338054955 ], [ 417315.726676426944323, 7621263.640530858188868 ] ] ] } },
{ "type": "Feature", "properties": { "fid": 1213.0, "COMPR_M": 220.19, "CLASSE": "02 - Curta", "CD_FAZ": "403886", "TALHOES": "1", "FAZ_tAL": "403886001", "ID_LINHA": 215674 }, "geometry": { "type": "MultiLineString", "coordinates": [ [ [ 417526.558057194168214, 7621176.573808912187815 ], [ 417322.015678388357628, 7621257.911182356998324 ] ] ] } },
{ "type": "Feature", "properties": { "fid": 1214.0, "COMPR_M": 213.51, "CLASSE": "02 - Curta", "CD_FAZ": "403886", "TALHOES": "1", "FAZ_tAL": "403886001", "ID_LINHA": 215675 }, "geometry": { "type": "MultiLineString", "coordinates": [ [ [ 417526.638255562400445, 7621173.313424442894757 ], [ 417328.304680351866409, 7621252.181833852082491 ] ] ] } },
{ "type": "Feature", "properties": { "fid": 1215.0, "COMPR_M": 206.82, "CLASSE": "02 - Curta", "CD_FAZ": "403886", "TALHOES": "1", "FAZ_tAL": "403886001", "ID_LINHA": 215676 }, "geometry": { "type": "MultiLineString", "coordinates": [ [ [ 417526.718453931971453, 7621170.053039972670376 ], [ 417334.593682316597551, 7621246.452485349029303 ] ] ] } },
{ "type": "Feature", "properties": { "fid": 1216.0, "COMPR_M": 200.14, "CLASSE": "02 - Curta", "CD_FAZ": "403886", "TALHOES": "1", "FAZ_tAL": "403886001", "ID_LINHA": 215677 }, "geometry": { "type": "MultiLineString", "coordinates": [ [ [ 417526.798652298864909, 7621166.792655507102609 ], [ 417340.882684278825764, 7621240.723136847838759 ] ] ] } },
{ "type": "Feature", "properties": { "fid": 1217.0, "COMPR_M": 193.46, "CLASSE": "02 - Curta", "CD_FAZ": "403886", "TALHOES": "1", "FAZ_tAL": "403886001", "ID_LINHA": 215678 }, "geometry": { "type": "MultiLineString", "coordinates": [ [ [ 417526.87885066511808, 7621163.53227103408426 ], [ 417347.17168624169426, 7621234.993788343854249 ] ] ] } },
{ "type": "Feature", "properties": { "fid": 1218.0, "COMPR_M": 186.77, "CLASSE": "02 - Curta", "CD_FAZ": "403886", "TALHOES": "1", "FAZ_tAL": "403886001", "ID_LINHA": 215679 }, "geometry": { "type": "MultiLineString", "coordinates": [ [ [ 417526.959049034747295, 7621160.271886565722525 ], [ 417353.460688207938801, 7621229.264439838938415 ] ] ] } },
{ "type": "Feature", "properties": { "fid": 1219.0, "COMPR_M": 180.09, "CLASSE": "02 - Curta", "CD_FAZ": "403886", "TALHOES": "1", "FAZ_tAL": "403886001", "ID_LINHA": 215680 }, "geometry": { "type": "MultiLineString", "coordinates": [ [ [ 417527.039247402921319, 7621157.011502094566822 ], [ 417359.749690172146074, 7621223.535091334022582 ] ] ] } },
{ "type": "Feature", "properties": { "fid": 1220.0, "COMPR_M": 173.4, "CLASSE": "02 - Curta", "CD_FAZ": "403886", "TALHOES": "1", "FAZ_tAL": "403886001", "ID_LINHA": 215681 }, "geometry": { "type": "MultiLineString", "coordinates": [ [ [ 417527.119445771211758, 7621153.751117628999054 ], [ 417366.038692134316079, 7621217.805742835626006 ] ] ] } },
{ "type": "Feature", "properties": { "fid": 1221.0, "COMPR_M": 166.72, "CLASSE": "02 - Curta", "CD_FAZ": "403886", "TALHOES": "1", "FAZ_tAL": "403886001", "ID_LINHA": 215682 }, "geometry": { "type": "MultiLineString", "coordinates": [ [ [ 417527.19964413944399, 7621150.490733157843351 ], [ 417372.327694099105429, 7621212.076394327916205 ] ] ] } },
{ "type": "Feature", "properties": { "fid": 1222.0, "COMPR_M": 160.04, "CLASSE": "02 - Curta", "CD_FAZ": "403886", "TALHOES": "1", "FAZ_tAL": "403886001", "ID_LINHA": 215683 }, "geometry": { "type": "MultiLineString", "coordinates": [ [ [ 417527.279842506337445, 7621147.230348687618971 ], [ 417378.616696061217226, 7621206.347045825794339 ] ] ] } },
{ "type": "Feature", "properties": { "fid": 1223.0, "COMPR_M": 153.35, "CLASSE": "02 - Curta", "CD_FAZ": "403886", "TALHOES": "1", "FAZ_tAL": "403886001", "ID_LINHA": 215684 }, "geometry": { "type": "MultiLineString", "coordinates": [ [ [ 417527.360040873289108, 7621143.969964220188558 ], [ 417384.905698023329023, 7621200.617697320878506 ] ] ] } },
{ "type": "Feature", "properties": { "fid": 1224.0, "COMPR_M": 146.67, "CLASSE": "02 - Curta", "CD_FAZ": "403886", "TALHOES": "1", "FAZ_tAL": "403886001", "ID_LINHA": 215685 }, "geometry": { "type": "MultiLineString", "coordinates": [ [ [ 417527.440239242860116, 7621140.709579749032855 ], [ 417391.194699989282526, 7621194.88834881875664 ] ] ] } },
{ "type": "Feature", "properties": { "fid": 1225.0, "COMPR_M": 139.99, "CLASSE": "02 - Curta", "CD_FAZ": "403886", "TALHOES": "1", "FAZ_tAL": "403886001", "ID_LINHA": 215686 }, "geometry": { "type": "MultiLineString", "coordinates": [ [ [ 417527.520437610393856, 7621137.44919528067112 ], [ 417397.483701951801777, 7621189.159000316634774 ] ] ] } },
{ "type": "Feature", "properties": { "fid": 1226.0, "COMPR_M": 133.3, "CLASSE": "02 - Curta", "CD_FAZ": "403886", "TALHOES": "1", "FAZ_tAL": "403886001", "ID_LINHA": 215687 }, "geometry": { "type": "MultiLineString", "coordinates": [ [ [ 417527.600635976647027, 7621134.188810810446739 ], [ 417403.772703916300088, 7621183.429651811718941 ] ] ] } },
{ "type": "Feature", "properties": { "fid": 1227.0, "COMPR_M": 126.62, "CLASSE": "02 - Curta", "CD_FAZ": "403886", "TALHOES": "1", "FAZ_tAL": "403886001", "ID_LINHA": 215688 }, "geometry": { "type": "MultiLineString", "coordinates": [ [ [ 417527.680834346858319, 7621130.928426341153681 ], [ 417410.061705880681984, 7621177.700303308665752 ] ] ] } },
{ "type": "Feature", "properties": { "fid": 1228.0, "COMPR_M": 119.93, "CLASSE": "02 - Curta", "CD_FAZ": "403886", "TALHOES": "1", "FAZ_tAL": "403886001", "ID_LINHA": 215689 }, "geometry": { "type": "MultiLineString", "coordinates": [ [ [ 417527.761032713809982, 7621127.668041873723269 ], [ 417416.350707843492273, 7621171.970954807475209 ] ] ] } },
{ "type": "Feature", "properties": { "fid": 1229.0, "COMPR_M": 113.25, "CLASSE": "02 - Curta", "CD_FAZ": "403886", "TALHOES": "1", "FAZ_tAL": "403886001", "ID_LINHA": 215690 }, "geometry": { "type": "MultiLineString", "coordinates": [ [ [ 417527.841231081984006, 7621124.407657401636243 ], [ 417422.639709806942847, 7621166.241606304422021 ] ] ] } },
{ "type": "Feature", "properties": { "fid": 1230.0, "COMPR_M": 106.57, "CLASSE": "02 - Curta", "CD_FAZ": "403886", "TALHOES": "1", "FAZ_tAL": "403886001", "ID_LINHA": 215691 }, "geometry": { "type": "MultiLineString", "coordinates": [ [ [ 417527.921429450972937, 7621121.147272931411862 ], [ 417428.928711772197857, 7621160.512257798574865 ] ] ] } },
{ "type": "Feature", "properties": { "fid": 1231.0, "COMPR_M": 99.88, "CLASSE": "01 - Muito curta", "CD_FAZ": "403886", "TALHOES": "1", "FAZ_tAL": "403886001", "ID_LINHA": 215692 }, "geometry": { "type": "MultiLineString", "coordinates": [ [ [ 417528.001627817808185, 7621117.886888463050127 ], [ 417435.217713733378332, 7621154.782909297384322 ] ] ] } },
{ "type": "Feature", "properties": { "fid": 1232.0, "COMPR_M": 93.2, "CLASSE": "01 - Muito curta", "CD_FAZ": "403886", "TALHOES": "1", "FAZ_tAL": "403886001", "ID_LINHA": 215693 }, "geometry": { "type": "MultiLineString", "coordinates": [ [ [ 417528.081826186738908, 7621114.626503996551037 ], [ 417441.506715697643813, 7621149.053560795262456 ] ] ] } },
{ "type": "Feature", "properties": { "fid": 1233.0, "COMPR_M": 86.51, "CLASSE": "01 - Muito curta", "CD_FAZ": "403886", "TALHOES": "1", "FAZ_tAL": "403886001", "ID_LINHA": 215694 }, "geometry": { "type": "MultiLineString", "coordinates": [ [ [ 417528.162024554330856, 7621111.366119524464011 ], [ 417447.795717663713731, 7621143.3242122894153 ] ] ] } },
{ "type": "Feature", "properties": { "fid": 1234.0, "COMPR_M": 79.83, "CLASSE": "01 - Muito curta", "CD_FAZ": "403886", "TALHOES": "1", "FAZ_tAL": "403886001", "ID_LINHA": 215695 }, "geometry": { "type": "MultiLineString", "coordinates": [ [ [ 417528.242222920525819, 7621108.105735057964921 ], [ 417454.084719625650905, 7621137.594863787293434 ] ] ] } },
{ "type": "Feature", "properties": { "fid": 1235.0, "COMPR_M": 73.15, "CLASSE": "01 - Muito curta", "CD_FAZ": "403886", "TALHOES": "1", "FAZ_tAL": "403886001", "ID_LINHA": 215696 }, "geometry": { "type": "MultiLineString", "coordinates": [ [ [ 417528.322421290096827, 7621104.845350585877895 ], [ 417460.373721588053741, 7621131.865515284240246 ] ] ] } },
{ "type": "Feature", "properties": { "fid": 1236.0, "COMPR_M": 66.46, "CLASSE": "01 - Muito curta", "CD_FAZ": "403886", "TALHOES": "1", "FAZ_tAL": "403886001", "ID_LINHA": 215697 }, "geometry": { "type": "MultiLineString", "coordinates": [ [ [ 417528.402619657630567, 7621101.584966119378805 ], [ 417466.662723553541582, 7621126.13616677839309 ] ] ] } },
{ "type": "Feature", "properties": { "fid": 1237.0, "COMPR_M": 59.78, "CLASSE": "01 - Muito curta", "CD_FAZ": "403886", "TALHOES": "1", "FAZ_tAL": "403886001", "ID_LINHA": 215698 }, "geometry": { "type": "MultiLineString", "coordinates": [ [ [ 417528.482818025862798, 7621098.32458165101707 ], [ 417472.951725517399609, 7621120.406818278133869 ] ] ] } },
{ "type": "Feature", "properties": { "fid": 1238.0, "COMPR_M": 53.1, "CLASSE": "01 - Muito curta", "CD_FAZ": "403886", "TALHOES": "1", "FAZ_tAL": "403886001", "ID_LINHA": 215699 }, "geometry": { "type": "MultiLineString", "coordinates": [ [ [ 417528.563016394735314, 7621095.064197178930044 ], [ 417479.240727479802445, 7621114.677469773218036 ] ] ] } },
{ "type": "Feature", "properties": { "fid": 1239.0, "COMPR_M": 46.41, "CLASSE": "01 - Muito curta", "CD_FAZ": "403886", "TALHOES": "1", "FAZ_tAL": "403886001", "ID_LINHA": 215700 }, "geometry": { "type": "MultiLineString", "coordinates": [ [ [ 417528.643214760988485, 7621091.803812711499631 ], [ 417485.52972944319481, 7621108.94812127109617 ] ] ] } },
{ "type": "Feature", "properties": { "fid": 1240.0, "COMPR_M": 39.73, "CLASSE": "01 - Muito curta", "CD_FAZ": "403886", "TALHOES": "1", "FAZ_tAL": "403886001", "ID_LINHA": 215701 }, "geometry": { "type": "MultiLineString", "coordinates": [ [ [ 417528.723413129861001, 7621088.543428242206573 ], [ 417491.818731407052837, 7621103.218772764317691 ] ] ] } },
{ "type": "Feature", "properties": { "fid": 1241.0, "COMPR_M": 33.04, "CLASSE": "01 - Muito curta", "CD_FAZ": "403886", "TALHOES": "1", "FAZ_tAL": "403886001", "ID_LINHA": 215702 }, "geometry": { "type": "MultiLineString", "coordinates": [ [ [ 417528.803611498093233, 7621085.283043771982193 ], [ 417498.107733370503411, 7621097.489424261264503 ] ] ] } },
{ "type": "Feature", "properties": { "fid": 1242.0, "COMPR_M": 26.36, "CLASSE": "01 - Muito curta", "CD_FAZ": "403886", "TALHOES": "1", "FAZ_tAL": "403886001", "ID_LINHA": 215703 }, "geometry": { "type": "MultiLineString", "coordinates": [ [ [ 417528.88380986568518, 7621082.022659301757812 ], [ 417504.396735334419645, 7621091.760075761005282 ] ] ] } },
{ "type": "Feature", "properties": { "fid": 1244.0, "COMPR_M": 12.99, "CLASSE": "01 - Muito curta", "CD_FAZ": "403886", "TALHOES": "1", "FAZ_tAL": "403886001", "ID_LINHA": 215704 }, "geometry": { "type": "MultiLineString", "coordinates": [ [ [ 417529.044206601392943, 7621075.501890365034342 ], [ 417516.974739261902869, 7621080.301378753967583 ] ] ] } },
{ "type": "Feature", "properties": { "fid": 1245.0, "COMPR_M": 19.68, "CLASSE": "01 - Muito curta", "CD_FAZ": "403886", "TALHOES": "1", "FAZ_tAL": "403886001", "ID_LINHA": 215705 }, "geometry": { "type": "MultiLineString", "coordinates": [ [ [ 417528.964008233859204, 7621078.762274835258722 ], [ 417510.685737297404557, 7621086.030727254226804 ] ] ] } },
{ "type": "Feature", "properties": { "fid": 1246.0, "COMPR_M": 340.03, "CLASSE": "03 - Média", "CD_FAZ": "403886", "TALHOES": "1, 2", "FAZ_tAL": "403886001, 403991001, 403884002", "ID_LINHA": 215706 }, "geometry": { "type": "MultiLineString", "coordinates": [ [ [ 417525.090529710811097, 7621235.27025593444705 ], [ 417209.2248389251763, 7621360.875941170379519 ] ] ] } },
{ "type": "Feature", "properties": { "fid": 1247.0, "COMPR_M": 576.73, "CLASSE": "03 - Média", "CD_FAZ": "403886", "TALHOES": "1, 2", "FAZ_tAL": "403886001, 403991001, 403884002", "ID_LINHA": 215707 }, "geometry": { "type": "MultiLineString", "coordinates": [ [ [ 417487.263684324221686, 7621382.680523274466395 ], [ 416951.521726505714469, 7621595.721184816211462 ] ] ] } }
]
}
