{
"type": "FeatureCollection",
"name": "403987",
"crs": { "type": "name", "properties": { "name": "urn:ogc:def:crs:EPSG::32722" } },
"xy_coordinate_resolution": 1e-15,
"features": [
{ "type": "Feature", "properties": { "fid": 1.0, "COMPR_M": 417.89, "CLASSE": "03 - Média", "CD_FAZ": "403987", "TALHOES": "2", "FAZ_tAL": "403987002", "ID_LINHA": 243009 }, "geometry": { "type": "MultiLineString", "coordinates": [ [ [ 416616.225118731847033, 7621914.606618831865489 ], [ 416906.310876417788677, 7621613.985703347250819 ] ] ] } },
{ "type": "Feature", "properties": { "fid": 2.0, "COMPR_M": 400.68, "CLASSE": "03 - Média", "CD_FAZ": "403987", "TALHOES": "2", "FAZ_tAL": "403987002", "ID_LINHA": 243010 }, "geometry": { "type": "MultiLineString", "coordinates": [ [ [ 416544.86444261984434, 7621720.696084138005972 ], [ 416823.004012375429738, 7621432.455210957676172 ] ] ] } },
{ "type": "Feature", "properties": { "fid": 3.0, "COMPR_M": 203.2, "CLASSE": "02 - Curta", "CD_FAZ": "403987", "TALHOES": "2", "FAZ_tAL": "403987002", "ID_LINHA": 243011 }, "geometry": { "type": "MultiLineString", "coordinates": [ [ [ 416541.411506678210571, 7621711.313316332176328 ], [ 416682.467144489462953, 7621565.134905808605254 ] ] ] } },
{ "type": "Feature", "properties": { "fid": 4.0, "COMPR_M": 203.96, "CLASSE": "02 - Curta", "CD_FAZ": "403987", "TALHOES": "2", "FAZ_tAL": "403987002", "ID_LINHA": 243012 }, "geometry": { "type": "MultiLineString", "coordinates": [ [ [ 416542.562485325150192, 7621714.440905598923564 ], [ 416684.147774496581405, 7621567.713608164340258 ] ] ] } },
{ "type": "Feature", "properties": { "fid": 5.0, "COMPR_M": 204.73, "CLASSE": "02 - Curta", "CD_FAZ": "403987", "TALHOES": "2", "FAZ_tAL": "403987002", "ID_LINHA": 243013 }, "geometry": { "type": "MultiLineString", "coordinates": [ [ [ 416543.713463971100282, 7621717.568494867533445 ], [ 416685.828404501196928, 7621570.292310519143939 ] ] ] } },
{ "type": "Feature", "properties": { "fid": 6.0, "COMPR_M": 421.17, "CLASSE": "03 - Média", "CD_FAZ": "403987", "TALHOES": "2", "FAZ_tAL": "403987002", "ID_LINHA": 243014 }, "geometry": { "type": "MultiLineString", "coordinates": [ [ [ 416546.015421266318299, 7621723.823673408478498 ], [ 416838.379526284348685, 7621420.841666959226131 ] ] ] } },
{ "type": "Feature", "properties": { "fid": 7.0, "COMPR_M": 421.15, "CLASSE": "03 - Média", "CD_FAZ": "403987", "TALHOES": "2", "FAZ_tAL": "403987002", "ID_LINHA": 243015 }, "geometry": { "type": "MultiLineString", "coordinates": [ [ [ 416547.166399912326597, 7621726.951262678951025 ], [ 416839.516018103226088, 7621423.984269183129072 ] ] ] } },
{ "type": "Feature", "properties": { "fid": 8.0, "COMPR_M": 421.13, "CLASSE": "03 - Média", "CD_FAZ": "403987", "TALHOES": "2", "FAZ_tAL": "403987002", "ID_LINHA": 243016 }, "geometry": { "type": "MultiLineString", "coordinates": [ [ [ 416548.31737855868414, 7621730.078851945698261 ], [ 416840.652509920590091, 7621427.126871403306723 ] ] ] } },
{ "type": "Feature", "properties": { "fid": 9.0, "COMPR_M": 421.11, "CLASSE": "03 - Média", "CD_FAZ": "403987", "TALHOES": "2", "FAZ_tAL": "403987002", "ID_LINHA": 243017 }, "geometry": { "type": "MultiLineString", "coordinates": [ [ [ 416549.468357207253575, 7621733.206441214308143 ], [ 416841.789001738303341, 7621430.269473625347018 ] ] ] } },
{ "type": "Feature", "properties": { "fid": 10.0, "COMPR_M": 421.09, "CLASSE": "03 - Média", "CD_FAZ": "403987", "TALHOES": "2", "FAZ_tAL": "403987002", "ID_LINHA": 243018 }, "geometry": { "type": "MultiLineString", "coordinates": [ [ [ 416550.619335853378288, 7621736.334030484780669 ], [ 416842.925493555143476, 7621433.412075849249959 ] ] ] } },
{ "type": "Feature", "properties": { "fid": 11.0, "COMPR_M": 421.07, "CLASSE": "03 - Média", "CD_FAZ": "403987", "TALHOES": "2", "FAZ_tAL": "403987002", "ID_LINHA": 243019 }, "geometry": { "type": "MultiLineString", "coordinates": [ [ [ 416551.770314501191024, 7621739.461619754321873 ], [ 416844.061985373671632, 7621436.554678071290255 ] ] ] } },
{ "type": "Feature", "properties": { "fid": 12.0, "COMPR_M": 421.05, "CLASSE": "03 - Média", "CD_FAZ": "403987", "TALHOES": "2", "FAZ_tAL": "403987002", "ID_LINHA": 243020 }, "geometry": { "type": "MultiLineString", "coordinates": [ [ [ 416552.921293148538098, 7621742.589209021069109 ], [ 416845.198477191268466, 7621439.69728029333055 ] ] ] } },
{ "type": "Feature", "properties": { "fid": 13.0, "COMPR_M": 421.03, "CLASSE": "03 - Média", "CD_FAZ": "403987", "TALHOES": "2", "FAZ_tAL": "403987002", "ID_LINHA": 243021 }, "geometry": { "type": "MultiLineString", "coordinates": [ [ [ 416554.07227179419715, 7621745.716798290610313 ], [ 416846.334969008050393, 7621442.839882515370846 ] ] ] } },
{ "type": "Feature", "properties": { "fid": 14.0, "COMPR_M": 421.01, "CLASSE": "03 - Média", "CD_FAZ": "403987", "TALHOES": "2", "FAZ_tAL": "403987002", "ID_LINHA": 243022 }, "geometry": { "type": "MultiLineString", "coordinates": [ [ [ 416555.223250442708377, 7621748.844387562945485 ], [ 416847.471460826462135, 7621445.982484740205109 ] ] ] } },
{ "type": "Feature", "properties": { "fid": 15.0, "COMPR_M": 420.98, "CLASSE": "03 - Média", "CD_FAZ": "403987", "TALHOES": "2", "FAZ_tAL": "403987002", "ID_LINHA": 243023 }, "geometry": { "type": "MultiLineString", "coordinates": [ [ [ 416556.374229088192806, 7621751.971976829692721 ], [ 416848.607952643302269, 7621449.12508696038276 ] ] ] } },
{ "type": "Feature", "properties": { "fid": 16.0, "COMPR_M": 420.96, "CLASSE": "03 - Média", "CD_FAZ": "403987", "TALHOES": "2", "FAZ_tAL": "403987002", "ID_LINHA": 243024 }, "geometry": { "type": "MultiLineString", "coordinates": [ [ [ 416557.525207735947333, 7621755.099566099233925 ], [ 416849.744444460549857, 7621452.267689183354378 ] ] ] } },
{ "type": "Feature", "properties": { "fid": 17.0, "COMPR_M": 420.94, "CLASSE": "03 - Média", "CD_FAZ": "403987", "TALHOES": "2", "FAZ_tAL": "403987002", "ID_LINHA": 243025 }, "geometry": { "type": "MultiLineString", "coordinates": [ [ [ 416558.676186382013839, 7621758.227155368775129 ], [ 416850.880936278845184, 7621455.410291405394673 ] ] ] } },
{ "type": "Feature", "properties": { "fid": 18.0, "COMPR_M": 420.92, "CLASSE": "03 - Média", "CD_FAZ": "403987", "TALHOES": "2", "FAZ_tAL": "403987002", "ID_LINHA": 243026 }, "geometry": { "type": "MultiLineString", "coordinates": [ [ [ 416559.827165028953459, 7621761.354744638316333 ], [ 416852.017428096267395, 7621458.552893627434969 ] ] ] } },
{ "type": "Feature", "properties": { "fid": 19.0, "COMPR_M": 420.9, "CLASSE": "03 - Média", "CD_FAZ": "403987", "TALHOES": "2", "FAZ_tAL": "403987002", "ID_LINHA": 243027 }, "geometry": { "type": "MultiLineString", "coordinates": [ [ [ 416560.978143676184118, 7621764.482333905994892 ], [ 416853.15391991409706, 7621461.695495849475265 ] ] ] } },
{ "type": "Feature", "properties": { "fid": 20.0, "COMPR_M": 420.88, "CLASSE": "03 - Média", "CD_FAZ": "403987", "TALHOES": "2", "FAZ_tAL": "403987002", "ID_LINHA": 243028 }, "geometry": { "type": "MultiLineString", "coordinates": [ [ [ 416562.129122324287891, 7621767.609923174604774 ], [ 416854.290411731577478, 7621464.838098073378205 ] ] ] } },
{ "type": "Feature", "properties": { "fid": 21.0, "COMPR_M": 420.86, "CLASSE": "03 - Média", "CD_FAZ": "403987", "TALHOES": "2", "FAZ_tAL": "403987002", "ID_LINHA": 243029 }, "geometry": { "type": "MultiLineString", "coordinates": [ [ [ 416563.280100970645435, 7621770.7375124450773 ], [ 416855.426903549523558, 7621467.980700295418501 ] ] ] } },
{ "type": "Feature", "properties": { "fid": 22.0, "COMPR_M": 420.84, "CLASSE": "03 - Média", "CD_FAZ": "403987", "TALHOES": "2", "FAZ_tAL": "403987002", "ID_LINHA": 243030 }, "geometry": { "type": "MultiLineString", "coordinates": [ [ [ 416564.431079617934301, 7621773.865101714618504 ], [ 416856.563395368517376, 7621471.123302519321442 ] ] ] } },
{ "type": "Feature", "properties": { "fid": 23.0, "COMPR_M": 420.82, "CLASSE": "03 - Média", "CD_FAZ": "403987", "TALHOES": "2", "FAZ_tAL": "403987002", "ID_LINHA": 243031 }, "geometry": { "type": "MultiLineString", "coordinates": [ [ [ 416565.582058264815714, 7621776.992690984159708 ], [ 416857.69988718390232, 7621474.265904740430415 ] ] ] } },
{ "type": "Feature", "properties": { "fid": 24.0, "COMPR_M": 420.8, "CLASSE": "03 - Média", "CD_FAZ": "403987", "TALHOES": "2", "FAZ_tAL": "403987002", "ID_LINHA": 243032 }, "geometry": { "type": "MultiLineString", "coordinates": [ [ [ 416566.733036911929958, 7621780.120280253700912 ], [ 416858.836379001673777, 7621477.40850696247071 ] ] ] } },
{ "type": "Feature", "properties": { "fid": 25.0, "COMPR_M": 420.78, "CLASSE": "03 - Média", "CD_FAZ": "403987", "TALHOES": "2", "FAZ_tAL": "403987002", "ID_LINHA": 243033 }, "geometry": { "type": "MultiLineString", "coordinates": [ [ [ 416567.884015558636747, 7621783.247869525104761 ], [ 416859.972870819852687, 7621480.551109185442328 ] ] ] } },
{ "type": "Feature", "properties": { "fid": 26.0, "COMPR_M": 420.76, "CLASSE": "03 - Média", "CD_FAZ": "403987", "TALHOES": "2", "FAZ_tAL": "403987002", "ID_LINHA": 243034 }, "geometry": { "type": "MultiLineString", "coordinates": [ [ [ 416569.034994205634575, 7621786.375458791851997 ], [ 416861.109362637158483, 7621483.693711407482624 ] ] ] } },
{ "type": "Feature", "properties": { "fid": 27.0, "COMPR_M": 420.73, "CLASSE": "03 - Média", "CD_FAZ": "403987", "TALHOES": "2", "FAZ_tAL": "403987002", "ID_LINHA": 243035 }, "geometry": { "type": "MultiLineString", "coordinates": [ [ [ 416570.18597285222495, 7621789.503048060461879 ], [ 416862.245854456035886, 7621486.83631362952292 ] ] ] } },
{ "type": "Feature", "properties": { "fid": 28.0, "COMPR_M": 420.71, "CLASSE": "03 - Média", "CD_FAZ": "403987", "TALHOES": "2", "FAZ_tAL": "403987002", "ID_LINHA": 243036 }, "geometry": { "type": "MultiLineString", "coordinates": [ [ [ 416571.336951499688439, 7621792.630637330934405 ], [ 416863.382346272817813, 7621489.978915851563215 ] ] ] } },
{ "type": "Feature", "properties": { "fid": 29.0, "COMPR_M": 420.69, "CLASSE": "03 - Média", "CD_FAZ": "403987", "TALHOES": "2", "FAZ_tAL": "403987002", "ID_LINHA": 243037 }, "geometry": { "type": "MultiLineString", "coordinates": [ [ [ 416572.487930147384759, 7621795.758226599544287 ], [ 416864.518838091869839, 7621493.121518075466156 ] ] ] } },
{ "type": "Feature", "properties": { "fid": 30.0, "COMPR_M": 420.67, "CLASSE": "03 - Média", "CD_FAZ": "403987", "TALHOES": "2", "FAZ_tAL": "403987002", "ID_LINHA": 243038 }, "geometry": { "type": "MultiLineString", "coordinates": [ [ [ 416573.638908792694565, 7621798.885815870016813 ], [ 416865.655329908593558, 7621496.264120298437774 ] ] ] } },
{ "type": "Feature", "properties": { "fid": 31.0, "COMPR_M": 420.65, "CLASSE": "03 - Média", "CD_FAZ": "403987", "TALHOES": "2", "FAZ_tAL": "403987002", "ID_LINHA": 243039 }, "geometry": { "type": "MultiLineString", "coordinates": [ [ [ 416574.789887440914754, 7621802.013405138626695 ], [ 416866.791821725782938, 7621499.40672252047807 ] ] ] } },
{ "type": "Feature", "properties": { "fid": 32.0, "COMPR_M": 420.63, "CLASSE": "03 - Média", "CD_FAZ": "403987", "TALHOES": "2", "FAZ_tAL": "403987002", "ID_LINHA": 243040 }, "geometry": { "type": "MultiLineString", "coordinates": [ [ [ 416575.940866086690221, 7621805.140994409099221 ], [ 416867.928313542739488, 7621502.549324742518365 ] ] ] } },
{ "type": "Feature", "properties": { "fid": 33.0, "COMPR_M": 420.61, "CLASSE": "03 - Média", "CD_FAZ": "403987", "TALHOES": "2", "FAZ_tAL": "403987002", "ID_LINHA": 243041 }, "geometry": { "type": "MultiLineString", "coordinates": [ [ [ 416577.091844734735787, 7621808.268583677709103 ], [ 416869.06480536138406, 7621505.691926967352629 ] ] ] } },
{ "type": "Feature", "properties": { "fid": 34.0, "COMPR_M": 420.59, "CLASSE": "03 - Média", "CD_FAZ": "403987", "TALHOES": "2", "FAZ_tAL": "403987002", "ID_LINHA": 243042 }, "geometry": { "type": "MultiLineString", "coordinates": [ [ [ 416578.242823380976915, 7621811.396172948181629 ], [ 416870.201297177758534, 7621508.834529186598957 ] ] ] } },
{ "type": "Feature", "properties": { "fid": 35.0, "COMPR_M": 420.57, "CLASSE": "03 - Média", "CD_FAZ": "403987", "TALHOES": "2", "FAZ_tAL": "403987002", "ID_LINHA": 243043 }, "geometry": { "type": "MultiLineString", "coordinates": [ [ [ 416579.393802028149366, 7621814.523762214928865 ], [ 416871.337788995821029, 7621511.977131408639252 ] ] ] } },
{ "type": "Feature", "properties": { "fid": 36.0, "COMPR_M": 420.55, "CLASSE": "03 - Média", "CD_FAZ": "403987", "TALHOES": "2", "FAZ_tAL": "403987002", "ID_LINHA": 243044 }, "geometry": { "type": "MultiLineString", "coordinates": [ [ [ 416580.54478067625314, 7621817.651351485401392 ], [ 416872.474280813592486, 7621515.11973363161087 ] ] ] } },
{ "type": "Feature", "properties": { "fid": 37.0, "COMPR_M": 420.53, "CLASSE": "03 - Média", "CD_FAZ": "403987", "TALHOES": "2", "FAZ_tAL": "403987002", "ID_LINHA": 243045 }, "geometry": { "type": "MultiLineString", "coordinates": [ [ [ 416581.695759323250968, 7621820.778940752148628 ], [ 416873.610772631771397, 7621518.262335855513811 ] ] ] } },
{ "type": "Feature", "properties": { "fid": 38.0, "COMPR_M": 420.5, "CLASSE": "03 - Média", "CD_FAZ": "403987", "TALHOES": "2", "FAZ_tAL": "403987002", "ID_LINHA": 243046 }, "geometry": { "type": "MultiLineString", "coordinates": [ [ [ 416582.846737969783135, 7621823.906530022621155 ], [ 416874.747264448960777, 7621521.404938079416752 ] ] ] } },
{ "type": "Feature", "properties": { "fid": 39.0, "COMPR_M": 420.48, "CLASSE": "03 - Média", "CD_FAZ": "403987", "TALHOES": "2", "FAZ_tAL": "403987002", "ID_LINHA": 243047 }, "geometry": { "type": "MultiLineString", "coordinates": [ [ [ 416583.99771661660634, 7621827.034119293093681 ], [ 416875.883756267256103, 7621524.547540299594402 ] ] ] } },
{ "type": "Feature", "properties": { "fid": 40.0, "COMPR_M": 420.46, "CLASSE": "03 - Média", "CD_FAZ": "403987", "TALHOES": "2", "FAZ_tAL": "403987002", "ID_LINHA": 243048 }, "geometry": { "type": "MultiLineString", "coordinates": [ [ [ 416585.148695263604168, 7621830.161708562634885 ], [ 416877.020248085202184, 7621527.690142523497343 ] ] ] } },
{ "type": "Feature", "properties": { "fid": 41.0, "COMPR_M": 420.44, "CLASSE": "03 - Média", "CD_FAZ": "403987", "TALHOES": "2", "FAZ_tAL": "403987002", "ID_LINHA": 243049 }, "geometry": { "type": "MultiLineString", "coordinates": [ [ [ 416586.29967391025275, 7621833.289297830313444 ], [ 416878.156739902216941, 7621530.832744745537639 ] ] ] } },
{ "type": "Feature", "properties": { "fid": 42.0, "COMPR_M": 420.42, "CLASSE": "03 - Média", "CD_FAZ": "403987", "TALHOES": "2", "FAZ_tAL": "403987002", "ID_LINHA": 243050 }, "geometry": { "type": "MultiLineString", "coordinates": [ [ [ 416587.450652557716239, 7621836.416887099854648 ], [ 416879.293231720279437, 7621533.975346969440579 ] ] ] } },
{ "type": "Feature", "properties": { "fid": 43.0, "COMPR_M": 420.4, "CLASSE": "03 - Média", "CD_FAZ": "403987", "TALHOES": "2", "FAZ_tAL": "403987002", "ID_LINHA": 243051 }, "geometry": { "type": "MultiLineString", "coordinates": [ [ [ 416588.601631204772275, 7621839.544476369395852 ], [ 416880.429723537410609, 7621537.11794918961823 ] ] ] } },
{ "type": "Feature", "properties": { "fid": 44.0, "COMPR_M": 420.38, "CLASSE": "03 - Média", "CD_FAZ": "403987", "TALHOES": "2", "FAZ_tAL": "403987002", "ID_LINHA": 243052 }, "geometry": { "type": "MultiLineString", "coordinates": [ [ [ 416589.752609851420857, 7621842.672065640799701 ], [ 416881.566215355531313, 7621540.260551411658525 ] ] ] } },
{ "type": "Feature", "properties": { "fid": 45.0, "COMPR_M": 420.36, "CLASSE": "03 - Média", "CD_FAZ": "403987", "TALHOES": "2", "FAZ_tAL": "403987002", "ID_LINHA": 243053 }, "geometry": { "type": "MultiLineString", "coordinates": [ [ [ 416590.903588498942554, 7621845.799654907546937 ], [ 416882.702707172080409, 7621543.403153635561466 ] ] ] } },
{ "type": "Feature", "properties": { "fid": 46.0, "COMPR_M": 420.34, "CLASSE": "03 - Média", "CD_FAZ": "403987", "TALHOES": "2", "FAZ_tAL": "403987002", "ID_LINHA": 243054 }, "geometry": { "type": "MultiLineString", "coordinates": [ [ [ 416592.054567145358305, 7621848.927244178019464 ], [ 416883.839198989619035, 7621546.545755857601762 ] ] ] } },
{ "type": "Feature", "properties": { "fid": 47.0, "COMPR_M": 420.32, "CLASSE": "03 - Média", "CD_FAZ": "403987", "TALHOES": "2", "FAZ_tAL": "403987002", "ID_LINHA": 243055 }, "geometry": { "type": "MultiLineString", "coordinates": [ [ [ 416593.205545791308396, 7621852.054833447560668 ], [ 416884.975690806924831, 7621549.68835808057338 ] ] ] } },
{ "type": "Feature", "properties": { "fid": 48.0, "COMPR_M": 420.3, "CLASSE": "03 - Média", "CD_FAZ": "403987", "TALHOES": "2", "FAZ_tAL": "403987002", "ID_LINHA": 243056 }, "geometry": { "type": "MultiLineString", "coordinates": [ [ [ 416594.356524438189808, 7621855.182422716170549 ], [ 416886.112182625860441, 7621552.830960301682353 ] ] ] } },
{ "type": "Feature", "properties": { "fid": 49.0, "COMPR_M": 420.28, "CLASSE": "03 - Média", "CD_FAZ": "403987", "TALHOES": "2", "FAZ_tAL": "403987002", "ID_LINHA": 243057 }, "geometry": { "type": "MultiLineString", "coordinates": [ [ [ 416595.507503087283112, 7621858.310011986643076 ], [ 416887.248674443224445, 7621555.973562523722649 ] ] ] } },
{ "type": "Feature", "properties": { "fid": 50.0, "COMPR_M": 420.25, "CLASSE": "03 - Média", "CD_FAZ": "403987", "TALHOES": "2", "FAZ_tAL": "403987002", "ID_LINHA": 243058 }, "geometry": { "type": "MultiLineString", "coordinates": [ [ [ 416596.658481732651126, 7621861.43760125245899 ], [ 416888.385166260879487, 7621559.116164745762944 ] ] ] } },
{ "type": "Feature", "properties": { "fid": 51.0, "COMPR_M": 420.23, "CLASSE": "03 - Média", "CD_FAZ": "403987", "TALHOES": "2", "FAZ_tAL": "403987002", "ID_LINHA": 243059 }, "geometry": { "type": "MultiLineString", "coordinates": [ [ [ 416597.809460380172823, 7621864.565190523862839 ], [ 416889.52165807900019, 7621562.258766968734562 ] ] ] } },
{ "type": "Feature", "properties": { "fid": 52.0, "COMPR_M": 420.21, "CLASSE": "03 - Média", "CD_FAZ": "403987", "TALHOES": "2", "FAZ_tAL": "403987002", "ID_LINHA": 243060 }, "geometry": { "type": "MultiLineString", "coordinates": [ [ [ 416598.960439027287066, 7621867.69277979247272 ], [ 416890.658149895432871, 7621565.401369191706181 ] ] ] } },
{ "type": "Feature", "properties": { "fid": 53.0, "COMPR_M": 420.19, "CLASSE": "03 - Média", "CD_FAZ": "403987", "TALHOES": "2", "FAZ_tAL": "403987002", "ID_LINHA": 243061 }, "geometry": { "type": "MultiLineString", "coordinates": [ [ [ 416600.111417673935648, 7621870.820369061082602 ], [ 416891.794641714193858, 7621568.543971412815154 ] ] ] } },
{ "type": "Feature", "properties": { "fid": 54.0, "COMPR_M": 420.17, "CLASSE": "03 - Média", "CD_FAZ": "403987", "TALHOES": "2", "FAZ_tAL": "403987002", "ID_LINHA": 243062 }, "geometry": { "type": "MultiLineString", "coordinates": [ [ [ 416601.262396321515553, 7621873.947958329692483 ], [ 416892.931133531383239, 7621571.686573637649417 ] ] ] } },
{ "type": "Feature", "properties": { "fid": 55.0, "COMPR_M": 420.15, "CLASSE": "03 - Média", "CD_FAZ": "403987", "TALHOES": "2", "FAZ_tAL": "403987002", "ID_LINHA": 243063 }, "geometry": { "type": "MultiLineString", "coordinates": [ [ [ 416602.41337496729102, 7621877.075547602027655 ], [ 416894.067625348281581, 7621574.829175857827067 ] ] ] } },
{ "type": "Feature", "properties": { "fid": 56.0, "COMPR_M": 420.13, "CLASSE": "03 - Média", "CD_FAZ": "403987", "TALHOES": "2", "FAZ_tAL": "403987002", "ID_LINHA": 243064 }, "geometry": { "type": "MultiLineString", "coordinates": [ [ [ 416603.564353615278378, 7621880.203136870637536 ], [ 416895.204117166809738, 7621577.971778081730008 ] ] ] } },
{ "type": "Feature", "properties": { "fid": 57.0, "COMPR_M": 420.11, "CLASSE": "03 - Média", "CD_FAZ": "403987", "TALHOES": "2", "FAZ_tAL": "403987002", "ID_LINHA": 243065 }, "geometry": { "type": "MultiLineString", "coordinates": [ [ [ 416604.715332261461299, 7621883.330726139247417 ], [ 416896.340608983766288, 7621581.114380303770304 ] ] ] } },
{ "type": "Feature", "properties": { "fid": 58.0, "COMPR_M": 420.09, "CLASSE": "03 - Média", "CD_FAZ": "403987", "TALHOES": "2", "FAZ_tAL": "403987002", "ID_LINHA": 243066 }, "geometry": { "type": "MultiLineString", "coordinates": [ [ [ 416605.866310909215827, 7621886.458315408788621 ], [ 416897.477100801072083, 7621584.256982525810599 ] ] ] } },
{ "type": "Feature", "properties": { "fid": 59.0, "COMPR_M": 420.07, "CLASSE": "03 - Média", "CD_FAZ": "403987", "TALHOES": "2", "FAZ_tAL": "403987002", "ID_LINHA": 243067 }, "geometry": { "type": "MultiLineString", "coordinates": [ [ [ 416607.017289555864409, 7621889.585904678329825 ], [ 416898.613592620007694, 7621587.399584748782218 ] ] ] } },
{ "type": "Feature", "properties": { "fid": 60.0, "COMPR_M": 420.05, "CLASSE": "03 - Média", "CD_FAZ": "403987", "TALHOES": "2", "FAZ_tAL": "403987002", "ID_LINHA": 243068 }, "geometry": { "type": "MultiLineString", "coordinates": [ [ [ 416608.168268203327898, 7621892.713493945077062 ], [ 416899.75008443731349, 7621590.542186969891191 ] ] ] } },
{ "type": "Feature", "properties": { "fid": 61.0, "COMPR_M": 420.02, "CLASSE": "03 - Média", "CD_FAZ": "403987", "TALHOES": "2", "FAZ_tAL": "403987002", "ID_LINHA": 243069 }, "geometry": { "type": "MultiLineString", "coordinates": [ [ [ 416609.319246850383934, 7621895.841083215549588 ], [ 416900.886576254968531, 7621593.684789193794131 ] ] ] } },
{ "type": "Feature", "properties": { "fid": 62.0, "COMPR_M": 420.0, "CLASSE": "03 - Média", "CD_FAZ": "403987", "TALHOES": "2", "FAZ_tAL": "403987002", "ID_LINHA": 243070 }, "geometry": { "type": "MultiLineString", "coordinates": [ [ [ 416610.470225496392231, 7621898.968672486953437 ], [ 416902.023068072390743, 7621596.827391415834427 ] ] ] } },
{ "type": "Feature", "properties": { "fid": 63.0, "COMPR_M": 419.98, "CLASSE": "03 - Média", "CD_FAZ": "403987", "TALHOES": "2", "FAZ_tAL": "403987002", "ID_LINHA": 243071 }, "geometry": { "type": "MultiLineString", "coordinates": [ [ [ 416611.621204143855721, 7621902.096261755563319 ], [ 416903.159559889463708, 7621599.969993637874722 ] ] ] } },
{ "type": "Feature", "properties": { "fid": 64.0, "COMPR_M": 419.96, "CLASSE": "03 - Média", "CD_FAZ": "403987", "TALHOES": "2", "FAZ_tAL": "403987002", "ID_LINHA": 243072 }, "geometry": { "type": "MultiLineString", "coordinates": [ [ [ 416612.772182790911756, 7621905.223851023241878 ], [ 416904.296051707526203, 7621603.112595862708986 ] ] ] } },
{ "type": "Feature", "properties": { "fid": 65.0, "COMPR_M": 419.94, "CLASSE": "03 - Média", "CD_FAZ": "403987", "TALHOES": "2", "FAZ_tAL": "403987002", "ID_LINHA": 243073 }, "geometry": { "type": "MultiLineString", "coordinates": [ [ [ 416613.923161438084207, 7621908.351440295577049 ], [ 416905.432543526578229, 7621606.255198083817959 ] ] ] } },
{ "type": "Feature", "properties": { "fid": 66.0, "COMPR_M": 419.43, "CLASSE": "03 - Média", "CD_FAZ": "403987", "TALHOES": "2", "FAZ_tAL": "403987002", "ID_LINHA": 243074 }, "geometry": { "type": "MultiLineString", "coordinates": [ [ [ 416615.074140084907413, 7621911.479029562324286 ], [ 416906.228365447139367, 7621609.75084244273603 ] ] ] } },
{ "type": "Feature", "properties": { "fid": 67.0, "COMPR_M": 243.07, "CLASSE": "02 - Curta", "CD_FAZ": "403987", "TALHOES": "1", "FAZ_tAL": "403987001", "ID_LINHA": 243075 }, "geometry": { "type": "MultiLineString", "coordinates": [ [ [ 416274.534753244079184, 7622514.755592688918114 ], [ 416216.939464090042748, 7622750.823610928840935 ] ] ] } },
{ "type": "Feature", "properties": { "fid": 68.0, "COMPR_M": 243.05, "CLASSE": "02 - Curta", "CD_FAZ": "403987", "TALHOES": "1", "FAZ_tAL": "403987001", "ID_LINHA": 243076 }, "geometry": { "type": "MultiLineString", "coordinates": [ [ [ 416271.613882513716817, 7622514.070585986599326 ], [ 416214.021918324928265, 7622750.124976063147187 ] ] ] } },
{ "type": "Feature", "properties": { "fid": 69.0, "COMPR_M": 243.04, "CLASSE": "02 - Curta", "CD_FAZ": "403987", "TALHOES": "1", "FAZ_tAL": "403987001", "ID_LINHA": 243077 }, "geometry": { "type": "MultiLineString", "coordinates": [ [ [ 416268.693011781841051, 7622513.385579284280539 ], [ 416211.104372559115291, 7622749.426341196522117 ] ] ] } },
{ "type": "Feature", "properties": { "fid": 70.0, "COMPR_M": 243.03, "CLASSE": "02 - Curta", "CD_FAZ": "403987", "TALHOES": "1", "FAZ_tAL": "403987001", "ID_LINHA": 243078 }, "geometry": { "type": "MultiLineString", "coordinates": [ [ [ 416265.772141051187646, 7622512.700572578236461 ], [ 416208.186826792545617, 7622748.727706333622336 ] ] ] } },
{ "type": "Feature", "properties": { "fid": 71.0, "COMPR_M": 243.01, "CLASSE": "02 - Curta", "CD_FAZ": "403987", "TALHOES": "1", "FAZ_tAL": "403987001", "ID_LINHA": 243079 }, "geometry": { "type": "MultiLineString", "coordinates": [ [ [ 416262.851270319719333, 7622512.015565872192383 ], [ 416205.269281027140096, 7622748.029071468859911 ] ] ] } },
{ "type": "Feature", "properties": { "fid": 72.0, "COMPR_M": 243.0, "CLASSE": "02 - Curta", "CD_FAZ": "403987", "TALHOES": "1", "FAZ_tAL": "403987001", "ID_LINHA": 243080 }, "geometry": { "type": "MultiLineString", "coordinates": [ [ [ 416259.930399589298759, 7622511.330559169873595 ], [ 416202.351735261734575, 7622747.330436603166163 ] ] ] } },
{ "type": "Feature", "properties": { "fid": 73.0, "COMPR_M": 242.98, "CLASSE": "02 - Curta", "CD_FAZ": "403987", "TALHOES": "1", "FAZ_tAL": "403987001", "ID_LINHA": 243081 }, "geometry": { "type": "MultiLineString", "coordinates": [ [ [ 416257.009528859402053, 7622510.645552467554808 ], [ 416199.434189494117163, 7622746.631801737472415 ] ] ] } },
{ "type": "Feature", "properties": { "fid": 74.0, "COMPR_M": 242.97, "CLASSE": "02 - Curta", "CD_FAZ": "403987", "TALHOES": "1", "FAZ_tAL": "403987001", "ID_LINHA": 243082 }, "geometry": { "type": "MultiLineString", "coordinates": [ [ [ 416254.088658128748648, 7622509.960545762442052 ], [ 416196.51664372975938, 7622745.933166874572635 ] ] ] } },
{ "type": "Feature", "properties": { "fid": 75.0, "COMPR_M": 242.96, "CLASSE": "02 - Curta", "CD_FAZ": "403987", "TALHOES": "1", "FAZ_tAL": "403987001", "ID_LINHA": 243083 }, "geometry": { "type": "MultiLineString", "coordinates": [ [ [ 416251.167787396581843, 7622509.275539055466652 ], [ 416193.599097964004613, 7622745.234532007947564 ] ] ] } },
{ "type": "Feature", "properties": { "fid": 76.0, "COMPR_M": 242.94, "CLASSE": "02 - Curta", "CD_FAZ": "403987", "TALHOES": "1", "FAZ_tAL": "403987001", "ID_LINHA": 243084 }, "geometry": { "type": "MultiLineString", "coordinates": [ [ [ 416248.246916666801553, 7622508.590532354079187 ], [ 416190.681552198133431, 7622744.535897143185139 ] ] ] } },
{ "type": "Feature", "properties": { "fid": 77.0, "COMPR_M": 242.93, "CLASSE": "02 - Curta", "CD_FAZ": "403987", "TALHOES": "1", "FAZ_tAL": "403987001", "ID_LINHA": 243085 }, "geometry": { "type": "MultiLineString", "coordinates": [ [ [ 416245.326045936264563, 7622507.905525648966432 ], [ 416187.764006432204042, 7622743.837262276560068 ] ] ] } },
{ "type": "Feature", "properties": { "fid": 78.0, "COMPR_M": 242.91, "CLASSE": "02 - Curta", "CD_FAZ": "403987", "TALHOES": "1", "FAZ_tAL": "403987001", "ID_LINHA": 243086 }, "geometry": { "type": "MultiLineString", "coordinates": [ [ [ 416242.405175205494743, 7622507.220518942922354 ], [ 416184.846460666158237, 7622743.138627412728965 ] ] ] } },
{ "type": "Feature", "properties": { "fid": 79.0, "COMPR_M": 242.9, "CLASSE": "02 - Curta", "CD_FAZ": "403987", "TALHOES": "1", "FAZ_tAL": "403987001", "ID_LINHA": 243087 }, "geometry": { "type": "MultiLineString", "coordinates": [ [ [ 416239.484304475248791, 7622506.535512240603566 ], [ 416181.928914899937809, 7622742.439992547035217 ] ] ] } },
{ "type": "Feature", "properties": { "fid": 80.0, "COMPR_M": 242.89, "CLASSE": "02 - Curta", "CD_FAZ": "403987", "TALHOES": "1", "FAZ_tAL": "403987001", "ID_LINHA": 243088 }, "geometry": { "type": "MultiLineString", "coordinates": [ [ [ 416236.563433743489441, 7622505.850505536422133 ], [ 416179.011369133018889, 7622741.741357682272792 ] ] ] } },
{ "type": "Feature", "properties": { "fid": 81.0, "COMPR_M": 242.87, "CLASSE": "02 - Curta", "CD_FAZ": "403987", "TALHOES": "1", "FAZ_tAL": "403987001", "ID_LINHA": 243089 }, "geometry": { "type": "MultiLineString", "coordinates": [ [ [ 416233.642563013534527, 7622505.165498834103346 ], [ 416176.093823369359598, 7622741.042722817510366 ] ] ] } },
{ "type": "Feature", "properties": { "fid": 82.0, "COMPR_M": 242.86, "CLASSE": "02 - Curta", "CD_FAZ": "403987", "TALHOES": "1", "FAZ_tAL": "403987001", "ID_LINHA": 243090 }, "geometry": { "type": "MultiLineString", "coordinates": [ [ [ 416230.721692282706499, 7622504.480492128059268 ], [ 416173.176277602848131, 7622740.344087953679264 ] ] ] } },
{ "type": "Feature", "properties": { "fid": 83.0, "COMPR_M": 242.84, "CLASSE": "02 - Curta", "CD_FAZ": "403987", "TALHOES": "1", "FAZ_tAL": "403987001", "ID_LINHA": 243091 }, "geometry": { "type": "MultiLineString", "coordinates": [ [ [ 416227.800821551762056, 7622503.795485423877835 ], [ 416170.258731835638173, 7622739.645453087054193 ] ] ] } },
{ "type": "Feature", "properties": { "fid": 84.0, "COMPR_M": 242.83, "CLASSE": "02 - Curta", "CD_FAZ": "403987", "TALHOES": "1", "FAZ_tAL": "403987001", "ID_LINHA": 243092 }, "geometry": { "type": "MultiLineString", "coordinates": [ [ [ 416224.879950820642989, 7622503.110478719696403 ], [ 416167.34118607029086, 7622738.946818221360445 ] ] ] } },
{ "type": "Feature", "properties": { "fid": 85.0, "COMPR_M": 242.82, "CLASSE": "02 - Curta", "CD_FAZ": "403987", "TALHOES": "1", "FAZ_tAL": "403987001", "ID_LINHA": 243093 }, "geometry": { "type": "MultiLineString", "coordinates": [ [ [ 416221.959080089989584, 7622502.425472016446292 ], [ 416164.423640304827131, 7622738.24818335659802 ] ] ] } },
{ "type": "Feature", "properties": { "fid": 86.0, "COMPR_M": 242.8, "CLASSE": "02 - Curta", "CD_FAZ": "403987", "TALHOES": "1", "FAZ_tAL": "403987001", "ID_LINHA": 243094 }, "geometry": { "type": "MultiLineString", "coordinates": [ [ [ 416219.038209360442124, 7622501.740465311333537 ], [ 416161.50609453918878, 7622737.549548491835594 ] ] ] } },
{ "type": "Feature", "properties": { "fid": 87.0, "COMPR_M": 242.79, "CLASSE": "02 - Curta", "CD_FAZ": "403987", "TALHOES": "1", "FAZ_tAL": "403987001", "ID_LINHA": 243095 }, "geometry": { "type": "MultiLineString", "coordinates": [ [ [ 416216.117338628740981, 7622501.055458607152104 ], [ 416158.588548772851937, 7622736.850913627073169 ] ] ] } },
{ "type": "Feature", "properties": { "fid": 88.0, "COMPR_M": 242.77, "CLASSE": "02 - Curta", "CD_FAZ": "403987", "TALHOES": "1", "FAZ_tAL": "403987001", "ID_LINHA": 243096 }, "geometry": { "type": "MultiLineString", "coordinates": [ [ [ 416213.196467898203991, 7622500.370451902970672 ], [ 416155.671003007737454, 7622736.152278760448098 ] ] ] } },
{ "type": "Feature", "properties": { "fid": 89.0, "COMPR_M": 242.76, "CLASSE": "02 - Curta", "CD_FAZ": "403987", "TALHOES": "1", "FAZ_tAL": "403987001", "ID_LINHA": 243097 }, "geometry": { "type": "MultiLineString", "coordinates": [ [ [ 416210.275597166852094, 7622499.685445198789239 ], [ 416152.753457240527496, 7622735.453643896616995 ] ] ] } },
{ "type": "Feature", "properties": { "fid": 90.0, "COMPR_M": 242.75, "CLASSE": "02 - Curta", "CD_FAZ": "403987", "TALHOES": "1", "FAZ_tAL": "403987001", "ID_LINHA": 243098 }, "geometry": { "type": "MultiLineString", "coordinates": [ [ [ 416207.354726435849443, 7622499.000438494607806 ], [ 416149.835911474539898, 7622734.755009030923247 ] ] ] } },
{ "type": "Feature", "properties": { "fid": 91.0, "COMPR_M": 242.73, "CLASSE": "02 - Curta", "CD_FAZ": "403987", "TALHOES": "1", "FAZ_tAL": "403987001", "ID_LINHA": 243099 }, "geometry": { "type": "MultiLineString", "coordinates": [ [ [ 416204.43385570612736, 7622498.315431789495051 ], [ 416146.918365709716454, 7622734.056374166160822 ] ] ] } },
{ "type": "Feature", "properties": { "fid": 92.0, "COMPR_M": 242.72, "CLASSE": "02 - Curta", "CD_FAZ": "403987", "TALHOES": "1", "FAZ_tAL": "403987001", "ID_LINHA": 243100 }, "geometry": { "type": "MultiLineString", "coordinates": [ [ [ 416201.512984974193387, 7622497.630425086244941 ], [ 416144.000819943496026, 7622733.357739301398396 ] ] ] } },
{ "type": "Feature", "properties": { "fid": 93.0, "COMPR_M": 242.7, "CLASSE": "02 - Curta", "CD_FAZ": "403987", "TALHOES": "1", "FAZ_tAL": "403987001", "ID_LINHA": 243101 }, "geometry": { "type": "MultiLineString", "coordinates": [ [ [ 416198.592114244704135, 7622496.945418382063508 ], [ 416141.083274176518898, 7622732.659104436635971 ] ] ] } },
{ "type": "Feature", "properties": { "fid": 94.0, "COMPR_M": 242.69, "CLASSE": "02 - Curta", "CD_FAZ": "403987", "TALHOES": "1", "FAZ_tAL": "403987001", "ID_LINHA": 243102 }, "geometry": { "type": "MultiLineString", "coordinates": [ [ [ 416195.671243513701484, 7622496.260411677882075 ], [ 416138.1657284120447, 7622731.960469570942223 ] ] ] } },
{ "type": "Feature", "properties": { "fid": 95.0, "COMPR_M": 242.68, "CLASSE": "02 - Curta", "CD_FAZ": "403987", "TALHOES": "1", "FAZ_tAL": "403987001", "ID_LINHA": 243103 }, "geometry": { "type": "MultiLineString", "coordinates": [ [ [ 416192.750372782524209, 7622495.575404971837997 ], [ 416135.24818264611531, 7622731.26183470711112 ] ] ] } },
{ "type": "Feature", "properties": { "fid": 96.0, "COMPR_M": 242.66, "CLASSE": "02 - Curta", "CD_FAZ": "403987", "TALHOES": "1", "FAZ_tAL": "403987001", "ID_LINHA": 243104 }, "geometry": { "type": "MultiLineString", "coordinates": [ [ [ 416189.829502051172312, 7622494.890398268587887 ], [ 416132.330636880127713, 7622730.56319984048605 ] ] ] } },
{ "type": "Feature", "properties": { "fid": 97.0, "COMPR_M": 242.65, "CLASSE": "02 - Curta", "CD_FAZ": "403987", "TALHOES": "1", "FAZ_tAL": "403987001", "ID_LINHA": 243105 }, "geometry": { "type": "MultiLineString", "coordinates": [ [ [ 416186.908631320227869, 7622494.2053915662691 ], [ 416129.4130911140237, 7622729.864564974792302 ] ] ] } },
{ "type": "Feature", "properties": { "fid": 98.0, "COMPR_M": 242.63, "CLASSE": "02 - Curta", "CD_FAZ": "403987", "TALHOES": "1", "FAZ_tAL": "403987001", "ID_LINHA": 243106 }, "geometry": { "type": "MultiLineString", "coordinates": [ [ [ 416183.987760590505786, 7622493.520384861156344 ], [ 416126.495545347803272, 7622729.165930111892521 ] ] ] } },
{ "type": "Feature", "properties": { "fid": 99.0, "COMPR_M": 242.62, "CLASSE": "02 - Curta", "CD_FAZ": "403987", "TALHOES": "1", "FAZ_tAL": "403987001", "ID_LINHA": 243107 }, "geometry": { "type": "MultiLineString", "coordinates": [ [ [ 416181.066889859852381, 7622492.835378156974912 ], [ 416123.577999582106713, 7622728.467295244336128 ] ] ] } },
{ "type": "Feature", "properties": { "fid": 100.0, "COMPR_M": 242.61, "CLASSE": "02 - Curta", "CD_FAZ": "403987", "TALHOES": "1", "FAZ_tAL": "403987001", "ID_LINHA": 243108 }, "geometry": { "type": "MultiLineString", "coordinates": [ [ [ 416178.146019129082561, 7622492.150371452793479 ], [ 416120.660453815595247, 7622727.768660379573703 ] ] ] } },
{ "type": "Feature", "properties": { "fid": 101.0, "COMPR_M": 242.59, "CLASSE": "02 - Curta", "CD_FAZ": "403987", "TALHOES": "1", "FAZ_tAL": "403987001", "ID_LINHA": 243109 }, "geometry": { "type": "MultiLineString", "coordinates": [ [ [ 416175.225148397439625, 7622491.465364747680724 ], [ 416117.742908050306141, 7622727.070025516673923 ] ] ] } },
{ "type": "Feature", "properties": { "fid": 102.0, "COMPR_M": 242.58, "CLASSE": "02 - Curta", "CD_FAZ": "403987", "TALHOES": "1", "FAZ_tAL": "403987001", "ID_LINHA": 243110 }, "geometry": { "type": "MultiLineString", "coordinates": [ [ [ 416172.304277666262351, 7622490.780358044430614 ], [ 416114.825362284318544, 7622726.371390650048852 ] ] ] } },
{ "type": "Feature", "properties": { "fid": 103.0, "COMPR_M": 242.56, "CLASSE": "02 - Curta", "CD_FAZ": "403987", "TALHOES": "1", "FAZ_tAL": "403987001", "ID_LINHA": 243111 }, "geometry": { "type": "MultiLineString", "coordinates": [ [ [ 416169.383406936831307, 7622490.095351340249181 ], [ 416111.907816518796608, 7622725.672755785286427 ] ] ] } },
{ "type": "Feature", "properties": { "fid": 104.0, "COMPR_M": 242.55, "CLASSE": "02 - Curta", "CD_FAZ": "403987", "TALHOES": "1", "FAZ_tAL": "403987001", "ID_LINHA": 243112 }, "geometry": { "type": "MultiLineString", "coordinates": [ [ [ 416166.462536205886863, 7622489.410344636067748 ], [ 416108.990270752517972, 7622724.974120920524001 ] ] ] } },
{ "type": "Feature", "properties": { "fid": 105.0, "COMPR_M": 242.54, "CLASSE": "02 - Curta", "CD_FAZ": "403987", "TALHOES": "1", "FAZ_tAL": "403987001", "ID_LINHA": 243113 }, "geometry": { "type": "MultiLineString", "coordinates": [ [ [ 416163.541665475466289, 7622488.725337931886315 ], [ 416106.072724986122921, 7622724.275486053898931 ] ] ] } },
{ "type": "Feature", "properties": { "fid": 106.0, "COMPR_M": 242.52, "CLASSE": "02 - Curta", "CD_FAZ": "403987", "TALHOES": "1", "FAZ_tAL": "403987001", "ID_LINHA": 243114 }, "geometry": { "type": "MultiLineString", "coordinates": [ [ [ 416160.620794744172599, 7622488.040331225842237 ], [ 416103.155179220251739, 7622723.576851189136505 ] ] ] } },
{ "type": "Feature", "properties": { "fid": 107.0, "COMPR_M": 90.96, "CLASSE": "01 - Muito curta", "CD_FAZ": "403987", "TALHOES": "1", "FAZ_tAL": "403987001", "ID_LINHA": 243115 }, "geometry": { "type": "MultiLineString", "coordinates": [ [ [ 416121.790730570908636, 7622634.537711435928941 ], [ 416100.237633454962634, 7622722.87821632437408 ] ] ] } },
{ "type": "Feature", "properties": { "fid": 108.0, "COMPR_M": 90.68, "CLASSE": "01 - Muito curta", "CD_FAZ": "403987", "TALHOES": "1", "FAZ_tAL": "403987001", "ID_LINHA": 243116 }, "geometry": { "type": "MultiLineString", "coordinates": [ [ [ 416118.806946340657305, 7622634.110570701770484 ], [ 416097.320087688858621, 7622722.179581459611654 ] ] ] } },
{ "type": "Feature", "properties": { "fid": 109.0, "COMPR_M": 314.07, "CLASSE": "03 - Média", "CD_FAZ": "403987", "TALHOES": "1", "FAZ_tAL": "403987001", "ID_LINHA": 243117 }, "geometry": { "type": "MultiLineString", "coordinates": [ [ [ 416400.528197619365528, 7622801.706112522631884 ], [ 416095.343845639843494, 7622727.945091843605042 ] ] ] } },
{ "type": "Feature", "properties": { "fid": 110.0, "COMPR_M": 314.92, "CLASSE": "03 - Média", "CD_FAZ": "403987", "TALHOES": "1", "FAZ_tAL": "403987001", "ID_LINHA": 243118 }, "geometry": { "type": "MultiLineString", "coordinates": [ [ [ 416373.124398072657641, 7622918.537993627600372 ], [ 416067.113075963105075, 7622844.577099789865315 ] ] ] } },
{ "type": "Feature", "properties": { "fid": 111.0, "COMPR_M": 314.9, "CLASSE": "03 - Média", "CD_FAZ": "403987", "TALHOES": "1", "FAZ_tAL": "403987001", "ID_LINHA": 243119 }, "geometry": { "type": "MultiLineString", "coordinates": [ [ [ 416373.809493060864042, 7622915.617196602746844 ], [ 416067.818845204135869, 7622841.661299591884017 ] ] ] } },
{ "type": "Feature", "properties": { "fid": 112.0, "COMPR_M": 314.88, "CLASSE": "03 - Média", "CD_FAZ": "403987", "TALHOES": "1", "FAZ_tAL": "403987001", "ID_LINHA": 243120 }, "geometry": { "type": "MultiLineString", "coordinates": [ [ [ 416374.494588050001767, 7622912.696399572305381 ], [ 416068.524614446156193, 7622838.745499392971396 ] ] ] } },
{ "type": "Feature", "properties": { "fid": 113.0, "COMPR_M": 314.86, "CLASSE": "03 - Média", "CD_FAZ": "403987", "TALHOES": "1", "FAZ_tAL": "403987001", "ID_LINHA": 243121 }, "geometry": { "type": "MultiLineString", "coordinates": [ [ [ 416375.17968303791713, 7622909.775602545589209 ], [ 416069.230383687128779, 7622835.829699194990098 ] ] ] } },
{ "type": "Feature", "properties": { "fid": 114.0, "COMPR_M": 314.84, "CLASSE": "03 - Média", "CD_FAZ": "403987", "TALHOES": "1", "FAZ_tAL": "403987001", "ID_LINHA": 243122 }, "geometry": { "type": "MultiLineString", "coordinates": [ [ [ 416375.864778027287684, 7622906.854805517941713 ], [ 416069.936152929731179, 7622832.913898994214833 ] ] ] } },
{ "type": "Feature", "properties": { "fid": 115.0, "COMPR_M": 314.81, "CLASSE": "03 - Média", "CD_FAZ": "403987", "TALHOES": "1", "FAZ_tAL": "403987001", "ID_LINHA": 243123 }, "geometry": { "type": "MultiLineString", "coordinates": [ [ [ 416376.549873015552294, 7622903.934008491225541 ], [ 416070.641922172042541, 7622829.998098796233535 ] ] ] } },
{ "type": "Feature", "properties": { "fid": 116.0, "COMPR_M": 314.79, "CLASSE": "03 - Média", "CD_FAZ": "403987", "TALHOES": "1", "FAZ_tAL": "403987001", "ID_LINHA": 243124 }, "geometry": { "type": "MultiLineString", "coordinates": [ [ [ 416377.23496800463181, 7622901.013211462646723 ], [ 416071.347691413306165, 7622827.082298599183559 ] ] ] } },
{ "type": "Feature", "properties": { "fid": 117.0, "COMPR_M": 314.77, "CLASSE": "03 - Média", "CD_FAZ": "403987", "TALHOES": "1", "FAZ_tAL": "403987001", "ID_LINHA": 243125 }, "geometry": { "type": "MultiLineString", "coordinates": [ [ [ 416377.920062993187457, 7622898.09241443593055 ], [ 416072.053460656199604, 7622824.166498400270939 ] ] ] } },
{ "type": "Feature", "properties": { "fid": 118.0, "COMPR_M": 314.75, "CLASSE": "03 - Média", "CD_FAZ": "403987", "TALHOES": "1", "FAZ_tAL": "403987001", "ID_LINHA": 243126 }, "geometry": { "type": "MultiLineString", "coordinates": [ [ [ 416378.605157981277443, 7622895.17161740642041 ], [ 416072.759229897346813, 7622821.250698201358318 ] ] ] } },
{ "type": "Feature", "properties": { "fid": 119.0, "COMPR_M": 314.73, "CLASSE": "03 - Média", "CD_FAZ": "403987", "TALHOES": "1", "FAZ_tAL": "403987001", "ID_LINHA": 243127 }, "geometry": { "type": "MultiLineString", "coordinates": [ [ [ 416379.290252970822621, 7622892.250820379704237 ], [ 416073.464999138843268, 7622818.334898000583053 ] ] ] } },
{ "type": "Feature", "properties": { "fid": 120.0, "COMPR_M": 314.71, "CLASSE": "03 - Média", "CD_FAZ": "403987", "TALHOES": "1", "FAZ_tAL": "403987001", "ID_LINHA": 243128 }, "geometry": { "type": "MultiLineString", "coordinates": [ [ [ 416379.975347959902138, 7622889.330023352988064 ], [ 416074.170768381387461, 7622815.419097801670432 ] ] ] } },
{ "type": "Feature", "properties": { "fid": 121.0, "COMPR_M": 314.69, "CLASSE": "03 - Média", "CD_FAZ": "403987", "TALHOES": "1", "FAZ_tAL": "403987001", "ID_LINHA": 243129 }, "geometry": { "type": "MultiLineString", "coordinates": [ [ [ 416380.660442947759293, 7622886.409226324409246 ], [ 416074.876537623465993, 7622812.503297605551779 ] ] ] } },
{ "type": "Feature", "properties": { "fid": 122.0, "COMPR_M": 314.67, "CLASSE": "03 - Média", "CD_FAZ": "403987", "TALHOES": "1", "FAZ_tAL": "403987001", "ID_LINHA": 243130 }, "geometry": { "type": "MultiLineString", "coordinates": [ [ [ 416381.345537937129848, 7622883.488429296761751 ], [ 416075.582306865253486, 7622809.587497407570481 ] ] ] } },
{ "type": "Feature", "properties": { "fid": 123.0, "COMPR_M": 314.64, "CLASSE": "03 - Média", "CD_FAZ": "403987", "TALHOES": "1", "FAZ_tAL": "403987001", "ID_LINHA": 243131 }, "geometry": { "type": "MultiLineString", "coordinates": [ [ [ 416382.030632924055681, 7622880.567632269114256 ], [ 416076.288076107332017, 7622806.671697208657861 ] ] ] } },
{ "type": "Feature", "properties": { "fid": 124.0, "COMPR_M": 314.62, "CLASSE": "03 - Média", "CD_FAZ": "403987", "TALHOES": "1", "FAZ_tAL": "403987001", "ID_LINHA": 243132 }, "geometry": { "type": "MultiLineString", "coordinates": [ [ [ 416382.715727914415766, 7622877.646835241466761 ], [ 416076.993845349003095, 7622803.75589700974524 ] ] ] } },
{ "type": "Feature", "properties": { "fid": 125.0, "COMPR_M": 314.6, "CLASSE": "03 - Média", "CD_FAZ": "403987", "TALHOES": "1", "FAZ_tAL": "403987001", "ID_LINHA": 243133 }, "geometry": { "type": "MultiLineString", "coordinates": [ [ [ 416383.400822902913205, 7622874.726038214750588 ], [ 416077.699614591663703, 7622800.84009681083262 ] ] ] } },
{ "type": "Feature", "properties": { "fid": 126.0, "COMPR_M": 314.58, "CLASSE": "03 - Média", "CD_FAZ": "403987", "TALHOES": "1", "FAZ_tAL": "403987001", "ID_LINHA": 243134 }, "geometry": { "type": "MultiLineString", "coordinates": [ [ [ 416384.085917891585268, 7622871.80524118617177 ], [ 416078.405383834033273, 7622797.924296611919999 ] ] ] } },
{ "type": "Feature", "properties": { "fid": 127.0, "COMPR_M": 314.56, "CLASSE": "03 - Média", "CD_FAZ": "403987", "TALHOES": "1", "FAZ_tAL": "403987001", "ID_LINHA": 243135 }, "geometry": { "type": "MultiLineString", "coordinates": [ [ [ 416384.771012878452893, 7622868.884444158524275 ], [ 416079.111153075296897, 7622795.008496412076056 ] ] ] } },
{ "type": "Feature", "properties": { "fid": 128.0, "COMPR_M": 314.54, "CLASSE": "03 - Média", "CD_FAZ": "403987", "TALHOES": "1", "FAZ_tAL": "403987001", "ID_LINHA": 243136 }, "geometry": { "type": "MultiLineString", "coordinates": [ [ [ 416385.456107868114486, 7622865.96364713087678 ], [ 416079.816922316909768, 7622792.092696214094758 ] ] ] } },
{ "type": "Feature", "properties": { "fid": 129.0, "COMPR_M": 314.52, "CLASSE": "03 - Média", "CD_FAZ": "403987", "TALHOES": "1", "FAZ_tAL": "403987001", "ID_LINHA": 243137 }, "geometry": { "type": "MultiLineString", "coordinates": [ [ [ 416386.141202855971642, 7622863.042850103229284 ], [ 416080.522691559395753, 7622789.176896017044783 ] ] ] } },
{ "type": "Feature", "properties": { "fid": 130.0, "COMPR_M": 314.5, "CLASSE": "03 - Média", "CD_FAZ": "403987", "TALHOES": "1", "FAZ_tAL": "403987001", "ID_LINHA": 243138 }, "geometry": { "type": "MultiLineString", "coordinates": [ [ [ 416386.826297846564557, 7622860.122053075581789 ], [ 416081.228460800310131, 7622786.261095818132162 ] ] ] } },
{ "type": "Feature", "properties": { "fid": 131.0, "COMPR_M": 314.47, "CLASSE": "03 - Média", "CD_FAZ": "403987", "TALHOES": "1", "FAZ_tAL": "403987001", "ID_LINHA": 243139 }, "geometry": { "type": "MultiLineString", "coordinates": [ [ [ 416387.511392834712751, 7622857.201256047934294 ], [ 416081.934230042796116, 7622783.345295619219542 ] ] ] } },
{ "type": "Feature", "properties": { "fid": 132.0, "COMPR_M": 314.45, "CLASSE": "03 - Média", "CD_FAZ": "403987", "TALHOES": "1", "FAZ_tAL": "403987001", "ID_LINHA": 243140 }, "geometry": { "type": "MultiLineString", "coordinates": [ [ [ 416388.196487822337076, 7622854.280459020286798 ], [ 416082.639999284874648, 7622780.429495420306921 ] ] ] } },
{ "type": "Feature", "properties": { "fid": 133.0, "COMPR_M": 314.43, "CLASSE": "03 - Média", "CD_FAZ": "403987", "TALHOES": "1", "FAZ_tAL": "403987001", "ID_LINHA": 243141 }, "geometry": { "type": "MultiLineString", "coordinates": [ [ [ 416388.881582812755369, 7622851.359661992639303 ], [ 416083.345768525963649, 7622777.513695222325623 ] ] ] } },
{ "type": "Feature", "properties": { "fid": 134.0, "COMPR_M": 314.41, "CLASSE": "03 - Média", "CD_FAZ": "403987", "TALHOES": "1", "FAZ_tAL": "403987001", "ID_LINHA": 243142 }, "geometry": { "type": "MultiLineString", "coordinates": [ [ [ 416389.566677800030448, 7622848.438864965923131 ], [ 416084.051537768682465, 7622774.597895023413002 ] ] ] } },
{ "type": "Feature", "properties": { "fid": 135.0, "COMPR_M": 314.39, "CLASSE": "03 - Média", "CD_FAZ": "403987", "TALHOES": "1", "FAZ_tAL": "403987001", "ID_LINHA": 243143 }, "geometry": { "type": "MultiLineString", "coordinates": [ [ [ 416390.251772790099494, 7622845.518067937344313 ], [ 416084.757307010411751, 7622771.682094821706414 ] ] ] } },
{ "type": "Feature", "properties": { "fid": 136.0, "COMPR_M": 314.37, "CLASSE": "03 - Média", "CD_FAZ": "403987", "TALHOES": "1", "FAZ_tAL": "403987001", "ID_LINHA": 243144 }, "geometry": { "type": "MultiLineString", "coordinates": [ [ [ 416390.936867778364103, 7622842.59727091062814 ], [ 416085.463076252373867, 7622768.766294625587761 ] ] ] } },
{ "type": "Feature", "properties": { "fid": 137.0, "COMPR_M": 314.35, "CLASSE": "03 - Média", "CD_FAZ": "403987", "TALHOES": "1", "FAZ_tAL": "403987001", "ID_LINHA": 243145 }, "geometry": { "type": "MultiLineString", "coordinates": [ [ [ 416391.621962766046636, 7622839.676473881118 ], [ 416086.168845494627021, 7622765.850494427606463 ] ] ] } },
{ "type": "Feature", "properties": { "fid": 138.0, "COMPR_M": 314.33, "CLASSE": "03 - Média", "CD_FAZ": "403987", "TALHOES": "1", "FAZ_tAL": "403987001", "ID_LINHA": 243146 }, "geometry": { "type": "MultiLineString", "coordinates": [ [ [ 416392.307057754602283, 7622836.755676855333149 ], [ 416086.874614736589137, 7622762.934694228693843 ] ] ] } },
{ "type": "Feature", "properties": { "fid": 139.0, "COMPR_M": 314.3, "CLASSE": "03 - Média", "CD_FAZ": "403987", "TALHOES": "1", "FAZ_tAL": "403987001", "ID_LINHA": 243147 }, "geometry": { "type": "MultiLineString", "coordinates": [ [ [ 416392.992152743332554, 7622833.834879826754332 ], [ 416087.580383978784084, 7622760.018894029781222 ] ] ] } },
{ "type": "Feature", "properties": { "fid": 140.0, "COMPR_M": 314.28, "CLASSE": "03 - Média", "CD_FAZ": "403987", "TALHOES": "1", "FAZ_tAL": "403987001", "ID_LINHA": 243148 }, "geometry": { "type": "MultiLineString", "coordinates": [ [ [ 416393.677247733459808, 7622830.914082799106836 ], [ 416088.286153220629785, 7622757.103093831799924 ] ] ] } },
{ "type": "Feature", "properties": { "fid": 141.0, "COMPR_M": 314.26, "CLASSE": "03 - Média", "CD_FAZ": "403987", "TALHOES": "1", "FAZ_tAL": "403987001", "ID_LINHA": 243149 }, "geometry": { "type": "MultiLineString", "coordinates": [ [ [ 416394.362342722481117, 7622827.993285770528018 ], [ 416088.991922463406809, 7622754.187293633818626 ] ] ] } },
{ "type": "Feature", "properties": { "fid": 142.0, "COMPR_M": 314.24, "CLASSE": "03 - Média", "CD_FAZ": "403987", "TALHOES": "1", "FAZ_tAL": "403987001", "ID_LINHA": 243150 }, "geometry": { "type": "MultiLineString", "coordinates": [ [ [ 416395.04743770963978, 7622825.072488741949201 ], [ 416089.697691703913733, 7622751.271493433974683 ] ] ] } },
{ "type": "Feature", "properties": { "fid": 143.0, "COMPR_M": 314.22, "CLASSE": "03 - Média", "CD_FAZ": "403987", "TALHOES": "1", "FAZ_tAL": "403987001", "ID_LINHA": 243151 }, "geometry": { "type": "MultiLineString", "coordinates": [ [ [ 416395.73253269889392, 7622822.151691716164351 ], [ 416090.403460946574342, 7622748.355693235993385 ] ] ] } },
{ "type": "Feature", "properties": { "fid": 144.0, "COMPR_M": 314.2, "CLASSE": "03 - Média", "CD_FAZ": "403987", "TALHOES": "1", "FAZ_tAL": "403987001", "ID_LINHA": 243152 }, "geometry": { "type": "MultiLineString", "coordinates": [ [ [ 416396.417627688322682, 7622819.230894689448178 ], [ 416091.109230186964851, 7622745.43989303521812 ] ] ] } },
{ "type": "Feature", "properties": { "fid": 145.0, "COMPR_M": 314.18, "CLASSE": "03 - Média", "CD_FAZ": "403987", "TALHOES": "1", "FAZ_tAL": "403987001", "ID_LINHA": 243153 }, "geometry": { "type": "MultiLineString", "coordinates": [ [ [ 416397.102722676587291, 7622816.31009766086936 ], [ 416091.814999430906028, 7622742.524092840030789 ] ] ] } },
{ "type": "Feature", "properties": { "fid": 146.0, "COMPR_M": 314.16, "CLASSE": "03 - Média", "CD_FAZ": "403987", "TALHOES": "1", "FAZ_tAL": "403987001", "ID_LINHA": 243154 }, "geometry": { "type": "MultiLineString", "coordinates": [ [ [ 416397.787817664968316, 7622813.389300634153187 ], [ 416092.520768672518898, 7622739.608292639255524 ] ] ] } },
{ "type": "Feature", "properties": { "fid": 147.0, "COMPR_M": 314.13, "CLASSE": "03 - Média", "CD_FAZ": "403987", "TALHOES": "1", "FAZ_tAL": "403987001", "ID_LINHA": 243155 }, "geometry": { "type": "MultiLineString", "coordinates": [ [ [ 416398.472912652185187, 7622810.468503605574369 ], [ 416093.226537913782522, 7622736.692492442205548 ] ] ] } },
{ "type": "Feature", "properties": { "fid": 148.0, "COMPR_M": 314.11, "CLASSE": "03 - Média", "CD_FAZ": "403987", "TALHOES": "1", "FAZ_tAL": "403987001", "ID_LINHA": 243156 }, "geometry": { "type": "MultiLineString", "coordinates": [ [ [ 416399.15800764283631, 7622807.547706576995552 ], [ 416093.932307155278977, 7622733.776692241430283 ] ] ] } },
{ "type": "Feature", "properties": { "fid": 149.0, "COMPR_M": 314.09, "CLASSE": "03 - Média", "CD_FAZ": "403987", "TALHOES": "1", "FAZ_tAL": "403987001", "ID_LINHA": 243157 }, "geometry": { "type": "MultiLineString", "coordinates": [ [ [ 416399.843102631042711, 7622804.626909550279379 ], [ 416094.638076397124678, 7622730.860892044380307 ] ] ] } },
{ "type": "Feature", "properties": { "fid": 150.0, "COMPR_M": 243.18, "CLASSE": "02 - Curta", "CD_FAZ": "403987", "TALHOES": "1", "FAZ_tAL": "403987001", "ID_LINHA": 243158 }, "geometry": { "type": "MultiLineString", "coordinates": [ [ [ 416297.901719090063125, 7622520.235646326094866 ], [ 416240.279830217943527, 7622756.412689848802984 ] ] ] } },
{ "type": "Feature", "properties": { "fid": 151.0, "COMPR_M": 243.17, "CLASSE": "02 - Curta", "CD_FAZ": "403987", "TALHOES": "1", "FAZ_tAL": "403987001", "ID_LINHA": 243159 }, "geometry": { "type": "MultiLineString", "coordinates": [ [ [ 416294.980848359060474, 7622519.550639620050788 ], [ 416237.362284452246968, 7622755.714054984971881 ] ] ] } },
{ "type": "Feature", "properties": { "fid": 152.0, "COMPR_M": 243.15, "CLASSE": "02 - Curta", "CD_FAZ": "403987", "TALHOES": "1", "FAZ_tAL": "403987001", "ID_LINHA": 243160 }, "geometry": { "type": "MultiLineString", "coordinates": [ [ [ 416292.0599776278832, 7622518.865632915869355 ], [ 416234.444738685851917, 7622755.01542011834681 ] ] ] } },
{ "type": "Feature", "properties": { "fid": 153.0, "COMPR_M": 243.14, "CLASSE": "02 - Curta", "CD_FAZ": "403987", "TALHOES": "1", "FAZ_tAL": "403987001", "ID_LINHA": 243161 }, "geometry": { "type": "MultiLineString", "coordinates": [ [ [ 416289.13910689658951, 7622518.180626213550568 ], [ 416231.527192920679227, 7622754.316785253584385 ] ] ] } },
{ "type": "Feature", "properties": { "fid": 154.0, "COMPR_M": 243.12, "CLASSE": "02 - Curta", "CD_FAZ": "403987", "TALHOES": "1", "FAZ_tAL": "403987001", "ID_LINHA": 243162 }, "geometry": { "type": "MultiLineString", "coordinates": [ [ [ 416286.218236166401766, 7622517.495619508437812 ], [ 416228.609647154109553, 7622753.618150388821959 ] ] ] } },
{ "type": "Feature", "properties": { "fid": 155.0, "COMPR_M": 243.11, "CLASSE": "02 - Curta", "CD_FAZ": "403987", "TALHOES": "1", "FAZ_tAL": "403987001", "ID_LINHA": 243163 }, "geometry": { "type": "MultiLineString", "coordinates": [ [ [ 416283.297365436679684, 7622516.810612805187702 ], [ 416225.692101388704032, 7622752.919515524059534 ] ] ] } },
{ "type": "Feature", "properties": { "fid": 156.0, "COMPR_M": 243.1, "CLASSE": "02 - Curta", "CD_FAZ": "403987", "TALHOES": "1", "FAZ_tAL": "403987001", "ID_LINHA": 243164 }, "geometry": { "type": "MultiLineString", "coordinates": [ [ [ 416280.376494704920333, 7622516.125606101006269 ], [ 416222.774555621901527, 7622752.220880659297109 ] ] ] } },
{ "type": "Feature", "properties": { "fid": 157.0, "COMPR_M": 243.08, "CLASSE": "02 - Curta", "CD_FAZ": "403987", "TALHOES": "1", "FAZ_tAL": "403987001", "ID_LINHA": 243165 }, "geometry": { "type": "MultiLineString", "coordinates": [ [ [ 416277.455623974907212, 7622515.440599394962192 ], [ 416219.857009857660159, 7622751.522245790809393 ] ] ] } },
{ "type": "Feature", "properties": { "fid": 158.0, "COMPR_M": 243.19, "CLASSE": "02 - Curta", "CD_FAZ": "403987", "TALHOES": "1", "FAZ_tAL": "403987001", "ID_LINHA": 243166 }, "geometry": { "type": "MultiLineString", "coordinates": [ [ [ 416300.822589821531437, 7622520.920653030276299 ], [ 416243.197375982883386, 7622757.111324716359377 ] ] ] } },
{ "type": "Feature", "properties": { "fid": 159.0, "COMPR_M": 25.68, "CLASSE": "01 - Muito curta", "CD_FAZ": "403987", "TALHOES": "1", "FAZ_tAL": "403987001", "ID_LINHA": 243167 }, "geometry": { "type": "MultiLineString", "coordinates": [ [ [ 416292.283189406443853, 7623263.192042890004814 ], [ 416267.33139599126298, 7623257.161360980942845 ] ] ] } },
{ "type": "Feature", "properties": { "fid": 160.0, "COMPR_M": 50.22, "CLASSE": "01 - Muito curta", "CD_FAZ": "403987", "TALHOES": "1", "FAZ_tAL": "403987001", "ID_LINHA": 243168 }, "geometry": { "type": "MultiLineString", "coordinates": [ [ [ 416292.968284396571107, 7623260.271245859563351 ], [ 416244.173371981596574, 7623248.477841248735785 ] ] ] } },
{ "type": "Feature", "properties": { "fid": 161.0, "COMPR_M": 74.75, "CLASSE": "01 - Muito curta", "CD_FAZ": "403987", "TALHOES": "1", "FAZ_tAL": "403987001", "ID_LINHA": 243169 }, "geometry": { "type": "MultiLineString", "coordinates": [ [ [ 416293.653379384952132, 7623257.350448833778501 ], [ 416221.015347974316683, 7623239.794321522116661 ] ] ] } },
{ "type": "Feature", "properties": { "fid": 162.0, "COMPR_M": 99.29, "CLASSE": "01 - Muito curta", "CD_FAZ": "403987", "TALHOES": "1", "FAZ_tAL": "403987001", "ID_LINHA": 243170 }, "geometry": { "type": "MultiLineString", "coordinates": [ [ [ 416294.338474373565987, 7623254.429651806131005 ], [ 416197.85732396657113, 7623231.110801790840924 ] ] ] } },
{ "type": "Feature", "properties": { "fid": 163.0, "COMPR_M": 123.83, "CLASSE": "02 - Curta", "CD_FAZ": "403987", "TALHOES": "1", "FAZ_tAL": "403987001", "ID_LINHA": 243171 }, "geometry": { "type": "MultiLineString", "coordinates": [ [ [ 416295.023569361830596, 7623251.508854776620865 ], [ 416174.69929995801067, 7623222.427282061427832 ] ] ] } },
{ "type": "Feature", "properties": { "fid": 164.0, "COMPR_M": 148.36, "CLASSE": "02 - Curta", "CD_FAZ": "403987", "TALHOES": "1", "FAZ_tAL": "403987001", "ID_LINHA": 243172 }, "geometry": { "type": "MultiLineString", "coordinates": [ [ [ 416295.708664349571336, 7623248.588057749904692 ], [ 416151.541275949799456, 7623213.743762332946062 ] ] ] } },
{ "type": "Feature", "properties": { "fid": 165.0, "COMPR_M": 172.9, "CLASSE": "02 - Curta", "CD_FAZ": "403987", "TALHOES": "1", "FAZ_tAL": "403987001", "ID_LINHA": 243173 }, "geometry": { "type": "MultiLineString", "coordinates": [ [ [ 416296.393759340222459, 7623245.667260723188519 ], [ 416128.383251940365881, 7623205.060242602601647 ] ] ] } },
{ "type": "Feature", "properties": { "fid": 166.0, "COMPR_M": 197.44, "CLASSE": "02 - Curta", "CD_FAZ": "403987", "TALHOES": "1", "FAZ_tAL": "403987001", "ID_LINHA": 243174 }, "geometry": { "type": "MultiLineString", "coordinates": [ [ [ 416297.078854328428861, 7623242.746463695541024 ], [ 416105.225227932678536, 7623196.3767228750512 ] ] ] } },
{ "type": "Feature", "properties": { "fid": 167.0, "COMPR_M": 210.39, "CLASSE": "02 - Curta", "CD_FAZ": "403987", "TALHOES": "1", "FAZ_tAL": "403987001", "ID_LINHA": 243175 }, "geometry": { "type": "MultiLineString", "coordinates": [ [ [ 416297.763949316227809, 7623239.825666667893529 ], [ 416093.326727522828151, 7623190.414554838091135 ] ] ] } },
{ "type": "Feature", "properties": { "fid": 168.0, "COMPR_M": 246.28, "CLASSE": "02 - Curta", "CD_FAZ": "403987", "TALHOES": "1", "FAZ_tAL": "403987001", "ID_LINHA": 243176 }, "geometry": { "type": "MultiLineString", "coordinates": [ [ [ 416298.44904430618044, 7623236.904869638383389 ], [ 416059.141510050569195, 7623179.065836058929563 ] ] ] } },
{ "type": "Feature", "properties": { "fid": 169.0, "COMPR_M": 270.63, "CLASSE": "02 - Curta", "CD_FAZ": "403987", "TALHOES": "1", "FAZ_tAL": "403987001", "ID_LINHA": 243177 }, "geometry": { "type": "MultiLineString", "coordinates": [ [ [ 416299.134139293804765, 7623233.984072612598538 ], [ 416036.157658511307091, 7623170.424412651918828 ] ] ] } },
{ "type": "Feature", "properties": { "fid": 170.0, "COMPR_M": 294.99, "CLASSE": "02 - Curta", "CD_FAZ": "403987", "TALHOES": "1", "FAZ_tAL": "403987001", "ID_LINHA": 243178 }, "geometry": { "type": "MultiLineString", "coordinates": [ [ [ 416299.819234282243997, 7623231.063275583088398 ], [ 416013.173806971346494, 7623161.78298924677074 ] ] ] } },
{ "type": "Feature", "properties": { "fid": 171.0, "COMPR_M": 315.33, "CLASSE": "03 - Média", "CD_FAZ": "403987", "TALHOES": "1", "FAZ_tAL": "403987001", "ID_LINHA": 243179 }, "geometry": { "type": "MultiLineString", "coordinates": [ [ [ 416300.504329271556344, 7623228.142478557303548 ], [ 415994.097716481308453, 7623154.086045598611236 ] ] ] } },
{ "type": "Feature", "properties": { "fid": 172.0, "COMPR_M": 315.32, "CLASSE": "03 - Média", "CD_FAZ": "403987", "TALHOES": "1", "FAZ_tAL": "403987001", "ID_LINHA": 243180 }, "geometry": { "type": "MultiLineString", "coordinates": [ [ [ 416301.189424260461237, 7623225.221681527793407 ], [ 415994.789017633302137, 7623151.166748560965061 ] ] ] } },
{ "type": "Feature", "properties": { "fid": 173.0, "COMPR_M": 315.32, "CLASSE": "03 - Média", "CD_FAZ": "403987", "TALHOES": "1", "FAZ_tAL": "403987001", "ID_LINHA": 243181 }, "geometry": { "type": "MultiLineString", "coordinates": [ [ [ 416301.874519247561693, 7623222.300884501077235 ], [ 415995.480318783549592, 7623148.247451519593596 ] ] ] } },
{ "type": "Feature", "properties": { "fid": 174.0, "COMPR_M": 315.31, "CLASSE": "03 - Média", "CD_FAZ": "403987", "TALHOES": "1", "FAZ_tAL": "403987001", "ID_LINHA": 243182 }, "geometry": { "type": "MultiLineString", "coordinates": [ [ [ 416302.559614238271024, 7623219.380087472498417 ], [ 415996.17161993321497, 7623145.328154480084777 ] ] ] } },
{ "type": "Feature", "properties": { "fid": 175.0, "COMPR_M": 315.3, "CLASSE": "03 - Média", "CD_FAZ": "403987", "TALHOES": "1", "FAZ_tAL": "403987001", "ID_LINHA": 243183 }, "geometry": { "type": "MultiLineString", "coordinates": [ [ [ 416303.244709226477426, 7623216.459290446713567 ], [ 415996.862921083637048, 7623142.408857442438602 ] ] ] } },
{ "type": "Feature", "properties": { "fid": 176.0, "COMPR_M": 315.3, "CLASSE": "03 - Média", "CD_FAZ": "403987", "TALHOES": "1", "FAZ_tAL": "403987001", "ID_LINHA": 243184 }, "geometry": { "type": "MultiLineString", "coordinates": [ [ [ 416303.929804215673357, 7623213.538493419066072 ], [ 415997.554222234233748, 7623139.489560399204493 ] ] ] } },
{ "type": "Feature", "properties": { "fid": 177.0, "COMPR_M": 315.29, "CLASSE": "03 - Média", "CD_FAZ": "403987", "TALHOES": "1", "FAZ_tAL": "403987001", "ID_LINHA": 243185 }, "geometry": { "type": "MultiLineString", "coordinates": [ [ [ 416304.614899203646928, 7623210.617696389555931 ], [ 415998.24552338354988, 7623136.570263359695673 ] ] ] } },
{ "type": "Feature", "properties": { "fid": 178.0, "COMPR_M": 315.28, "CLASSE": "03 - Média", "CD_FAZ": "403987", "TALHOES": "1", "FAZ_tAL": "403987001", "ID_LINHA": 243186 }, "geometry": { "type": "MultiLineString", "coordinates": [ [ [ 416305.299994191911537, 7623207.696899362839758 ], [ 415998.936824535019696, 7623133.650966320186853 ] ] ] } },
{ "type": "Feature", "properties": { "fid": 179.0, "COMPR_M": 315.28, "CLASSE": "03 - Média", "CD_FAZ": "403987", "TALHOES": "1", "FAZ_tAL": "403987001", "ID_LINHA": 243187 }, "geometry": { "type": "MultiLineString", "coordinates": [ [ [ 416305.985089180991054, 7623204.776102336123586 ], [ 415999.62812568526715, 7623130.731669280678034 ] ] ] } },
{ "type": "Feature", "properties": { "fid": 180.0, "COMPR_M": 315.27, "CLASSE": "03 - Média", "CD_FAZ": "403987", "TALHOES": "1", "FAZ_tAL": "403987001", "ID_LINHA": 243188 }, "geometry": { "type": "MultiLineString", "coordinates": [ [ [ 416306.670184169721324, 7623201.855305307544768 ], [ 416000.319426834874321, 7623127.812372243031859 ] ] ] } },
{ "type": "Feature", "properties": { "fid": 181.0, "COMPR_M": 315.26, "CLASSE": "03 - Média", "CD_FAZ": "403987", "TALHOES": "1", "FAZ_tAL": "403987001", "ID_LINHA": 243189 }, "geometry": { "type": "MultiLineString", "coordinates": [ [ [ 416307.355279157927725, 7623198.934508280828595 ], [ 416001.01072798599489, 7623124.893075200729072 ] ] ] } },
{ "type": "Feature", "properties": { "fid": 182.0, "COMPR_M": 315.26, "CLASSE": "03 - Média", "CD_FAZ": "403987", "TALHOES": "1", "FAZ_tAL": "403987001", "ID_LINHA": 243190 }, "geometry": { "type": "MultiLineString", "coordinates": [ [ [ 416308.040374147705734, 7623196.0137112531811 ], [ 416001.702029135893099, 7623121.973778163082898 ] ] ] } },
{ "type": "Feature", "properties": { "fid": 183.0, "COMPR_M": 315.25, "CLASSE": "03 - Média", "CD_FAZ": "403987", "TALHOES": "1", "FAZ_tAL": "403987001", "ID_LINHA": 243191 }, "geometry": { "type": "MultiLineString", "coordinates": [ [ [ 416308.725469135679305, 7623193.092914225533605 ], [ 416002.393330285209231, 7623119.05448112078011 ] ] ] } },
{ "type": "Feature", "properties": { "fid": 184.0, "COMPR_M": 315.24, "CLASSE": "03 - Média", "CD_FAZ": "403987", "TALHOES": "1", "FAZ_tAL": "403987001", "ID_LINHA": 243192 }, "geometry": { "type": "MultiLineString", "coordinates": [ [ [ 416309.410564123943914, 7623190.172117196954787 ], [ 416003.084631435980555, 7623116.135184081271291 ] ] ] } },
{ "type": "Feature", "properties": { "fid": 185.0, "COMPR_M": 315.24, "CLASSE": "03 - Média", "CD_FAZ": "403987", "TALHOES": "1", "FAZ_tAL": "403987001", "ID_LINHA": 243193 }, "geometry": { "type": "MultiLineString", "coordinates": [ [ [ 416310.09565911302343, 7623187.251320168375969 ], [ 416003.775932585529517, 7623113.215887041762471 ] ] ] } },
{ "type": "Feature", "properties": { "fid": 186.0, "COMPR_M": 315.23, "CLASSE": "03 - Média", "CD_FAZ": "403987", "TALHOES": "1", "FAZ_tAL": "403987001", "ID_LINHA": 243194 }, "geometry": { "type": "MultiLineString", "coordinates": [ [ [ 416310.780754101695493, 7623184.330523140728474 ], [ 416004.46723373781424, 7623110.296590004116297 ] ] ] } },
{ "type": "Feature", "properties": { "fid": 187.0, "COMPR_M": 315.23, "CLASSE": "03 - Média", "CD_FAZ": "403987", "TALHOES": "1", "FAZ_tAL": "403987001", "ID_LINHA": 243195 }, "geometry": { "type": "MultiLineString", "coordinates": [ [ [ 416311.465849091182463, 7623181.409726113080978 ], [ 416005.158534888236318, 7623107.377292961813509 ] ] ] } },
{ "type": "Feature", "properties": { "fid": 188.0, "COMPR_M": 315.22, "CLASSE": "03 - Média", "CD_FAZ": "403987", "TALHOES": "1", "FAZ_tAL": "403987001", "ID_LINHA": 243196 }, "geometry": { "type": "MultiLineString", "coordinates": [ [ [ 416312.150944079621695, 7623178.488929087296128 ], [ 416005.84983603679575, 7623104.457995923236012 ] ] ] } },
{ "type": "Feature", "properties": { "fid": 189.0, "COMPR_M": 315.21, "CLASSE": "03 - Média", "CD_FAZ": "403987", "TALHOES": "1", "FAZ_tAL": "403987001", "ID_LINHA": 243197 }, "geometry": { "type": "MultiLineString", "coordinates": [ [ [ 416312.83603906823555, 7623175.568132057785988 ], [ 416006.541137188090943, 7623101.538698881864548 ] ] ] } },
{ "type": "Feature", "properties": { "fid": 190.0, "COMPR_M": 315.21, "CLASSE": "03 - Média", "CD_FAZ": "403987", "TALHOES": "1", "FAZ_tAL": "403987001", "ID_LINHA": 243198 }, "geometry": { "type": "MultiLineString", "coordinates": [ [ [ 416313.521134057082236, 7623172.647335031069815 ], [ 416007.232438339502551, 7623098.619401842355728 ] ] ] } },
{ "type": "Feature", "properties": { "fid": 191.0, "COMPR_M": 315.2, "CLASSE": "03 - Média", "CD_FAZ": "403987", "TALHOES": "1", "FAZ_tAL": "403987001", "ID_LINHA": 243199 }, "geometry": { "type": "MultiLineString", "coordinates": [ [ [ 416314.206229045521468, 7623169.72653800342232 ], [ 416007.923739488993306, 7623095.700104804709554 ] ] ] } },
{ "type": "Feature", "properties": { "fid": 192.0, "COMPR_M": 315.19, "CLASSE": "03 - Média", "CD_FAZ": "403987", "TALHOES": "1", "FAZ_tAL": "403987001", "ID_LINHA": 243200 }, "geometry": { "type": "MultiLineString", "coordinates": [ [ [ 416314.891324034077115, 7623166.80574097763747 ], [ 416008.615040637319908, 7623092.780807763338089 ] ] ] } },
{ "type": "Feature", "properties": { "fid": 193.0, "COMPR_M": 315.19, "CLASSE": "03 - Média", "CD_FAZ": "403987", "TALHOES": "1", "FAZ_tAL": "403987001", "ID_LINHA": 243201 }, "geometry": { "type": "MultiLineString", "coordinates": [ [ [ 416315.576419023564085, 7623163.884943947196007 ], [ 416009.306341789721046, 7623089.861510723829269 ] ] ] } },
{ "type": "Feature", "properties": { "fid": 194.0, "COMPR_M": 315.18, "CLASSE": "03 - Média", "CD_FAZ": "403987", "TALHOES": "1", "FAZ_tAL": "403987001", "ID_LINHA": 243202 }, "geometry": { "type": "MultiLineString", "coordinates": [ [ [ 416316.261514011304826, 7623160.964146921411157 ], [ 416009.997642940201331, 7623086.94221368432045 ] ] ] } },
{ "type": "Feature", "properties": { "fid": 195.0, "COMPR_M": 315.17, "CLASSE": "03 - Média", "CD_FAZ": "403987", "TALHOES": "1", "FAZ_tAL": "403987001", "ID_LINHA": 243203 }, "geometry": { "type": "MultiLineString", "coordinates": [ [ [ 416316.946609001199249, 7623158.043349891901016 ], [ 416010.688944090157747, 7623084.022916642948985 ] ] ] } },
{ "type": "Feature", "properties": { "fid": 196.0, "COMPR_M": 315.17, "CLASSE": "03 - Média", "CD_FAZ": "403987", "TALHOES": "1", "FAZ_tAL": "403987001", "ID_LINHA": 243204 }, "geometry": { "type": "MultiLineString", "coordinates": [ [ [ 416317.631703988648951, 7623155.122552867978811 ], [ 416011.380245238833595, 7623081.103619603440166 ] ] ] } },
{ "type": "Feature", "properties": { "fid": 197.0, "COMPR_M": 315.16, "CLASSE": "03 - Média", "CD_FAZ": "403987", "TALHOES": "1", "FAZ_tAL": "403987001", "ID_LINHA": 243205 }, "geometry": { "type": "MultiLineString", "coordinates": [ [ [ 416318.31679897767026, 7623152.201755837537348 ], [ 416012.071546390943695, 7623078.184322564862669 ] ] ] } },
{ "type": "Feature", "properties": { "fid": 198.0, "COMPR_M": 315.16, "CLASSE": "03 - Média", "CD_FAZ": "403987", "TALHOES": "1", "FAZ_tAL": "403987001", "ID_LINHA": 243206 }, "geometry": { "type": "MultiLineString", "coordinates": [ [ [ 416319.001893965527415, 7623149.280958810821176 ], [ 416012.762847541249357, 7623075.265025524422526 ] ] ] } },
{ "type": "Feature", "properties": { "fid": 199.0, "COMPR_M": 315.15, "CLASSE": "03 - Média", "CD_FAZ": "403987", "TALHOES": "1", "FAZ_tAL": "403987001", "ID_LINHA": 243207 }, "geometry": { "type": "MultiLineString", "coordinates": [ [ [ 416319.686988953617401, 7623146.36016178317368 ], [ 416013.454148691555019, 7623072.345728484913707 ] ] ] } },
{ "type": "Feature", "properties": { "fid": 200.0, "COMPR_M": 315.14, "CLASSE": "03 - Média", "CD_FAZ": "403987", "TALHOES": "1", "FAZ_tAL": "403987001", "ID_LINHA": 243208 }, "geometry": { "type": "MultiLineString", "coordinates": [ [ [ 416320.372083943278994, 7623143.439364754594862 ], [ 416014.145449840638321, 7623069.426431445404887 ] ] ] } },
{ "type": "Feature", "properties": { "fid": 201.0, "COMPR_M": 315.14, "CLASSE": "03 - Média", "CD_FAZ": "403987", "TALHOES": "1", "FAZ_tAL": "403987001", "ID_LINHA": 243209 }, "geometry": { "type": "MultiLineString", "coordinates": [ [ [ 416321.057178932416718, 7623140.518567726016045 ], [ 416014.83675099053653, 7623066.507134405896068 ] ] ] } },
{ "type": "Feature", "properties": { "fid": 202.0, "COMPR_M": 315.13, "CLASSE": "03 - Média", "CD_FAZ": "403987", "TALHOES": "1", "FAZ_tAL": "403987001", "ID_LINHA": 243210 }, "geometry": { "type": "MultiLineString", "coordinates": [ [ [ 416321.742273920448497, 7623137.597770699299872 ], [ 416015.528052141831722, 7623063.587837365455925 ] ] ] } },
{ "type": "Feature", "properties": { "fid": 203.0, "COMPR_M": 315.12, "CLASSE": "03 - Média", "CD_FAZ": "403987", "TALHOES": "1", "FAZ_tAL": "403987001", "ID_LINHA": 243211 }, "geometry": { "type": "MultiLineString", "coordinates": [ [ [ 416322.427368910051882, 7623134.676973671652377 ], [ 416016.219353292544838, 7623060.668540325015783 ] ] ] } },
{ "type": "Feature", "properties": { "fid": 204.0, "COMPR_M": 315.12, "CLASSE": "03 - Média", "CD_FAZ": "403987", "TALHOES": "1", "FAZ_tAL": "403987001", "ID_LINHA": 243212 }, "geometry": { "type": "MultiLineString", "coordinates": [ [ [ 416323.112463898491114, 7623131.756176644936204 ], [ 416016.910654441395309, 7623057.749243285506964 ] ] ] } },
{ "type": "Feature", "properties": { "fid": 205.0, "COMPR_M": 315.11, "CLASSE": "03 - Média", "CD_FAZ": "403987", "TALHOES": "1", "FAZ_tAL": "403987001", "ID_LINHA": 243213 }, "geometry": { "type": "MultiLineString", "coordinates": [ [ [ 416323.797558886522893, 7623128.835379617288709 ], [ 416017.60195559298154, 7623054.829946245998144 ] ] ] } },
{ "type": "Feature", "properties": { "fid": 206.0, "COMPR_M": 315.1, "CLASSE": "03 - Média", "CD_FAZ": "403987", "TALHOES": "1", "FAZ_tAL": "403987001", "ID_LINHA": 243214 }, "geometry": { "type": "MultiLineString", "coordinates": [ [ [ 416324.482653876068071, 7623125.914582589641213 ], [ 416018.29325674334541, 7623051.91064920835197 ] ] ] } },
{ "type": "Feature", "properties": { "fid": 207.0, "COMPR_M": 315.1, "CLASSE": "03 - Média", "CD_FAZ": "403987", "TALHOES": "1", "FAZ_tAL": "403987001", "ID_LINHA": 243215 }, "geometry": { "type": "MultiLineString", "coordinates": [ [ [ 416325.167748863808811, 7623122.993785561993718 ], [ 416018.984557892428711, 7623048.99135216884315 ] ] ] } },
{ "type": "Feature", "properties": { "fid": 208.0, "COMPR_M": 315.09, "CLASSE": "03 - Média", "CD_FAZ": "403987", "TALHOES": "1", "FAZ_tAL": "403987001", "ID_LINHA": 243216 }, "geometry": { "type": "MultiLineString", "coordinates": [ [ [ 416325.852843853761442, 7623120.0729885334149 ], [ 416019.675859043025412, 7623046.072055129334331 ] ] ] } },
{ "type": "Feature", "properties": { "fid": 209.0, "COMPR_M": 315.09, "CLASSE": "03 - Média", "CD_FAZ": "403987", "TALHOES": "1", "FAZ_tAL": "403987001", "ID_LINHA": 243217 }, "geometry": { "type": "MultiLineString", "coordinates": [ [ [ 416326.537938841909636, 7623117.152191506698728 ], [ 416020.367160192981828, 7623043.152758087031543 ] ] ] } },
{ "type": "Feature", "properties": { "fid": 210.0, "COMPR_M": 315.08, "CLASSE": "03 - Média", "CD_FAZ": "403987", "TALHOES": "1", "FAZ_tAL": "403987001", "ID_LINHA": 243218 }, "geometry": { "type": "MultiLineString", "coordinates": [ [ [ 416327.223033830930945, 7623114.23139447811991 ], [ 416021.058461344335228, 7623040.233461046591401 ] ] ] } },
{ "type": "Feature", "properties": { "fid": 211.0, "COMPR_M": 315.07, "CLASSE": "03 - Média", "CD_FAZ": "403987", "TALHOES": "1", "FAZ_tAL": "403987001", "ID_LINHA": 243219 }, "geometry": { "type": "MultiLineString", "coordinates": [ [ [ 416327.908128819486592, 7623111.310597451403737 ], [ 416021.749762495164759, 7623037.314164007082582 ] ] ] } },
{ "type": "Feature", "properties": { "fid": 212.0, "COMPR_M": 315.07, "CLASSE": "03 - Média", "CD_FAZ": "403987", "TALHOES": "1", "FAZ_tAL": "403987001", "ID_LINHA": 243220 }, "geometry": { "type": "MultiLineString", "coordinates": [ [ [ 416328.593223806936294, 7623108.389800423756242 ], [ 416022.441063644830137, 7623034.394866967573762 ] ] ] } },
{ "type": "Feature", "properties": { "fid": 213.0, "COMPR_M": 315.06, "CLASSE": "03 - Média", "CD_FAZ": "403987", "TALHOES": "1", "FAZ_tAL": "403987001", "ID_LINHA": 243221 }, "geometry": { "type": "MultiLineString", "coordinates": [ [ [ 416329.278318795841187, 7623105.469003395177424 ], [ 416023.132364795194007, 7623031.475569928064942 ] ] ] } },
{ "type": "Feature", "properties": { "fid": 214.0, "COMPR_M": 315.05, "CLASSE": "03 - Média", "CD_FAZ": "403987", "TALHOES": "1", "FAZ_tAL": "403987001", "ID_LINHA": 243222 }, "geometry": { "type": "MultiLineString", "coordinates": [ [ [ 416329.963413785677403, 7623102.548206367529929 ], [ 416023.823665945616085, 7623028.556272888556123 ] ] ] } },
{ "type": "Feature", "properties": { "fid": 215.0, "COMPR_M": 315.05, "CLASSE": "03 - Média", "CD_FAZ": "403987", "TALHOES": "1", "FAZ_tAL": "403987001", "ID_LINHA": 243223 }, "geometry": { "type": "MultiLineString", "coordinates": [ [ [ 416330.648508773068897, 7623099.627409340813756 ], [ 416024.514967095456086, 7623025.636975849978626 ] ] ] } },
{ "type": "Feature", "properties": { "fid": 216.0, "COMPR_M": 315.04, "CLASSE": "03 - Média", "CD_FAZ": "403987", "TALHOES": "1", "FAZ_tAL": "403987001", "ID_LINHA": 243224 }, "geometry": { "type": "MultiLineString", "coordinates": [ [ [ 416331.333603761973791, 7623096.706612313166261 ], [ 416025.206268246052787, 7623022.717678807675838 ] ] ] } },
{ "type": "Feature", "properties": { "fid": 217.0, "COMPR_M": 315.03, "CLASSE": "03 - Média", "CD_FAZ": "403987", "TALHOES": "1", "FAZ_tAL": "403987001", "ID_LINHA": 243225 }, "geometry": { "type": "MultiLineString", "coordinates": [ [ [ 416332.018698751111515, 7623093.785815285518765 ], [ 416025.897569396183826, 7623019.798381768167019 ] ] ] } },
{ "type": "Feature", "properties": { "fid": 218.0, "COMPR_M": 315.03, "CLASSE": "03 - Média", "CD_FAZ": "403987", "TALHOES": "1", "FAZ_tAL": "403987001", "ID_LINHA": 243226 }, "geometry": { "type": "MultiLineString", "coordinates": [ [ [ 416332.703793740365654, 7623090.86501825787127 ], [ 416026.58887054695515, 7623016.879084728658199 ] ] ] } },
{ "type": "Feature", "properties": { "fid": 219.0, "COMPR_M": 315.02, "CLASSE": "03 - Média", "CD_FAZ": "403987", "TALHOES": "1", "FAZ_tAL": "403987001", "ID_LINHA": 243227 }, "geometry": { "type": "MultiLineString", "coordinates": [ [ [ 416333.388888727873564, 7623087.944221230223775 ], [ 416027.280171697144397, 7623013.959787691012025 ] ] ] } },
{ "type": "Feature", "properties": { "fid": 220.0, "COMPR_M": 315.01, "CLASSE": "03 - Média", "CD_FAZ": "403987", "TALHOES": "1", "FAZ_tAL": "403987001", "ID_LINHA": 243228 }, "geometry": { "type": "MultiLineString", "coordinates": [ [ [ 416334.073983716894872, 7623085.02342420257628 ], [ 416027.971472846809775, 7623011.04049064964056 ] ] ] } },
{ "type": "Feature", "properties": { "fid": 221.0, "COMPR_M": 315.01, "CLASSE": "03 - Média", "CD_FAZ": "403987", "TALHOES": "1", "FAZ_tAL": "403987001", "ID_LINHA": 243229 }, "geometry": { "type": "MultiLineString", "coordinates": [ [ [ 416334.759078706789296, 7623082.102627174928784 ], [ 416028.66277399729006, 7623008.121193609200418 ] ] ] } },
{ "type": "Feature", "properties": { "fid": 222.0, "COMPR_M": 315.0, "CLASSE": "03 - Média", "CD_FAZ": "403987", "TALHOES": "1", "FAZ_tAL": "403987001", "ID_LINHA": 243230 }, "geometry": { "type": "MultiLineString", "coordinates": [ [ [ 416335.444173694238998, 7623079.181830147281289 ], [ 416029.354075147071853, 7623005.201896570622921 ] ] ] } },
{ "type": "Feature", "properties": { "fid": 223.0, "COMPR_M": 315.0, "CLASSE": "03 - Média", "CD_FAZ": "403987", "TALHOES": "1", "FAZ_tAL": "403987001", "ID_LINHA": 243231 }, "geometry": { "type": "MultiLineString", "coordinates": [ [ [ 416336.129268682561815, 7623076.261033117771149 ], [ 416030.045376297668554, 7623002.282599531114101 ] ] ] } },
{ "type": "Feature", "properties": { "fid": 224.0, "COMPR_M": 314.99, "CLASSE": "03 - Média", "CD_FAZ": "403987", "TALHOES": "1", "FAZ_tAL": "403987001", "ID_LINHA": 243232 }, "geometry": { "type": "MultiLineString", "coordinates": [ [ [ 416336.814363671699539, 7623073.340236091986299 ], [ 416030.736677447683178, 7622999.363302490673959 ] ] ] } },
{ "type": "Feature", "properties": { "fid": 225.0, "COMPR_M": 314.98, "CLASSE": "03 - Média", "CD_FAZ": "403987", "TALHOES": "1", "FAZ_tAL": "403987001", "ID_LINHA": 243233 }, "geometry": { "type": "MultiLineString", "coordinates": [ [ [ 416337.499458661011886, 7623070.419439066201448 ], [ 416031.427978598396294, 7622996.44400545116514 ] ] ] } },
{ "type": "Feature", "properties": { "fid": 226.0, "COMPR_M": 314.98, "CLASSE": "03 - Média", "CD_FAZ": "403987", "TALHOES": "1", "FAZ_tAL": "403987001", "ID_LINHA": 243234 }, "geometry": { "type": "MultiLineString", "coordinates": [ [ [ 416338.184553648519795, 7623067.498642036691308 ], [ 416032.119279749225825, 7622993.524708410724998 ] ] ] } },
{ "type": "Feature", "properties": { "fid": 227.0, "COMPR_M": 314.97, "CLASSE": "03 - Média", "CD_FAZ": "403987", "TALHOES": "1", "FAZ_tAL": "403987001", "ID_LINHA": 243235 }, "geometry": { "type": "MultiLineString", "coordinates": [ [ [ 416338.869648637599312, 7623064.577845009975135 ], [ 416032.81058089947328, 7622990.605411371216178 ] ] ] } },
{ "type": "Feature", "properties": { "fid": 228.0, "COMPR_M": 314.96, "CLASSE": "03 - Média", "CD_FAZ": "403987", "TALHOES": "1", "FAZ_tAL": "403987001", "ID_LINHA": 243236 }, "geometry": { "type": "MultiLineString", "coordinates": [ [ [ 416339.554743626853451, 7623061.657047981396317 ], [ 416033.501882049196865, 7622987.686114331707358 ] ] ] } },
{ "type": "Feature", "properties": { "fid": 229.0, "COMPR_M": 314.96, "CLASSE": "03 - Média", "CD_FAZ": "403987", "TALHOES": "1", "FAZ_tAL": "403987001", "ID_LINHA": 243237 }, "geometry": { "type": "MultiLineString", "coordinates": [ [ [ 416340.239838615641929, 7623058.736250954680145 ], [ 416034.193183200899512, 7622984.766817292198539 ] ] ] } },
{ "type": "Feature", "properties": { "fid": 230.0, "COMPR_M": 314.95, "CLASSE": "03 - Média", "CD_FAZ": "403987", "TALHOES": "1", "FAZ_tAL": "403987001", "ID_LINHA": 243238 }, "geometry": { "type": "MultiLineString", "coordinates": [ [ [ 416340.924933603266254, 7623055.815453926101327 ], [ 416034.884484350099228, 7622981.847520252689719 ] ] ] } },
{ "type": "Feature", "properties": { "fid": 231.0, "COMPR_M": 314.94, "CLASSE": "03 - Média", "CD_FAZ": "403987", "TALHOES": "1", "FAZ_tAL": "403987001", "ID_LINHA": 243239 }, "geometry": { "type": "MultiLineString", "coordinates": [ [ [ 416341.610028592520393, 7623052.894656899385154 ], [ 416035.575785499357153, 7622978.928223211318254 ] ] ] } },
{ "type": "Feature", "properties": { "fid": 232.0, "COMPR_M": 314.94, "CLASSE": "03 - Média", "CD_FAZ": "403987", "TALHOES": "1", "FAZ_tAL": "403987001", "ID_LINHA": 243240 }, "geometry": { "type": "MultiLineString", "coordinates": [ [ [ 416342.295123581192456, 7623049.973859870806336 ], [ 416036.267086650012061, 7622976.008926170878112 ] ] ] } },
{ "type": "Feature", "properties": { "fid": 233.0, "COMPR_M": 314.93, "CLASSE": "03 - Média", "CD_FAZ": "403987", "TALHOES": "1", "FAZ_tAL": "403987001", "ID_LINHA": 243241 }, "geometry": { "type": "MultiLineString", "coordinates": [ [ [ 416342.980218569398858, 7623047.053062845021486 ], [ 416036.9583878001431, 7622973.089629132300615 ] ] ] } },
{ "type": "Feature", "properties": { "fid": 234.0, "COMPR_M": 315.11, "CLASSE": "03 - Média", "CD_FAZ": "403987", "TALHOES": "1", "FAZ_tAL": "403987001", "ID_LINHA": 243242 }, "geometry": { "type": "MultiLineString", "coordinates": [ [ [ 416343.665313558478374, 7623044.132265817373991 ], [ 416037.469717693515122, 7622970.12683424167335 ] ] ] } },
{ "type": "Feature", "properties": { "fid": 235.0, "COMPR_M": 315.61, "CLASSE": "03 - Média", "CD_FAZ": "403987", "TALHOES": "1", "FAZ_tAL": "403987001", "ID_LINHA": 243243 }, "geometry": { "type": "MultiLineString", "coordinates": [ [ [ 416344.350408547790721, 7623041.211468787863851 ], [ 416037.66580368229188, 7622967.087847002781928 ] ] ] } },
{ "type": "Feature", "properties": { "fid": 236.0, "COMPR_M": 315.79, "CLASSE": "03 - Média", "CD_FAZ": "403987", "TALHOES": "1", "FAZ_tAL": "403987001", "ID_LINHA": 243244 }, "geometry": { "type": "MultiLineString", "coordinates": [ [ [ 416345.035503535880707, 7623038.290671761147678 ], [ 416038.176537043240387, 7622964.124907933175564 ] ] ] } },
{ "type": "Feature", "properties": { "fid": 237.0, "COMPR_M": 315.77, "CLASSE": "03 - Média", "CD_FAZ": "403987", "TALHOES": "1", "FAZ_tAL": "403987001", "ID_LINHA": 243245 }, "geometry": { "type": "MultiLineString", "coordinates": [ [ [ 416345.720598524843808, 7623035.369874734431505 ], [ 416038.882306284387596, 7622961.209107735194266 ] ] ] } },
{ "type": "Feature", "properties": { "fid": 238.0, "COMPR_M": 315.75, "CLASSE": "03 - Média", "CD_FAZ": "403987", "TALHOES": "1", "FAZ_tAL": "403987001", "ID_LINHA": 243246 }, "geometry": { "type": "MultiLineString", "coordinates": [ [ [ 416346.405693513341248, 7623032.449077704921365 ], [ 416039.588075525825843, 7622958.293307535350323 ] ] ] } },
{ "type": "Feature", "properties": { "fid": 239.0, "COMPR_M": 315.73, "CLASSE": "03 - Média", "CD_FAZ": "403987", "TALHOES": "1", "FAZ_tAL": "403987001", "ID_LINHA": 243247 }, "geometry": { "type": "MultiLineString", "coordinates": [ [ [ 416347.090788500732742, 7623029.52828067727387 ], [ 416040.293844767613336, 7622955.377507338300347 ] ] ] } },
{ "type": "Feature", "properties": { "fid": 240.0, "COMPR_M": 315.71, "CLASSE": "03 - Média", "CD_FAZ": "403987", "TALHOES": "1", "FAZ_tAL": "403987001", "ID_LINHA": 243248 }, "geometry": { "type": "MultiLineString", "coordinates": [ [ [ 416347.77588349027792, 7623026.607483649626374 ], [ 416040.999614010332152, 7622952.461707139387727 ] ] ] } },
{ "type": "Feature", "properties": { "fid": 241.0, "COMPR_M": 315.69, "CLASSE": "03 - Média", "CD_FAZ": "403987", "TALHOES": "1", "FAZ_tAL": "403987001", "ID_LINHA": 243249 }, "geometry": { "type": "MultiLineString", "coordinates": [ [ [ 416348.460978480638005, 7623023.686686621978879 ], [ 416041.705383251479361, 7622949.545906940475106 ] ] ] } },
{ "type": "Feature", "properties": { "fid": 242.0, "COMPR_M": 315.67, "CLASSE": "03 - Média", "CD_FAZ": "403987", "TALHOES": "1", "FAZ_tAL": "403987001", "ID_LINHA": 243250 }, "geometry": { "type": "MultiLineString", "coordinates": [ [ [ 416349.146073468611576, 7623020.765889594331384 ], [ 416042.411152494256385, 7622946.630106741562486 ] ] ] } },
{ "type": "Feature", "properties": { "fid": 243.0, "COMPR_M": 315.64, "CLASSE": "03 - Média", "CD_FAZ": "403987", "TALHOES": "1", "FAZ_tAL": "403987001", "ID_LINHA": 243251 }, "geometry": { "type": "MultiLineString", "coordinates": [ [ [ 416349.831168457341846, 7623017.845092566683888 ], [ 416043.116921736043878, 7622943.71430654451251 ] ] ] } },
{ "type": "Feature", "properties": { "fid": 244.0, "COMPR_M": 315.62, "CLASSE": "03 - Média", "CD_FAZ": "403987", "TALHOES": "1", "FAZ_tAL": "403987001", "ID_LINHA": 243252 }, "geometry": { "type": "MultiLineString", "coordinates": [ [ [ 416350.516263445606455, 7623014.924295540899038 ], [ 416043.822690978180617, 7622940.798506343737245 ] ] ] } },
{ "type": "Feature", "properties": { "fid": 245.0, "COMPR_M": 315.6, "CLASSE": "03 - Média", "CD_FAZ": "403987", "TALHOES": "1", "FAZ_tAL": "403987001", "ID_LINHA": 243253 }, "geometry": { "type": "MultiLineString", "coordinates": [ [ [ 416351.201358433463611, 7623012.003498511388898 ], [ 416044.528460219909903, 7622937.882706146687269 ] ] ] } },
{ "type": "Feature", "properties": { "fid": 246.0, "COMPR_M": 315.58, "CLASSE": "03 - Média", "CD_FAZ": "403987", "TALHOES": "1", "FAZ_tAL": "403987001", "ID_LINHA": 243254 }, "geometry": { "type": "MultiLineString", "coordinates": [ [ [ 416351.886453423416242, 7623009.082701483741403 ], [ 416045.234229461988434, 7622934.966905947774649 ] ] ] } },
{ "type": "Feature", "properties": { "fid": 247.0, "COMPR_M": 315.56, "CLASSE": "03 - Média", "CD_FAZ": "403987", "TALHOES": "1", "FAZ_tAL": "403987001", "ID_LINHA": 243255 }, "geometry": { "type": "MultiLineString", "coordinates": [ [ [ 416352.571548411564436, 7623006.161904457956553 ], [ 416045.939998703135643, 7622932.051105748862028 ] ] ] } },
{ "type": "Feature", "properties": { "fid": 248.0, "COMPR_M": 315.54, "CLASSE": "03 - Média", "CD_FAZ": "403987", "TALHOES": "1", "FAZ_tAL": "403987001", "ID_LINHA": 243256 }, "geometry": { "type": "MultiLineString", "coordinates": [ [ [ 416353.25664339994546, 7623003.241107430309057 ], [ 416046.645767945155967, 7622929.135305549949408 ] ] ] } },
{ "type": "Feature", "properties": { "fid": 249.0, "COMPR_M": 315.52, "CLASSE": "03 - Média", "CD_FAZ": "403987", "TALHOES": "1", "FAZ_tAL": "403987001", "ID_LINHA": 243257 }, "geometry": { "type": "MultiLineString", "coordinates": [ [ [ 416353.941738389141392, 7623000.320310402661562 ], [ 416047.35153718694346, 7622926.219505351036787 ] ] ] } },
{ "type": "Feature", "properties": { "fid": 250.0, "COMPR_M": 315.5, "CLASSE": "03 - Média", "CD_FAZ": "403987", "TALHOES": "1", "FAZ_tAL": "403987001", "ID_LINHA": 243258 }, "geometry": { "type": "MultiLineString", "coordinates": [ [ [ 416354.626833377871662, 7622997.399513375014067 ], [ 416048.057306429720484, 7622923.303705155849457 ] ] ] } },
{ "type": "Feature", "properties": { "fid": 251.0, "COMPR_M": 315.47, "CLASSE": "03 - Média", "CD_FAZ": "403987", "TALHOES": "1", "FAZ_tAL": "403987001", "ID_LINHA": 243259 }, "geometry": { "type": "MultiLineString", "coordinates": [ [ [ 416355.31192836741684, 7622994.478716347366571 ], [ 416048.763075671449769, 7622920.387904955074191 ] ] ] } },
{ "type": "Feature", "properties": { "fid": 252.0, "COMPR_M": 315.45, "CLASSE": "03 - Média", "CD_FAZ": "403987", "TALHOES": "1", "FAZ_tAL": "403987001", "ID_LINHA": 243260 }, "geometry": { "type": "MultiLineString", "coordinates": [ [ [ 416355.99702335515758, 7622991.557919321581721 ], [ 416049.468844913528301, 7622917.472104756161571 ] ] ] } },
{ "type": "Feature", "properties": { "fid": 253.0, "COMPR_M": 315.43, "CLASSE": "03 - Média", "CD_FAZ": "403987", "TALHOES": "1", "FAZ_tAL": "403987001", "ID_LINHA": 243261 }, "geometry": { "type": "MultiLineString", "coordinates": [ [ [ 416356.682118343131151, 7622988.637122290208936 ], [ 416050.174614155257586, 7622914.55630455724895 ] ] ] } },
{ "type": "Feature", "properties": { "fid": 254.0, "COMPR_M": 315.41, "CLASSE": "03 - Média", "CD_FAZ": "403987", "TALHOES": "1", "FAZ_tAL": "403987001", "ID_LINHA": 243262 }, "geometry": { "type": "MultiLineString", "coordinates": [ [ [ 416357.367213332559913, 7622985.716325265355408 ], [ 416050.880383397918195, 7622911.640504358336329 ] ] ] } },
{ "type": "Feature", "properties": { "fid": 255.0, "COMPR_M": 315.39, "CLASSE": "03 - Média", "CD_FAZ": "403987", "TALHOES": "1", "FAZ_tAL": "403987001", "ID_LINHA": 243263 }, "geometry": { "type": "MultiLineString", "coordinates": [ [ [ 416358.052308320824523, 7622982.795528235845268 ], [ 416051.586152639705688, 7622908.724704159423709 ] ] ] } },
{ "type": "Feature", "properties": { "fid": 256.0, "COMPR_M": 315.37, "CLASSE": "03 - Média", "CD_FAZ": "403987", "TALHOES": "1", "FAZ_tAL": "403987001", "ID_LINHA": 243264 }, "geometry": { "type": "MultiLineString", "coordinates": [ [ [ 416358.737403309962247, 7622979.87473120726645 ], [ 416052.29192188102752, 7622905.808903961442411 ] ] ] } },
{ "type": "Feature", "properties": { "fid": 257.0, "COMPR_M": 315.35, "CLASSE": "03 - Média", "CD_FAZ": "403987", "TALHOES": "1", "FAZ_tAL": "403987001", "ID_LINHA": 243265 }, "geometry": { "type": "MultiLineString", "coordinates": [ [ [ 416359.422498298634309, 7622976.953934183344245 ], [ 416052.997691122058313, 7622902.89310376252979 ] ] ] } },
{ "type": "Feature", "properties": { "fid": 258.0, "COMPR_M": 315.33, "CLASSE": "03 - Média", "CD_FAZ": "403987", "TALHOES": "1", "FAZ_tAL": "403987001", "ID_LINHA": 243266 }, "geometry": { "type": "MultiLineString", "coordinates": [ [ [ 416360.107593286084011, 7622974.033137151971459 ], [ 416053.703460365417413, 7622899.97730356361717 ] ] ] } },
{ "type": "Feature", "properties": { "fid": 259.0, "COMPR_M": 315.3, "CLASSE": "03 - Média", "CD_FAZ": "403987", "TALHOES": "1", "FAZ_tAL": "403987001", "ID_LINHA": 243267 }, "geometry": { "type": "MultiLineString", "coordinates": [ [ [ 416360.792688275745604, 7622971.112340126186609 ], [ 416054.409229607088491, 7622897.061503363773227 ] ] ] } },
{ "type": "Feature", "properties": { "fid": 260.0, "COMPR_M": 315.28, "CLASSE": "03 - Média", "CD_FAZ": "403987", "TALHOES": "1", "FAZ_tAL": "403987001", "ID_LINHA": 243268 }, "geometry": { "type": "MultiLineString", "coordinates": [ [ [ 416361.477783264941536, 7622968.191543096676469 ], [ 416055.114998848410323, 7622894.145703167654574 ] ] ] } },
{ "type": "Feature", "properties": { "fid": 261.0, "COMPR_M": 315.26, "CLASSE": "03 - Média", "CD_FAZ": "403987", "TALHOES": "1", "FAZ_tAL": "403987001", "ID_LINHA": 243269 }, "geometry": { "type": "MultiLineString", "coordinates": [ [ [ 416362.162878253613599, 7622965.270746070891619 ], [ 416055.820768090779893, 7622891.229902967810631 ] ] ] } },
{ "type": "Feature", "properties": { "fid": 262.0, "COMPR_M": 315.24, "CLASSE": "03 - Média", "CD_FAZ": "403987", "TALHOES": "1", "FAZ_tAL": "403987001", "ID_LINHA": 243270 }, "geometry": { "type": "MultiLineString", "coordinates": [ [ [ 416362.847973241121508, 7622962.349949042312801 ], [ 416056.526537331345025, 7622888.314102770760655 ] ] ] } },
{ "type": "Feature", "properties": { "fid": 263.0, "COMPR_M": 315.22, "CLASSE": "03 - Média", "CD_FAZ": "403987", "TALHOES": "1", "FAZ_tAL": "403987001", "ID_LINHA": 243271 }, "geometry": { "type": "MultiLineString", "coordinates": [ [ [ 416363.533068230841309, 7622959.429152015596628 ], [ 416057.23230657435488, 7622885.398302571848035 ] ] ] } },
{ "type": "Feature", "properties": { "fid": 264.0, "COMPR_M": 315.2, "CLASSE": "03 - Média", "CD_FAZ": "403987", "TALHOES": "1", "FAZ_tAL": "403987001", "ID_LINHA": 243272 }, "geometry": { "type": "MultiLineString", "coordinates": [ [ [ 416364.218163220037241, 7622956.508354987949133 ], [ 416057.93807581695728, 7622882.482502372935414 ] ] ] } },
{ "type": "Feature", "properties": { "fid": 265.0, "COMPR_M": 315.18, "CLASSE": "03 - Média", "CD_FAZ": "403987", "TALHOES": "1", "FAZ_tAL": "403987001", "ID_LINHA": 243273 }, "geometry": { "type": "MultiLineString", "coordinates": [ [ [ 416364.903258208767511, 7622953.587557960301638 ], [ 416058.643845059210435, 7622879.566702173091471 ] ] ] } },
{ "type": "Feature", "properties": { "fid": 266.0, "COMPR_M": 315.16, "CLASSE": "03 - Média", "CD_FAZ": "403987", "TALHOES": "1", "FAZ_tAL": "403987001", "ID_LINHA": 243274 }, "geometry": { "type": "MultiLineString", "coordinates": [ [ [ 416365.588353196973912, 7622950.666760930791497 ], [ 416059.349614300474059, 7622876.650901975110173 ] ] ] } },
{ "type": "Feature", "properties": { "fid": 267.0, "COMPR_M": 315.13, "CLASSE": "03 - Média", "CD_FAZ": "403987", "TALHOES": "1", "FAZ_tAL": "403987001", "ID_LINHA": 243275 }, "geometry": { "type": "MultiLineString", "coordinates": [ [ [ 416366.273448184016161, 7622947.745963905006647 ], [ 416060.055383542028721, 7622873.735101778060198 ] ] ] } },
{ "type": "Feature", "properties": { "fid": 268.0, "COMPR_M": 315.11, "CLASSE": "03 - Média", "CD_FAZ": "403987", "TALHOES": "1", "FAZ_tAL": "403987001", "ID_LINHA": 243276 }, "geometry": { "type": "MultiLineString", "coordinates": [ [ [ 416366.958543174609076, 7622944.825166876427829 ], [ 416060.761152784572914, 7622870.819301579147577 ] ] ] } },
{ "type": "Feature", "properties": { "fid": 269.0, "COMPR_M": 315.09, "CLASSE": "03 - Média", "CD_FAZ": "403987", "TALHOES": "1", "FAZ_tAL": "403987001", "ID_LINHA": 243277 }, "geometry": { "type": "MultiLineString", "coordinates": [ [ [ 416367.643638163339347, 7622941.904369849711657 ], [ 416061.466922026127577, 7622867.903501378372312 ] ] ] } },
{ "type": "Feature", "properties": { "fid": 270.0, "COMPR_M": 315.07, "CLASSE": "03 - Média", "CD_FAZ": "403987", "TALHOES": "1", "FAZ_tAL": "403987001", "ID_LINHA": 243278 }, "geometry": { "type": "MultiLineString", "coordinates": [ [ [ 416368.32873315224424, 7622938.983572822064161 ], [ 416062.172691268613562, 7622864.987701179459691 ] ] ] } },
{ "type": "Feature", "properties": { "fid": 271.0, "COMPR_M": 315.05, "CLASSE": "03 - Média", "CD_FAZ": "403987", "TALHOES": "1", "FAZ_tAL": "403987001", "ID_LINHA": 243279 }, "geometry": { "type": "MultiLineString", "coordinates": [ [ [ 416369.013828140625264, 7622936.062775794416666 ], [ 416062.878460509469733, 7622862.071900982409716 ] ] ] } },
{ "type": "Feature", "properties": { "fid": 272.0, "COMPR_M": 315.03, "CLASSE": "03 - Média", "CD_FAZ": "403987", "TALHOES": "1", "FAZ_tAL": "403987001", "ID_LINHA": 243280 }, "geometry": { "type": "MultiLineString", "coordinates": [ [ [ 416369.698923128540628, 7622933.141978766769171 ], [ 416063.58422975265421, 7622859.156100783497095 ] ] ] } },
{ "type": "Feature", "properties": { "fid": 273.0, "COMPR_M": 315.01, "CLASSE": "03 - Média", "CD_FAZ": "403987", "TALHOES": "1", "FAZ_tAL": "403987001", "ID_LINHA": 243281 }, "geometry": { "type": "MultiLineString", "coordinates": [ [ [ 416370.384018116630614, 7622930.221181740052998 ], [ 416064.289998994092457, 7622856.240300584584475 ] ] ] } },
{ "type": "Feature", "properties": { "fid": 274.0, "COMPR_M": 314.98, "CLASSE": "03 - Média", "CD_FAZ": "403987", "TALHOES": "1", "FAZ_tAL": "403987001", "ID_LINHA": 243282 }, "geometry": { "type": "MultiLineString", "coordinates": [ [ [ 416371.069113106233999, 7622927.300384709611535 ], [ 416064.99576823587995, 7622853.324500385671854 ] ] ] } },
{ "type": "Feature", "properties": { "fid": 275.0, "COMPR_M": 314.96, "CLASSE": "03 - Média", "CD_FAZ": "403987", "TALHOES": "1", "FAZ_tAL": "403987001", "ID_LINHA": 243283 }, "geometry": { "type": "MultiLineString", "coordinates": [ [ [ 416371.7542080959538, 7622924.37958768568933 ], [ 416065.701537478598766, 7622850.408700187690556 ] ] ] } },
{ "type": "Feature", "properties": { "fid": 276.0, "COMPR_M": 314.94, "CLASSE": "03 - Média", "CD_FAZ": "403987", "TALHOES": "1", "FAZ_tAL": "403987001", "ID_LINHA": 243284 }, "geometry": { "type": "MultiLineString", "coordinates": [ [ [ 416372.439303083228879, 7622921.45879065617919 ], [ 416066.407306720386259, 7622847.492899989709258 ] ] ] } }
]
}
