{
"type": "FeatureCollection",
"name": "403979",
"crs": { "type": "name", "properties": { "name": "urn:ogc:def:crs:EPSG::32722" } },
"xy_coordinate_resolution": 1e-15,
"features": [
{ "type": "Feature", "properties": { "fid": 1.0, "COMPR_M": 596.5, "CLASSE": "03 - Média", "CD_FAZ": "403979", "TALHOES": "1", "FAZ_tAL": "403979001", "ID_LINHA": 242510 }, "geometry": { "type": "MultiLineString", "coordinates": [ [ [ 442588.589865184971131, 7611425.694098964333534 ], [ 442042.213713002856821, 7611186.874786209315062 ] ] ] } },
{ "type": "Feature", "properties": { "fid": 2.0, "COMPR_M": 599.19, "CLASSE": "03 - Média", "CD_FAZ": "403979", "TALHOES": "1", "FAZ_tAL": "403979001", "ID_LINHA": 242511 }, "geometry": { "type": "MultiLineString", "coordinates": [ [ [ 442587.140193229482975, 7611428.334514049813151 ], [ 442038.30505492008524, 7611188.44038612768054 ] ] ] } },
{ "type": "Feature", "properties": { "fid": 3.0, "COMPR_M": 600.88, "CLASSE": "04 - Longa", "CD_FAZ": "403979", "TALHOES": "1", "FAZ_tAL": "403979001", "ID_LINHA": 242512 }, "geometry": { "type": "MultiLineString", "coordinates": [ [ [ 442585.690521273529157, 7611430.974929140880704 ], [ 442035.308032867789734, 7611190.404459310695529 ] ] ] } },
{ "type": "Feature", "properties": { "fid": 4.0, "COMPR_M": 602.0, "CLASSE": "04 - Longa", "CD_FAZ": "403979", "TALHOES": "1", "FAZ_tAL": "403979001", "ID_LINHA": 242513 }, "geometry": { "type": "MultiLineString", "coordinates": [ [ [ 442584.240849315770902, 7611433.615344228222966 ], [ 442032.829650695843156, 7611192.595228370279074 ] ] ] } },
{ "type": "Feature", "properties": { "fid": 5.0, "COMPR_M": 601.97, "CLASSE": "04 - Longa", "CD_FAZ": "403979", "TALHOES": "1", "FAZ_tAL": "403979001", "ID_LINHA": 242514 }, "geometry": { "type": "MultiLineString", "coordinates": [ [ [ 442582.791177361388691, 7611436.255759314633906 ], [ 442031.41168155358173, 7611195.249500660225749 ] ] ] } },
{ "type": "Feature", "properties": { "fid": 6.0, "COMPR_M": 601.93, "CLASSE": "04 - Longa", "CD_FAZ": "403979", "TALHOES": "1", "FAZ_tAL": "403979001", "ID_LINHA": 242515 }, "geometry": { "type": "MultiLineString", "coordinates": [ [ [ 442581.341505404561758, 7611438.896174404770136 ], [ 442029.993712412542664, 7611197.903772950172424 ] ] ] } },
{ "type": "Feature", "properties": { "fid": 7.0, "COMPR_M": 601.9, "CLASSE": "04 - Longa", "CD_FAZ": "403979", "TALHOES": "1", "FAZ_tAL": "403979001", "ID_LINHA": 242516 }, "geometry": { "type": "MultiLineString", "coordinates": [ [ [ 442579.891833447851241, 7611441.536589491181076 ], [ 442028.575743269990198, 7611200.5580452401191 ] ] ] } },
{ "type": "Feature", "properties": { "fid": 8.0, "COMPR_M": 601.86, "CLASSE": "04 - Longa", "CD_FAZ": "403979", "TALHOES": "1", "FAZ_tAL": "403979001", "ID_LINHA": 242517 }, "geometry": { "type": "MultiLineString", "coordinates": [ [ [ 442578.442161492654122, 7611444.177004578523338 ], [ 442027.157774127379525, 7611203.212317527271807 ] ] ] } },
{ "type": "Feature", "properties": { "fid": 9.0, "COMPR_M": 601.83, "CLASSE": "04 - Longa", "CD_FAZ": "403979", "TALHOES": "1", "FAZ_tAL": "403979001", "ID_LINHA": 242518 }, "geometry": { "type": "MultiLineString", "coordinates": [ [ [ 442576.992489536234643, 7611446.817419666796923 ], [ 442025.739804985292722, 7611205.86658981628716 ] ] ] } },
{ "type": "Feature", "properties": { "fid": 10.0, "COMPR_M": 601.79, "CLASSE": "04 - Longa", "CD_FAZ": "403979", "TALHOES": "1", "FAZ_tAL": "403979001", "ID_LINHA": 242519 }, "geometry": { "type": "MultiLineString", "coordinates": [ [ [ 442575.542817579989787, 7611449.45783475600183 ], [ 442024.321835843089502, 7611208.520862106233835 ] ] ] } },
{ "type": "Feature", "properties": { "fid": 11.0, "COMPR_M": 601.76, "CLASSE": "04 - Longa", "CD_FAZ": "403979", "TALHOES": "1", "FAZ_tAL": "403979001", "ID_LINHA": 242520 }, "geometry": { "type": "MultiLineString", "coordinates": [ [ [ 442574.09314562327927, 7611452.09824984241277 ], [ 442022.903866702108644, 7611211.175134396180511 ] ] ] } },
{ "type": "Feature", "properties": { "fid": 12.0, "COMPR_M": 601.72, "CLASSE": "04 - Longa", "CD_FAZ": "403979", "TALHOES": "1", "FAZ_tAL": "403979001", "ID_LINHA": 242521 }, "geometry": { "type": "MultiLineString", "coordinates": [ [ [ 442572.643473666685168, 7611454.738664929755032 ], [ 442021.485897559614386, 7611213.829406683333218 ] ] ] } },
{ "type": "Feature", "properties": { "fid": 13.0, "COMPR_M": 601.69, "CLASSE": "04 - Longa", "CD_FAZ": "403979", "TALHOES": "1", "FAZ_tAL": "403979001", "ID_LINHA": 242522 }, "geometry": { "type": "MultiLineString", "coordinates": [ [ [ 442571.193801709625404, 7611457.379080018028617 ], [ 442020.067928417061921, 7611216.483678974211216 ] ] ] } },
{ "type": "Feature", "properties": { "fid": 14.0, "COMPR_M": 601.65, "CLASSE": "04 - Longa", "CD_FAZ": "403979", "TALHOES": "1", "FAZ_tAL": "403979001", "ID_LINHA": 242523 }, "geometry": { "type": "MultiLineString", "coordinates": [ [ [ 442569.744129754020832, 7611460.019495105370879 ], [ 442018.649959275731817, 7611219.137951262295246 ] ] ] } },
{ "type": "Feature", "properties": { "fid": 15.0, "COMPR_M": 601.62, "CLASSE": "04 - Longa", "CD_FAZ": "403979", "TALHOES": "1", "FAZ_tAL": "403979001", "ID_LINHA": 242524 }, "geometry": { "type": "MultiLineString", "coordinates": [ [ [ 442568.2944577971939, 7611462.659910194575787 ], [ 442017.231990133645013, 7611221.792223551310599 ] ] ] } },
{ "type": "Feature", "properties": { "fid": 16.0, "COMPR_M": 601.59, "CLASSE": "04 - Longa", "CD_FAZ": "403979", "TALHOES": "1", "FAZ_tAL": "403979001", "ID_LINHA": 242525 }, "geometry": { "type": "MultiLineString", "coordinates": [ [ [ 442566.844785842578858, 7611465.300325280055404 ], [ 442015.814020992082078, 7611224.446495840325952 ] ] ] } },
{ "type": "Feature", "properties": { "fid": 17.0, "COMPR_M": 601.55, "CLASSE": "04 - Longa", "CD_FAZ": "403979", "TALHOES": "1", "FAZ_tAL": "403979001", "ID_LINHA": 242526 }, "geometry": { "type": "MultiLineString", "coordinates": [ [ [ 442565.395113886159379, 7611467.940740369260311 ], [ 442014.396051848423667, 7611227.100768130272627 ] ] ] } },
{ "type": "Feature", "properties": { "fid": 18.0, "COMPR_M": 601.52, "CLASSE": "04 - Longa", "CD_FAZ": "403979", "TALHOES": "1", "FAZ_tAL": "403979001", "ID_LINHA": 242527 }, "geometry": { "type": "MultiLineString", "coordinates": [ [ [ 442563.945441928517539, 7611470.581155456602573 ], [ 442012.978082707966678, 7611229.755040420219302 ] ] ] } },
{ "type": "Feature", "properties": { "fid": 19.0, "COMPR_M": 601.48, "CLASSE": "04 - Longa", "CD_FAZ": "403979", "TALHOES": "1", "FAZ_tAL": "403979001", "ID_LINHA": 242528 }, "geometry": { "type": "MultiLineString", "coordinates": [ [ [ 442562.495769973029383, 7611473.221570545807481 ], [ 442011.560113564715721, 7611232.409312708303332 ] ] ] } },
{ "type": "Feature", "properties": { "fid": 20.0, "COMPR_M": 601.45, "CLASSE": "04 - Longa", "CD_FAZ": "403979", "TALHOES": "1", "FAZ_tAL": "403979001", "ID_LINHA": 242529 }, "geometry": { "type": "MultiLineString", "coordinates": [ [ [ 442561.046098017075565, 7611475.861985633149743 ], [ 442010.142144422105048, 7611235.063584997318685 ] ] ] } },
{ "type": "Feature", "properties": { "fid": 21.0, "COMPR_M": 601.41, "CLASSE": "04 - Longa", "CD_FAZ": "403979", "TALHOES": "1", "FAZ_tAL": "403979001", "ID_LINHA": 242530 }, "geometry": { "type": "MultiLineString", "coordinates": [ [ [ 442559.596426060597878, 7611478.50240072235465 ], [ 442008.724175279960036, 7611237.717857288196683 ] ] ] } },
{ "type": "Feature", "properties": { "fid": 22.0, "COMPR_M": 601.38, "CLASSE": "04 - Longa", "CD_FAZ": "403979", "TALHOES": "1", "FAZ_tAL": "403979001", "ID_LINHA": 242531 }, "geometry": { "type": "MultiLineString", "coordinates": [ [ [ 442558.146754104294814, 7611481.142815809696913 ], [ 442007.306206139095593, 7611240.372129576280713 ] ] ] } },
{ "type": "Feature", "properties": { "fid": 23.0, "COMPR_M": 601.34, "CLASSE": "04 - Longa", "CD_FAZ": "403979", "TALHOES": "1", "FAZ_tAL": "403979001", "ID_LINHA": 242532 }, "geometry": { "type": "MultiLineString", "coordinates": [ [ [ 442556.697082147526089, 7611483.783230897039175 ], [ 442005.888236996775959, 7611243.026401866227388 ] ] ] } },
{ "type": "Feature", "properties": { "fid": 24.0, "COMPR_M": 601.31, "CLASSE": "04 - Longa", "CD_FAZ": "403979", "TALHOES": "1", "FAZ_tAL": "403979001", "ID_LINHA": 242533 }, "geometry": { "type": "MultiLineString", "coordinates": [ [ [ 442555.247410192154348, 7611486.423645986244082 ], [ 442004.470267855038401, 7611245.680674156174064 ] ] ] } },
{ "type": "Feature", "properties": { "fid": 25.0, "COMPR_M": 601.27, "CLASSE": "04 - Longa", "CD_FAZ": "403979", "TALHOES": "1", "FAZ_tAL": "403979001", "ID_LINHA": 242534 }, "geometry": { "type": "MultiLineString", "coordinates": [ [ [ 442553.797738235094585, 7611489.064061069861054 ], [ 442003.05229871312622, 7611248.334946446120739 ] ] ] } },
{ "type": "Feature", "properties": { "fid": 26.0, "COMPR_M": 601.24, "CLASSE": "04 - Longa", "CD_FAZ": "403979", "TALHOES": "1", "FAZ_tAL": "403979001", "ID_LINHA": 242535 }, "geometry": { "type": "MultiLineString", "coordinates": [ [ [ 442552.348066279431805, 7611491.704476159997284 ], [ 442001.634329570515547, 7611250.989218732342124 ] ] ] } },
{ "type": "Feature", "properties": { "fid": 27.0, "COMPR_M": 601.2, "CLASSE": "04 - Longa", "CD_FAZ": "403979", "TALHOES": "1", "FAZ_tAL": "403979001", "ID_LINHA": 242536 }, "geometry": { "type": "MultiLineString", "coordinates": [ [ [ 442550.89839432266308, 7611494.344891248270869 ], [ 442000.216360428486951, 7611253.643491020426154 ] ] ] } },
{ "type": "Feature", "properties": { "fid": 28.0, "COMPR_M": 601.17, "CLASSE": "04 - Longa", "CD_FAZ": "403979", "TALHOES": "1", "FAZ_tAL": "403979001", "ID_LINHA": 242537 }, "geometry": { "type": "MultiLineString", "coordinates": [ [ [ 442549.448722366709262, 7611496.985306334681809 ], [ 441998.798391286982223, 7611256.297763310372829 ] ] ] } },
{ "type": "Feature", "properties": { "fid": 29.0, "COMPR_M": 601.14, "CLASSE": "04 - Longa", "CD_FAZ": "403979", "TALHOES": "1", "FAZ_tAL": "403979001", "ID_LINHA": 242538 }, "geometry": { "type": "MultiLineString", "coordinates": [ [ [ 442547.999050410930067, 7611499.625721422955394 ], [ 441997.380422144720796, 7611258.952035600319505 ] ] ] } },
{ "type": "Feature", "properties": { "fid": 30.0, "COMPR_M": 601.1, "CLASSE": "04 - Longa", "CD_FAZ": "403979", "TALHOES": "1", "FAZ_tAL": "403979001", "ID_LINHA": 242539 }, "geometry": { "type": "MultiLineString", "coordinates": [ [ [ 442546.549378453986719, 7611502.266136512160301 ], [ 441995.962453002983239, 7611261.60630789026618 ] ] ] } },
{ "type": "Feature", "properties": { "fid": 31.0, "COMPR_M": 601.07, "CLASSE": "04 - Longa", "CD_FAZ": "403979", "TALHOES": "1", "FAZ_tAL": "403979001", "ID_LINHA": 242540 }, "geometry": { "type": "MultiLineString", "coordinates": [ [ [ 442545.099706497217994, 7611504.906551601365209 ], [ 441994.544483861187473, 7611264.26058017835021 ] ] ] } },
{ "type": "Feature", "properties": { "fid": 32.0, "COMPR_M": 601.03, "CLASSE": "04 - Longa", "CD_FAZ": "403979", "TALHOES": "1", "FAZ_tAL": "403979001", "ID_LINHA": 242541 }, "geometry": { "type": "MultiLineString", "coordinates": [ [ [ 442543.650034541264176, 7611507.546966688707471 ], [ 441993.1265147193335, 7611266.914852468296885 ] ] ] } },
{ "type": "Feature", "properties": { "fid": 33.0, "COMPR_M": 601.0, "CLASSE": "04 - Longa", "CD_FAZ": "403979", "TALHOES": "1", "FAZ_tAL": "403979001", "ID_LINHA": 242542 }, "geometry": { "type": "MultiLineString", "coordinates": [ [ [ 442542.200362585543189, 7611510.187381777912378 ], [ 441991.708545576024335, 7611269.569124756380916 ] ] ] } },
{ "type": "Feature", "properties": { "fid": 34.0, "COMPR_M": 600.96, "CLASSE": "04 - Longa", "CD_FAZ": "403979", "TALHOES": "1", "FAZ_tAL": "403979001", "ID_LINHA": 242543 }, "geometry": { "type": "MultiLineString", "coordinates": [ [ [ 442540.750690629938617, 7611512.827796864323318 ], [ 441990.290576435276307, 7611272.223397045396268 ] ] ] } },
{ "type": "Feature", "properties": { "fid": 35.0, "COMPR_M": 600.93, "CLASSE": "04 - Longa", "CD_FAZ": "403979", "TALHOES": "1", "FAZ_tAL": "403979001", "ID_LINHA": 242544 }, "geometry": { "type": "MultiLineString", "coordinates": [ [ [ 442539.3010186732281, 7611515.468211952596903 ], [ 441988.872607293713372, 7611274.877669336274266 ] ] ] } },
{ "type": "Feature", "properties": { "fid": 36.0, "COMPR_M": 600.89, "CLASSE": "04 - Longa", "CD_FAZ": "403979", "TALHOES": "1", "FAZ_tAL": "403979001", "ID_LINHA": 242545 }, "geometry": { "type": "MultiLineString", "coordinates": [ [ [ 442537.851346716633998, 7611518.108627037145197 ], [ 441987.454638151451945, 7611277.531941624358296 ] ] ] } },
{ "type": "Feature", "properties": { "fid": 37.0, "COMPR_M": 600.86, "CLASSE": "04 - Longa", "CD_FAZ": "403979", "TALHOES": "1", "FAZ_tAL": "403979001", "ID_LINHA": 242546 }, "geometry": { "type": "MultiLineString", "coordinates": [ [ [ 442536.401674760913011, 7611520.749042127281427 ], [ 441986.036669008433819, 7611280.186213912442327 ] ] ] } },
{ "type": "Feature", "properties": { "fid": 38.0, "COMPR_M": 600.82, "CLASSE": "04 - Longa", "CD_FAZ": "403979", "TALHOES": "1", "FAZ_tAL": "403979001", "ID_LINHA": 242547 }, "geometry": { "type": "MultiLineString", "coordinates": [ [ [ 442534.952002804086078, 7611523.389457215555012 ], [ 441984.618699867278337, 7611282.840486201457679 ] ] ] } },
{ "type": "Feature", "properties": { "fid": 39.0, "COMPR_M": 600.79, "CLASSE": "04 - Longa", "CD_FAZ": "403979", "TALHOES": "1", "FAZ_tAL": "403979001", "ID_LINHA": 242548 }, "geometry": { "type": "MultiLineString", "coordinates": [ [ [ 442533.502330848074052, 7611526.029872302897274 ], [ 441983.200730724725872, 7611285.494758489541709 ] ] ] } },
{ "type": "Feature", "properties": { "fid": 40.0, "COMPR_M": 600.75, "CLASSE": "04 - Longa", "CD_FAZ": "403979", "TALHOES": "1", "FAZ_tAL": "403979001", "ID_LINHA": 242549 }, "geometry": { "type": "MultiLineString", "coordinates": [ [ [ 442532.052658891596366, 7611528.670287391170859 ], [ 441981.782761582755484, 7611288.149030780419707 ] ] ] } },
{ "type": "Feature", "properties": { "fid": 41.0, "COMPR_M": 600.72, "CLASSE": "04 - Longa", "CD_FAZ": "403979", "TALHOES": "1", "FAZ_tAL": "403979001", "ID_LINHA": 242550 }, "geometry": { "type": "MultiLineString", "coordinates": [ [ [ 442530.602986935235094, 7611531.310702476650476 ], [ 441980.36479244066868, 7611290.803303070366383 ] ] ] } },
{ "type": "Feature", "properties": { "fid": 42.0, "COMPR_M": 600.69, "CLASSE": "04 - Longa", "CD_FAZ": "403979", "TALHOES": "1", "FAZ_tAL": "403979001", "ID_LINHA": 242551 }, "geometry": { "type": "MultiLineString", "coordinates": [ [ [ 442529.153314977826085, 7611533.951117565855384 ], [ 441978.946823298523668, 7611293.457575359381735 ] ] ] } },
{ "type": "Feature", "properties": { "fid": 43.0, "COMPR_M": 600.65, "CLASSE": "04 - Longa", "CD_FAZ": "403979", "TALHOES": "1", "FAZ_tAL": "403979001", "ID_LINHA": 242552 }, "geometry": { "type": "MultiLineString", "coordinates": [ [ [ 442527.703643023152836, 7611536.591532653197646 ], [ 441977.528854156960733, 7611296.111847649328411 ] ] ] } },
{ "type": "Feature", "properties": { "fid": 44.0, "COMPR_M": 600.62, "CLASSE": "04 - Longa", "CD_FAZ": "403979", "TALHOES": "1", "FAZ_tAL": "403979001", "ID_LINHA": 242553 }, "geometry": { "type": "MultiLineString", "coordinates": [ [ [ 442526.253971066733357, 7611539.231947742402554 ], [ 441976.110885014641099, 7611298.766119936481118 ] ] ] } },
{ "type": "Feature", "properties": { "fid": 45.0, "COMPR_M": 600.58, "CLASSE": "04 - Longa", "CD_FAZ": "403979", "TALHOES": "1", "FAZ_tAL": "403979001", "ID_LINHA": 242554 }, "geometry": { "type": "MultiLineString", "coordinates": [ [ [ 442524.804299110546708, 7611541.872362829744816 ], [ 441974.692915873543825, 7611301.420392224565148 ] ] ] } },
{ "type": "Feature", "properties": { "fid": 46.0, "COMPR_M": 600.55, "CLASSE": "04 - Longa", "CD_FAZ": "403979", "TALHOES": "1", "FAZ_tAL": "403979001", "ID_LINHA": 242555 }, "geometry": { "type": "MultiLineString", "coordinates": [ [ [ 442523.354627153137699, 7611544.512777917087078 ], [ 441973.27494673099136, 7611304.074664516374469 ] ] ] } },
{ "type": "Feature", "properties": { "fid": 47.0, "COMPR_M": 600.51, "CLASSE": "04 - Longa", "CD_FAZ": "403979", "TALHOES": "1", "FAZ_tAL": "403979001", "ID_LINHA": 242556 }, "geometry": { "type": "MultiLineString", "coordinates": [ [ [ 442521.904955197940581, 7611547.15319300442934 ], [ 441971.856977589079179, 7611306.728936804458499 ] ] ] } },
{ "type": "Feature", "properties": { "fid": 48.0, "COMPR_M": 600.48, "CLASSE": "04 - Longa", "CD_FAZ": "403979", "TALHOES": "1", "FAZ_tAL": "403979001", "ID_LINHA": 242557 }, "geometry": { "type": "MultiLineString", "coordinates": [ [ [ 442520.455283241579309, 7611549.793608091771603 ], [ 441970.439008446468506, 7611309.383209090679884 ] ] ] } },
{ "type": "Feature", "properties": { "fid": 49.0, "COMPR_M": 600.44, "CLASSE": "04 - Longa", "CD_FAZ": "403979", "TALHOES": "1", "FAZ_tAL": "403979001", "ID_LINHA": 242558 }, "geometry": { "type": "MultiLineString", "coordinates": [ [ [ 442519.005611285450868, 7611552.43402318097651 ], [ 441969.021039305021986, 7611312.037481378763914 ] ] ] } },
{ "type": "Feature", "properties": { "fid": 50.0, "COMPR_M": 600.41, "CLASSE": "04 - Longa", "CD_FAZ": "403979", "TALHOES": "1", "FAZ_tAL": "403979001", "ID_LINHA": 242559 }, "geometry": { "type": "MultiLineString", "coordinates": [ [ [ 442517.555939328798559, 7611555.074438268318772 ], [ 441967.603070161538199, 7611314.691753670573235 ] ] ] } },
{ "type": "Feature", "properties": { "fid": 51.0, "COMPR_M": 600.37, "CLASSE": "04 - Longa", "CD_FAZ": "403979", "TALHOES": "1", "FAZ_tAL": "403979001", "ID_LINHA": 242560 }, "geometry": { "type": "MultiLineString", "coordinates": [ [ [ 442516.106267373019364, 7611557.714853355661035 ], [ 441966.185101020615548, 7611317.34602596051991 ] ] ] } },
{ "type": "Feature", "properties": { "fid": 52.0, "COMPR_M": 600.34, "CLASSE": "04 - Longa", "CD_FAZ": "403979", "TALHOES": "1", "FAZ_tAL": "403979001", "ID_LINHA": 242561 }, "geometry": { "type": "MultiLineString", "coordinates": [ [ [ 442514.656595417414792, 7611560.355268444865942 ], [ 441964.767131878936198, 7611320.000298250466585 ] ] ] } },
{ "type": "Feature", "properties": { "fid": 53.0, "COMPR_M": 600.3, "CLASSE": "04 - Longa", "CD_FAZ": "403979", "TALHOES": "1", "FAZ_tAL": "403979001", "ID_LINHA": 242562 }, "geometry": { "type": "MultiLineString", "coordinates": [ [ [ 442513.20692346006399, 7611562.995683532208204 ], [ 441963.349162736558355, 7611322.654570538550615 ] ] ] } },
{ "type": "Feature", "properties": { "fid": 54.0, "COMPR_M": 600.27, "CLASSE": "04 - Longa", "CD_FAZ": "403979", "TALHOES": "1", "FAZ_tAL": "403979001", "ID_LINHA": 242563 }, "geometry": { "type": "MultiLineString", "coordinates": [ [ [ 442511.75725150416838, 7611565.636098621413112 ], [ 441961.931193594704382, 7611325.308842826634645 ] ] ] } },
{ "type": "Feature", "properties": { "fid": 55.0, "COMPR_M": 600.24, "CLASSE": "04 - Longa", "CD_FAZ": "403979", "TALHOES": "1", "FAZ_tAL": "403979001", "ID_LINHA": 242564 }, "geometry": { "type": "MultiLineString", "coordinates": [ [ [ 442510.307579547225032, 7611568.276513709686697 ], [ 441960.513224452151917, 7611327.963115119375288 ] ] ] } },
{ "type": "Feature", "properties": { "fid": 56.0, "COMPR_M": 600.2, "CLASSE": "04 - Longa", "CD_FAZ": "403979", "TALHOES": "1", "FAZ_tAL": "403979001", "ID_LINHA": 242565 }, "geometry": { "type": "MultiLineString", "coordinates": [ [ [ 442508.857907590456307, 7611570.916928796097636 ], [ 441959.095255310181528, 7611330.617387406527996 ] ] ] } },
{ "type": "Feature", "properties": { "fid": 57.0, "COMPR_M": 600.17, "CLASSE": "04 - Longa", "CD_FAZ": "403979", "TALHOES": "1", "FAZ_tAL": "403979001", "ID_LINHA": 242566 }, "geometry": { "type": "MultiLineString", "coordinates": [ [ [ 442507.408235635142773, 7611573.557343886233866 ], [ 441957.677286168152932, 7611333.271659694612026 ] ] ] } },
{ "type": "Feature", "properties": { "fid": 58.0, "COMPR_M": 600.13, "CLASSE": "04 - Longa", "CD_FAZ": "403979", "TALHOES": "1", "FAZ_tAL": "403979001", "ID_LINHA": 242567 }, "geometry": { "type": "MultiLineString", "coordinates": [ [ [ 442505.95856367808301, 7611576.197758970782161 ], [ 441956.259317025367636, 7611335.925931984558702 ] ] ] } },
{ "type": "Feature", "properties": { "fid": 59.0, "COMPR_M": 600.1, "CLASSE": "04 - Longa", "CD_FAZ": "403979", "TALHOES": "1", "FAZ_tAL": "403979001", "ID_LINHA": 242568 }, "geometry": { "type": "MultiLineString", "coordinates": [ [ [ 442504.508891722536646, 7611578.838174059987068 ], [ 441954.841347883222625, 7611338.580204273574054 ] ] ] } },
{ "type": "Feature", "properties": { "fid": 60.0, "COMPR_M": 600.06, "CLASSE": "04 - Longa", "CD_FAZ": "403979", "TALHOES": "1", "FAZ_tAL": "403979001", "ID_LINHA": 242569 }, "geometry": { "type": "MultiLineString", "coordinates": [ [ [ 442503.059219765826128, 7611581.478589149191976 ], [ 441953.423378742241766, 7611341.23447656352073 ] ] ] } },
{ "type": "Feature", "properties": { "fid": 61.0, "COMPR_M": 600.03, "CLASSE": "04 - Longa", "CD_FAZ": "403979", "TALHOES": "1", "FAZ_tAL": "403979001", "ID_LINHA": 242570 }, "geometry": { "type": "MultiLineString", "coordinates": [ [ [ 442501.609547809406649, 7611584.119004235602915 ], [ 441952.005409599922132, 7611343.888748852536082 ] ] ] } },
{ "type": "Feature", "properties": { "fid": 62.0, "COMPR_M": 586.61, "CLASSE": "03 - Média", "CD_FAZ": "403979", "TALHOES": "1", "FAZ_tAL": "403979001", "ID_LINHA": 242571 }, "geometry": { "type": "MultiLineString", "coordinates": [ [ [ 442487.897455631406046, 7611581.39955367334187 ], [ 441950.587440457486082, 7611346.543021142482758 ] ] ] } },
{ "type": "Feature", "properties": { "fid": 63.0, "COMPR_M": 570.03, "CLASSE": "03 - Média", "CD_FAZ": "403979", "TALHOES": "1", "FAZ_tAL": "403979001", "ID_LINHA": 242572 }, "geometry": { "type": "MultiLineString", "coordinates": [ [ [ 442471.295246394351125, 7611577.416841955855489 ], [ 441949.169471315690316, 7611349.197293430566788 ] ] ] } },
{ "type": "Feature", "properties": { "fid": 64.0, "COMPR_M": 553.43, "CLASSE": "03 - Média", "CD_FAZ": "403979", "TALHOES": "1", "FAZ_tAL": "403979001", "ID_LINHA": 242573 }, "geometry": { "type": "MultiLineString", "coordinates": [ [ [ 442454.671567079203669, 7611573.424745731987059 ], [ 441947.751502174476627, 7611351.851565720513463 ] ] ] } },
{ "type": "Feature", "properties": { "fid": 65.0, "COMPR_M": 537.67, "CLASSE": "03 - Média", "CD_FAZ": "403979", "TALHOES": "1", "FAZ_tAL": "403979001", "ID_LINHA": 242574 }, "geometry": { "type": "MultiLineString", "coordinates": [ [ [ 442438.81979943474289, 7611569.770049692131579 ], [ 441946.333533031865954, 7611354.505838008597493 ] ] ] } },
{ "type": "Feature", "properties": { "fid": 66.0, "COMPR_M": 520.33, "CLASSE": "03 - Média", "CD_FAZ": "403979", "TALHOES": "1", "FAZ_tAL": "403979001", "ID_LINHA": 242575 }, "geometry": { "type": "MultiLineString", "coordinates": [ [ [ 442421.516769739217125, 7611565.481011538766325 ], [ 441944.915563889837358, 7611357.160110297612846 ] ] ] } },
{ "type": "Feature", "properties": { "fid": 67.0, "COMPR_M": 504.77, "CLASSE": "03 - Média", "CD_FAZ": "403979", "TALHOES": "1", "FAZ_tAL": "403979001", "ID_LINHA": 242576 }, "geometry": { "type": "MultiLineString", "coordinates": [ [ [ 442405.84609990613535, 7611561.905472789891064 ], [ 441943.497594747750554, 7611359.814382586628199 ] ] ] } },
{ "type": "Feature", "properties": { "fid": 68.0, "COMPR_M": 488.78, "CLASSE": "03 - Média", "CD_FAZ": "403979", "TALHOES": "1", "FAZ_tAL": "403979001", "ID_LINHA": 242577 }, "geometry": { "type": "MultiLineString", "coordinates": [ [ [ 442389.78891421481967, 7611558.160989163443446 ], [ 441942.079625605605543, 7611362.468654876574874 ] ] ] } },
{ "type": "Feature", "properties": { "fid": 69.0, "COMPR_M": 355.48, "CLASSE": "03 - Média", "CD_FAZ": "403979", "TALHOES": "1", "FAZ_tAL": "403979001", "ID_LINHA": 242578 }, "geometry": { "type": "MultiLineString", "coordinates": [ [ [ 442266.271914084209129, 7611507.446155659854412 ], [ 441940.661656463402323, 7611365.122927164658904 ] ] ] } },
{ "type": "Feature", "properties": { "fid": 70.0, "COMPR_M": 105.91, "CLASSE": "02 - Curta", "CD_FAZ": "403979", "TALHOES": "1", "FAZ_tAL": "403979001", "ID_LINHA": 242579 }, "geometry": { "type": "MultiLineString", "coordinates": [ [ [ 442373.132197270810138, 7611554.154452295973897 ], [ 442276.119615223666187, 7611511.75055512599647 ] ] ] } },
{ "type": "Feature", "properties": { "fid": 71.0, "COMPR_M": 339.57, "CLASSE": "03 - Média", "CD_FAZ": "403979", "TALHOES": "1", "FAZ_tAL": "403979001", "ID_LINHA": 242580 }, "geometry": { "type": "MultiLineString", "coordinates": [ [ [ 442250.273518907371908, 7611503.727369184605777 ], [ 441939.243687321781181, 7611367.777199454605579 ] ] ] } },
{ "type": "Feature", "properties": { "fid": 72.0, "COMPR_M": 76.23, "CLASSE": "01 - Muito curta", "CD_FAZ": "403979", "TALHOES": "1", "FAZ_tAL": "403979001", "ID_LINHA": 242581 }, "geometry": { "type": "MultiLineString", "coordinates": [ [ [ 442350.658510017499793, 7611547.605335840955377 ], [ 442280.835443406074774, 7611517.085891103371978 ] ] ] } },
{ "type": "Feature", "properties": { "fid": 73.0, "COMPR_M": 327.54, "CLASSE": "03 - Média", "CD_FAZ": "403979", "TALHOES": "1", "FAZ_tAL": "403979001", "ID_LINHA": 242582 }, "geometry": { "type": "MultiLineString", "coordinates": [ [ [ 442237.841982358833775, 7611501.567645496688783 ], [ 441937.825718179403339, 7611370.431471744552255 ] ] ] } },
{ "type": "Feature", "properties": { "fid": 74.0, "COMPR_M": 49.71, "CLASSE": "01 - Muito curta", "CD_FAZ": "403979", "TALHOES": "1", "FAZ_tAL": "403979001", "ID_LINHA": 242583 }, "geometry": { "type": "MultiLineString", "coordinates": [ [ [ 442328.570292296237312, 7611541.224706918001175 ], [ 442283.037905759410933, 7611521.322642711922526 ] ] ] } },
{ "type": "Feature", "properties": { "fid": 75.0, "COMPR_M": 321.36, "CLASSE": "03 - Média", "CD_FAZ": "403979", "TALHOES": "1", "FAZ_tAL": "403979001", "ID_LINHA": 242584 }, "geometry": { "type": "MultiLineString", "coordinates": [ [ [ 442230.76462743699085, 7611501.748217903077602 ], [ 441936.407749037723988, 7611373.08574403449893 ] ] ] } },
{ "type": "Feature", "properties": { "fid": 76.0, "COMPR_M": 24.62, "CLASSE": "01 - Muito curta", "CD_FAZ": "403979", "TALHOES": "1", "FAZ_tAL": "403979001", "ID_LINHA": 242585 }, "geometry": { "type": "MultiLineString", "coordinates": [ [ [ 442308.074089269794058, 7611535.539942651987076 ], [ 442285.524283675651532, 7611525.683492926880717 ] ] ] } },
{ "type": "Feature", "properties": { "fid": 77.0, "COMPR_M": 314.76, "CLASSE": "03 - Média", "CD_FAZ": "403979", "TALHOES": "1", "FAZ_tAL": "403979001", "ID_LINHA": 242586 }, "geometry": { "type": "MultiLineString", "coordinates": [ [ [ 442223.300298025307711, 7611501.759644970297813 ], [ 441934.989779895870015, 7611375.740016320720315 ] ] ] } },
{ "type": "Feature", "properties": { "fid": 78.0, "COMPR_M": 312.87, "CLASSE": "03 - Média", "CD_FAZ": "403979", "TALHOES": "1", "FAZ_tAL": "403979001", "ID_LINHA": 242587 }, "geometry": { "type": "MultiLineString", "coordinates": [ [ [ 442220.152036085783038, 7611503.657611670903862 ], [ 441933.571810753375757, 7611378.394288609735668 ] ] ] } },
{ "type": "Feature", "properties": { "fid": 79.0, "COMPR_M": 308.02, "CLASSE": "03 - Média", "CD_FAZ": "403979", "TALHOES": "1", "FAZ_tAL": "403979001", "ID_LINHA": 242588 }, "geometry": { "type": "MultiLineString", "coordinates": [ [ [ 442214.28990536328638, 7611504.369354788213968 ], [ 441932.153841611463577, 7611381.04856089875102 ] ] ] } },
{ "type": "Feature", "properties": { "fid": 80.0, "COMPR_M": 301.91, "CLASSE": "03 - Média", "CD_FAZ": "403979", "TALHOES": "1", "FAZ_tAL": "403979001", "ID_LINHA": 242589 }, "geometry": { "type": "MultiLineString", "coordinates": [ [ [ 442207.274018031544983, 7611504.576794490218163 ], [ 441930.735872470133472, 7611383.702833188697696 ] ] ] } },
{ "type": "Feature", "properties": { "fid": 81.0, "COMPR_M": 293.42, "CLASSE": "02 - Curta", "CD_FAZ": "403979", "TALHOES": "1", "FAZ_tAL": "403979001", "ID_LINHA": 242590 }, "geometry": { "type": "MultiLineString", "coordinates": [ [ [ 442198.076716618030332, 7611503.830744893290102 ], [ 441929.317903328104876, 7611386.357105476781726 ] ] ] } },
{ "type": "Feature", "properties": { "fid": 82.0, "COMPR_M": 281.75, "CLASSE": "02 - Curta", "CD_FAZ": "403979", "TALHOES": "1", "FAZ_tAL": "403979001", "ID_LINHA": 242591 }, "geometry": { "type": "MultiLineString", "coordinates": [ [ [ 442185.970320931635797, 7611501.813139261677861 ], [ 441927.899934185377788, 7611389.011377767659724 ] ] ] } },
{ "type": "Feature", "properties": { "fid": 83.0, "COMPR_M": 268.78, "CLASSE": "02 - Curta", "CD_FAZ": "403979", "TALHOES": "1", "FAZ_tAL": "403979001", "ID_LINHA": 242592 }, "geometry": { "type": "MultiLineString", "coordinates": [ [ [ 442172.677540781209245, 7611499.276968679390848 ], [ 441926.48196504387306, 7611391.665650054812431 ] ] ] } },
{ "type": "Feature", "properties": { "fid": 84.0, "COMPR_M": 255.51, "CLASSE": "02 - Curta", "CD_FAZ": "403979", "TALHOES": "1", "FAZ_tAL": "403979001", "ID_LINHA": 242593 }, "geometry": { "type": "MultiLineString", "coordinates": [ [ [ 442159.099086096684914, 7611496.615930648520589 ], [ 441925.063995901669841, 7611394.319922344759107 ] ] ] } },
{ "type": "Feature", "properties": { "fid": 85.0, "COMPR_M": 240.34, "CLASSE": "02 - Curta", "CD_FAZ": "403979", "TALHOES": "1", "FAZ_tAL": "403979001", "ID_LINHA": 242594 }, "geometry": { "type": "MultiLineString", "coordinates": [ [ [ 442143.790899447456468, 7611493.198832169175148 ], [ 441923.646026760048699, 7611396.974194634705782 ] ] ] } },
{ "type": "Feature", "properties": { "fid": 86.0, "COMPR_M": 221.04, "CLASSE": "02 - Curta", "CD_FAZ": "403979", "TALHOES": "1", "FAZ_tAL": "403979001", "ID_LINHA": 242595 }, "geometry": { "type": "MultiLineString", "coordinates": [ [ [ 442124.691187896416523, 7611488.124469976872206 ], [ 441922.22805761708878, 7611399.628466922789812 ] ] ] } },
{ "type": "Feature", "properties": { "fid": 87.0, "COMPR_M": 203.12, "CLASSE": "02 - Curta", "CD_FAZ": "403979", "TALHOES": "1", "FAZ_tAL": "403979001", "ID_LINHA": 242596 }, "geometry": { "type": "MultiLineString", "coordinates": [ [ [ 442106.864027391304262, 7611483.606335876509547 ], [ 441920.81008847540943, 7611402.28273921366781 ] ] ] } },
{ "type": "Feature", "properties": { "fid": 88.0, "COMPR_M": 185.25, "CLASSE": "02 - Curta", "CD_FAZ": "403979", "TALHOES": "1", "FAZ_tAL": "403979001", "ID_LINHA": 242597 }, "geometry": { "type": "MultiLineString", "coordinates": [ [ [ 442089.074174386973027, 7611479.104508770629764 ], [ 441919.392119333031587, 7611404.937011499889195 ] ] ] } },
{ "type": "Feature", "properties": { "fid": 89.0, "COMPR_M": 170.99, "CLASSE": "02 - Curta", "CD_FAZ": "403979", "TALHOES": "1", "FAZ_tAL": "403979001", "ID_LINHA": 242598 }, "geometry": { "type": "MultiLineString", "coordinates": [ [ [ 442074.591581676213536, 7611476.048274828121066 ], [ 441917.97415019053733, 7611407.591283790767193 ] ] ] } },
{ "type": "Feature", "properties": { "fid": 90.0, "COMPR_M": 154.18, "CLASSE": "02 - Curta", "CD_FAZ": "403979", "TALHOES": "1", "FAZ_tAL": "403979001", "ID_LINHA": 242599 }, "geometry": { "type": "MultiLineString", "coordinates": [ [ [ 442057.782464895281009, 7611471.975124467164278 ], [ 441916.556181049323641, 7611410.245556080713868 ] ] ] } },
{ "type": "Feature", "properties": { "fid": 91.0, "COMPR_M": 137.94, "CLASSE": "02 - Curta", "CD_FAZ": "403979", "TALHOES": "1", "FAZ_tAL": "403979001", "ID_LINHA": 242600 }, "geometry": { "type": "MultiLineString", "coordinates": [ [ [ 442041.487452312954701, 7611468.126687447540462 ], [ 441915.13821190741146, 7611412.899828368797898 ] ] ] } },
{ "type": "Feature", "properties": { "fid": 92.0, "COMPR_M": 117.7, "CLASSE": "02 - Curta", "CD_FAZ": "403979", "TALHOES": "1", "FAZ_tAL": "403979001", "ID_LINHA": 242601 }, "geometry": { "type": "MultiLineString", "coordinates": [ [ [ 442021.530287958914414, 7611462.677535306662321 ], [ 441913.720242765499279, 7611415.554100657813251 ] ] ] } },
{ "type": "Feature", "properties": { "fid": 93.0, "COMPR_M": 98.78, "CLASSE": "01 - Muito curta", "CD_FAZ": "403979", "TALHOES": "1", "FAZ_tAL": "403979001", "ID_LINHA": 242602 }, "geometry": { "type": "MultiLineString", "coordinates": [ [ [ 442002.78488498943625, 7611457.758040292188525 ], [ 441912.30227362352889, 7611418.208372946828604 ] ] ] } },
{ "type": "Feature", "properties": { "fid": 94.0, "COMPR_M": 81.22, "CLASSE": "01 - Muito curta", "CD_FAZ": "403979", "TALHOES": "1", "FAZ_tAL": "403979001", "ID_LINHA": 242603 }, "geometry": { "type": "MultiLineString", "coordinates": [ [ [ 441985.276006971835159, 7611453.379026472568512 ], [ 441910.884304480801802, 7611420.862645236775279 ] ] ] } },
{ "type": "Feature", "properties": { "fid": 95.0, "COMPR_M": 63.9, "CLASSE": "01 - Muito curta", "CD_FAZ": "403979", "TALHOES": "1", "FAZ_tAL": "403979001", "ID_LINHA": 242604 }, "geometry": { "type": "MultiLineString", "coordinates": [ [ [ 441967.998456511588302, 7611449.10112521238625 ], [ 441909.466335338773206, 7611423.516917524859309 ] ] ] } },
{ "type": "Feature", "properties": { "fid": 96.0, "COMPR_M": 45.81, "CLASSE": "01 - Muito curta", "CD_FAZ": "403979", "TALHOES": "1", "FAZ_tAL": "403979001", "ID_LINHA": 242605 }, "geometry": { "type": "MultiLineString", "coordinates": [ [ [ 441950.009675843117293, 7611444.51234744489193 ], [ 441908.048366197268479, 7611426.171189814805984 ] ] ] } },
{ "type": "Feature", "properties": { "fid": 97.0, "COMPR_M": 30.71, "CLASSE": "01 - Muito curta", "CD_FAZ": "403979", "TALHOES": "1", "FAZ_tAL": "403979001", "ID_LINHA": 242606 }, "geometry": { "type": "MultiLineString", "coordinates": [ [ [ 441934.756402023485862, 7611441.119251191616058 ], [ 441906.630397055123467, 7611428.825462102890015 ] ] ] } },
{ "type": "Feature", "properties": { "fid": 98.0, "COMPR_M": 17.62, "CLASSE": "01 - Muito curta", "CD_FAZ": "403979", "TALHOES": "1", "FAZ_tAL": "403979001", "ID_LINHA": 242607 }, "geometry": { "type": "MultiLineString", "coordinates": [ [ [ 441921.34888750850223, 7611438.532930577173829 ], [ 441905.212427912920248, 7611431.47973439283669 ] ] ] } },
{ "type": "Feature", "properties": { "fid": 99.0, "COMPR_M": 3.65, "CLASSE": "01 - Muito curta", "CD_FAZ": "403979", "TALHOES": "1", "FAZ_tAL": "403979001", "ID_LINHA": 242608 }, "geometry": { "type": "MultiLineString", "coordinates": [ [ [ 441907.139487274514977, 7611435.596108213998377 ], [ 441903.794458769320045, 7611434.134006682783365 ] ] ] } },
{ "type": "Feature", "properties": { "fid": 100.0, "COMPR_M": 592.85, "CLASSE": "03 - Média", "CD_FAZ": "403979", "TALHOES": "1", "FAZ_tAL": "403979001", "ID_LINHA": 242609 }, "geometry": { "type": "MultiLineString", "coordinates": [ [ [ 442590.039537141914479, 7611423.053683875128627 ], [ 442047.007552865426987, 7611185.696096487343311 ] ] ] } },
{ "type": "Feature", "properties": { "fid": 102.0, "COMPR_M": 586.27, "CLASSE": "03 - Média", "CD_FAZ": "403979", "TALHOES": "1", "FAZ_tAL": "403979001", "ID_LINHA": 242610 }, "geometry": { "type": "MultiLineString", "coordinates": [ [ [ 442591.489209097693674, 7611420.413268787786365 ], [ 442054.486005320504773, 7611185.690842559561133 ] ] ] } }
]
}
