{
"type": "FeatureCollection",
"name": "403953",
"crs": { "type": "name", "properties": { "name": "urn:ogc:def:crs:EPSG::32722" } },
"xy_coordinate_resolution": 1e-15,
"features": [
{ "type": "Feature", "properties": { "fid": 1.0, "COMPR_M": 904.43, "CLASSE": "05 - Muito longa", "CD_FAZ": "403953", "TALHOES": "1", "FAZ_tAL": "403953001", "ID_LINHA": 236695 }, "geometry": { "type": "MultiLineString", "coordinates": [ [ [ 420490.813195543538313, 7625280.752352315932512 ], [ 420490.832740549987648, 7624376.615821328014135 ] ] ] } },
{ "type": "Feature", "properties": { "fid": 2.0, "COMPR_M": 902.16, "CLASSE": "05 - Muito longa", "CD_FAZ": "403953", "TALHOES": "1", "FAZ_tAL": "403953001", "ID_LINHA": 236696 }, "geometry": { "type": "MultiLineString", "coordinates": [ [ [ 420493.813191063585691, 7625277.570663278922439 ], [ 420493.832866016193293, 7624375.705634165555239 ] ] ] } },
{ "type": "Feature", "properties": { "fid": 3.0, "COMPR_M": 902.71, "CLASSE": "05 - Muito longa", "CD_FAZ": "403953", "TALHOES": "1", "FAZ_tAL": "403953001", "ID_LINHA": 236697 }, "geometry": { "type": "MultiLineString", "coordinates": [ [ [ 420496.813190560729709, 7625277.213041084818542 ], [ 420496.832991483039223, 7624374.795446999371052 ] ] ] } },
{ "type": "Feature", "properties": { "fid": 4.0, "COMPR_M": 903.26, "CLASSE": "05 - Muito longa", "CD_FAZ": "403953", "TALHOES": "1", "FAZ_tAL": "403953001", "ID_LINHA": 236698 }, "geometry": { "type": "MultiLineString", "coordinates": [ [ [ 420499.813190057000611, 7625276.855418894439936 ], [ 420499.833116949885152, 7624373.88525983504951 ] ] ] } },
{ "type": "Feature", "properties": { "fid": 5.0, "COMPR_M": 903.81, "CLASSE": "05 - Muito longa", "CD_FAZ": "403953", "TALHOES": "1", "FAZ_tAL": "403953001", "ID_LINHA": 236699 }, "geometry": { "type": "MultiLineString", "coordinates": [ [ [ 420502.813189553678967, 7625276.497796701267362 ], [ 420502.83324241603259, 7624372.975072667002678 ] ] ] } },
{ "type": "Feature", "properties": { "fid": 6.0, "COMPR_M": 904.37, "CLASSE": "05 - Muito longa", "CD_FAZ": "403953", "TALHOES": "1", "FAZ_tAL": "403953001", "ID_LINHA": 236700 }, "geometry": { "type": "MultiLineString", "coordinates": [ [ [ 420505.8131890501827, 7625276.140174509957433 ], [ 420505.833367882762104, 7624372.064885505475104 ] ] ] } },
{ "type": "Feature", "properties": { "fid": 7.0, "COMPR_M": 904.92, "CLASSE": "05 - Muito longa", "CD_FAZ": "403953", "TALHOES": "1", "FAZ_tAL": "403953001", "ID_LINHA": 236701 }, "geometry": { "type": "MultiLineString", "coordinates": [ [ [ 420508.813188545114826, 7625275.782552318647504 ], [ 420508.833493349491619, 7624371.15469834394753 ] ] ] } },
{ "type": "Feature", "properties": { "fid": 8.0, "COMPR_M": 905.47, "CLASSE": "05 - Muito longa", "CD_FAZ": "403953", "TALHOES": "1", "FAZ_tAL": "403953001", "ID_LINHA": 236702 }, "geometry": { "type": "MultiLineString", "coordinates": [ [ [ 420511.81318804185139, 7625275.424930127337575 ], [ 420511.833618815522641, 7624370.244511177763343 ] ] ] } },
{ "type": "Feature", "properties": { "fid": 9.0, "COMPR_M": 906.0, "CLASSE": "05 - Muito longa", "CD_FAZ": "403953", "TALHOES": "1", "FAZ_tAL": "403953001", "ID_LINHA": 236703 }, "geometry": { "type": "MultiLineString", "coordinates": [ [ [ 420514.813187539693899, 7625275.067307935096323 ], [ 420514.833741460228339, 7624369.354797008447349 ] ] ] } },
{ "type": "Feature", "properties": { "fid": 10.0, "COMPR_M": 906.54, "CLASSE": "05 - Muito longa", "CD_FAZ": "403953", "TALHOES": "1", "FAZ_tAL": "403953001", "ID_LINHA": 236704 }, "geometry": { "type": "MultiLineString", "coordinates": [ [ [ 420517.813187035964802, 7625274.709685743786395 ], [ 420517.833864010637626, 7624368.465765818953514 ] ] ] } },
{ "type": "Feature", "properties": { "fid": 11.0, "COMPR_M": 907.07, "CLASSE": "05 - Muito longa", "CD_FAZ": "403953", "TALHOES": "1", "FAZ_tAL": "403953001", "ID_LINHA": 236705 }, "geometry": { "type": "MultiLineString", "coordinates": [ [ [ 420520.813186532701366, 7625274.352063550613821 ], [ 420520.833986561454367, 7624367.576734631322324 ] ] ] } },
{ "type": "Feature", "properties": { "fid": 12.0, "COMPR_M": 907.6, "CLASSE": "05 - Muito longa", "CD_FAZ": "403953", "TALHOES": "1", "FAZ_tAL": "403953001", "ID_LINHA": 236706 }, "geometry": { "type": "MultiLineString", "coordinates": [ [ [ 420523.813186027808115, 7625273.994441360235214 ], [ 420523.834109112736769, 7624366.687703441828489 ] ] ] } },
{ "type": "Feature", "properties": { "fid": 13.0, "COMPR_M": 908.13, "CLASSE": "05 - Muito longa", "CD_FAZ": "403953", "TALHOES": "1", "FAZ_tAL": "403953001", "ID_LINHA": 236707 }, "geometry": { "type": "MultiLineString", "coordinates": [ [ [ 420526.813185526116285, 7625273.63681916706264 ], [ 420526.834231663960963, 7624365.798672251403332 ] ] ] } },
{ "type": "Feature", "properties": { "fid": 14.0, "COMPR_M": 908.71, "CLASSE": "05 - Muito longa", "CD_FAZ": "403953", "TALHOES": "1", "FAZ_tAL": "403953001", "ID_LINHA": 236708 }, "geometry": { "type": "MultiLineString", "coordinates": [ [ [ 420529.813185020873789, 7625273.279196974821389 ], [ 420529.834360415348783, 7624364.864647407084703 ] ] ] } },
{ "type": "Feature", "properties": { "fid": 15.0, "COMPR_M": 909.34, "CLASSE": "05 - Muito longa", "CD_FAZ": "403953", "TALHOES": "1", "FAZ_tAL": "403953001", "ID_LINHA": 236709 }, "geometry": { "type": "MultiLineString", "coordinates": [ [ [ 420532.813184518716298, 7625272.921574782580137 ], [ 420532.834496744559146, 7624363.875645231455564 ] ] ] } },
{ "type": "Feature", "properties": { "fid": 16.0, "COMPR_M": 909.97, "CLASSE": "05 - Muito longa", "CD_FAZ": "403953", "TALHOES": "1", "FAZ_tAL": "403953001", "ID_LINHA": 236710 }, "geometry": { "type": "MultiLineString", "coordinates": [ [ [ 420535.813184015685692, 7625272.563952593132854 ], [ 420535.834633072605357, 7624362.88664305396378 ] ] ] } },
{ "type": "Feature", "properties": { "fid": 17.0, "COMPR_M": 910.57, "CLASSE": "05 - Muito longa", "CD_FAZ": "403953", "TALHOES": "1", "FAZ_tAL": "403953001", "ID_LINHA": 236711 }, "geometry": { "type": "MultiLineString", "coordinates": [ [ [ 420538.81318351184018, 7625272.206330399960279 ], [ 420538.834765643870924, 7624361.924889709800482 ] ] ] } },
{ "type": "Feature", "properties": { "fid": 18.0, "COMPR_M": 911.04, "CLASSE": "05 - Muito longa", "CD_FAZ": "403953", "TALHOES": "1", "FAZ_tAL": "403953001", "ID_LINHA": 236712 }, "geometry": { "type": "MultiLineString", "coordinates": [ [ [ 420541.813183008343913, 7625271.848708206787705 ], [ 420541.834878777677659, 7624361.10419849306345 ] ] ] } },
{ "type": "Feature", "properties": { "fid": 19.0, "COMPR_M": 911.5, "CLASSE": "05 - Muito longa", "CD_FAZ": "403953", "TALHOES": "1", "FAZ_tAL": "403953001", "ID_LINHA": 236713 }, "geometry": { "type": "MultiLineString", "coordinates": [ [ [ 420544.81318250473123, 7625271.491086017340422 ], [ 420544.834991908632219, 7624360.283507280051708 ] ] ] } },
{ "type": "Feature", "properties": { "fid": 20.0, "COMPR_M": 911.96, "CLASSE": "05 - Muito longa", "CD_FAZ": "403953", "TALHOES": "1", "FAZ_tAL": "403953001", "ID_LINHA": 236714 }, "geometry": { "type": "MultiLineString", "coordinates": [ [ [ 420547.813182001526002, 7625271.133463822305202 ], [ 420547.835105041973293, 7624359.462816065177321 ] ] ] } },
{ "type": "Feature", "properties": { "fid": 21.0, "COMPR_M": 912.51, "CLASSE": "05 - Muito longa", "CD_FAZ": "403953", "TALHOES": "1", "FAZ_tAL": "403953001", "ID_LINHA": 236715 }, "geometry": { "type": "MultiLineString", "coordinates": [ [ [ 420550.813181498087943, 7625270.775841632857919 ], [ 420550.835228923824616, 7624358.564132206141949 ] ] ] } },
{ "type": "Feature", "properties": { "fid": 22.0, "COMPR_M": 913.1, "CLASSE": "05 - Muito longa", "CD_FAZ": "403953", "TALHOES": "1", "FAZ_tAL": "403953001", "ID_LINHA": 236716 }, "geometry": { "type": "MultiLineString", "coordinates": [ [ [ 420553.813180995115545, 7625270.41821944154799 ], [ 420553.835359841352329, 7624357.614381436258554 ] ] ] } },
{ "type": "Feature", "properties": { "fid": 23.0, "COMPR_M": 913.69, "CLASSE": "05 - Muito longa", "CD_FAZ": "403953", "TALHOES": "1", "FAZ_tAL": "403953001", "ID_LINHA": 236717 }, "geometry": { "type": "MultiLineString", "coordinates": [ [ [ 420556.813180530851241, 7625270.06059724278748 ], [ 420556.83549076091731, 7624356.664630663581192 ] ] ] } },
{ "type": "Feature", "properties": { "fid": 24.0, "COMPR_M": 914.27, "CLASSE": "05 - Muito longa", "CD_FAZ": "403953", "TALHOES": "1", "FAZ_tAL": "403953001", "ID_LINHA": 236718 }, "geometry": { "type": "MultiLineString", "coordinates": [ [ [ 420559.813180066412315, 7625269.702975047752261 ], [ 420559.835619373596273, 7624355.731611026450992 ] ] ] } },
{ "type": "Feature", "properties": { "fid": 25.0, "COMPR_M": 914.71, "CLASSE": "05 - Muito longa", "CD_FAZ": "403953", "TALHOES": "1", "FAZ_tAL": "403953001", "ID_LINHA": 236719 }, "geometry": { "type": "MultiLineString", "coordinates": [ [ [ 420562.81317960243905, 7625269.345352850854397 ], [ 420562.835729968501255, 7624354.929338464513421 ] ] ] } },
{ "type": "Feature", "properties": { "fid": 26.0, "COMPR_M": 915.16, "CLASSE": "05 - Muito longa", "CD_FAZ": "403953", "TALHOES": "1", "FAZ_tAL": "403953001", "ID_LINHA": 236720 }, "geometry": { "type": "MultiLineString", "coordinates": [ [ [ 420565.813179137534462, 7625268.987730653956532 ], [ 420565.83584056206746, 7624354.127065900713205 ] ] ] } },
{ "type": "Feature", "properties": { "fid": 27.0, "COMPR_M": 915.6, "CLASSE": "05 - Muito longa", "CD_FAZ": "403953", "TALHOES": "1", "FAZ_tAL": "403953001", "ID_LINHA": 236721 }, "geometry": { "type": "MultiLineString", "coordinates": [ [ [ 420568.813178673153743, 7625268.630108455196023 ], [ 420568.835951157496311, 7624353.324793338775635 ] ] ] } },
{ "type": "Feature", "properties": { "fid": 28.0, "COMPR_M": 916.05, "CLASSE": "05 - Muito longa", "CD_FAZ": "403953", "TALHOES": "1", "FAZ_tAL": "403953001", "ID_LINHA": 236722 }, "geometry": { "type": "MultiLineString", "coordinates": [ [ [ 420571.813178209238686, 7625268.272486262023449 ], [ 420571.836062023532577, 7624352.520542585290968 ] ] ] } },
{ "type": "Feature", "properties": { "fid": 29.0, "COMPR_M": 916.5, "CLASSE": "05 - Muito longa", "CD_FAZ": "403953", "TALHOES": "1", "FAZ_tAL": "403953001", "ID_LINHA": 236723 }, "geometry": { "type": "MultiLineString", "coordinates": [ [ [ 420574.813177744392306, 7625267.914864062331617 ], [ 420574.836173241317738, 7624351.713745933026075 ] ] ] } },
{ "type": "Feature", "properties": { "fid": 30.0, "COMPR_M": 916.95, "CLASSE": "05 - Muito longa", "CD_FAZ": "403953", "TALHOES": "1", "FAZ_tAL": "403953001", "ID_LINHA": 236724 }, "geometry": { "type": "MultiLineString", "coordinates": [ [ [ 420577.813177280011587, 7625267.557241867296398 ], [ 420577.836284457938746, 7624350.906949281692505 ] ] ] } },
{ "type": "Feature", "properties": { "fid": 31.0, "COMPR_M": 917.39, "CLASSE": "05 - Muito longa", "CD_FAZ": "403953", "TALHOES": "1", "FAZ_tAL": "403953001", "ID_LINHA": 236725 }, "geometry": { "type": "MultiLineString", "coordinates": [ [ [ 420580.813176814815961, 7625267.199619671329856 ], [ 420580.836395676189568, 7624350.10015263222158 ] ] ] } },
{ "type": "Feature", "properties": { "fid": 32.0, "COMPR_M": 917.84, "CLASSE": "05 - Muito longa", "CD_FAZ": "403953", "TALHOES": "1", "FAZ_tAL": "403953001", "ID_LINHA": 236726 }, "geometry": { "type": "MultiLineString", "coordinates": [ [ [ 420583.813176351424772, 7625266.841997474431992 ], [ 420583.836506893974729, 7624349.293355979956686 ] ] ] } },
{ "type": "Feature", "properties": { "fid": 33.0, "COMPR_M": 918.32, "CLASSE": "05 - Muito longa", "CD_FAZ": "403953", "TALHOES": "1", "FAZ_tAL": "403953001", "ID_LINHA": 236727 }, "geometry": { "type": "MultiLineString", "coordinates": [ [ [ 420586.813175886461977, 7625266.484375279396772 ], [ 420586.836621220922098, 7624348.463999944739044 ] ] ] } },
{ "type": "Feature", "properties": { "fid": 34.0, "COMPR_M": 918.97, "CLASSE": "05 - Muito longa", "CD_FAZ": "403953", "TALHOES": "1", "FAZ_tAL": "403953001", "ID_LINHA": 236728 }, "geometry": { "type": "MultiLineString", "coordinates": [ [ [ 420589.813175422663335, 7625266.126753078773618 ], [ 420589.836760568665341, 7624347.453083513304591 ] ] ] } },
{ "type": "Feature", "properties": { "fid": 35.0, "COMPR_M": 919.62, "CLASSE": "05 - Muito longa", "CD_FAZ": "403953", "TALHOES": "1", "FAZ_tAL": "403953001", "ID_LINHA": 236729 }, "geometry": { "type": "MultiLineString", "coordinates": [ [ [ 420592.813174957991578, 7625265.769130884669721 ], [ 420592.836899918562267, 7624346.442167084664106 ] ] ] } },
{ "type": "Feature", "properties": { "fid": 36.0, "COMPR_M": 920.28, "CLASSE": "05 - Muito longa", "CD_FAZ": "403953", "TALHOES": "1", "FAZ_tAL": "403953001", "ID_LINHA": 236730 }, "geometry": { "type": "MultiLineString", "coordinates": [ [ [ 420595.813174493785482, 7625265.411508686840534 ], [ 420595.837039265956264, 7624345.431250650435686 ] ] ] } },
{ "type": "Feature", "properties": { "fid": 37.0, "COMPR_M": 920.78, "CLASSE": "05 - Muito longa", "CD_FAZ": "403953", "TALHOES": "1", "FAZ_tAL": "403953001", "ID_LINHA": 236731 }, "geometry": { "type": "MultiLineString", "coordinates": [ [ [ 420598.813174029346555, 7625265.053886491805315 ], [ 420598.837157876114361, 7624344.570806176401675 ] ] ] } },
{ "type": "Feature", "properties": { "fid": 38.0, "COMPR_M": 921.26, "CLASSE": "05 - Muito longa", "CD_FAZ": "403953", "TALHOES": "1", "FAZ_tAL": "403953001", "ID_LINHA": 236732 }, "geometry": { "type": "MultiLineString", "coordinates": [ [ [ 420601.813173565431498, 7625264.696264294907451 ], [ 420601.837273992248811, 7624343.728471890091896 ] ] ] } },
{ "type": "Feature", "properties": { "fid": 39.0, "COMPR_M": 921.75, "CLASSE": "05 - Muito longa", "CD_FAZ": "403953", "TALHOES": "1", "FAZ_tAL": "403953001", "ID_LINHA": 236733 }, "geometry": { "type": "MultiLineString", "coordinates": [ [ [ 420604.81317310128361, 7625264.338642099872231 ], [ 420604.837390107568353, 7624342.886137599125504 ] ] ] } },
{ "type": "Feature", "properties": { "fid": 40.0, "COMPR_M": 922.23, "CLASSE": "05 - Muito longa", "CD_FAZ": "403953", "TALHOES": "1", "FAZ_tAL": "403953001", "ID_LINHA": 236734 }, "geometry": { "type": "MultiLineString", "coordinates": [ [ [ 420607.813172636320814, 7625263.981019901111722 ], [ 420607.837506222596858, 7624342.043803311884403 ] ] ] } },
{ "type": "Feature", "properties": { "fid": 41.0, "COMPR_M": 922.72, "CLASSE": "05 - Muito longa", "CD_FAZ": "403953", "TALHOES": "1", "FAZ_tAL": "403953001", "ID_LINHA": 236735 }, "geometry": { "type": "MultiLineString", "coordinates": [ [ [ 420610.813172171125188, 7625263.623397706076503 ], [ 420610.837622338032816, 7624341.201469024643302 ] ] ] } },
{ "type": "Feature", "properties": { "fid": 42.0, "COMPR_M": 923.21, "CLASSE": "05 - Muito longa", "CD_FAZ": "403953", "TALHOES": "1", "FAZ_tAL": "403953001", "ID_LINHA": 236736 }, "geometry": { "type": "MultiLineString", "coordinates": [ [ [ 420613.813171707792208, 7625263.265775507315993 ], [ 420613.837738999805879, 7624340.355171475559473 ] ] ] } },
{ "type": "Feature", "properties": { "fid": 43.0, "COMPR_M": 923.7, "CLASSE": "05 - Muito longa", "CD_FAZ": "403953", "TALHOES": "1", "FAZ_tAL": "403953001", "ID_LINHA": 236737 }, "geometry": { "type": "MultiLineString", "coordinates": [ [ [ 420616.813171242247336, 7625262.908153312280774 ], [ 420616.837856303376611, 7624339.504211941733956 ] ] ] } },
{ "type": "Feature", "properties": { "fid": 44.0, "COMPR_M": 924.19, "CLASSE": "05 - Muito longa", "CD_FAZ": "403953", "TALHOES": "1", "FAZ_tAL": "403953001", "ID_LINHA": 236738 }, "geometry": { "type": "MultiLineString", "coordinates": [ [ [ 420619.813170779088978, 7625262.550531116314232 ], [ 420619.837973606830928, 7624338.653252410702407 ] ] ] } },
{ "type": "Feature", "properties": { "fid": 45.0, "COMPR_M": 924.69, "CLASSE": "05 - Muito longa", "CD_FAZ": "403953", "TALHOES": "1", "FAZ_tAL": "403953001", "ID_LINHA": 236739 }, "geometry": { "type": "MultiLineString", "coordinates": [ [ [ 420622.813170315115713, 7625262.192908917553723 ], [ 420622.838090911565814, 7624337.802292876876891 ] ] ] } },
{ "type": "Feature", "properties": { "fid": 46.0, "COMPR_M": 925.18, "CLASSE": "05 - Muito longa", "CD_FAZ": "403953", "TALHOES": "1", "FAZ_tAL": "403953001", "ID_LINHA": 236740 }, "geometry": { "type": "MultiLineString", "coordinates": [ [ [ 420625.813169849687256, 7625261.835286721587181 ], [ 420625.838208215485793, 7624336.951333344914019 ] ] ] } },
{ "type": "Feature", "properties": { "fid": 47.0, "COMPR_M": 925.68, "CLASSE": "05 - Muito longa", "CD_FAZ": "403953", "TALHOES": "1", "FAZ_tAL": "403953001", "ID_LINHA": 236741 }, "geometry": { "type": "MultiLineString", "coordinates": [ [ [ 420628.813169386063237, 7625261.477664526551962 ], [ 420628.838326601369772, 7624336.092520613223314 ] ] ] } },
{ "type": "Feature", "properties": { "fid": 48.0, "COMPR_M": 926.2, "CLASSE": "05 - Muito longa", "CD_FAZ": "403953", "TALHOES": "1", "FAZ_tAL": "403953001", "ID_LINHA": 236742 }, "geometry": { "type": "MultiLineString", "coordinates": [ [ [ 420631.813168921566103, 7625261.12004233058542 ], [ 420631.838446778769139, 7624335.220717074349523 ] ] ] } },
{ "type": "Feature", "properties": { "fid": 49.0, "COMPR_M": 926.71, "CLASSE": "05 - Muito longa", "CD_FAZ": "403953", "TALHOES": "1", "FAZ_tAL": "403953001", "ID_LINHA": 236743 }, "geometry": { "type": "MultiLineString", "coordinates": [ [ [ 420634.81316845753463, 7625260.762420134618878 ], [ 420634.838566954364069, 7624334.348913533613086 ] ] ] } },
{ "type": "Feature", "properties": { "fid": 50.0, "COMPR_M": 927.23, "CLASSE": "05 - Muito longa", "CD_FAZ": "403953", "TALHOES": "1", "FAZ_tAL": "403953001", "ID_LINHA": 236744 }, "geometry": { "type": "MultiLineString", "coordinates": [ [ [ 420637.813167992630042, 7625260.404797933995724 ], [ 420637.838687130832113, 7624333.477109992876649 ] ] ] } },
{ "type": "Feature", "properties": { "fid": 51.0, "COMPR_M": 927.74, "CLASSE": "05 - Muito longa", "CD_FAZ": "403953", "TALHOES": "1", "FAZ_tAL": "403953001", "ID_LINHA": 236745 }, "geometry": { "type": "MultiLineString", "coordinates": [ [ [ 420640.813167528249323, 7625260.04717574082315 ], [ 420640.838807307532988, 7624332.605306449346244 ] ] ] } },
{ "type": "Feature", "properties": { "fid": 52.0, "COMPR_M": 928.26, "CLASSE": "05 - Muito longa", "CD_FAZ": "403953", "TALHOES": "1", "FAZ_tAL": "403953001", "ID_LINHA": 236746 }, "geometry": { "type": "MultiLineString", "coordinates": [ [ [ 420643.813167065032758, 7625259.68955354206264 ], [ 420643.838927483768202, 7624331.733502907678485 ] ] ] } },
{ "type": "Feature", "properties": { "fid": 53.0, "COMPR_M": 928.77, "CLASSE": "05 - Muito longa", "CD_FAZ": "403953", "TALHOES": "1", "FAZ_tAL": "403953001", "ID_LINHA": 236747 }, "geometry": { "type": "MultiLineString", "coordinates": [ [ [ 420646.813166599604301, 7625259.331931347027421 ], [ 420646.839047660876531, 7624330.861699366942048 ] ] ] } },
{ "type": "Feature", "properties": { "fid": 54.0, "COMPR_M": 929.28, "CLASSE": "05 - Muito longa", "CD_FAZ": "403953", "TALHOES": "1", "FAZ_tAL": "403953001", "ID_LINHA": 236748 }, "geometry": { "type": "MultiLineString", "coordinates": [ [ [ 420649.813166151114274, 7625258.974309151992202 ], [ 420649.839167837460991, 7624329.989895825274289 ] ] ] } },
{ "type": "Feature", "properties": { "fid": 55.0, "COMPR_M": 929.8, "CLASSE": "05 - Muito longa", "CD_FAZ": "403953", "TALHOES": "1", "FAZ_tAL": "403953001", "ID_LINHA": 236749 }, "geometry": { "type": "MultiLineString", "coordinates": [ [ [ 420652.81316576449899, 7625258.616686943918467 ], [ 420652.83928801357979, 7624329.118092283606529 ] ] ] } },
{ "type": "Feature", "properties": { "fid": 56.0, "COMPR_M": 930.31, "CLASSE": "05 - Muito longa", "CD_FAZ": "403953", "TALHOES": "1", "FAZ_tAL": "403953001", "ID_LINHA": 236750 }, "geometry": { "type": "MultiLineString", "coordinates": [ [ [ 420655.813165378407575, 7625258.259064734913409 ], [ 420655.839408190571703, 7624328.24628874566406 ] ] ] } },
{ "type": "Feature", "properties": { "fid": 57.0, "COMPR_M": 930.83, "CLASSE": "05 - Muito longa", "CD_FAZ": "403953", "TALHOES": "1", "FAZ_tAL": "403953001", "ID_LINHA": 236751 }, "geometry": { "type": "MultiLineString", "coordinates": [ [ [ 420658.813164990686346, 7625257.901442529633641 ], [ 420658.839528367854655, 7624327.374485203996301 ] ] ] } },
{ "type": "Feature", "properties": { "fid": 58.0, "COMPR_M": 931.34, "CLASSE": "05 - Muito longa", "CD_FAZ": "403953", "TALHOES": "1", "FAZ_tAL": "403953001", "ID_LINHA": 236752 }, "geometry": { "type": "MultiLineString", "coordinates": [ [ [ 420661.813164604827762, 7625257.543820325285196 ], [ 420661.839648543915246, 7624326.502681660465896 ] ] ] } },
{ "type": "Feature", "properties": { "fid": 59.0, "COMPR_M": 932.04, "CLASSE": "05 - Muito longa", "CD_FAZ": "403953", "TALHOES": "1", "FAZ_tAL": "403953001", "ID_LINHA": 236753 }, "geometry": { "type": "MultiLineString", "coordinates": [ [ [ 420664.813164220191538, 7625257.186198118142784 ], [ 420664.83979468268808, 7624325.442493638023734 ] ] ] } },
{ "type": "Feature", "properties": { "fid": 60.0, "COMPR_M": 932.94, "CLASSE": "05 - Muito longa", "CD_FAZ": "403953", "TALHOES": "1", "FAZ_tAL": "403953001", "ID_LINHA": 236754 }, "geometry": { "type": "MultiLineString", "coordinates": [ [ [ 420667.813163833925501, 7625256.828575912863016 ], [ 420667.839966748433653, 7624324.194172589108348 ] ] ] } },
{ "type": "Feature", "properties": { "fid": 61.0, "COMPR_M": 933.83, "CLASSE": "05 - Muito longa", "CD_FAZ": "403953", "TALHOES": "1", "FAZ_tAL": "403953001", "ID_LINHA": 236755 }, "geometry": { "type": "MultiLineString", "coordinates": [ [ [ 420670.813163447543047, 7625256.470953707583249 ], [ 420670.84013881610008, 7624322.945851539261639 ] ] ] } },
{ "type": "Feature", "properties": { "fid": 62.0, "COMPR_M": 934.7, "CLASSE": "05 - Muito longa", "CD_FAZ": "403953", "TALHOES": "1", "FAZ_tAL": "403953001", "ID_LINHA": 236756 }, "geometry": { "type": "MultiLineString", "coordinates": [ [ [ 420673.813163061626256, 7625256.113331502303481 ], [ 420673.84030871943105, 7624321.713221233338118 ] ] ] } },
{ "type": "Feature", "properties": { "fid": 63.0, "COMPR_M": 935.51, "CLASSE": "05 - Muito longa", "CD_FAZ": "403953", "TALHOES": "1", "FAZ_tAL": "403953001", "ID_LINHA": 236757 }, "geometry": { "type": "MultiLineString", "coordinates": [ [ [ 420676.813162675593048, 7625255.755709294229746 ], [ 420676.840470090915915, 7624320.54250973276794 ] ] ] } },
{ "type": "Feature", "properties": { "fid": 64.0, "COMPR_M": 936.37, "CLASSE": "05 - Muito longa", "CD_FAZ": "403953", "TALHOES": "1", "FAZ_tAL": "403953001", "ID_LINHA": 236758 }, "geometry": { "type": "MultiLineString", "coordinates": [ [ [ 420679.813162288744934, 7625255.398087089881301 ], [ 420679.840636866458226, 7624319.332576824352145 ] ] ] } },
{ "type": "Feature", "properties": { "fid": 65.0, "COMPR_M": 937.31, "CLASSE": "05 - Muito longa", "CD_FAZ": "403953", "TALHOES": "1", "FAZ_tAL": "403953001", "ID_LINHA": 236759 }, "geometry": { "type": "MultiLineString", "coordinates": [ [ [ 420682.813161903643049, 7625255.040464882738888 ], [ 420682.840815955656581, 7624318.033296119421721 ] ] ] } },
{ "type": "Feature", "properties": { "fid": 66.0, "COMPR_M": 938.05, "CLASSE": "05 - Muito longa", "CD_FAZ": "403953", "TALHOES": "1", "FAZ_tAL": "403953001", "ID_LINHA": 236760 }, "geometry": { "type": "MultiLineString", "coordinates": [ [ [ 420685.813161517726257, 7625254.682842677459121 ], [ 420685.8409673551796, 7624316.934938183054328 ] ] ] } },
{ "type": "Feature", "properties": { "fid": 67.0, "COMPR_M": 938.7, "CLASSE": "05 - Muito longa", "CD_FAZ": "403953", "TALHOES": "1", "FAZ_tAL": "403953001", "ID_LINHA": 236761 }, "geometry": { "type": "MultiLineString", "coordinates": [ [ [ 420688.813161130994558, 7625254.325220471248031 ], [ 420688.841106127540115, 7624315.928202299401164 ] ] ] } },
{ "type": "Feature", "properties": { "fid": 68.0, "COMPR_M": 939.2, "CLASSE": "05 - Muito longa", "CD_FAZ": "403953", "TALHOES": "1", "FAZ_tAL": "403953001", "ID_LINHA": 236762 }, "geometry": { "type": "MultiLineString", "coordinates": [ [ [ 420691.813160744728521, 7625253.967598265968263 ], [ 420691.841223938390613, 7624315.073563510552049 ] ] ] } },
{ "type": "Feature", "properties": { "fid": 69.0, "COMPR_M": 939.74, "CLASSE": "05 - Muito longa", "CD_FAZ": "403953", "TALHOES": "1", "FAZ_tAL": "403953001", "ID_LINHA": 236763 }, "geometry": { "type": "MultiLineString", "coordinates": [ [ [ 420694.81316035828786, 7625253.609976059757173 ], [ 420694.841348436602857, 7624314.170401707291603 ] ] ] } },
{ "type": "Feature", "properties": { "fid": 70.0, "COMPR_M": 940.38, "CLASSE": "05 - Muito longa", "CD_FAZ": "403953", "TALHOES": "1", "FAZ_tAL": "403953001", "ID_LINHA": 236764 }, "geometry": { "type": "MultiLineString", "coordinates": [ [ [ 420697.813159973709844, 7625253.252353854477406 ], [ 420697.841485945566092, 7624313.172832125797868 ] ] ] } },
{ "type": "Feature", "properties": { "fid": 71.0, "COMPR_M": 883.45, "CLASSE": "05 - Muito longa", "CD_FAZ": "403953", "TALHOES": "1", "FAZ_tAL": "403953001", "ID_LINHA": 236765 }, "geometry": { "type": "MultiLineString", "coordinates": [ [ [ 420700.813159586279653, 7625252.894731647334993 ], [ 420700.833691558218561, 7624369.729714844375849 ] ] ] } },
{ "type": "Feature", "properties": { "fid": 72.0, "COMPR_M": 612.29, "CLASSE": "04 - Longa", "CD_FAZ": "403953", "TALHOES": "1", "FAZ_tAL": "403953001", "ID_LINHA": 236766 }, "geometry": { "type": "MultiLineString", "coordinates": [ [ [ 420703.813159200013615, 7625252.537109443917871 ], [ 420703.809133150498383, 7624640.439762642607093 ] ] ] } },
{ "type": "Feature", "properties": { "fid": 73.0, "COMPR_M": 277.11, "CLASSE": "02 - Curta", "CD_FAZ": "403953", "TALHOES": "1", "FAZ_tAL": "403953001", "ID_LINHA": 236767 }, "geometry": { "type": "MultiLineString", "coordinates": [ [ [ 420706.813158814911731, 7625252.179487235844135 ], [ 420706.814088957617059, 7624975.160173235461116 ] ] ] } },
{ "type": "Feature", "properties": { "fid": 74.0, "COMPR_M": 481.91, "CLASSE": "03 - Média", "CD_FAZ": "403953", "TALHOES": "1", "FAZ_tAL": "403953001", "ID_LINHA": 236768 }, "geometry": { "type": "MultiLineString", "coordinates": [ [ [ 420490.678314885706641, 7625465.790421061217785 ], [ 420490.551944972539786, 7625947.547545824199915 ] ] ] } },
{ "type": "Feature", "properties": { "fid": 75.0, "COMPR_M": 477.65, "CLASSE": "03 - Média", "CD_FAZ": "403953", "TALHOES": "1", "FAZ_tAL": "403953001", "ID_LINHA": 236769 }, "geometry": { "type": "MultiLineString", "coordinates": [ [ [ 420493.675020737573504, 7625469.621832092292607 ], [ 420493.551960133656394, 7625947.116129951551557 ] ] ] } },
{ "type": "Feature", "properties": { "fid": 76.0, "COMPR_M": 474.66, "CLASSE": "03 - Média", "CD_FAZ": "403953", "TALHOES": "1", "FAZ_tAL": "403953001", "ID_LINHA": 236770 }, "geometry": { "type": "MultiLineString", "coordinates": [ [ [ 420496.672746971657034, 7625472.26684027723968 ], [ 420496.551972261688206, 7625946.771018331870437 ] ] ] } },
{ "type": "Feature", "properties": { "fid": 77.0, "COMPR_M": 472.1, "CLASSE": "03 - Média", "CD_FAZ": "403953", "TALHOES": "1", "FAZ_tAL": "403953001", "ID_LINHA": 236771 }, "geometry": { "type": "MultiLineString", "coordinates": [ [ [ 420499.670848349283915, 7625474.477904587984085 ], [ 420499.551984389545396, 7625946.425906717777252 ] ] ] } },
{ "type": "Feature", "properties": { "fid": 78.0, "COMPR_M": 469.58, "CLASSE": "03 - Média", "CD_FAZ": "403953", "TALHOES": "1", "FAZ_tAL": "403953001", "ID_LINHA": 236772 }, "geometry": { "type": "MultiLineString", "coordinates": [ [ [ 420502.668985992553644, 7625476.649266725406051 ], [ 420502.551996519148815, 7625946.080795101821423 ] ] ] } },
{ "type": "Feature", "properties": { "fid": 79.0, "COMPR_M": 467.11, "CLASSE": "03 - Média", "CD_FAZ": "403953", "TALHOES": "1", "FAZ_tAL": "403953001", "ID_LINHA": 236773 }, "geometry": { "type": "MultiLineString", "coordinates": [ [ [ 420505.667163999809418, 7625478.773596286773682 ], [ 420505.552008646598551, 7625945.735683486796916 ] ] ] } },
{ "type": "Feature", "properties": { "fid": 80.0, "COMPR_M": 464.72, "CLASSE": "03 - Média", "CD_FAZ": "403953", "TALHOES": "1", "FAZ_tAL": "403953001", "ID_LINHA": 236774 }, "geometry": { "type": "MultiLineString", "coordinates": [ [ [ 420508.665409496752545, 7625480.819284017197788 ], [ 420508.552020774572156, 7625945.390571868978441 ] ] ] } },
{ "type": "Feature", "properties": { "fid": 81.0, "COMPR_M": 462.4, "CLASSE": "03 - Média", "CD_FAZ": "403953", "TALHOES": "1", "FAZ_tAL": "403953001", "ID_LINHA": 236775 }, "geometry": { "type": "MultiLineString", "coordinates": [ [ [ 420511.663720627722796, 7625482.795852426439524 ], [ 420511.552032903651707, 7625945.045460252091289 ] ] ] } },
{ "type": "Feature", "properties": { "fid": 82.0, "COMPR_M": 460.13, "CLASSE": "03 - Média", "CD_FAZ": "403953", "TALHOES": "1", "FAZ_tAL": "403953001", "ID_LINHA": 236776 }, "geometry": { "type": "MultiLineString", "coordinates": [ [ [ 420514.662081495567691, 7625484.715436352416873 ], [ 420514.552045031276066, 7625944.700348634272814 ] ] ] } },
{ "type": "Feature", "properties": { "fid": 83.0, "COMPR_M": 457.99, "CLASSE": "03 - Média", "CD_FAZ": "403953", "TALHOES": "1", "FAZ_tAL": "403953001", "ID_LINHA": 236777 }, "geometry": { "type": "MultiLineString", "coordinates": [ [ [ 420517.660543237463571, 7625486.516967877745628 ], [ 420517.552057159366086, 7625944.355237020179629 ] ] ] } },
{ "type": "Feature", "properties": { "fid": 84.0, "COMPR_M": 456.1, "CLASSE": "03 - Média", "CD_FAZ": "403953", "TALHOES": "1", "FAZ_tAL": "403953001", "ID_LINHA": 236778 }, "geometry": { "type": "MultiLineString", "coordinates": [ [ [ 420520.659227374941111, 7625488.058224929496646 ], [ 420520.552069289260544, 7625944.010125402361155 ] ] ] } },
{ "type": "Feature", "properties": { "fid": 85.0, "COMPR_M": 454.4, "CLASSE": "03 - Média", "CD_FAZ": "403953", "TALHOES": "1", "FAZ_tAL": "403953001", "ID_LINHA": 236779 }, "geometry": { "type": "MultiLineString", "coordinates": [ [ [ 420523.658075813669711, 7625489.411466396413743 ], [ 420523.552081416302826, 7625943.66501378826797 ] ] ] } },
{ "type": "Feature", "properties": { "fid": 86.0, "COMPR_M": 452.7, "CLASSE": "03 - Média", "CD_FAZ": "403953", "TALHOES": "1", "FAZ_tAL": "403953001", "ID_LINHA": 236780 }, "geometry": { "type": "MultiLineString", "coordinates": [ [ [ 420526.656928159412928, 7625490.764709623530507 ], [ 420526.552093543868978, 7625943.319902171380818 ] ] ] } },
{ "type": "Feature", "properties": { "fid": 87.0, "COMPR_M": 451.74, "CLASSE": "03 - Média", "CD_FAZ": "403953", "TALHOES": "1", "FAZ_tAL": "403953001", "ID_LINHA": 236781 }, "geometry": { "type": "MultiLineString", "coordinates": [ [ [ 420529.656404496636242, 7625491.382872514426708 ], [ 420529.552105673879851, 7625942.974790554493666 ] ] ] } },
{ "type": "Feature", "properties": { "fid": 88.0, "COMPR_M": 450.81, "CLASSE": "03 - Média", "CD_FAZ": "403953", "TALHOES": "1", "FAZ_tAL": "403953001", "ID_LINHA": 236782 }, "geometry": { "type": "MultiLineString", "coordinates": [ [ [ 420532.655910018249415, 7625491.966655903495848 ], [ 420532.552117801795248, 7625942.629678936675191 ] ] ] } },
{ "type": "Feature", "properties": { "fid": 89.0, "COMPR_M": 449.9, "CLASSE": "03 - Média", "CD_FAZ": "403953", "TALHOES": "1", "FAZ_tAL": "403953001", "ID_LINHA": 236783 }, "geometry": { "type": "MultiLineString", "coordinates": [ [ [ 420535.655433380859904, 7625492.52942124940455 ], [ 420535.552129930816591, 7625942.284567322582006 ] ] ] } },
{ "type": "Feature", "properties": { "fid": 90.0, "COMPR_M": 448.96, "CLASSE": "03 - Média", "CD_FAZ": "403953", "TALHOES": "1", "FAZ_tAL": "403953001", "ID_LINHA": 236784 }, "geometry": { "type": "MultiLineString", "coordinates": [ [ [ 420538.65492665336933, 7625493.127634111791849 ], [ 420538.552142059663311, 7625941.939455704763532 ] ] ] } },
{ "type": "Feature", "properties": { "fid": 91.0, "COMPR_M": 447.97, "CLASSE": "03 - Média", "CD_FAZ": "403953", "TALHOES": "1", "FAZ_tAL": "403953001", "ID_LINHA": 236785 }, "geometry": { "type": "MultiLineString", "coordinates": [ [ [ 420541.654386527487077, 7625493.765191933140159 ], [ 420541.552154186996631, 7625941.594344088807702 ] ] ] } },
{ "type": "Feature", "properties": { "fid": 92.0, "COMPR_M": 447.09, "CLASSE": "03 - Média", "CD_FAZ": "403953", "TALHOES": "1", "FAZ_tAL": "403953001", "ID_LINHA": 236786 }, "geometry": { "type": "MultiLineString", "coordinates": [ [ [ 420544.653933885623701, 7625494.299690958112478 ], [ 420544.552166315552313, 7625941.249232473783195 ] ] ] } },
{ "type": "Feature", "properties": { "fid": 93.0, "COMPR_M": 446.29, "CLASSE": "03 - Média", "CD_FAZ": "403953", "TALHOES": "1", "FAZ_tAL": "403953001", "ID_LINHA": 236787 }, "geometry": { "type": "MultiLineString", "coordinates": [ [ [ 420547.653545336215757, 7625494.758686635643244 ], [ 420547.552178443875164, 7625940.904120855033398 ] ] ] } },
{ "type": "Feature", "properties": { "fid": 94.0, "COMPR_M": 445.53, "CLASSE": "03 - Média", "CD_FAZ": "403953", "TALHOES": "1", "FAZ_tAL": "403953001", "ID_LINHA": 236788 }, "geometry": { "type": "MultiLineString", "coordinates": [ [ [ 420550.65319178707432, 7625495.176450187340379 ], [ 420550.552190571441315, 7625940.559009240940213 ] ] ] } },
{ "type": "Feature", "properties": { "fid": 95.0, "COMPR_M": 444.54, "CLASSE": "03 - Média", "CD_FAZ": "403953", "TALHOES": "1", "FAZ_tAL": "403953001", "ID_LINHA": 236789 }, "geometry": { "type": "MultiLineString", "coordinates": [ [ [ 420553.652647432230879, 7625495.818990391679108 ], [ 420553.552202700753696, 7625940.213897623121738 ] ] ] } },
{ "type": "Feature", "properties": { "fid": 96.0, "COMPR_M": 443.04, "CLASSE": "03 - Média", "CD_FAZ": "403953", "TALHOES": "1", "FAZ_tAL": "403953001", "ID_LINHA": 236790 }, "geometry": { "type": "MultiLineString", "coordinates": [ [ [ 420556.651674854452722, 7625496.970702446997166 ], [ 420556.552214798924979, 7625939.868786010891199 ] ] ] } },
{ "type": "Feature", "properties": { "fid": 97.0, "COMPR_M": 440.46, "CLASSE": "03 - Média", "CD_FAZ": "403953", "TALHOES": "1", "FAZ_tAL": "403953001", "ID_LINHA": 236791 }, "geometry": { "type": "MultiLineString", "coordinates": [ [ [ 420559.649797783524264, 7625499.202810711227357 ], [ 420559.552226622588933, 7625939.523674429394305 ] ] ] } },
{ "type": "Feature", "properties": { "fid": 98.0, "COMPR_M": 436.76, "CLASSE": "03 - Média", "CD_FAZ": "403953", "TALHOES": "1", "FAZ_tAL": "403953001", "ID_LINHA": 236792 }, "geometry": { "type": "MultiLineString", "coordinates": [ [ [ 420562.64697404979961, 7625502.56000123731792 ], [ 420562.552238445496187, 7625939.17856284789741 ] ] ] } },
{ "type": "Feature", "properties": { "fid": 99.0, "COMPR_M": 428.66, "CLASSE": "03 - Média", "CD_FAZ": "403953", "TALHOES": "1", "FAZ_tAL": "403953001", "ID_LINHA": 236793 }, "geometry": { "type": "MultiLineString", "coordinates": [ [ [ 420565.640506904397625, 7625510.316297156736255 ], [ 420565.552250268810894, 7625938.833451266400516 ] ] ] } },
{ "type": "Feature", "properties": { "fid": 100.0, "COMPR_M": 417.26, "CLASSE": "03 - Média", "CD_FAZ": "403953", "TALHOES": "1", "FAZ_tAL": "403953001", "ID_LINHA": 236794 }, "geometry": { "type": "MultiLineString", "coordinates": [ [ [ 420568.631452832021751, 7625521.359007878229022 ], [ 420568.552262092649471, 7625938.488339686766267 ] ] ] } },
{ "type": "Feature", "properties": { "fid": 101.0, "COMPR_M": 405.87, "CLASSE": "03 - Média", "CD_FAZ": "403953", "TALHOES": "1", "FAZ_tAL": "403953001", "ID_LINHA": 236795 }, "geometry": { "type": "MultiLineString", "coordinates": [ [ [ 420571.622612435370684, 7625532.402507496997714 ], [ 420571.552273915032856, 7625938.143228103406727 ] ] ] } },
{ "type": "Feature", "properties": { "fid": 102.0, "COMPR_M": 394.48, "CLASSE": "03 - Média", "CD_FAZ": "403953", "TALHOES": "1", "FAZ_tAL": "403953001", "ID_LINHA": 236796 }, "geometry": { "type": "MultiLineString", "coordinates": [ [ [ 420574.614023949718103, 7625543.446937184780836 ], [ 420574.552285739220679, 7625937.798116522841156 ] ] ] } },
{ "type": "Feature", "properties": { "fid": 103.0, "COMPR_M": 383.08, "CLASSE": "03 - Média", "CD_FAZ": "403953", "TALHOES": "1", "FAZ_tAL": "403953001", "ID_LINHA": 236797 }, "geometry": { "type": "MultiLineString", "coordinates": [ [ [ 420577.605750458838884, 7625554.492529846727848 ], [ 420577.552297562651802, 7625937.453004940412939 ] ] ] } },
{ "type": "Feature", "properties": { "fid": 104.0, "COMPR_M": 371.69, "CLASSE": "03 - Média", "CD_FAZ": "403953", "TALHOES": "1", "FAZ_tAL": "403953001", "ID_LINHA": 236798 }, "geometry": { "type": "MultiLineString", "coordinates": [ [ [ 420580.597793779917993, 7625565.539292192086577 ], [ 420580.552309385850094, 7625937.107893358916044 ] ] ] } },
{ "type": "Feature", "properties": { "fid": 105.0, "COMPR_M": 360.29, "CLASSE": "03 - Média", "CD_FAZ": "403953", "TALHOES": "1", "FAZ_tAL": "403953001", "ID_LINHA": 236799 }, "geometry": { "type": "MultiLineString", "coordinates": [ [ [ 420583.590263007034082, 7625576.58762700855732 ], [ 420583.552321209572256, 7625936.762781778350472 ] ] ] } },
{ "type": "Feature", "properties": { "fid": 106.0, "COMPR_M": 348.89, "CLASSE": "03 - Média", "CD_FAZ": "403953", "TALHOES": "1", "FAZ_tAL": "403953001", "ID_LINHA": 236800 }, "geometry": { "type": "MultiLineString", "coordinates": [ [ [ 420586.583121711737476, 7625587.637399792671204 ], [ 420586.552333033061586, 7625936.417670198716223 ] ] ] } },
{ "type": "Feature", "properties": { "fid": 107.0, "COMPR_M": 337.49, "CLASSE": "03 - Média", "CD_FAZ": "403953", "TALHOES": "1", "FAZ_tAL": "403953001", "ID_LINHA": 236801 }, "geometry": { "type": "MultiLineString", "coordinates": [ [ [ 420589.576493098866194, 7625598.689065421000123 ], [ 420589.552344856550917, 7625936.072558617219329 ] ] ] } },
{ "type": "Feature", "properties": { "fid": 108.0, "COMPR_M": 326.09, "CLASSE": "03 - Média", "CD_FAZ": "403953", "TALHOES": "1", "FAZ_tAL": "403953001", "ID_LINHA": 236802 }, "geometry": { "type": "MultiLineString", "coordinates": [ [ [ 420592.570350298308767, 7625609.742524687200785 ], [ 420592.552356679749209, 7625935.727447032928467 ] ] ] } },
{ "type": "Feature", "properties": { "fid": 109.0, "COMPR_M": 314.69, "CLASSE": "03 - Média", "CD_FAZ": "403953", "TALHOES": "1", "FAZ_tAL": "403953001", "ID_LINHA": 236803 }, "geometry": { "type": "MultiLineString", "coordinates": [ [ [ 420595.564784978632815, 7625620.79811604693532 ], [ 420595.552368503529578, 7625935.38233545422554 ] ] ] } },
{ "type": "Feature", "properties": { "fid": 110.0, "COMPR_M": 303.28, "CLASSE": "03 - Média", "CD_FAZ": "403953", "TALHOES": "1", "FAZ_tAL": "403953001", "ID_LINHA": 236804 }, "geometry": { "type": "MultiLineString", "coordinates": [ [ [ 420598.559817742207088, 7625631.855915553867817 ], [ 420598.552380326436833, 7625935.037223873659968 ] ] ] } },
{ "type": "Feature", "properties": { "fid": 111.0, "COMPR_M": 291.69, "CLASSE": "02 - Curta", "CD_FAZ": "403953", "TALHOES": "1", "FAZ_tAL": "403953001", "ID_LINHA": 236805 }, "geometry": { "type": "MultiLineString", "coordinates": [ [ [ 420601.555421818397008, 7625643.097104349173605 ], [ 420601.552392149926163, 7625934.692112293094397 ] ] ] } },
{ "type": "Feature", "properties": { "fid": 112.0, "COMPR_M": 279.33, "CLASSE": "02 - Curta", "CD_FAZ": "403953", "TALHOES": "1", "FAZ_tAL": "403953001", "ID_LINHA": 236806 }, "geometry": { "type": "MultiLineString", "coordinates": [ [ [ 420604.551531514152884, 7625655.105027781799436 ], [ 420604.552403973182663, 7625934.347000708803535 ] ] ] } },
{ "type": "Feature", "properties": { "fid": 113.0, "COMPR_M": 265.9, "CLASSE": "02 - Curta", "CD_FAZ": "403953", "TALHOES": "1", "FAZ_tAL": "403953001", "ID_LINHA": 236807 }, "geometry": { "type": "MultiLineString", "coordinates": [ [ [ 420607.548245640646201, 7625668.184352098032832 ], [ 420607.55241579702124, 7625934.001889128237963 ] ] ] } },
{ "type": "Feature", "properties": { "fid": 114.0, "COMPR_M": 251.0, "CLASSE": "02 - Curta", "CD_FAZ": "403953", "TALHOES": "1", "FAZ_tAL": "403953001", "ID_LINHA": 236808 }, "geometry": { "type": "MultiLineString", "coordinates": [ [ [ 420610.545646145066712, 7625682.733494084328413 ], [ 420610.552427620044909, 7625933.656777547672391 ] ] ] } },
{ "type": "Feature", "properties": { "fid": 115.0, "COMPR_M": 236.1, "CLASSE": "02 - Curta", "CD_FAZ": "403953", "TALHOES": "1", "FAZ_tAL": "403953001", "ID_LINHA": 236809 }, "geometry": { "type": "MultiLineString", "coordinates": [ [ [ 420613.544039582891855, 7625697.287455688230693 ], [ 420613.552439442835748, 7625933.311665967106819 ] ] ] } },
{ "type": "Feature", "properties": { "fid": 116.0, "COMPR_M": 221.16, "CLASSE": "02 - Curta", "CD_FAZ": "403953", "TALHOES": "1", "FAZ_tAL": "403953001", "ID_LINHA": 236810 }, "geometry": { "type": "MultiLineString", "coordinates": [ [ [ 420616.543290776899084, 7625711.876890800893307 ], [ 420616.552451266848948, 7625932.966554386541247 ] ] ] } },
{ "type": "Feature", "properties": { "fid": 117.0, "COMPR_M": 205.71, "CLASSE": "02 - Curta", "CD_FAZ": "403953", "TALHOES": "1", "FAZ_tAL": "403953001", "ID_LINHA": 236811 }, "geometry": { "type": "MultiLineString", "coordinates": [ [ [ 420619.543282734579407, 7625726.977194424718618 ], [ 420619.552463090745732, 7625932.621442803181708 ] ] ] } },
{ "type": "Feature", "properties": { "fid": 118.0, "COMPR_M": 190.26, "CLASSE": "02 - Curta", "CD_FAZ": "403953", "TALHOES": "1", "FAZ_tAL": "403953001", "ID_LINHA": 236812 }, "geometry": { "type": "MultiLineString", "coordinates": [ [ [ 420622.543899780546781, 7625742.080644392408431 ], [ 420622.552474913187325, 7625932.276331221684813 ] ] ] } },
{ "type": "Feature", "properties": { "fid": 119.0, "COMPR_M": 173.91, "CLASSE": "02 - Curta", "CD_FAZ": "403953", "TALHOES": "1", "FAZ_tAL": "403953001", "ID_LINHA": 236813 }, "geometry": { "type": "MultiLineString", "coordinates": [ [ [ 420625.545067983621266, 7625758.073164977133274 ], [ 420625.552486159722321, 7625931.931219708174467 ] ] ] } },
{ "type": "Feature", "properties": { "fid": 120.0, "COMPR_M": 155.06, "CLASSE": "02 - Curta", "CD_FAZ": "403953", "TALHOES": "1", "FAZ_tAL": "403953001", "ID_LINHA": 236814 }, "geometry": { "type": "MultiLineString", "coordinates": [ [ [ 420628.546839430870023, 7625776.580250729806721 ], [ 420628.552497373195365, 7625931.586108196526766 ] ] ] } },
{ "type": "Feature", "properties": { "fid": 121.0, "COMPR_M": 136.2, "CLASSE": "02 - Curta", "CD_FAZ": "403953", "TALHOES": "1", "FAZ_tAL": "403953001", "ID_LINHA": 236815 }, "geometry": { "type": "MultiLineString", "coordinates": [ [ [ 420631.54879414284369, 7625795.088466396555305 ], [ 420631.552508586435579, 7625931.240996684879065 ] ] ] } },
{ "type": "Feature", "properties": { "fid": 122.0, "COMPR_M": 114.71, "CLASSE": "02 - Curta", "CD_FAZ": "403953", "TALHOES": "1", "FAZ_tAL": "403953001", "ID_LINHA": 236816 }, "geometry": { "type": "MultiLineString", "coordinates": [ [ [ 420634.550650037243031, 7625813.596072795800865 ], [ 420634.552604994911235, 7625928.273492574691772 ] ] ] } }
]
}
