{
"type": "FeatureCollection",
"name": "403996",
"crs": { "type": "name", "properties": { "name": "urn:ogc:def:crs:EPSG::32722" } },
"xy_coordinate_resolution": 1e-15,
"features": [
{ "type": "Feature", "properties": { "fid": 1.0, "COMPR_M": 877.29, "CLASSE": "05 - Muito longa", "CD_FAZ": "403996", "TALHOES": "1", "FAZ_tAL": "403996001", "ID_LINHA": 246563 }, "geometry": { "type": "MultiLineString", "coordinates": [ [ [ 415328.68746146839112, 7622181.047006707638502 ], [ 416051.349324264447205, 7621684.139188211411238 ] ] ] } },
{ "type": "Feature", "properties": { "fid": 2.0, "COMPR_M": 20.64, "CLASSE": "01 - Muito curta", "CD_FAZ": "403996", "TALHOES": "1", "FAZ_tAL": "403996001", "ID_LINHA": 246564 }, "geometry": { "type": "MultiLineString", "coordinates": [ [ [ 415393.081061767297797, 7622300.604324217885733 ], [ 415410.080699080077466, 7622288.915243713185191 ] ] ] } },
{ "type": "Feature", "properties": { "fid": 3.0, "COMPR_M": 57.08, "CLASSE": "01 - Muito curta", "CD_FAZ": "403996", "TALHOES": "1", "FAZ_tAL": "403996001", "ID_LINHA": 246565 }, "geometry": { "type": "MultiLineString", "coordinates": [ [ [ 415391.650092871626839, 7622297.947494940832257 ], [ 415438.666809745307546, 7622265.618441179394722 ] ] ] } },
{ "type": "Feature", "properties": { "fid": 4.0, "COMPR_M": 93.52, "CLASSE": "01 - Muito curta", "CD_FAZ": "403996", "TALHOES": "1", "FAZ_tAL": "403996001", "ID_LINHA": 246566 }, "geometry": { "type": "MultiLineString", "coordinates": [ [ [ 415390.219123976828996, 7622295.290665661916137 ], [ 415467.252920419792645, 7622242.321638634428382 ] ] ] } },
{ "type": "Feature", "properties": { "fid": 5.0, "COMPR_M": 125.59, "CLASSE": "02 - Curta", "CD_FAZ": "403996", "TALHOES": "1", "FAZ_tAL": "403996001", "ID_LINHA": 246567 }, "geometry": { "type": "MultiLineString", "coordinates": [ [ [ 415388.788155080808792, 7622292.633836383000016 ], [ 415492.245658908155747, 7622221.495666267350316 ] ] ] } },
{ "type": "Feature", "properties": { "fid": 6.0, "COMPR_M": 130.84, "CLASSE": "02 - Curta", "CD_FAZ": "403996", "TALHOES": "1", "FAZ_tAL": "403996001", "ID_LINHA": 246568 }, "geometry": { "type": "MultiLineString", "coordinates": [ [ [ 415387.357186184963211, 7622289.977007107809186 ], [ 415495.132286704145372, 7622215.87002451531589 ] ] ] } },
{ "type": "Feature", "properties": { "fid": 7.0, "COMPR_M": 135.22, "CLASSE": "02 - Curta", "CD_FAZ": "403996", "TALHOES": "1", "FAZ_tAL": "403996001", "ID_LINHA": 246569 }, "geometry": { "type": "MultiLineString", "coordinates": [ [ [ 415385.92621728987433, 7622287.32017782703042 ], [ 415497.31563910463592, 7622210.727960293181241 ] ] ] } },
{ "type": "Feature", "properties": { "fid": 8.0, "COMPR_M": 5.76, "CLASSE": "01 - Muito curta", "CD_FAZ": "403996", "TALHOES": "1", "FAZ_tAL": "403996001", "ID_LINHA": 246570 }, "geometry": { "type": "MultiLineString", "coordinates": [ [ [ 415548.245193624286912, 7622175.708409470506012 ], [ 415552.988160731969401, 7622172.447109047323465 ] ] ] } },
{ "type": "Feature", "properties": { "fid": 9.0, "COMPR_M": 138.24, "CLASSE": "02 - Curta", "CD_FAZ": "403996", "TALHOES": "1", "FAZ_tAL": "403996001", "ID_LINHA": 246571 }, "geometry": { "type": "MultiLineString", "coordinates": [ [ [ 415384.495248394319788, 7622284.66334855183959 ], [ 415498.371418713999446, 7622206.36122374329716 ] ] ] } },
{ "type": "Feature", "properties": { "fid": 10.0, "COMPR_M": 60.47, "CLASSE": "01 - Muito curta", "CD_FAZ": "403996", "TALHOES": "1", "FAZ_tAL": "403996001", "ID_LINHA": 246572 }, "geometry": { "type": "MultiLineString", "coordinates": [ [ [ 415531.765799909539055, 7622183.398992080241442 ], [ 415581.576058042352088, 7622149.149078000336885 ] ] ] } },
{ "type": "Feature", "properties": { "fid": 11.0, "COMPR_M": 141.05, "CLASSE": "02 - Curta", "CD_FAZ": "403996", "TALHOES": "1", "FAZ_tAL": "403996001", "ID_LINHA": 246573 }, "geometry": { "type": "MultiLineString", "coordinates": [ [ [ 415383.06427949888166, 7622282.00651927292347 ], [ 415499.254048462957144, 7622202.113546362146735 ] ] ] } },
{ "type": "Feature", "properties": { "fid": 12.0, "COMPR_M": 104.85, "CLASSE": "02 - Curta", "CD_FAZ": "403996", "TALHOES": "1", "FAZ_tAL": "403996001", "ID_LINHA": 246574 }, "geometry": { "type": "MultiLineString", "coordinates": [ [ [ 415523.790839876630343, 7622185.241861109621823 ], [ 415610.163955350406468, 7622125.851046957075596 ] ] ] } },
{ "type": "Feature", "properties": { "fid": 13.0, "COMPR_M": 145.64, "CLASSE": "02 - Curta", "CD_FAZ": "403996", "TALHOES": "1", "FAZ_tAL": "403996001", "ID_LINHA": 246575 }, "geometry": { "type": "MultiLineString", "coordinates": [ [ [ 415381.633310602977872, 7622279.349689994938672 ], [ 415501.605487455730326, 7622196.855904520489275 ] ] ] } },
{ "type": "Feature", "properties": { "fid": 14.0, "COMPR_M": 149.77, "CLASSE": "02 - Curta", "CD_FAZ": "403996", "TALHOES": "1", "FAZ_tAL": "403996001", "ID_LINHA": 246576 }, "geometry": { "type": "MultiLineString", "coordinates": [ [ [ 415515.378158131148666, 7622187.385710929520428 ], [ 415638.751852665795013, 7622102.553015908226371 ] ] ] } },
{ "type": "Feature", "properties": { "fid": 15.0, "COMPR_M": 348.58, "CLASSE": "03 - Média", "CD_FAZ": "403996", "TALHOES": "1", "FAZ_tAL": "403996001", "ID_LINHA": 246577 }, "geometry": { "type": "MultiLineString", "coordinates": [ [ [ 415380.202341707830783, 7622276.692860716953874 ], [ 415667.339749975304585, 7622079.254984864033759 ] ] ] } },
{ "type": "Feature", "properties": { "fid": 16.0, "COMPR_M": 385.02, "CLASSE": "03 - Média", "CD_FAZ": "403996", "TALHOES": "1", "FAZ_tAL": "403996001", "ID_LINHA": 246578 }, "geometry": { "type": "MultiLineString", "coordinates": [ [ [ 415378.771372812800109, 7622274.036031438037753 ], [ 415695.927647283941042, 7622055.956953817978501 ] ] ] } },
{ "type": "Feature", "properties": { "fid": 17.0, "COMPR_M": 421.46, "CLASSE": "03 - Média", "CD_FAZ": "403996", "TALHOES": "1", "FAZ_tAL": "403996001", "ID_LINHA": 246579 }, "geometry": { "type": "MultiLineString", "coordinates": [ [ [ 415377.34040391666349, 7622271.379202159121633 ], [ 415724.515544597641565, 7622032.658922767266631 ] ] ] } },
{ "type": "Feature", "properties": { "fid": 18.0, "COMPR_M": 457.9, "CLASSE": "03 - Média", "CD_FAZ": "403996", "TALHOES": "1", "FAZ_tAL": "403996001", "ID_LINHA": 246580 }, "geometry": { "type": "MultiLineString", "coordinates": [ [ [ 415375.909435020003002, 7622268.72237288299948 ], [ 415753.103441907034721, 7622009.360891722142696 ] ] ] } },
{ "type": "Feature", "properties": { "fid": 19.0, "COMPR_M": 494.34, "CLASSE": "03 - Média", "CD_FAZ": "403996", "TALHOES": "1", "FAZ_tAL": "403996001", "ID_LINHA": 246581 }, "geometry": { "type": "MultiLineString", "coordinates": [ [ [ 415374.47846612543799, 7622266.065543605014682 ], [ 415781.691339217184577, 7621986.062860678881407 ] ] ] } },
{ "type": "Feature", "properties": { "fid": 20.0, "COMPR_M": 530.79, "CLASSE": "03 - Média", "CD_FAZ": "403996", "TALHOES": "1", "FAZ_tAL": "403996001", "ID_LINHA": 246582 }, "geometry": { "type": "MultiLineString", "coordinates": [ [ [ 415373.047497229126748, 7622263.408714327029884 ], [ 415810.279236530710477, 7621962.764829628169537 ] ] ] } },
{ "type": "Feature", "properties": { "fid": 21.0, "COMPR_M": 567.23, "CLASSE": "03 - Média", "CD_FAZ": "403996", "TALHOES": "1", "FAZ_tAL": "403996001", "ID_LINHA": 246583 }, "geometry": { "type": "MultiLineString", "coordinates": [ [ [ 415371.616528334910981, 7622260.751885050907731 ], [ 415838.867133840161841, 7621939.466798583045602 ] ] ] } },
{ "type": "Feature", "properties": { "fid": 22.0, "COMPR_M": 603.67, "CLASSE": "04 - Longa", "CD_FAZ": "403996", "TALHOES": "1", "FAZ_tAL": "403996001", "ID_LINHA": 246584 }, "geometry": { "type": "MultiLineString", "coordinates": [ [ [ 415370.18555943883257, 7622258.095055770128965 ], [ 415867.45503115595784, 7621916.168767533265054 ] ] ] } },
{ "type": "Feature", "properties": { "fid": 23.0, "COMPR_M": 640.11, "CLASSE": "04 - Longa", "CD_FAZ": "403996", "TALHOES": "1", "FAZ_tAL": "403996001", "ID_LINHA": 246585 }, "geometry": { "type": "MultiLineString", "coordinates": [ [ [ 415368.754590541590005, 7622255.43822649307549 ], [ 415896.042928464186843, 7621892.870736489072442 ] ] ] } },
{ "type": "Feature", "properties": { "fid": 24.0, "COMPR_M": 676.55, "CLASSE": "04 - Longa", "CD_FAZ": "403996", "TALHOES": "1", "FAZ_tAL": "403996001", "ID_LINHA": 246586 }, "geometry": { "type": "MultiLineString", "coordinates": [ [ [ 415367.323621646559332, 7622252.781397214159369 ], [ 415924.630825771950185, 7621869.572705443948507 ] ] ] } },
{ "type": "Feature", "properties": { "fid": 25.0, "COMPR_M": 713.0, "CLASSE": "04 - Longa", "CD_FAZ": "403996", "TALHOES": "1", "FAZ_tAL": "403996001", "ID_LINHA": 246587 }, "geometry": { "type": "MultiLineString", "coordinates": [ [ [ 415365.89265275222715, 7622250.124567938037217 ], [ 415953.218723089608829, 7621846.274674391373992 ] ] ] } },
{ "type": "Feature", "properties": { "fid": 26.0, "COMPR_M": 749.44, "CLASSE": "04 - Longa", "CD_FAZ": "403996", "TALHOES": "1", "FAZ_tAL": "403996001", "ID_LINHA": 246588 }, "geometry": { "type": "MultiLineString", "coordinates": [ [ [ 415364.46168385684723, 7622247.467738658189774 ], [ 415981.806620397372171, 7621822.97664334718138 ] ] ] } },
{ "type": "Feature", "properties": { "fid": 27.0, "COMPR_M": 785.88, "CLASSE": "04 - Longa", "CD_FAZ": "403996", "TALHOES": "1", "FAZ_tAL": "403996001", "ID_LINHA": 246589 }, "geometry": { "type": "MultiLineString", "coordinates": [ [ [ 415363.03071496024495, 7622244.810909382067621 ], [ 416010.394517706241459, 7621799.678612302988768 ] ] ] } },
{ "type": "Feature", "properties": { "fid": 28.0, "COMPR_M": 822.32, "CLASSE": "04 - Longa", "CD_FAZ": "403996", "TALHOES": "1", "FAZ_tAL": "403996001", "ID_LINHA": 246590 }, "geometry": { "type": "MultiLineString", "coordinates": [ [ [ 415361.599746064515784, 7622242.154080102220178 ], [ 416038.982415022095665, 7621776.380581254139543 ] ] ] } },
{ "type": "Feature", "properties": { "fid": 29.0, "COMPR_M": 858.76, "CLASSE": "05 - Muito longa", "CD_FAZ": "403996", "TALHOES": "1", "FAZ_tAL": "403996001", "ID_LINHA": 246591 }, "geometry": { "type": "MultiLineString", "coordinates": [ [ [ 415360.16877717024181, 7622239.497250826098025 ], [ 416067.570312329567969, 7621753.082550207152963 ] ] ] } },
{ "type": "Feature", "properties": { "fid": 30.0, "COMPR_M": 883.53, "CLASSE": "05 - Muito longa", "CD_FAZ": "403996", "TALHOES": "1", "FAZ_tAL": "403996001", "ID_LINHA": 246592 }, "geometry": { "type": "MultiLineString", "coordinates": [ [ [ 415358.737808275443967, 7622236.840421546250582 ], [ 416086.539734527585097, 7621736.3982561416924 ] ] ] } },
{ "type": "Feature", "properties": { "fid": 31.0, "COMPR_M": 883.23, "CLASSE": "05 - Muito longa", "CD_FAZ": "403996", "TALHOES": "1", "FAZ_tAL": "403996001", "ID_LINHA": 246593 }, "geometry": { "type": "MultiLineString", "coordinates": [ [ [ 415357.306839379481971, 7622234.183592267334461 ], [ 416084.864000705536455, 7621733.909729098901153 ] ] ] } },
{ "type": "Feature", "properties": { "fid": 32.0, "COMPR_M": 882.94, "CLASSE": "05 - Muito longa", "CD_FAZ": "403996", "TALHOES": "1", "FAZ_tAL": "403996001", "ID_LINHA": 246594 }, "geometry": { "type": "MultiLineString", "coordinates": [ [ [ 415355.875870483054314, 7622231.526762990280986 ], [ 416083.188266883254983, 7621731.42120205424726 ] ] ] } },
{ "type": "Feature", "properties": { "fid": 33.0, "COMPR_M": 882.64, "CLASSE": "05 - Muito longa", "CD_FAZ": "403996", "TALHOES": "1", "FAZ_tAL": "403996001", "ID_LINHA": 246595 }, "geometry": { "type": "MultiLineString", "coordinates": [ [ [ 415354.444901586743072, 7622228.86993371322751 ], [ 416081.512533060682472, 7621728.932675007730722 ] ] ] } },
{ "type": "Feature", "properties": { "fid": 34.0, "COMPR_M": 882.34, "CLASSE": "05 - Muito longa", "CD_FAZ": "403996", "TALHOES": "1", "FAZ_tAL": "403996001", "ID_LINHA": 246596 }, "geometry": { "type": "MultiLineString", "coordinates": [ [ [ 415353.013932693284005, 7622226.21310443431139 ], [ 416079.836799239157699, 7621726.44414796680212 ] ] ] } },
{ "type": "Feature", "properties": { "fid": 35.0, "COMPR_M": 882.04, "CLASSE": "05 - Muito longa", "CD_FAZ": "403996", "TALHOES": "1", "FAZ_tAL": "403996001", "ID_LINHA": 246597 }, "geometry": { "type": "MultiLineString", "coordinates": [ [ [ 415351.582963797322009, 7622223.556275157257915 ], [ 416078.161065416759811, 7621723.955620920285583 ] ] ] } },
{ "type": "Feature", "properties": { "fid": 36.0, "COMPR_M": 881.75, "CLASSE": "05 - Muito longa", "CD_FAZ": "403996", "TALHOES": "1", "FAZ_tAL": "403996001", "ID_LINHA": 246598 }, "geometry": { "type": "MultiLineString", "coordinates": [ [ [ 415350.151994900254067, 7622220.899445878341794 ], [ 416076.48533159471117, 7621721.467093873769045 ] ] ] } },
{ "type": "Feature", "properties": { "fid": 37.0, "COMPR_M": 881.45, "CLASSE": "05 - Muito longa", "CD_FAZ": "403996", "TALHOES": "1", "FAZ_tAL": "403996001", "ID_LINHA": 246599 }, "geometry": { "type": "MultiLineString", "coordinates": [ [ [ 415348.721026005339809, 7622218.242616601288319 ], [ 416074.809597773710266, 7621718.978566830977798 ] ] ] } },
{ "type": "Feature", "properties": { "fid": 38.0, "COMPR_M": 881.15, "CLASSE": "05 - Muito longa", "CD_FAZ": "403996", "TALHOES": "1", "FAZ_tAL": "403996001", "ID_LINHA": 246600 }, "geometry": { "type": "MultiLineString", "coordinates": [ [ [ 415347.290057110483758, 7622215.585787324234843 ], [ 416073.133863951137755, 7621716.49003978818655 ] ] ] } },
{ "type": "Feature", "properties": { "fid": 39.0, "COMPR_M": 880.86, "CLASSE": "05 - Muito longa", "CD_FAZ": "403996", "TALHOES": "1", "FAZ_tAL": "403996001", "ID_LINHA": 246601 }, "geometry": { "type": "MultiLineString", "coordinates": [ [ [ 415345.85908821457997, 7622212.9289580443874 ], [ 416071.458130128274206, 7621714.001512741670012 ] ] ] } },
{ "type": "Feature", "properties": { "fid": 40.0, "COMPR_M": 880.56, "CLASSE": "05 - Muito longa", "CD_FAZ": "403996", "TALHOES": "1", "FAZ_tAL": "403996001", "ID_LINHA": 246602 }, "geometry": { "type": "MultiLineString", "coordinates": [ [ [ 415344.428119318850804, 7622210.27212876547128 ], [ 416069.782396307855379, 7621711.512985699810088 ] ] ] } },
{ "type": "Feature", "properties": { "fid": 41.0, "COMPR_M": 880.26, "CLASSE": "05 - Muito longa", "CD_FAZ": "403996", "TALHOES": "1", "FAZ_tAL": "403996001", "ID_LINHA": 246603 }, "geometry": { "type": "MultiLineString", "coordinates": [ [ [ 415342.99715042457683, 7622207.615299489349127 ], [ 416068.106662484467961, 7621709.024458655156195 ] ] ] } },
{ "type": "Feature", "properties": { "fid": 42.0, "COMPR_M": 879.96, "CLASSE": "05 - Muito longa", "CD_FAZ": "403996", "TALHOES": "1", "FAZ_tAL": "403996001", "ID_LINHA": 246604 }, "geometry": { "type": "MultiLineString", "coordinates": [ [ [ 415341.566181528498419, 7622204.958470210433006 ], [ 416066.43092866288498, 7621706.53593160957098 ] ] ] } },
{ "type": "Feature", "properties": { "fid": 43.0, "COMPR_M": 879.67, "CLASSE": "05 - Muito longa", "CD_FAZ": "403996", "TALHOES": "1", "FAZ_tAL": "403996001", "ID_LINHA": 246605 }, "geometry": { "type": "MultiLineString", "coordinates": [ [ [ 415340.135212633234914, 7622202.301640933379531 ], [ 416064.755194841593038, 7621704.04740456584841 ] ] ] } },
{ "type": "Feature", "properties": { "fid": 44.0, "COMPR_M": 879.37, "CLASSE": "05 - Muito longa", "CD_FAZ": "403996", "TALHOES": "1", "FAZ_tAL": "403996001", "ID_LINHA": 246606 }, "geometry": { "type": "MultiLineString", "coordinates": [ [ [ 415338.704243737505749, 7622199.644811656326056 ], [ 416063.079461019427981, 7621701.558877523057163 ] ] ] } },
{ "type": "Feature", "properties": { "fid": 45.0, "COMPR_M": 879.07, "CLASSE": "05 - Muito longa", "CD_FAZ": "403996", "TALHOES": "1", "FAZ_tAL": "403996001", "ID_LINHA": 246607 }, "geometry": { "type": "MultiLineString", "coordinates": [ [ [ 415337.273274841951206, 7622196.98798237554729 ], [ 416061.403727197670378, 7621699.070350477471948 ] ] ] } },
{ "type": "Feature", "properties": { "fid": 46.0, "COMPR_M": 878.78, "CLASSE": "05 - Muito longa", "CD_FAZ": "403996", "TALHOES": "1", "FAZ_tAL": "403996001", "ID_LINHA": 246608 }, "geometry": { "type": "MultiLineString", "coordinates": [ [ [ 415335.842305946629494, 7622194.331153098493814 ], [ 416059.727993375039659, 7621696.581823432818055 ] ] ] } },
{ "type": "Feature", "properties": { "fid": 47.0, "COMPR_M": 878.48, "CLASSE": "05 - Muito longa", "CD_FAZ": "403996", "TALHOES": "1", "FAZ_tAL": "403996001", "ID_LINHA": 246609 }, "geometry": { "type": "MultiLineString", "coordinates": [ [ [ 415334.41133705136599, 7622191.674323823302984 ], [ 416058.052259552758187, 7621694.093296388164163 ] ] ] } },
{ "type": "Feature", "properties": { "fid": 48.0, "COMPR_M": 878.18, "CLASSE": "05 - Muito longa", "CD_FAZ": "403996", "TALHOES": "1", "FAZ_tAL": "403996001", "ID_LINHA": 246610 }, "geometry": { "type": "MultiLineString", "coordinates": [ [ [ 415332.980368155054748, 7622189.017494542524219 ], [ 416056.376525730884168, 7621691.604769342578948 ] ] ] } },
{ "type": "Feature", "properties": { "fid": 49.0, "COMPR_M": 877.88, "CLASSE": "05 - Muito longa", "CD_FAZ": "403996", "TALHOES": "1", "FAZ_tAL": "403996001", "ID_LINHA": 246611 }, "geometry": { "type": "MultiLineString", "coordinates": [ [ [ 415331.549399258859921, 7622186.360665266402066 ], [ 416054.700791908078827, 7621689.116242298856378 ] ] ] } },
{ "type": "Feature", "properties": { "fid": 50.0, "COMPR_M": 877.59, "CLASSE": "05 - Muito longa", "CD_FAZ": "403996", "TALHOES": "1", "FAZ_tAL": "403996001", "ID_LINHA": 246612 }, "geometry": { "type": "MultiLineString", "coordinates": [ [ [ 415330.118430363480002, 7622183.703835986554623 ], [ 416053.025058085797355, 7621686.627715254202485 ] ] ] } }
]
}
