{
"type": "FeatureCollection",
"name": "403978",
"crs": { "type": "name", "properties": { "name": "urn:ogc:def:crs:EPSG::32722" } },
"xy_coordinate_resolution": 1e-15,
"features": [
{ "type": "Feature", "properties": { "fid": 1.0, "COMPR_M": 205.84, "CLASSE": "02 - Curta", "CD_FAZ": "403978", "TALHOES": "1", "FAZ_tAL": "403978001", "ID_LINHA": 242359 }, "geometry": { "type": "MultiLineString", "coordinates": [ [ [ 438676.578168611216825, 7609171.193378472700715 ], [ 438799.593773307395168, 7609006.241699890233576 ] ] ] } },
{ "type": "Feature", "properties": { "fid": 2.0, "COMPR_M": 197.17, "CLASSE": "02 - Curta", "CD_FAZ": "403978", "TALHOES": "1", "FAZ_tAL": "403978001", "ID_LINHA": 242360 }, "geometry": { "type": "MultiLineString", "coordinates": [ [ [ 438675.927587511308957, 7609167.047563411295414 ], [ 438793.758398071106058, 7609009.048177574761212 ] ] ] } },
{ "type": "Feature", "properties": { "fid": 3.0, "COMPR_M": 186.9, "CLASSE": "02 - Curta", "CD_FAZ": "403978", "TALHOES": "1", "FAZ_tAL": "403978001", "ID_LINHA": 242361 }, "geometry": { "type": "MultiLineString", "coordinates": [ [ [ 438674.994726152624935, 7609163.280258074402809 ], [ 438786.690867079305463, 7609013.506853453814983 ] ] ] } },
{ "type": "Feature", "properties": { "fid": 4.0, "COMPR_M": 177.56, "CLASSE": "02 - Curta", "CD_FAZ": "403978", "TALHOES": "1", "FAZ_tAL": "403978001", "ID_LINHA": 242362 }, "geometry": { "type": "MultiLineString", "coordinates": [ [ [ 438673.602855159202591, 7609160.128438960760832 ], [ 438779.715647225850262, 7609017.841749286279082 ] ] ] } },
{ "type": "Feature", "properties": { "fid": 5.0, "COMPR_M": 171.32, "CLASSE": "02 - Curta", "CD_FAZ": "403978", "TALHOES": "1", "FAZ_tAL": "403978001", "ID_LINHA": 242363 }, "geometry": { "type": "MultiLineString", "coordinates": [ [ [ 438671.692880161979701, 7609157.671345732174814 ], [ 438774.075832549482584, 7609020.385999730788171 ] ] ] } },
{ "type": "Feature", "properties": { "fid": 6.0, "COMPR_M": 167.17, "CLASSE": "02 - Curta", "CD_FAZ": "403978", "TALHOES": "1", "FAZ_tAL": "403978001", "ID_LINHA": 242364 }, "geometry": { "type": "MultiLineString", "coordinates": [ [ [ 438669.302136411191896, 7609155.858915538527071 ], [ 438769.203845558979083, 7609021.900669690221548 ] ] ] } },
{ "type": "Feature", "properties": { "fid": 7.0, "COMPR_M": 164.68, "CLASSE": "02 - Curta", "CD_FAZ": "403978", "TALHOES": "1", "FAZ_tAL": "403978001", "ID_LINHA": 242365 }, "geometry": { "type": "MultiLineString", "coordinates": [ [ [ 438666.380517976591364, 7609154.758335442282259 ], [ 438764.797176039719488, 7609022.791395245119929 ] ] ] } },
{ "type": "Feature", "properties": { "fid": 8.0, "COMPR_M": 163.69, "CLASSE": "02 - Curta", "CD_FAZ": "403978", "TALHOES": "1", "FAZ_tAL": "403978001", "ID_LINHA": 242366 }, "geometry": { "type": "MultiLineString", "coordinates": [ [ [ 438662.908384070557076, 7609154.395941782742739 ], [ 438760.73389532713918, 7609023.221670603379607 ] ] ] } },
{ "type": "Feature", "properties": { "fid": 9.0, "COMPR_M": 164.3, "CLASSE": "02 - Curta", "CD_FAZ": "403978", "TALHOES": "1", "FAZ_tAL": "403978001", "ID_LINHA": 242367 }, "geometry": { "type": "MultiLineString", "coordinates": [ [ [ 438658.783140497747809, 7609154.909303164109588 ], [ 438756.97294583969051, 7609023.246549883857369 ] ] ] } },
{ "type": "Feature", "properties": { "fid": 10.0, "COMPR_M": 167.29, "CLASSE": "02 - Curta", "CD_FAZ": "403978", "TALHOES": "1", "FAZ_tAL": "403978001", "ID_LINHA": 242368 }, "geometry": { "type": "MultiLineString", "coordinates": [ [ [ 438653.511662258824799, 7609156.959651118144393 ], [ 438753.486076430883259, 7609022.903915069997311 ] ] ] } },
{ "type": "Feature", "properties": { "fid": 11.0, "COMPR_M": 178.55, "CLASSE": "02 - Curta", "CD_FAZ": "403978", "TALHOES": "1", "FAZ_tAL": "403978001", "ID_LINHA": 242369 }, "geometry": { "type": "MultiLineString", "coordinates": [ [ [ 438643.570792841725051, 7609165.271187759004533 ], [ 438750.275998810771853, 7609022.190130025148392 ] ] ] } },
{ "type": "Feature", "properties": { "fid": 12.0, "COMPR_M": 52.05, "CLASSE": "01 - Muito curta", "CD_FAZ": "403978", "TALHOES": "1", "FAZ_tAL": "403978001", "ID_LINHA": 242370 }, "geometry": { "type": "MultiLineString", "coordinates": [ [ [ 438820.325328385748435, 7608988.47910762950778 ], [ 438851.433180524327327, 7608946.766574981622398 ] ] ] } },
{ "type": "Feature", "properties": { "fid": 13.0, "COMPR_M": 57.26, "CLASSE": "01 - Muito curta", "CD_FAZ": "403978", "TALHOES": "1", "FAZ_tAL": "403978001", "ID_LINHA": 242371 }, "geometry": { "type": "MultiLineString", "coordinates": [ [ [ 438820.562237505684607, 7608993.179615635424852 ], [ 438854.780809832154773, 7608947.29591691121459 ] ] ] } },
{ "type": "Feature", "properties": { "fid": 14.0, "COMPR_M": 48.56, "CLASSE": "01 - Muito curta", "CD_FAZ": "403978", "TALHOES": "1", "FAZ_tAL": "403978001", "ID_LINHA": 242372 }, "geometry": { "type": "MultiLineString", "coordinates": [ [ [ 438819.124189440684859, 7608985.07153582945466 ], [ 438848.145619762071874, 7608946.156687115319073 ] ] ] } },
{ "type": "Feature", "properties": { "fid": 15.0, "COMPR_M": 45.51, "CLASSE": "01 - Muito curta", "CD_FAZ": "403978", "TALHOES": "1", "FAZ_tAL": "403978001", "ID_LINHA": 242373 }, "geometry": { "type": "MultiLineString", "coordinates": [ [ [ 438817.715473579766694, 7608981.942304007709026 ], [ 438844.911324988352135, 7608945.475374856963754 ] ] ] } },
{ "type": "Feature", "properties": { "fid": 16.0, "COMPR_M": 42.46, "CLASSE": "01 - Muito curta", "CD_FAZ": "403978", "TALHOES": "1", "FAZ_tAL": "403978001", "ID_LINHA": 242374 }, "geometry": { "type": "MultiLineString", "coordinates": [ [ [ 438816.341882881359197, 7608978.765972835943103 ], [ 438841.719280711782631, 7608944.737408894114196 ] ] ] } },
{ "type": "Feature", "properties": { "fid": 17.0, "COMPR_M": 38.91, "CLASSE": "01 - Muito curta", "CD_FAZ": "403978", "TALHOES": "1", "FAZ_tAL": "403978001", "ID_LINHA": 242375 }, "geometry": { "type": "MultiLineString", "coordinates": [ [ [ 438815.304958214983344, 7608975.138206034898758 ], [ 438838.559407588501927, 7608943.956304613500834 ] ] ] } },
{ "type": "Feature", "properties": { "fid": 18.0, "COMPR_M": 33.83, "CLASSE": "01 - Muito curta", "CD_FAZ": "403978", "TALHOES": "1", "FAZ_tAL": "403978001", "ID_LINHA": 242376 }, "geometry": { "type": "MultiLineString", "coordinates": [ [ [ 438815.203017669671681, 7608970.25671860948205 ], [ 438835.422308013716247, 7608943.144663272425532 ] ] ] } },
{ "type": "Feature", "properties": { "fid": 19.0, "COMPR_M": 27.5, "CLASSE": "01 - Muito curta", "CD_FAZ": "403978", "TALHOES": "1", "FAZ_tAL": "403978001", "ID_LINHA": 242377 }, "geometry": { "type": "MultiLineString", "coordinates": [ [ [ 438815.867593493429013, 7608964.347409051842988 ], [ 438832.299053485854529, 7608942.314457101747394 ] ] ] } },
{ "type": "Feature", "properties": { "fid": 20.0, "COMPR_M": 23.82, "CLASSE": "01 - Muito curta", "CD_FAZ": "403978", "TALHOES": "1", "FAZ_tAL": "403978001", "ID_LINHA": 242378 }, "geometry": { "type": "MultiLineString", "coordinates": [ [ [ 438814.945838026236743, 7608960.565211821347475 ], [ 438829.180148679646663, 7608941.478418389335275 ] ] ] } },
{ "type": "Feature", "properties": { "fid": 21.0, "COMPR_M": 21.19, "CLASSE": "01 - Muito curta", "CD_FAZ": "403978", "TALHOES": "1", "FAZ_tAL": "403978001", "ID_LINHA": 242379 }, "geometry": { "type": "MultiLineString", "coordinates": [ [ [ 438813.389266924641561, 7608957.634239153936505 ], [ 438826.052776825788897, 7608940.653733141720295 ] ] ] } },
{ "type": "Feature", "properties": { "fid": 22.0, "COMPR_M": 19.02, "CLASSE": "01 - Muito curta", "CD_FAZ": "403978", "TALHOES": "1", "FAZ_tAL": "403978001", "ID_LINHA": 242380 }, "geometry": { "type": "MultiLineString", "coordinates": [ [ [ 438811.534186315606348, 7608955.103538017719984 ], [ 438822.902994533302262, 7608939.859098063781857 ] ] ] } },
{ "type": "Feature", "properties": { "fid": 23.0, "COMPR_M": 17.13, "CLASSE": "01 - Muito curta", "CD_FAZ": "403978", "TALHOES": "1", "FAZ_tAL": "403978001", "ID_LINHA": 242381 }, "geometry": { "type": "MultiLineString", "coordinates": [ [ [ 438809.47656181891216, 7608952.844428069889545 ], [ 438819.716103269951418, 7608939.114222420379519 ] ] ] } },
{ "type": "Feature", "properties": { "fid": 24.0, "COMPR_M": 15.37, "CLASSE": "01 - Muito curta", "CD_FAZ": "403978", "TALHOES": "1", "FAZ_tAL": "403978001", "ID_LINHA": 242382 }, "geometry": { "type": "MultiLineString", "coordinates": [ [ [ 438807.292408116394654, 7608950.754981186240911 ], [ 438816.47608955623582, 7608938.440578693524003 ] ] ] } },
{ "type": "Feature", "properties": { "fid": 25.0, "COMPR_M": 13.64, "CLASSE": "01 - Muito curta", "CD_FAZ": "403978", "TALHOES": "1", "FAZ_tAL": "403978001", "ID_LINHA": 242383 }, "geometry": { "type": "MultiLineString", "coordinates": [ [ [ 438805.01446881290758, 7608948.791291458532214 ], [ 438813.164926443307195, 7608937.86233922559768 ] ] ] } },
{ "type": "Feature", "properties": { "fid": 26.0, "COMPR_M": 11.31, "CLASSE": "01 - Muito curta", "CD_FAZ": "403978", "TALHOES": "1", "FAZ_tAL": "403978001", "ID_LINHA": 242384 }, "geometry": { "type": "MultiLineString", "coordinates": [ [ [ 438799.524272316601127, 7608946.116739274002612 ], [ 438806.282834967947565, 7608937.054179634898901 ] ] ] } },
{ "type": "Feature", "properties": { "fid": 27.0, "COMPR_M": 12.14, "CLASSE": "01 - Muito curta", "CD_FAZ": "403978", "TALHOES": "1", "FAZ_tAL": "403978001", "ID_LINHA": 242385 }, "geometry": { "type": "MultiLineString", "coordinates": [ [ [ 438802.513678993680514, 7608947.12642209045589 ], [ 438809.766583534772508, 7608937.400999188423157 ] ] ] } },
{ "type": "Feature", "properties": { "fid": 28.0, "COMPR_M": 11.75, "CLASSE": "01 - Muito curta", "CD_FAZ": "403978", "TALHOES": "1", "FAZ_tAL": "403978001", "ID_LINHA": 242386 }, "geometry": { "type": "MultiLineString", "coordinates": [ [ [ 438795.700073766987771, 7608946.22642925567925 ], [ 438802.721605719416402, 7608936.811253963038325 ] ] ] } },
{ "type": "Feature", "properties": { "fid": 29.0, "COMPR_M": 12.99, "CLASSE": "01 - Muito curta", "CD_FAZ": "403978", "TALHOES": "1", "FAZ_tAL": "403978001", "ID_LINHA": 242387 }, "geometry": { "type": "MultiLineString", "coordinates": [ [ [ 438791.329506946669426, 7608947.06874468550086 ], [ 438799.092570411681663, 7608936.65924946218729 ] ] ] } },
{ "type": "Feature", "properties": { "fid": 30.0, "COMPR_M": 24.05, "CLASSE": "01 - Muito curta", "CD_FAZ": "403978", "TALHOES": "1", "FAZ_tAL": "403978001", "ID_LINHA": 242388 }, "geometry": { "type": "MultiLineString", "coordinates": [ [ [ 438781.03300210548332, 7608955.857153022661805 ], [ 438795.407141155155841, 7608936.582863634452224 ] ] ] } },
{ "type": "Feature", "properties": { "fid": 31.0, "COMPR_M": 24.53, "CLASSE": "01 - Muito curta", "CD_FAZ": "403978", "TALHOES": "1", "FAZ_tAL": "403978001", "ID_LINHA": 242389 }, "geometry": { "type": "MultiLineString", "coordinates": [ [ [ 438777.021676848933566, 7608956.217761285603046 ], [ 438791.678366523818113, 7608936.564599633216858 ] ] ] } },
{ "type": "Feature", "properties": { "fid": 32.0, "COMPR_M": 23.28, "CLASSE": "01 - Muito curta", "CD_FAZ": "403978", "TALHOES": "1", "FAZ_tAL": "403978001", "ID_LINHA": 242390 }, "geometry": { "type": "MultiLineString", "coordinates": [ [ [ 438774.005447499628644, 7608955.244045006111264 ], [ 438787.918838303186931, 7608936.587573138996959 ] ] ] } },
{ "type": "Feature", "properties": { "fid": 33.0, "COMPR_M": 21.37, "CLASSE": "01 - Muito curta", "CD_FAZ": "403978", "TALHOES": "1", "FAZ_tAL": "403978001", "ID_LINHA": 242391 }, "geometry": { "type": "MultiLineString", "coordinates": [ [ [ 438771.364038077648729, 7608953.767732525244355 ], [ 438784.134527126210742, 7608936.643778124824166 ] ] ] } },
{ "type": "Feature", "properties": { "fid": 34.0, "COMPR_M": 19.43, "CLASSE": "01 - Muito curta", "CD_FAZ": "403978", "TALHOES": "1", "FAZ_tAL": "403978001", "ID_LINHA": 242392 }, "geometry": { "type": "MultiLineString", "coordinates": [ [ [ 438768.718127077678218, 7608952.297456203959882 ], [ 438780.329924809164368, 7608936.727191505022347 ] ] ] } },
{ "type": "Feature", "properties": { "fid": 35.0, "COMPR_M": 17.98, "CLASSE": "01 - Muito curta", "CD_FAZ": "403978", "TALHOES": "1", "FAZ_tAL": "403978001", "ID_LINHA": 242393 }, "geometry": { "type": "MultiLineString", "coordinates": [ [ [ 438765.766554171103053, 7608951.237042075023055 ], [ 438776.509823418513406, 7608936.831387599930167 ] ] ] } },
{ "type": "Feature", "properties": { "fid": 36.0, "COMPR_M": 17.81, "CLASSE": "01 - Muito curta", "CD_FAZ": "403978", "TALHOES": "1", "FAZ_tAL": "403978001", "ID_LINHA": 242394 }, "geometry": { "type": "MultiLineString", "coordinates": [ [ [ 438762.037841254961677, 7608951.218695324845612 ], [ 438772.679252066242043, 7608936.9496228704229 ] ] ] } },
{ "type": "Feature", "properties": { "fid": 37.0, "COMPR_M": 283.28, "CLASSE": "02 - Curta", "CD_FAZ": "403978", "TALHOES": "1", "FAZ_tAL": "403978001", "ID_LINHA": 242395 }, "geometry": { "type": "MultiLineString", "coordinates": [ [ [ 438517.120195770927239, 7609604.199880227446556 ], [ 438687.182195240107831, 7609377.774334406480193 ] ] ] } },
{ "type": "Feature", "properties": { "fid": 38.0, "COMPR_M": 230.99, "CLASSE": "02 - Curta", "CD_FAZ": "403978", "TALHOES": "1", "FAZ_tAL": "403978001", "ID_LINHA": 242396 }, "geometry": { "type": "MultiLineString", "coordinates": [ [ [ 438519.518164125678595, 7609606.002585912123322 ], [ 438658.272549249581061, 7609421.430790642276406 ] ] ] } },
{ "type": "Feature", "properties": { "fid": 39.0, "COMPR_M": 34.63, "CLASSE": "01 - Muito curta", "CD_FAZ": "403978", "TALHOES": "1", "FAZ_tAL": "403978001", "ID_LINHA": 242397 }, "geometry": { "type": "MultiLineString", "coordinates": [ [ [ 438529.17012772615999, 7609613.133476372808218 ], [ 438549.974918949883431, 7609585.458836304955184 ] ] ] } },
{ "type": "Feature", "properties": { "fid": 40.0, "COMPR_M": 81.36, "CLASSE": "01 - Muito curta", "CD_FAZ": "403978", "TALHOES": "1", "FAZ_tAL": "403978001", "ID_LINHA": 242398 }, "geometry": { "type": "MultiLineString", "coordinates": [ [ [ 438526.772159372456372, 7609611.330770686268806 ], [ 438575.643906129873358, 7609546.321322310715914 ] ] ] } },
{ "type": "Feature", "properties": { "fid": 41.0, "COMPR_M": 130.41, "CLASSE": "02 - Curta", "CD_FAZ": "403978", "TALHOES": "1", "FAZ_tAL": "403978001", "ID_LINHA": 242399 }, "geometry": { "type": "MultiLineString", "coordinates": [ [ [ 438524.374191020673607, 7609609.528065003454685 ], [ 438602.707866435695905, 7609505.328207902610302 ] ] ] } },
{ "type": "Feature", "properties": { "fid": 42.0, "COMPR_M": 180.6, "CLASSE": "02 - Curta", "CD_FAZ": "403978", "TALHOES": "1", "FAZ_tAL": "403978001", "ID_LINHA": 242400 }, "geometry": { "type": "MultiLineString", "coordinates": [ [ [ 438521.976222668366972, 7609607.725359318777919 ], [ 438630.460162743867841, 7609463.419465417042375 ] ] ] } },
{ "type": "Feature", "properties": { "fid": 43.0, "COMPR_M": 402.79, "CLASSE": "03 - Média", "CD_FAZ": "403978", "TALHOES": "1", "FAZ_tAL": "403978001", "ID_LINHA": 242401 }, "geometry": { "type": "MultiLineString", "coordinates": [ [ [ 438511.919441968086176, 7609601.132958643138409 ], [ 438662.91186911566183, 7609400.282057063654065 ], [ 438753.403805627953261, 7609278.94138874579221 ] ] ] } },
{ "type": "Feature", "properties": { "fid": 44.0, "COMPR_M": 339.77, "CLASSE": "03 - Média", "CD_FAZ": "403978", "TALHOES": "1", "FAZ_tAL": "403978001", "ID_LINHA": 242402 }, "geometry": { "type": "MultiLineString", "coordinates": [ [ [ 438514.54986396653112, 7609602.626453299075365 ], [ 438718.374883307202253, 7609330.929865676909685 ] ] ] } },
{ "type": "Feature", "properties": { "fid": 45.0, "COMPR_M": 528.82, "CLASSE": "03 - Média", "CD_FAZ": "403978", "TALHOES": "1", "FAZ_tAL": "403978001", "ID_LINHA": 242403 }, "geometry": { "type": "MultiLineString", "coordinates": [ [ [ 438506.658597979170736, 7609598.145969334058464 ], [ 438658.109871940687299, 7609396.68470736593008 ], [ 438823.461650262936018, 7609174.964434899389744 ] ] ] } },
{ "type": "Feature", "properties": { "fid": 46.0, "COMPR_M": 465.8, "CLASSE": "03 - Média", "CD_FAZ": "403978", "TALHOES": "1", "FAZ_tAL": "403978001", "ID_LINHA": 242404 }, "geometry": { "type": "MultiLineString", "coordinates": [ [ [ 438509.289019976276904, 7609599.639463987201452 ], [ 438660.511303416627925, 7609398.482806380838156 ], [ 438788.432727944280487, 7609226.952911826781929 ] ] ] } },
{ "type": "Feature", "properties": { "fid": 47.0, "COMPR_M": 749.35, "CLASSE": "04 - Longa", "CD_FAZ": "403978", "TALHOES": "1", "FAZ_tAL": "403978001", "ID_LINHA": 242405 }, "geometry": { "type": "MultiLineString", "coordinates": [ [ [ 438422.48509413539432, 7609550.354140388779342 ], [ 438581.263198821921833, 7609339.146690576337278 ], [ 438871.120370106364135, 7608950.477091053500772 ] ] ] } },
{ "type": "Feature", "properties": { "fid": 48.0, "COMPR_M": 750.75, "CLASSE": "04 - Longa", "CD_FAZ": "403978", "TALHOES": "1", "FAZ_tAL": "403978001", "ID_LINHA": 242406 }, "geometry": { "type": "MultiLineString", "coordinates": [ [ [ 438425.115516128775198, 7609551.847635041922331 ], [ 438583.66549608297646, 7609340.943637920543551 ], [ 438874.588798090233468, 7608950.844453981146216 ] ] ] } },
{ "type": "Feature", "properties": { "fid": 49.0, "COMPR_M": 752.45, "CLASSE": "04 - Longa", "CD_FAZ": "403978", "TALHOES": "1", "FAZ_tAL": "403978001", "ID_LINHA": 242407 }, "geometry": { "type": "MultiLineString", "coordinates": [ [ [ 438427.745938124135137, 7609553.341129692271352 ], [ 438586.067788913322147, 7609342.740581951104105 ], [ 438878.233616954996251, 7608950.975294297561049 ] ] ] } },
{ "type": "Feature", "properties": { "fid": 50.0, "COMPR_M": 754.37, "CLASSE": "04 - Longa", "CD_FAZ": "403978", "TALHOES": "1", "FAZ_tAL": "403978001", "ID_LINHA": 242408 }, "geometry": { "type": "MultiLineString", "coordinates": [ [ [ 438430.376360117516015, 7609554.834624351933599 ], [ 438588.467493260512128, 7609344.540987616404891 ], [ 438882.009362730255816, 7608950.930574670433998 ] ] ] } },
{ "type": "Feature", "properties": { "fid": 51.0, "COMPR_M": 756.38, "CLASSE": "04 - Longa", "CD_FAZ": "403978", "TALHOES": "1", "FAZ_tAL": "403978001", "ID_LINHA": 242409 }, "geometry": { "type": "MultiLineString", "coordinates": [ [ [ 438433.00678211817285, 7609556.328119002282619 ], [ 438590.87065187166445, 7609346.336779980920255 ], [ 438885.83914632408414, 7608950.813395703211427 ] ] ] } },
{ "type": "Feature", "properties": { "fid": 52.0, "COMPR_M": 758.31, "CLASSE": "04 - Longa", "CD_FAZ": "403978", "TALHOES": "1", "FAZ_tAL": "403978001", "ID_LINHA": 242410 }, "geometry": { "type": "MultiLineString", "coordinates": [ [ [ 438435.6372041082941, 7609557.821613656356931 ], [ 438593.270356218738016, 7609348.137185646221042 ], [ 438889.621972698718309, 7608950.759181695990264 ] ] ] } },
{ "type": "Feature", "properties": { "fid": 53.0, "COMPR_M": 760.03, "CLASSE": "04 - Longa", "CD_FAZ": "403978", "TALHOES": "1", "FAZ_tAL": "403978001", "ID_LINHA": 242411 }, "geometry": { "type": "MultiLineString", "coordinates": [ [ [ 438438.267626103712246, 7609559.315108312293887 ], [ 438595.673514829832129, 7609349.932978009805083 ], [ 438893.27825136447791, 7608950.87465556524694 ] ] ] } },
{ "type": "Feature", "properties": { "fid": 54.0, "COMPR_M": 761.5, "CLASSE": "04 - Longa", "CD_FAZ": "403978", "TALHOES": "1", "FAZ_tAL": "403978001", "ID_LINHA": 242412 }, "geometry": { "type": "MultiLineString", "coordinates": [ [ [ 438440.898048099130392, 7609560.808602968230844 ], [ 438598.073219176731072, 7609351.733383674174547 ], [ 438896.784442675707396, 7608951.19138163048774 ] ] ] } },
{ "type": "Feature", "properties": { "fid": 55.0, "COMPR_M": 762.76, "CLASSE": "04 - Longa", "CD_FAZ": "403978", "TALHOES": "1", "FAZ_tAL": "403978001", "ID_LINHA": 242413 }, "geometry": { "type": "MultiLineString", "coordinates": [ [ [ 438443.528470094606746, 7609562.302097621373832 ], [ 438600.474650656222366, 7609353.531482686288655 ], [ 438900.167429531633388, 7608951.673312610015273 ] ] ] } },
{ "type": "Feature", "properties": { "fid": 56.0, "COMPR_M": 763.86, "CLASSE": "04 - Longa", "CD_FAZ": "403978", "TALHOES": "1", "FAZ_tAL": "403978001", "ID_LINHA": 242414 }, "geometry": { "type": "MultiLineString", "coordinates": [ [ [ 438446.158892089384608, 7609563.795592276379466 ], [ 438602.876947915530764, 7609355.328430035151541 ], [ 438903.454931493499316, 7608952.283279322087765 ] ] ] } },
{ "type": "Feature", "properties": { "fid": 57.0, "COMPR_M": 764.84, "CLASSE": "04 - Longa", "CD_FAZ": "403978", "TALHOES": "1", "FAZ_tAL": "403978001", "ID_LINHA": 242415 }, "geometry": { "type": "MultiLineString", "coordinates": [ [ [ 438448.789314084860962, 7609565.28908692765981 ], [ 438605.277513616194483, 7609357.127680717036128 ], [ 438906.669519493589178, 7608952.991016396321356 ] ] ] } },
{ "type": "Feature", "properties": { "fid": 58.0, "COMPR_M": 765.73, "CLASSE": "04 - Longa", "CD_FAZ": "403978", "TALHOES": "1", "FAZ_tAL": "403978001", "ID_LINHA": 242416 }, "geometry": { "type": "MultiLineString", "coordinates": [ [ [ 438451.419736078300048, 7609566.782581583596766 ], [ 438607.679810874862596, 7609358.924628065899014 ], [ 438909.830156459996942, 7608953.771096438169479 ] ] ] } },
{ "type": "Feature", "properties": { "fid": 59.0, "COMPR_M": 766.55, "CLASSE": "04 - Longa", "CD_FAZ": "403978", "TALHOES": "1", "FAZ_tAL": "403978001", "ID_LINHA": 242417 }, "geometry": { "type": "MultiLineString", "coordinates": [ [ [ 438454.050158078433014, 7609568.276076237671077 ], [ 438610.082103702065069, 7609360.72157209739089 ], [ 438912.953340020147152, 7608954.601397772319615 ] ] ] } },
{ "type": "Feature", "properties": { "fid": 60.0, "COMPR_M": 767.34, "CLASSE": "04 - Longa", "CD_FAZ": "403978", "TALHOES": "1", "FAZ_tAL": "403978001", "ID_LINHA": 242418 }, "geometry": { "type": "MultiLineString", "coordinates": [ [ [ 438456.680580070009455, 7609569.769570890814066 ], [ 438612.483535184524953, 7609362.51967110671103 ], [ 438916.053875671466812, 7608955.462067691609263 ] ] ] } },
{ "type": "Feature", "properties": { "fid": 61.0, "COMPR_M": 768.11, "CLASSE": "04 - Longa", "CD_FAZ": "403978", "TALHOES": "1", "FAZ_tAL": "403978001", "ID_LINHA": 242419 }, "geometry": { "type": "MultiLineString", "coordinates": [ [ [ 438459.311002068745438, 7609571.263065551407635 ], [ 438614.883239531365689, 7609364.320076774805784 ], [ 438919.141611487895716, 7608956.339900920167565 ] ] ] } },
{ "type": "Feature", "properties": { "fid": 62.0, "COMPR_M": 768.86, "CLASSE": "04 - Longa", "CD_FAZ": "403978", "TALHOES": "1", "FAZ_tAL": "403978001", "ID_LINHA": 242420 }, "geometry": { "type": "MultiLineString", "coordinates": [ [ [ 438461.941424062359147, 7609572.756560200825334 ], [ 438617.284671010216698, 7609366.118175790645182 ], [ 438922.217291253095027, 7608957.233900111168623 ] ] ] } },
{ "type": "Feature", "properties": { "fid": 63.0, "COMPR_M": 769.58, "CLASSE": "04 - Longa", "CD_FAZ": "403978", "TALHOES": "1", "FAZ_tAL": "403978001", "ID_LINHA": 242421 }, "geometry": { "type": "MultiLineString", "coordinates": [ [ [ 438464.571846054575872, 7609574.25005486048758 ], [ 438619.687829623930156, 7609367.913968153297901 ], [ 438925.275908594834618, 7608958.150778310373425 ] ] ] } },
{ "type": "Feature", "properties": { "fid": 64.0, "COMPR_M": 770.26, "CLASSE": "04 - Longa", "CD_FAZ": "403978", "TALHOES": "1", "FAZ_tAL": "403978001", "ID_LINHA": 242422 }, "geometry": { "type": "MultiLineString", "coordinates": [ [ [ 438467.202268052147701, 7609575.743549512699246 ], [ 438622.087533968966454, 7609369.714373813942075 ], [ 438928.312275779200718, 7608959.097491756081581 ] ] ] } },
{ "type": "Feature", "properties": { "fid": 65.0, "COMPR_M": 770.89, "CLASSE": "04 - Longa", "CD_FAZ": "403978", "TALHOES": "1", "FAZ_tAL": "403978001", "ID_LINHA": 242423 }, "geometry": { "type": "MultiLineString", "coordinates": [ [ [ 438469.832690047041979, 7609577.237044165842235 ], [ 438624.490692581166513, 7609371.510166179388762 ], [ 438931.321515966264997, 7608960.080579806119204 ] ] ] } },
{ "type": "Feature", "properties": { "fid": 66.0, "COMPR_M": 771.48, "CLASSE": "04 - Longa", "CD_FAZ": "403978", "TALHOES": "1", "FAZ_tAL": "403978001", "ID_LINHA": 242424 }, "geometry": { "type": "MultiLineString", "coordinates": [ [ [ 438472.463112041936256, 7609578.730538823641837 ], [ 438626.892124058969785, 7609373.308265196159482 ], [ 438934.299170003680047, 7608961.106021737679839 ] ] ] } },
{ "type": "Feature", "properties": { "fid": 67.0, "COMPR_M": 772.0, "CLASSE": "04 - Longa", "CD_FAZ": "403978", "TALHOES": "1", "FAZ_tAL": "403978001", "ID_LINHA": 242425 }, "geometry": { "type": "MultiLineString", "coordinates": [ [ [ 438475.093534038169309, 7609580.22403347492218 ], [ 438629.291828407440335, 7609375.108670858666301 ], [ 438937.241285467229318, 7608962.179117362946272 ] ] ] } },
{ "type": "Feature", "properties": { "fid": 68.0, "COMPR_M": 772.46, "CLASSE": "04 - Longa", "CD_FAZ": "403978", "TALHOES": "1", "FAZ_tAL": "403978001", "ID_LINHA": 242426 }, "geometry": { "type": "MultiLineString", "coordinates": [ [ [ 438477.723956035100855, 7609581.717528129927814 ], [ 438631.693259887513705, 7609376.906769873574376 ], [ 438940.144264001748525, 7608963.304691709578037 ] ] ] } },
{ "type": "Feature", "properties": { "fid": 69.0, "COMPR_M": 772.83, "CLASSE": "04 - Longa", "CD_FAZ": "403978", "TALHOES": "1", "FAZ_tAL": "403978001", "ID_LINHA": 242427 }, "geometry": { "type": "MultiLineString", "coordinates": [ [ [ 438480.354378026793711, 7609583.211022789590061 ], [ 438634.094691364502069, 7609378.704868890345097 ], [ 438942.997365624294616, 7608964.497146025300026 ] ] ] } },
{ "type": "Feature", "properties": { "fid": 70.0, "COMPR_M": 773.03, "CLASSE": "04 - Longa", "CD_FAZ": "403978", "TALHOES": "1", "FAZ_tAL": "403978001", "ID_LINHA": 242428 }, "geometry": { "type": "MultiLineString", "coordinates": [ [ [ 438482.984800024423748, 7609584.704517439007759 ], [ 438636.496122844167985, 7609380.502967903390527 ], [ 438945.74732128251344, 7608965.827908819541335 ] ] ] } },
{ "type": "Feature", "properties": { "fid": 71.0, "COMPR_M": 772.86, "CLASSE": "04 - Longa", "CD_FAZ": "403978", "TALHOES": "1", "FAZ_tAL": "403978001", "ID_LINHA": 242429 }, "geometry": { "type": "MultiLineString", "coordinates": [ [ [ 438485.615222019376233, 7609586.198012096807361 ], [ 438638.899281454680022, 7609382.298760263249278 ], [ 438948.275401172810234, 7608967.456184917129576 ] ] ] } },
{ "type": "Feature", "properties": { "fid": 72.0, "COMPR_M": 772.07, "CLASSE": "04 - Longa", "CD_FAZ": "403978", "TALHOES": "1", "FAZ_tAL": "403978001", "ID_LINHA": 242430 }, "geometry": { "type": "MultiLineString", "coordinates": [ [ [ 438488.245644015085418, 7609587.691506750881672 ], [ 438641.29898580245208, 7609384.099165933206677 ], [ 438950.429968583164737, 7608969.585304073989391 ] ] ] } },
{ "type": "Feature", "properties": { "fid": 73.0, "COMPR_M": 769.79, "CLASSE": "04 - Longa", "CD_FAZ": "403978", "TALHOES": "1", "FAZ_tAL": "403978001", "ID_LINHA": 242431 }, "geometry": { "type": "MultiLineString", "coordinates": [ [ [ 438490.876066009397618, 7609589.185001405887306 ], [ 438643.700417281128466, 7609385.897264946252108 ], [ 438951.694815453782212, 7608972.907449891790748 ] ] ] } },
{ "type": "Feature", "properties": { "fid": 74.0, "COMPR_M": 760.68, "CLASSE": "04 - Longa", "CD_FAZ": "403978", "TALHOES": "1", "FAZ_tAL": "403978001", "ID_LINHA": 242432 }, "geometry": { "type": "MultiLineString", "coordinates": [ [ [ 438493.506488003826234, 7609590.678496059961617 ], [ 438646.103575892106164, 7609387.693057309836149 ], [ 438948.883991950831842, 7608981.694663910195231 ] ] ] } },
{ "type": "Feature", "properties": { "fid": 75.0, "COMPR_M": 745.04, "CLASSE": "04 - Longa", "CD_FAZ": "403978", "TALHOES": "1", "FAZ_tAL": "403978001", "ID_LINHA": 242433 }, "geometry": { "type": "MultiLineString", "coordinates": [ [ [ 438496.136909999477211, 7609592.171990716829896 ], [ 438648.50328024069313, 7609389.493462974205613 ], [ 438942.165414873335976, 7608995.721786418929696 ] ] ] } },
{ "type": "Feature", "properties": { "fid": 76.0, "COMPR_M": 682.88, "CLASSE": "04 - Longa", "CD_FAZ": "403978", "TALHOES": "1", "FAZ_tAL": "403978001", "ID_LINHA": 242434 }, "geometry": { "type": "MultiLineString", "coordinates": [ [ [ 438498.767331995244604, 7609593.665485369041562 ], [ 438650.904711722920183, 7609391.291561992838979 ], [ 438907.644286496855784, 7609047.029362225905061 ] ] ] } },
{ "type": "Feature", "properties": { "fid": 77.0, "COMPR_M": 633.35, "CLASSE": "04 - Longa", "CD_FAZ": "403978", "TALHOES": "1", "FAZ_tAL": "403978001", "ID_LINHA": 242435 }, "geometry": { "type": "MultiLineString", "coordinates": [ [ [ 438501.39775398967322, 7609595.158980021253228 ], [ 438653.30614319734741, 7609393.089661005884409 ], [ 438880.676534600905143, 7609088.208612178452313 ] ] ] } },
{ "type": "Feature", "properties": { "fid": 78.0, "COMPR_M": 583.83, "CLASSE": "03 - Média", "CD_FAZ": "403978", "TALHOES": "1", "FAZ_tAL": "403978001", "ID_LINHA": 242436 }, "geometry": { "type": "MultiLineString", "coordinates": [ [ [ 438504.028175986022688, 7609596.652474676258862 ], [ 438655.708440460206475, 7609394.886608350090683 ], [ 438853.708782708155923, 7609129.387862124480307 ] ] ] } },
{ "type": "Feature", "properties": { "fid": 79.0, "COMPR_M": 748.22, "CLASSE": "04 - Longa", "CD_FAZ": "403978", "TALHOES": "1", "FAZ_tAL": "403978001", "ID_LINHA": 242437 }, "geometry": { "type": "MultiLineString", "coordinates": [ [ [ 438417.45670378417708, 7609547.057940045371652 ], [ 438576.460335866024252, 7609335.550492545589805 ], [ 438865.417395080730785, 7608948.0878536850214 ] ] ] } },
{ "type": "Feature", "properties": { "fid": 80.0, "COMPR_M": 748.23, "CLASSE": "04 - Longa", "CD_FAZ": "403978", "TALHOES": "1", "FAZ_tAL": "403978001", "ID_LINHA": 242438 }, "geometry": { "type": "MultiLineString", "coordinates": [ [ [ 438419.854672136134468, 7609548.860645728185773 ], [ 438578.863494476885535, 7609337.346284907311201 ], [ 438867.82227196166059, 7608949.881332762539387 ] ] ] } },
{ "type": "Feature", "properties": { "fid": 81.0, "COMPR_M": 963.99, "CLASSE": "05 - Muito longa", "CD_FAZ": "403978", "TALHOES": "1", "FAZ_tAL": "403978001", "ID_LINHA": 242439 }, "geometry": { "type": "MultiLineString", "coordinates": [ [ [ 438280.588379863533191, 7609719.135896038264036 ], [ 438571.657472906576004, 7609331.954294519498944 ], [ 438858.173645196307916, 7608947.764642019756138 ] ] ] } },
{ "type": "Feature", "properties": { "fid": 82.0, "COMPR_M": 965.63, "CLASSE": "05 - Muito longa", "CD_FAZ": "403978", "TALHOES": "1", "FAZ_tAL": "403978001", "ID_LINHA": 242440 }, "geometry": { "type": "MultiLineString", "coordinates": [ [ [ 438283.02629231888568, 7609720.885467872023582 ], [ 438574.058904382924084, 7609333.75239353440702 ], [ 438861.589642788516358, 7608948.202308880165219 ] ] ] } },
{ "type": "Feature", "properties": { "fid": 83.0, "COMPR_M": 892.73, "CLASSE": "05 - Muito longa", "CD_FAZ": "403978", "TALHOES": "1", "FAZ_tAL": "403978001", "ID_LINHA": 242441 }, "geometry": { "type": "MultiLineString", "coordinates": [ [ [ 438275.712554952828214, 7609715.636752373538911 ], [ 438566.855475729156751, 7609328.356944819912314 ], [ 438810.711853853194043, 7609001.369819862768054 ] ] ] } },
{ "type": "Feature", "properties": { "fid": 84.0, "COMPR_M": 900.05, "CLASSE": "05 - Muito longa", "CD_FAZ": "403978", "TALHOES": "1", "FAZ_tAL": "403978001", "ID_LINHA": 242442 }, "geometry": { "type": "MultiLineString", "coordinates": [ [ [ 438278.150467409519479, 7609717.38632420450449 ], [ 438569.256907209171914, 7609330.155043835751712 ], [ 438817.521925631852355, 7608997.256371160969138 ] ] ] } },
{ "type": "Feature", "properties": { "fid": 85.0, "COMPR_M": 128.45, "CLASSE": "02 - Curta", "CD_FAZ": "403978", "TALHOES": "1", "FAZ_tAL": "403978001", "ID_LINHA": 242443 }, "geometry": { "type": "MultiLineString", "coordinates": [ [ [ 438287.822229024546687, 7609724.490879242308438 ], [ 438364.978087407478597, 7609621.857760401442647 ] ] ] } },
{ "type": "Feature", "properties": { "fid": 86.0, "COMPR_M": 185.11, "CLASSE": "02 - Curta", "CD_FAZ": "403978", "TALHOES": "1", "FAZ_tAL": "403978001", "ID_LINHA": 242444 }, "geometry": { "type": "MultiLineString", "coordinates": [ [ [ 438285.424260670377407, 7609722.688173556700349 ], [ 438396.616465292812791, 7609574.779732257127762 ] ] ] } },
{ "type": "Feature", "properties": { "fid": 87.0, "COMPR_M": 15.12, "CLASSE": "01 - Muito curta", "CD_FAZ": "403978", "TALHOES": "1", "FAZ_tAL": "403978001", "ID_LINHA": 242445 }, "geometry": { "type": "MultiLineString", "coordinates": [ [ [ 438292.618165730789769, 7609728.096290611661971 ], [ 438301.701331637275871, 7609716.013816697522998 ] ] ] } },
{ "type": "Feature", "properties": { "fid": 88.0, "COMPR_M": 71.78, "CLASSE": "01 - Muito curta", "CD_FAZ": "403978", "TALHOES": "1", "FAZ_tAL": "403978001", "ID_LINHA": 242446 }, "geometry": { "type": "MultiLineString", "coordinates": [ [ [ 438290.220197378017474, 7609726.293584927916527 ], [ 438333.339709521678742, 7609668.93578855227679 ] ] ] } },
{ "type": "Feature", "properties": { "fid": 89.0, "COMPR_M": 645.37, "CLASSE": "04 - Longa", "CD_FAZ": "403978", "TALHOES": "1", "FAZ_tAL": "403978001", "ID_LINHA": 242447 }, "geometry": { "type": "MultiLineString", "coordinates": [ [ [ 438270.743544096127152, 7609712.261565135791898 ], [ 438562.051746988960076, 7609324.761898458003998 ], [ 438657.919618691084906, 7609196.212636280804873 ] ] ] } },
{ "type": "Feature", "properties": { "fid": 90.0, "COMPR_M": 662.82, "CLASSE": "04 - Longa", "CD_FAZ": "403978", "TALHOES": "1", "FAZ_tAL": "403978001", "ID_LINHA": 242448 }, "geometry": { "type": "MultiLineString", "coordinates": [ [ [ 438273.263582081126515, 7609713.901893165893853 ], [ 438564.453178468917031, 7609326.559997471049428 ], [ 438670.868046810734086, 7609183.868262849748135 ] ] ] } },
{ "type": "Feature", "properties": { "fid": 91.0, "COMPR_M": 606.9, "CLASSE": "04 - Longa", "CD_FAZ": "403978", "TALHOES": "1", "FAZ_tAL": "403978001", "ID_LINHA": 242449 }, "geometry": { "type": "MultiLineString", "coordinates": [ [ [ 438265.703468129038811, 7609708.980909067206085 ], [ 438557.250611161347479, 7609321.163393780589104 ], [ 438629.889058349945117, 7609223.762467915192246 ] ] ] } },
{ "type": "Feature", "properties": { "fid": 92.0, "COMPR_M": 631.2, "CLASSE": "04 - Longa", "CD_FAZ": "403978", "TALHOES": "1", "FAZ_tAL": "403978001", "ID_LINHA": 242450 }, "geometry": { "type": "MultiLineString", "coordinates": [ [ [ 438268.223506114969496, 7609710.621237101964653 ], [ 438559.651181291032117, 7609322.962647778913379 ], [ 438646.927129036106635, 7609205.934290965087712 ] ] ] } },
{ "type": "Feature", "properties": { "fid": 93.0, "COMPR_M": 600.65, "CLASSE": "04 - Longa", "CD_FAZ": "403978", "TALHOES": "1", "FAZ_tAL": "403978001", "ID_LINHA": 242451 }, "geometry": { "type": "MultiLineString", "coordinates": [ [ [ 438260.663392159913201, 7609705.700253003276885 ], [ 438552.446021071751602, 7609317.569502403959632 ], [ 438621.113515146484133, 7609225.493238576687872 ] ] ] } },
{ "type": "Feature", "properties": { "fid": 94.0, "COMPR_M": 603.18, "CLASSE": "04 - Longa", "CD_FAZ": "403978", "TALHOES": "1", "FAZ_tAL": "403978001", "ID_LINHA": 242452 }, "geometry": { "type": "MultiLineString", "coordinates": [ [ [ 438263.183430143515579, 7609707.340581034310162 ], [ 438554.847452553221956, 7609319.367601415142417 ], [ 438625.143080978887156, 7609225.108171519823372 ] ] ] } },
{ "type": "Feature", "properties": { "fid": 95.0, "COMPR_M": 599.36, "CLASSE": "03 - Média", "CD_FAZ": "403978", "TALHOES": "1", "FAZ_tAL": "403978001", "ID_LINHA": 242453 }, "geometry": { "type": "MultiLineString", "coordinates": [ [ [ 438255.623316189507023, 7609702.419596937485039 ], [ 438547.643158114457037, 7609313.973304376006126 ], [ 438615.302710635354742, 7609223.24858982115984 ] ] ] } },
{ "type": "Feature", "properties": { "fid": 96.0, "COMPR_M": 599.27, "CLASSE": "03 - Média", "CD_FAZ": "403978", "TALHOES": "1", "FAZ_tAL": "403978001", "ID_LINHA": 242454 }, "geometry": { "type": "MultiLineString", "coordinates": [ [ [ 438258.143354175495915, 7609704.059924968518317 ], [ 438550.044589591794647, 7609315.771403389982879 ], [ 438617.768896789290011, 7609224.959859270602465 ] ] ] } },
{ "type": "Feature", "properties": { "fid": 97.0, "COMPR_M": 604.5, "CLASSE": "04 - Longa", "CD_FAZ": "403978", "TALHOES": "1", "FAZ_tAL": "403978001", "ID_LINHA": 242455 }, "geometry": { "type": "MultiLineString", "coordinates": [ [ [ 438250.583240222476888, 7609699.138940869830549 ], [ 438542.842022286495194, 7609310.374799694865942 ], [ 438613.340297123708297, 7609215.843631874769926 ] ] ] } },
{ "type": "Feature", "properties": { "fid": 98.0, "COMPR_M": 601.35, "CLASSE": "04 - Longa", "CD_FAZ": "403978", "TALHOES": "1", "FAZ_tAL": "403978001", "ID_LINHA": 242456 }, "geometry": { "type": "MultiLineString", "coordinates": [ [ [ 438253.103278207418043, 7609700.779268907383084 ], [ 438545.241726634674706, 7609312.175205361098051 ], [ 438613.971845262742136, 7609220.014968246221542 ] ] ] } },
{ "type": "Feature", "properties": { "fid": 99.0, "COMPR_M": 610.55, "CLASSE": "04 - Longa", "CD_FAZ": "403978", "TALHOES": "1", "FAZ_tAL": "403978001", "ID_LINHA": 242457 }, "geometry": { "type": "MultiLineString", "coordinates": [ [ [ 438245.543164254166186, 7609695.858284803107381 ], [ 438538.037432197248563, 7609306.78090831823647 ], [ 438611.911610422539525, 7609207.722999420017004 ] ] ] } },
{ "type": "Feature", "properties": { "fid": 100.0, "COMPR_M": 607.66, "CLASSE": "04 - Longa", "CD_FAZ": "403978", "TALHOES": "1", "FAZ_tAL": "403978001", "ID_LINHA": 242458 }, "geometry": { "type": "MultiLineString", "coordinates": [ [ [ 438248.063202237419318, 7609697.498612837865949 ], [ 438540.438863674062304, 7609308.579007329419255 ], [ 438612.707624932925683, 7609211.673802759498358 ] ] ] } },
{ "type": "Feature", "properties": { "fid": 101.0, "COMPR_M": 613.33, "CLASSE": "04 - Longa", "CD_FAZ": "403978", "TALHOES": "1", "FAZ_tAL": "403978001", "ID_LINHA": 242459 }, "geometry": { "type": "MultiLineString", "coordinates": [ [ [ 438242.220886223658454, 7609690.292605105787516 ], [ 438533.235435022681486, 7609303.183558624237776 ], [ 438610.246649045206141, 7609199.919187778607011 ] ] ] } },
{ "type": "Feature", "properties": { "fid": 102.0, "COMPR_M": 610.67, "CLASSE": "04 - Longa", "CD_FAZ": "403978", "TALHOES": "1", "FAZ_tAL": "403978001", "ID_LINHA": 242460 }, "geometry": { "type": "MultiLineString", "coordinates": [ [ [ 438244.618854574044235, 7609692.095310792326927 ], [ 438535.636000719852746, 7609304.982809306122363 ], [ 438611.055115720897447, 7609203.853294002823532 ] ] ] } },
{ "type": "Feature", "properties": { "fid": 103.0, "COMPR_M": 845.75, "CLASSE": "04 - Longa", "CD_FAZ": "403978", "TALHOES": "1", "FAZ_tAL": "403978001", "ID_LINHA": 242461 }, "geometry": { "type": "MultiLineString", "coordinates": [ [ [ 438235.176110928354319, 7609689.678610376082361 ], [ 438528.431706281728111, 7609299.588512263260782 ], [ 438742.108358664205298, 7609013.069404117763042 ] ] ] } },
{ "type": "Feature", "properties": { "fid": 104.0, "COMPR_M": 843.25, "CLASSE": "04 - Longa", "CD_FAZ": "403978", "TALHOES": "1", "FAZ_tAL": "403978001", "ID_LINHA": 242462 }, "geometry": { "type": "MultiLineString", "coordinates": [ [ [ 438237.797166564210784, 7609691.184564214199781 ], [ 438530.833137758774683, 7609301.386611273512244 ], [ 438743.234893638349604, 7609016.57701241504401 ] ] ] } },
{ "type": "Feature", "properties": { "fid": 105.0, "COMPR_M": 215.18, "CLASSE": "02 - Curta", "CD_FAZ": "403978", "TALHOES": "1", "FAZ_tAL": "403978001", "ID_LINHA": 242463 }, "geometry": { "type": "MultiLineString", "coordinates": [ [ [ 438676.372303663461935, 7609176.487602416425943 ], [ 438804.968271853227634, 7609004.053211966529489 ] ] ] } },
{ "type": "Feature", "properties": { "fid": 106.0, "COMPR_M": 212.71, "CLASSE": "02 - Curta", "CD_FAZ": "403978", "TALHOES": "1", "FAZ_tAL": "403978001", "ID_LINHA": 242464 }, "geometry": { "type": "MultiLineString", "coordinates": [ [ [ 438617.975124853022862, 7609189.556071163155138 ], [ 438745.094042911543511, 7609019.102257883176208 ] ] ] } },
{ "type": "Feature", "properties": { "fid": 107.0, "COMPR_M": 206.05, "CLASSE": "02 - Curta", "CD_FAZ": "403978", "TALHOES": "1", "FAZ_tAL": "403978001", "ID_LINHA": 242465 }, "geometry": { "type": "MultiLineString", "coordinates": [ [ [ 438624.314130314916838, 7609186.074275488965213 ], [ 438747.449778539477848, 7609020.961630485020578 ] ] ] } },
{ "type": "Feature", "properties": { "fid": 108.0, "COMPR_M": 944.33, "CLASSE": "05 - Muito longa", "CD_FAZ": "403978", "TALHOES": "1", "FAZ_tAL": "403978001", "ID_LINHA": 242466 }, "geometry": { "type": "MultiLineString", "coordinates": [ [ [ 438202.926830892683938, 7609692.636804254725575 ], [ 438509.220254446263425, 7609285.203720143996179 ], [ 438768.84340381633956, 7608937.074933936819434 ] ] ] } },
{ "type": "Feature", "properties": { "fid": 109.0, "COMPR_M": 940.83, "CLASSE": "05 - Muito longa", "CD_FAZ": "403978", "TALHOES": "1", "FAZ_tAL": "403978001", "ID_LINHA": 242467 }, "geometry": { "type": "MultiLineString", "coordinates": [ [ [ 438197.884431303478777, 7609689.359239084646106 ], [ 438504.417391489027068, 7609281.607522112317383 ], [ 438761.705808817350771, 7608936.609379130415618 ] ] ] } },
{ "type": "Feature", "properties": { "fid": 110.0, "COMPR_M": 942.57, "CLASSE": "05 - Muito longa", "CD_FAZ": "403978", "TALHOES": "1", "FAZ_tAL": "403978001", "ID_LINHA": 242468 }, "geometry": { "type": "MultiLineString", "coordinates": [ [ [ 438200.405631097673904, 7609690.99802166596055 ], [ 438506.819688749266788, 7609283.40446946490556 ], [ 438765.265799948188942, 7608936.853964999318123 ] ] ] } },
{ "type": "Feature", "properties": { "fid": 111.0, "COMPR_M": 937.47, "CLASSE": "05 - Muito longa", "CD_FAZ": "403978", "TALHOES": "1", "FAZ_tAL": "403978001", "ID_LINHA": 242469 }, "geometry": { "type": "MultiLineString", "coordinates": [ [ [ 438192.842031708569266, 7609686.081673912703991 ], [ 438499.614528529520612, 7609278.011324089020491 ], [ 438754.659397965297103, 7608936.021555463783443 ] ] ] } },
{ "type": "Feature", "properties": { "fid": 112.0, "COMPR_M": 939.13, "CLASSE": "05 - Muito longa", "CD_FAZ": "403978", "TALHOES": "1", "FAZ_tAL": "403978001", "ID_LINHA": 242470 }, "geometry": { "type": "MultiLineString", "coordinates": [ [ [ 438195.36323150555836, 7609687.720456499606371 ], [ 438502.017687137646135, 7609279.807116449810565 ], [ 438758.16842936485773, 7608936.334473255090415 ] ] ] } },
{ "type": "Feature", "properties": { "fid": 113.0, "COMPR_M": 910.87, "CLASSE": "05 - Muito longa", "CD_FAZ": "403978", "TALHOES": "1", "FAZ_tAL": "403978001", "ID_LINHA": 242471 }, "geometry": { "type": "MultiLineString", "coordinates": [ [ [ 438218.111760359897744, 7609702.392706105485559 ], [ 438523.628843320067972, 7609295.992314236238599 ], [ 438764.023815580527298, 7608973.646599184721708 ] ] ] } },
{ "type": "Feature", "properties": { "fid": 114.0, "COMPR_M": 884.33, "CLASSE": "05 - Muito longa", "CD_FAZ": "403978", "TALHOES": "1", "FAZ_tAL": "403978001", "ID_LINHA": 242472 }, "geometry": { "type": "MultiLineString", "coordinates": [ [ [ 438232.555055297561921, 7609688.172656537033617 ], [ 438526.030274801480118, 7609297.790413244627416 ], [ 438762.544164743390866, 7608980.648843195289373 ] ] ] } },
{ "type": "Feature", "properties": { "fid": 115.0, "COMPR_M": 914.14, "CLASSE": "05 - Muito longa", "CD_FAZ": "403978", "TALHOES": "1", "FAZ_tAL": "403978001", "ID_LINHA": 242473 }, "geometry": { "type": "MultiLineString", "coordinates": [ [ [ 438213.011630074528512, 7609699.191934594884515 ], [ 438518.825980364112183, 7609292.396116200834513 ], [ 438760.880599235068075, 7608967.824980288743973 ] ] ] } },
{ "type": "Feature", "properties": { "fid": 116.0, "COMPR_M": 913.6, "CLASSE": "05 - Muito longa", "CD_FAZ": "403978", "TALHOES": "1", "FAZ_tAL": "403978001", "ID_LINHA": 242474 }, "geometry": { "type": "MultiLineString", "coordinates": [ [ [ 438215.532829866744578, 7609700.830717184580863 ], [ 438521.229138971772045, 7609294.191908566281199 ], [ 438763.078990416775923, 7608969.895336125046015 ] ] ] } },
{ "type": "Feature", "properties": { "fid": 117.0, "COMPR_M": 915.72, "CLASSE": "05 - Muito longa", "CD_FAZ": "403978", "TALHOES": "1", "FAZ_tAL": "403978001", "ID_LINHA": 242475 }, "geometry": { "type": "MultiLineString", "coordinates": [ [ [ 438207.969230480841361, 7609695.91436942666769 ], [ 438514.024844540108461, 7609288.797611522488296 ], [ 438756.785536782990675, 7608963.279692249372602 ] ] ] } },
{ "type": "Feature", "properties": { "fid": 118.0, "COMPR_M": 914.57, "CLASSE": "05 - Muito longa", "CD_FAZ": "403978", "TALHOES": "1", "FAZ_tAL": "403978001", "ID_LINHA": 242476 }, "geometry": { "type": "MultiLineString", "coordinates": [ [ [ 438210.490430279169232, 7609697.553152011707425 ], [ 438516.424548886250705, 7609290.598017188720405 ], [ 438758.615941579046194, 7608965.843481185846031 ] ] ] } },
{ "type": "Feature", "properties": { "fid": 119.0, "COMPR_M": 918.29, "CLASSE": "05 - Muito longa", "CD_FAZ": "403978", "TALHOES": "1", "FAZ_tAL": "403978001", "ID_LINHA": 242477 }, "geometry": { "type": "MultiLineString", "coordinates": [ [ [ 438205.448030688625295, 7609694.27558683976531 ], [ 438511.623413057415746, 7609286.999512504786253 ], [ 438755.797181320318487, 7608959.586798978969455 ] ] ] } },
{ "type": "Feature", "properties": { "fid": 120.0, "COMPR_M": 803.25, "CLASSE": "04 - Longa", "CD_FAZ": "403978", "TALHOES": "1", "FAZ_tAL": "403978001", "ID_LINHA": 242478 }, "geometry": { "type": "MultiLineString", "coordinates": [ [ [ 438167.051915965101216, 7609560.627962451428175 ], [ 438422.770448327471968, 7609220.469848979264498 ], [ 438648.397597422939725, 7608917.926305266097188 ] ] ] } },
{ "type": "Feature", "properties": { "fid": 121.0, "COMPR_M": 810.88, "CLASSE": "04 - Longa", "CD_FAZ": "403978", "TALHOES": "1", "FAZ_tAL": "403978001", "ID_LINHA": 242479 }, "geometry": { "type": "MultiLineString", "coordinates": [ [ [ 438166.987243710493203, 7609565.706485310569406 ], [ 438425.170152675942518, 7609222.270254645496607 ], [ 438652.90289800503524, 7608916.903325274586678 ] ] ] } },
{ "type": "Feature", "properties": { "fid": 122.0, "COMPR_M": 816.25, "CLASSE": "04 - Longa", "CD_FAZ": "403978", "TALHOES": "1", "FAZ_tAL": "403978001", "ID_LINHA": 242480 }, "geometry": { "type": "MultiLineString", "coordinates": [ [ [ 438167.82734339259332, 7609569.581475893966854 ], [ 438427.571584154560696, 7609224.068353657610714 ], [ 438656.960217446030583, 7608916.481043389998376 ] ] ] } },
{ "type": "Feature", "properties": { "fid": 123.0, "COMPR_M": 819.86, "CLASSE": "04 - Longa", "CD_FAZ": "403978", "TALHOES": "1", "FAZ_tAL": "403978001", "ID_LINHA": 242481 }, "geometry": { "type": "MultiLineString", "coordinates": [ [ [ 438169.520253223017789, 7609572.322054043412209 ], [ 438429.974742766120471, 7609225.864146023057401 ], [ 438660.816805017355364, 7608916.327922957018018 ] ] ] } },
{ "type": "Feature", "properties": { "fid": 124.0, "COMPR_M": 822.07, "CLASSE": "04 - Longa", "CD_FAZ": "403978", "TALHOES": "1", "FAZ_tAL": "403978001", "ID_LINHA": 242482 }, "geometry": { "type": "MultiLineString", "coordinates": [ [ [ 438171.937551459763199, 7609574.099047021009028 ], [ 438432.374447111506015, 7609227.664551688358188 ], [ 438664.554768670350313, 7608916.333865389227867 ] ] ] } },
{ "type": "Feature", "properties": { "fid": 125.0, "COMPR_M": 823.62, "CLASSE": "04 - Longa", "CD_FAZ": "403978", "TALHOES": "1", "FAZ_tAL": "403978001", "ID_LINHA": 242483 }, "geometry": { "type": "MultiLineString", "coordinates": [ [ [ 438174.63889859901974, 7609575.498196681030095 ], [ 438434.777605723647866, 7609229.460344050079584 ], [ 438668.179032061714679, 7608916.492268558591604 ] ] ] } },
{ "type": "Feature", "properties": { "fid": 126.0, "COMPR_M": 826.2, "CLASSE": "04 - Longa", "CD_FAZ": "403978", "TALHOES": "1", "FAZ_tAL": "403978001", "ID_LINHA": 242484 }, "geometry": { "type": "MultiLineString", "coordinates": [ [ [ 438176.626955397659913, 7609577.84616881608963 ], [ 438437.177310071594547, 7609231.260749718174338 ], [ 438671.711104510177393, 7608916.774290595203638 ] ] ] } },
{ "type": "Feature", "properties": { "fid": 127.0, "COMPR_M": 832.44, "CLASSE": "04 - Longa", "CD_FAZ": "403978", "TALHOES": "1", "FAZ_tAL": "403978001", "ID_LINHA": 242485 }, "geometry": { "type": "MultiLineString", "coordinates": [ [ [ 438176.328276743937749, 7609583.235968188382685 ], [ 438439.580468680302147, 7609233.056542080827057 ], [ 438675.157356673793402, 7608917.17138909175992 ] ] ] } },
{ "type": "Feature", "properties": { "fid": 128.0, "COMPR_M": 841.97, "CLASSE": "04 - Longa", "CD_FAZ": "403978", "TALHOES": "1", "FAZ_tAL": "403978001", "ID_LINHA": 242486 }, "geometry": { "type": "MultiLineString", "coordinates": [ [ [ 438173.978929310396779, 7609591.353577695786953 ], [ 438441.980173030169681, 7609234.856947741471231 ], [ 438678.525437878328376, 7608917.673307064920664 ] ] ] } },
{ "type": "Feature", "properties": { "fid": 129.0, "COMPR_M": 851.08, "CLASSE": "05 - Muito longa", "CD_FAZ": "403978", "TALHOES": "1", "FAZ_tAL": "403978001", "ID_LINHA": 242487 }, "geometry": { "type": "MultiLineString", "coordinates": [ [ [ 438171.80945588828763, 7609599.231917871162295 ], [ 438444.381604507681914, 7609236.655046757310629 ], [ 438681.822910652786959, 7608918.269903908483684 ] ] ] } },
{ "type": "Feature", "properties": { "fid": 130.0, "COMPR_M": 860.71, "CLASSE": "05 - Muito longa", "CD_FAZ": "403978", "TALHOES": "1", "FAZ_tAL": "403978001", "ID_LINHA": 242488 }, "geometry": { "type": "MultiLineString", "coordinates": [ [ [ 438169.263913741742726, 7609607.610506593249738 ], [ 438446.783035987289622, 7609238.453145775943995 ], [ 438685.058143978822045, 7608918.9499576613307 ] ] ] } },
{ "type": "Feature", "properties": { "fid": 131.0, "COMPR_M": 871.49, "CLASSE": "05 - Muito longa", "CD_FAZ": "403978", "TALHOES": "1", "FAZ_tAL": "403978001", "ID_LINHA": 242489 }, "geometry": { "type": "MultiLineString", "coordinates": [ [ [ 438165.974487553932704, 7609616.978613683953881 ], [ 438449.185333250032272, 7609240.250093118287623 ], [ 438688.240616844734177, 7608919.700757932849228 ] ] ] } },
{ "type": "Feature", "properties": { "fid": 132.0, "COMPR_M": 886.18, "CLASSE": "05 - Muito longa", "CD_FAZ": "403978", "TALHOES": "1", "FAZ_tAL": "403978001", "ID_LINHA": 242490 }, "geometry": { "type": "MultiLineString", "coordinates": [ [ [ 438160.292342493950855, 7609629.529527701437473 ], [ 438451.587626077467576, 7609242.047037148848176 ], [ 438691.379384639614727, 7608920.510162360034883 ] ] ] } },
{ "type": "Feature", "properties": { "fid": 133.0, "COMPR_M": 907.28, "CLASSE": "05 - Muito longa", "CD_FAZ": "403978", "TALHOES": "1", "FAZ_tAL": "403978001", "ID_LINHA": 242491 }, "geometry": { "type": "MultiLineString", "coordinates": [ [ [ 438150.728644898394123, 7609647.243702821433544 ], [ 438453.989057556609623, 7609243.845136163756251 ], [ 438694.48257741087582, 7608921.36726934555918 ] ] ] } },
{ "type": "Feature", "properties": { "fid": 134.0, "COMPR_M": 917.84, "CLASSE": "05 - Muito longa", "CD_FAZ": "403978", "TALHOES": "1", "FAZ_tAL": "403978001", "ID_LINHA": 242492 }, "geometry": { "type": "MultiLineString", "coordinates": [ [ [ 438147.460435391112696, 7609656.583587377332151 ], [ 438456.38876190292649, 7609245.645541832782328 ], [ 438697.557589450327214, 7608922.262163891457021 ] ] ] } },
{ "type": "Feature", "properties": { "fid": 135.0, "COMPR_M": 918.73, "CLASSE": "05 - Muito longa", "CD_FAZ": "403978", "TALHOES": "1", "FAZ_tAL": "403978001", "ID_LINHA": 242493 }, "geometry": { "type": "MultiLineString", "coordinates": [ [ [ 438149.981635188567452, 7609658.222369965165854 ], [ 438458.790193385095336, 7609247.443640846759081 ], [ 438700.61124302749522, 7608923.185698004439473 ] ] ] } },
{ "type": "Feature", "properties": { "fid": 136.0, "COMPR_M": 919.6, "CLASSE": "05 - Muito longa", "CD_FAZ": "403978", "TALHOES": "1", "FAZ_tAL": "403978001", "ID_LINHA": 242494 }, "geometry": { "type": "MultiLineString", "coordinates": [ [ [ 438152.502834982355125, 7609659.861152548342943 ], [ 438461.192490644054487, 7609249.240588193759322 ], [ 438703.649929416715167, 7608924.129301629960537 ] ] ] } },
{ "type": "Feature", "properties": { "fid": 137.0, "COMPR_M": 920.45, "CLASSE": "05 - Muito longa", "CD_FAZ": "403978", "TALHOES": "1", "FAZ_tAL": "403978001", "ID_LINHA": 242495 }, "geometry": { "type": "MultiLineString", "coordinates": [ [ [ 438155.024034779693466, 7609661.499935133382678 ], [ 438463.593056341225747, 7609251.039838874712586 ], [ 438706.679733393189963, 7608925.084815686568618 ] ] ] } },
{ "type": "Feature", "properties": { "fid": 138.0, "COMPR_M": 921.3, "CLASSE": "05 - Muito longa", "CD_FAZ": "403978", "TALHOES": "1", "FAZ_tAL": "403978001", "ID_LINHA": 242496 }, "geometry": { "type": "MultiLineString", "coordinates": [ [ [ 438157.545234573888592, 7609663.138717722147703 ], [ 438465.994487821822986, 7609252.837937884964049 ], [ 438709.706546615634579, 7608926.044340044260025 ] ] ] } },
{ "type": "Feature", "properties": { "fid": 139.0, "COMPR_M": 922.15, "CLASSE": "05 - Muito longa", "CD_FAZ": "403978", "TALHOES": "1", "FAZ_tAL": "403978001", "ID_LINHA": 242497 }, "geometry": { "type": "MultiLineString", "coordinates": [ [ [ 438160.066434369655326, 7609664.777500303462148 ], [ 438468.395919300441165, 7609254.636036904528737 ], [ 438712.736171614844352, 7608927.000094095245004 ] ] ] } },
{ "type": "Feature", "properties": { "fid": 140.0, "COMPR_M": 923.02, "CLASSE": "05 - Muito longa", "CD_FAZ": "403978", "TALHOES": "1", "FAZ_tAL": "403978001", "ID_LINHA": 242498 }, "geometry": { "type": "MultiLineString", "coordinates": [ [ [ 438162.587634164374322, 7609666.416282888501883 ], [ 438470.797350779292174, 7609256.4341359147802 ], [ 438715.774409241974354, 7608927.944299471564591 ] ] ] } },
{ "type": "Feature", "properties": { "fid": 141.0, "COMPR_M": 923.91, "CLASSE": "05 - Muito longa", "CD_FAZ": "403978", "TALHOES": "1", "FAZ_tAL": "403978001", "ID_LINHA": 242499 }, "geometry": { "type": "MultiLineString", "coordinates": [ [ [ 438165.108833959908225, 7609668.055065475404263 ], [ 438473.199648041045293, 7609258.231083263643086 ], [ 438718.826965082611423, 7608928.869305530562997 ] ] ] } },
{ "type": "Feature", "properties": { "fid": 142.0, "COMPR_M": 924.83, "CLASSE": "05 - Muito longa", "CD_FAZ": "403978", "TALHOES": "1", "FAZ_tAL": "403978001", "ID_LINHA": 242500 }, "geometry": { "type": "MultiLineString", "coordinates": [ [ [ 438167.630033757654019, 7609669.693848062306643 ], [ 438475.600213739206083, 7609260.030333947390318 ], [ 438721.898705110128503, 7608929.768587523140013 ] ] ] } },
{ "type": "Feature", "properties": { "fid": 143.0, "COMPR_M": 925.79, "CLASSE": "05 - Muito longa", "CD_FAZ": "403978", "TALHOES": "1", "FAZ_tAL": "403978001", "ID_LINHA": 242501 }, "geometry": { "type": "MultiLineString", "coordinates": [ [ [ 438170.151233551092446, 7609671.332630645483732 ], [ 438478.001645216427278, 7609261.828432955779135 ], [ 438724.994644378079101, 7608930.635420735925436 ] ] ] } },
{ "type": "Feature", "properties": { "fid": 144.0, "COMPR_M": 926.8, "CLASSE": "05 - Muito longa", "CD_FAZ": "403978", "TALHOES": "1", "FAZ_tAL": "403978001", "ID_LINHA": 242502 }, "geometry": { "type": "MultiLineString", "coordinates": [ [ [ 438172.672433345403988, 7609672.971413232386112 ], [ 438480.403076696326025, 7609263.626531976275146 ], [ 438728.120047659031115, 7608931.462745640426874 ] ] ] } },
{ "type": "Feature", "properties": { "fid": 145.0, "COMPR_M": 927.87, "CLASSE": "05 - Muito longa", "CD_FAZ": "403978", "TALHOES": "1", "FAZ_tAL": "403978001", "ID_LINHA": 242503 }, "geometry": { "type": "MultiLineString", "coordinates": [ [ [ 438175.193633145827334, 7609674.610195817425847 ], [ 438482.804508175118826, 7609265.424630988389254 ], [ 438731.279282668721862, 7608932.244705565273762 ] ] ] } },
{ "type": "Feature", "properties": { "fid": 146.0, "COMPR_M": 929.01, "CLASSE": "05 - Muito longa", "CD_FAZ": "403978", "TALHOES": "1", "FAZ_tAL": "403978001", "ID_LINHA": 242504 }, "geometry": { "type": "MultiLineString", "coordinates": [ [ [ 438177.714832939265762, 7609676.248978402465582 ], [ 438485.20593965461012, 7609267.222730001434684 ], [ 438734.477714078966528, 7608932.974107025191188 ] ] ] } },
{ "type": "Feature", "properties": { "fid": 147.0, "COMPR_M": 930.22, "CLASSE": "05 - Muito longa", "CD_FAZ": "403978", "TALHOES": "1", "FAZ_tAL": "403978001", "ID_LINHA": 242505 }, "geometry": { "type": "MultiLineString", "coordinates": [ [ [ 438180.236032733635511, 7609677.887760987505317 ], [ 438487.607371132296976, 7609269.020829014480114 ], [ 438737.721117528039031, 7608933.643205451779068 ] ] ] } },
{ "type": "Feature", "properties": { "fid": 148.0, "COMPR_M": 931.59, "CLASSE": "05 - Muito longa", "CD_FAZ": "403978", "TALHOES": "1", "FAZ_tAL": "403978001", "ID_LINHA": 242506 }, "geometry": { "type": "MultiLineString", "coordinates": [ [ [ 438182.757232528121676, 7609679.526543574407697 ], [ 438490.01052974461345, 7609270.816621379926801 ], [ 438741.062964188458864, 7608934.180301331914961 ] ] ] } },
{ "type": "Feature", "properties": { "fid": 149.0, "COMPR_M": 932.89, "CLASSE": "05 - Muito longa", "CD_FAZ": "403978", "TALHOES": "1", "FAZ_tAL": "403978001", "ID_LINHA": 242507 }, "geometry": { "type": "MultiLineString", "coordinates": [ [ [ 438185.27843232487794, 7609681.165326156653464 ], [ 438492.411961223639082, 7609272.614720391109586 ], [ 438744.359286703285761, 7608934.778440564870834 ] ] ] } },
{ "type": "Feature", "properties": { "fid": 150.0, "COMPR_M": 934.35, "CLASSE": "05 - Muito longa", "CD_FAZ": "403978", "TALHOES": "1", "FAZ_tAL": "403978001", "ID_LINHA": 242508 }, "geometry": { "type": "MultiLineString", "coordinates": [ [ [ 438187.799632120528258, 7609682.804108742624521 ], [ 438494.811665570538025, 7609274.415126061066985 ], [ 438747.750876755919307, 7608935.248835509642959 ] ] ] } },
{ "type": "Feature", "properties": { "fid": 151.0, "COMPR_M": 935.88, "CLASSE": "05 - Muito longa", "CD_FAZ": "403978", "TALHOES": "1", "FAZ_tAL": "403978001", "ID_LINHA": 242509 }, "geometry": { "type": "MultiLineString", "coordinates": [ [ [ 438190.320831916411407, 7609684.442891329526901 ], [ 438497.213097050611395, 7609276.213225070387125 ], [ 438751.185732370708138, 7608935.661215647123754 ] ] ] } }
]
}
