{
"type": "FeatureCollection",
"name": "403995",
"crs": { "type": "name", "properties": { "name": "urn:ogc:def:crs:EPSG::32722" } },
"xy_coordinate_resolution": 1e-15,
"features": [
{ "type": "Feature", "properties": { "fid": 1.0, "COMPR_M": 911.6, "CLASSE": "05 - Muito longa", "CD_FAZ": "403995", "TALHOES": "1", "FAZ_tAL": "403995001", "ID_LINHA": 245660 }, "geometry": { "type": "MultiLineString", "coordinates": [ [ [ 415442.799047076667193, 7622394.878275079652667 ], [ 416115.491358343453612, 7621780.077527588233352 ] ] ] } },
{ "type": "Feature", "properties": { "fid": 2.0, "COMPR_M": 911.9, "CLASSE": "05 - Muito longa", "CD_FAZ": "403995", "TALHOES": "1", "FAZ_tAL": "403995001", "ID_LINHA": 245661 }, "geometry": { "type": "MultiLineString", "coordinates": [ [ [ 415444.25312842609128, 7622397.613514449447393 ], [ 416117.168686968274415, 7621782.608732234686613 ] ] ] } },
{ "type": "Feature", "properties": { "fid": 3.0, "COMPR_M": 912.2, "CLASSE": "05 - Muito longa", "CD_FAZ": "403995", "TALHOES": "1", "FAZ_tAL": "403995001", "ID_LINHA": 245662 }, "geometry": { "type": "MultiLineString", "coordinates": [ [ [ 415445.707209777203389, 7622400.348753821104765 ], [ 416118.846015591465402, 7621785.139936880208552 ] ] ] } },
{ "type": "Feature", "properties": { "fid": 4.0, "COMPR_M": 912.51, "CLASSE": "05 - Muito longa", "CD_FAZ": "403995", "TALHOES": "1", "FAZ_tAL": "403995001", "ID_LINHA": 245663 }, "geometry": { "type": "MultiLineString", "coordinates": [ [ [ 415447.161291126627475, 7622403.083993191830814 ], [ 416120.523344217042904, 7621787.671141525730491 ] ] ] } },
{ "type": "Feature", "properties": { "fid": 5.0, "COMPR_M": 912.81, "CLASSE": "05 - Muito longa", "CD_FAZ": "403995", "TALHOES": "1", "FAZ_tAL": "403995001", "ID_LINHA": 245664 }, "geometry": { "type": "MultiLineString", "coordinates": [ [ [ 415448.61537247907836, 7622405.819232562556863 ], [ 416122.200672842329368, 7621790.202346170321107 ] ] ] } },
{ "type": "Feature", "properties": { "fid": 6.0, "COMPR_M": 913.11, "CLASSE": "05 - Muito longa", "CD_FAZ": "403995", "TALHOES": "1", "FAZ_tAL": "403995001", "ID_LINHA": 245665 }, "geometry": { "type": "MultiLineString", "coordinates": [ [ [ 415450.069453827862162, 7622408.554471932351589 ], [ 416123.878001465345733, 7621792.733550813980401 ] ] ] } },
{ "type": "Feature", "properties": { "fid": 7.0, "COMPR_M": 913.41, "CLASSE": "05 - Muito longa", "CD_FAZ": "403995", "TALHOES": "1", "FAZ_tAL": "403995001", "ID_LINHA": 245666 }, "geometry": { "type": "MultiLineString", "coordinates": [ [ [ 415451.523535178275779, 7622411.289711303077638 ], [ 416125.555330090806819, 7621795.264755459502339 ] ] ] } },
{ "type": "Feature", "properties": { "fid": 8.0, "COMPR_M": 913.72, "CLASSE": "05 - Muito longa", "CD_FAZ": "403995", "TALHOES": "1", "FAZ_tAL": "403995001", "ID_LINHA": 245667 }, "geometry": { "type": "MultiLineString", "coordinates": [ [ [ 415452.977616529096849, 7622414.024950673803687 ], [ 416127.232658715278376, 7621797.795960103161633 ] ] ] } },
{ "type": "Feature", "properties": { "fid": 9.0, "COMPR_M": 914.02, "CLASSE": "05 - Muito longa", "CD_FAZ": "403995", "TALHOES": "1", "FAZ_tAL": "403995001", "ID_LINHA": 245668 }, "geometry": { "type": "MultiLineString", "coordinates": [ [ [ 415454.431697880849242, 7622416.760190041735768 ], [ 416128.909987340099178, 7621800.327164748683572 ] ] ] } },
{ "type": "Feature", "properties": { "fid": 10.0, "COMPR_M": 914.32, "CLASSE": "05 - Muito longa", "CD_FAZ": "403995", "TALHOES": "1", "FAZ_tAL": "403995001", "ID_LINHA": 245669 }, "geometry": { "type": "MultiLineString", "coordinates": [ [ [ 415455.885779230273329, 7622419.495429415255785 ], [ 416130.58731596468715, 7621802.858369395136833 ] ] ] } },
{ "type": "Feature", "properties": { "fid": 11.0, "COMPR_M": 914.63, "CLASSE": "05 - Muito longa", "CD_FAZ": "403995", "TALHOES": "1", "FAZ_tAL": "403995001", "ID_LINHA": 245670 }, "geometry": { "type": "MultiLineString", "coordinates": [ [ [ 415457.339860582724214, 7622422.230668785050511 ], [ 416132.26464459032286, 7621805.389574037864804 ] ] ] } },
{ "type": "Feature", "properties": { "fid": 12.0, "COMPR_M": 914.93, "CLASSE": "05 - Muito longa", "CD_FAZ": "403995", "TALHOES": "1", "FAZ_tAL": "403995001", "ID_LINHA": 245671 }, "geometry": { "type": "MultiLineString", "coordinates": [ [ [ 415458.793941931566224, 7622424.965908154845238 ], [ 416133.941973214328755, 7621807.920778684318066 ] ] ] } },
{ "type": "Feature", "properties": { "fid": 13.0, "COMPR_M": 915.23, "CLASSE": "05 - Muito longa", "CD_FAZ": "403995", "TALHOES": "1", "FAZ_tAL": "403995001", "ID_LINHA": 245672 }, "geometry": { "type": "MultiLineString", "coordinates": [ [ [ 415460.248023282678332, 7622427.701147522777319 ], [ 416135.619301838742103, 7621810.451983328908682 ] ] ] } },
{ "type": "Feature", "properties": { "fid": 14.0, "COMPR_M": 915.53, "CLASSE": "05 - Muito longa", "CD_FAZ": "403995", "TALHOES": "1", "FAZ_tAL": "403995001", "ID_LINHA": 245673 }, "geometry": { "type": "MultiLineString", "coordinates": [ [ [ 415461.702104633441195, 7622430.436386895366013 ], [ 416137.29663046420319, 7621812.983187973499298 ] ] ] } },
{ "type": "Feature", "properties": { "fid": 15.0, "COMPR_M": 915.84, "CLASSE": "05 - Muito longa", "CD_FAZ": "403995", "TALHOES": "1", "FAZ_tAL": "403995001", "ID_LINHA": 245674 }, "geometry": { "type": "MultiLineString", "coordinates": [ [ [ 415463.156185982632451, 7622433.171626264229417 ], [ 416138.973959088034462, 7621815.514392618089914 ] ] ] } },
{ "type": "Feature", "properties": { "fid": 16.0, "COMPR_M": 916.14, "CLASSE": "05 - Muito longa", "CD_FAZ": "403995", "TALHOES": "1", "FAZ_tAL": "403995001", "ID_LINHA": 245675 }, "geometry": { "type": "MultiLineString", "coordinates": [ [ [ 415464.610267334035598, 7622435.906865634024143 ], [ 416140.651287713553756, 7621818.045597262680531 ] ] ] } },
{ "type": "Feature", "properties": { "fid": 17.0, "COMPR_M": 916.44, "CLASSE": "05 - Muito longa", "CD_FAZ": "403995", "TALHOES": "1", "FAZ_tAL": "403995001", "ID_LINHA": 245676 }, "geometry": { "type": "MultiLineString", "coordinates": [ [ [ 415466.064348684449214, 7622438.64210500381887 ], [ 416142.328616338782012, 7621820.576801909133792 ] ] ] } },
{ "type": "Feature", "properties": { "fid": 18.0, "COMPR_M": 916.74, "CLASSE": "05 - Muito longa", "CD_FAZ": "403995", "TALHOES": "1", "FAZ_tAL": "403995001", "ID_LINHA": 245677 }, "geometry": { "type": "MultiLineString", "coordinates": [ [ [ 415467.518430035212077, 7622441.377344377338886 ], [ 416144.005944963777438, 7621823.108006553724408 ] ] ] } },
{ "type": "Feature", "properties": { "fid": 19.0, "COMPR_M": 917.05, "CLASSE": "05 - Muito longa", "CD_FAZ": "403995", "TALHOES": "1", "FAZ_tAL": "403995001", "ID_LINHA": 245678 }, "geometry": { "type": "MultiLineString", "coordinates": [ [ [ 415468.972511385683902, 7622444.11258374620229 ], [ 416145.683273587143049, 7621825.639211196452379 ] ] ] } },
{ "type": "Feature", "properties": { "fid": 20.0, "COMPR_M": 917.35, "CLASSE": "05 - Muito longa", "CD_FAZ": "403995", "TALHOES": "1", "FAZ_tAL": "403995001", "ID_LINHA": 245679 }, "geometry": { "type": "MultiLineString", "coordinates": [ [ [ 415470.426592735748272, 7622446.847823115065694 ], [ 416147.360602212196682, 7621828.170415842905641 ] ] ] } },
{ "type": "Feature", "properties": { "fid": 21.0, "COMPR_M": 917.65, "CLASSE": "05 - Muito longa", "CD_FAZ": "403995", "TALHOES": "1", "FAZ_tAL": "403995001", "ID_LINHA": 245680 }, "geometry": { "type": "MultiLineString", "coordinates": [ [ [ 415471.880674086802173, 7622449.583062486723065 ], [ 416149.037930837599561, 7621830.701620485633612 ] ] ] } },
{ "type": "Feature", "properties": { "fid": 22.0, "COMPR_M": 917.95, "CLASSE": "05 - Muito longa", "CD_FAZ": "403995", "TALHOES": "1", "FAZ_tAL": "403995001", "ID_LINHA": 245681 }, "geometry": { "type": "MultiLineString", "coordinates": [ [ [ 415473.334755436866544, 7622452.318301856517792 ], [ 416150.715259462129325, 7621833.232825132086873 ] ] ] } },
{ "type": "Feature", "properties": { "fid": 23.0, "COMPR_M": 918.26, "CLASSE": "05 - Muito longa", "CD_FAZ": "403995", "TALHOES": "1", "FAZ_tAL": "403995001", "ID_LINHA": 245682 }, "geometry": { "type": "MultiLineString", "coordinates": [ [ [ 415474.788836787280161, 7622455.053541228175163 ], [ 416152.392588086309843, 7621835.764029776677489 ] ] ] } },
{ "type": "Feature", "properties": { "fid": 24.0, "COMPR_M": 750.11, "CLASSE": "04 - Longa", "CD_FAZ": "403995", "TALHOES": "1", "FAZ_tAL": "403995001", "ID_LINHA": 245683 }, "geometry": { "type": "MultiLineString", "coordinates": [ [ [ 415600.544466786785051, 7622344.184561040252447 ], [ 416154.069916711538099, 7621838.29523441940546 ] ] ] } },
{ "type": "Feature", "properties": { "fid": 25.0, "COMPR_M": 79.85, "CLASSE": "01 - Muito curta", "CD_FAZ": "403995", "TALHOES": "1", "FAZ_tAL": "403995001", "ID_LINHA": 245684 }, "geometry": { "type": "MultiLineString", "coordinates": [ [ [ 415476.242918137984816, 7622457.78878059796989 ], [ 415535.165733973495662, 7622403.936832815408707 ] ] ] } },
{ "type": "Feature", "properties": { "fid": 26.0, "COMPR_M": 747.6, "CLASSE": "04 - Longa", "CD_FAZ": "403995", "TALHOES": "1", "FAZ_tAL": "403995001", "ID_LINHA": 245685 }, "geometry": { "type": "MultiLineString", "coordinates": [ [ [ 415604.076489649829455, 7622345.020685505121946 ], [ 416155.747245335776825, 7621840.826439067721367 ] ] ] } },
{ "type": "Feature", "properties": { "fid": 27.0, "COMPR_M": 745.08, "CLASSE": "04 - Longa", "CD_FAZ": "403995", "TALHOES": "1", "FAZ_tAL": "403995001", "ID_LINHA": 245686 }, "geometry": { "type": "MultiLineString", "coordinates": [ [ [ 415607.608512513979804, 7622345.8568099681288 ], [ 416157.424573961063288, 7621843.357643710449338 ] ] ] } },
{ "type": "Feature", "properties": { "fid": 28.0, "COMPR_M": 742.57, "CLASSE": "04 - Longa", "CD_FAZ": "403995", "TALHOES": "1", "FAZ_tAL": "403995001", "ID_LINHA": 245687 }, "geometry": { "type": "MultiLineString", "coordinates": [ [ [ 415611.14053537719883, 7622346.692934434860945 ], [ 416159.101902584719937, 7621845.888848356902599 ] ] ] } },
{ "type": "Feature", "properties": { "fid": 29.0, "COMPR_M": 740.06, "CLASSE": "04 - Longa", "CD_FAZ": "403995", "TALHOES": "1", "FAZ_tAL": "403995001", "ID_LINHA": 245688 }, "geometry": { "type": "MultiLineString", "coordinates": [ [ [ 415614.672558240767103, 7622347.529058897867799 ], [ 416160.779231210122816, 7621848.420053000561893 ] ] ] } },
{ "type": "Feature", "properties": { "fid": 30.0, "COMPR_M": 181.75, "CLASSE": "02 - Curta", "CD_FAZ": "403995", "TALHOES": "1", "FAZ_tAL": "403995001", "ID_LINHA": 245689 }, "geometry": { "type": "MultiLineString", "coordinates": [ [ [ 416028.335889858193696, 7621973.529569860547781 ], [ 416162.456559835176449, 7621850.951257646083832 ] ] ] } },
{ "type": "Feature", "properties": { "fid": 31.0, "COMPR_M": 549.04, "CLASSE": "03 - Média", "CD_FAZ": "403995", "TALHOES": "1", "FAZ_tAL": "403995001", "ID_LINHA": 245690 }, "geometry": { "type": "MultiLineString", "coordinates": [ [ [ 415618.204581104684621, 7622348.365183361805975 ], [ 416023.353526018210687, 7621978.083153962157667 ] ] ] } },
{ "type": "Feature", "properties": { "fid": 32.0, "COMPR_M": 176.08, "CLASSE": "02 - Curta", "CD_FAZ": "403995", "TALHOES": "1", "FAZ_tAL": "403995001", "ID_LINHA": 245691 }, "geometry": { "type": "MultiLineString", "coordinates": [ [ [ 416034.198416578990873, 7621972.235752465203404 ], [ 416164.133888459939044, 7621853.482462290674448 ] ] ] } },
{ "type": "Feature", "properties": { "fid": 33.0, "COMPR_M": 544.68, "CLASSE": "03 - Média", "CD_FAZ": "403995", "TALHOES": "1", "FAZ_tAL": "403995001", "ID_LINHA": 245692 }, "geometry": { "type": "MultiLineString", "coordinates": [ [ [ 415621.736603969067801, 7622349.201307825744152 ], [ 416023.67326286144089, 7621981.855116718448699 ] ] ] } },
{ "type": "Feature", "properties": { "fid": 34.0, "COMPR_M": 171.93, "CLASSE": "02 - Curta", "CD_FAZ": "403995", "TALHOES": "1", "FAZ_tAL": "403995001", "ID_LINHA": 245693 }, "geometry": { "type": "MultiLineString", "coordinates": [ [ [ 416038.940404472872615, 7621971.966040886007249 ], [ 416165.811217083770316, 7621856.013666936196387 ] ] ] } },
{ "type": "Feature", "properties": { "fid": 35.0, "COMPR_M": 541.38, "CLASSE": "03 - Média", "CD_FAZ": "403995", "TALHOES": "1", "FAZ_tAL": "403995001", "ID_LINHA": 245694 }, "geometry": { "type": "MultiLineString", "coordinates": [ [ [ 415625.268626832519658, 7622350.037432290613651 ], [ 416024.767303006839938, 7621984.919412328861654 ] ] ] } },
{ "type": "Feature", "properties": { "fid": 36.0, "COMPR_M": 168.81, "CLASSE": "02 - Curta", "CD_FAZ": "403995", "TALHOES": "1", "FAZ_tAL": "403995001", "ID_LINHA": 245695 }, "geometry": { "type": "MultiLineString", "coordinates": [ [ [ 416042.917393938929308, 7621972.395492349751294 ], [ 416167.48854570928961, 7621858.544871580787003 ] ] ] } },
{ "type": "Feature", "properties": { "fid": 37.0, "COMPR_M": 537.91, "CLASSE": "03 - Média", "CD_FAZ": "403995", "TALHOES": "1", "FAZ_tAL": "403995001", "ID_LINHA": 245696 }, "geometry": { "type": "MultiLineString", "coordinates": [ [ [ 415628.800649697019253, 7622350.87355675175786 ], [ 416025.741535382287111, 7621988.093205112963915 ] ] ] } },
{ "type": "Feature", "properties": { "fid": 38.0, "COMPR_M": 167.24, "CLASSE": "02 - Curta", "CD_FAZ": "403995", "TALHOES": "1", "FAZ_tAL": "403995001", "ID_LINHA": 245697 }, "geometry": { "type": "MultiLineString", "coordinates": [ [ [ 416045.758799890405498, 7621973.862799579277635 ], [ 416169.165874333819374, 7621861.076076226308942 ] ] ] } },
{ "type": "Feature", "properties": { "fid": 39.0, "COMPR_M": 535.58, "CLASSE": "03 - Média", "CD_FAZ": "403995", "TALHOES": "1", "FAZ_tAL": "403995001", "ID_LINHA": 245698 }, "geometry": { "type": "MultiLineString", "coordinates": [ [ [ 415632.332672560529318, 7622351.709681218490005 ], [ 416027.549086884595454, 7621990.505393795669079 ] ] ] } },
{ "type": "Feature", "properties": { "fid": 40.0, "COMPR_M": 166.81, "CLASSE": "02 - Curta", "CD_FAZ": "403995", "TALHOES": "1", "FAZ_tAL": "403995001", "ID_LINHA": 245699 }, "geometry": { "type": "MultiLineString", "coordinates": [ [ [ 416047.751036470348481, 7621976.106197089888155 ], [ 416170.843202958698384, 7621863.607280872762203 ] ] ] } },
{ "type": "Feature", "properties": { "fid": 41.0, "COMPR_M": 534.54, "CLASSE": "03 - Média", "CD_FAZ": "403995", "TALHOES": "1", "FAZ_tAL": "403995001", "ID_LINHA": 245700 }, "geometry": { "type": "MultiLineString", "coordinates": [ [ [ 415635.864695424446836, 7622352.545805683359504 ], [ 416030.314211176650133, 7621992.042417922988534 ] ] ] } },
{ "type": "Feature", "properties": { "fid": 42.0, "COMPR_M": 722.46, "CLASSE": "04 - Longa", "CD_FAZ": "403995", "TALHOES": "1", "FAZ_tAL": "403995001", "ID_LINHA": 245701 }, "geometry": { "type": "MultiLineString", "coordinates": [ [ [ 415639.39671828749124, 7622353.381930148229003 ], [ 416172.520531582646072, 7621866.138485517352819 ] ] ] } },
{ "type": "Feature", "properties": { "fid": 43.0, "COMPR_M": 719.95, "CLASSE": "04 - Longa", "CD_FAZ": "403995", "TALHOES": "1", "FAZ_tAL": "403995001", "ID_LINHA": 245702 }, "geometry": { "type": "MultiLineString", "coordinates": [ [ [ 415642.928741151583381, 7622354.218054609373212 ], [ 416174.197860208281782, 7621868.669690159149468 ] ] ] } },
{ "type": "Feature", "properties": { "fid": 44.0, "COMPR_M": 717.44, "CLASSE": "04 - Longa", "CD_FAZ": "403995", "TALHOES": "1", "FAZ_tAL": "403995001", "ID_LINHA": 245703 }, "geometry": { "type": "MultiLineString", "coordinates": [ [ [ 415646.460764014103916, 7622355.054179073311388 ], [ 416175.875188831647392, 7621871.200894805602729 ] ] ] } },
{ "type": "Feature", "properties": { "fid": 45.0, "COMPR_M": 714.92, "CLASSE": "04 - Longa", "CD_FAZ": "403995", "TALHOES": "1", "FAZ_tAL": "403995001", "ID_LINHA": 245704 }, "geometry": { "type": "MultiLineString", "coordinates": [ [ [ 415649.992786878952757, 7622355.89030353911221 ], [ 416177.552517457981594, 7621873.7320994483307 ] ] ] } },
{ "type": "Feature", "properties": { "fid": 46.0, "COMPR_M": 712.41, "CLASSE": "04 - Longa", "CD_FAZ": "403995", "TALHOES": "1", "FAZ_tAL": "403995001", "ID_LINHA": 245705 }, "geometry": { "type": "MultiLineString", "coordinates": [ [ [ 415653.524809742928483, 7622356.726428002119064 ], [ 416179.22984608070692, 7621876.263304096646607 ] ] ] } },
{ "type": "Feature", "properties": { "fid": 47.0, "COMPR_M": 709.9, "CLASSE": "04 - Longa", "CD_FAZ": "403995", "TALHOES": "1", "FAZ_tAL": "403995001", "ID_LINHA": 245706 }, "geometry": { "type": "MultiLineString", "coordinates": [ [ [ 415657.056832605914678, 7622357.562552468851209 ], [ 416180.907174705760553, 7621878.794508741237223 ] ] ] } },
{ "type": "Feature", "properties": { "fid": 48.0, "COMPR_M": 707.38, "CLASSE": "04 - Longa", "CD_FAZ": "403995", "TALHOES": "1", "FAZ_tAL": "403995001", "ID_LINHA": 245707 }, "geometry": { "type": "MultiLineString", "coordinates": [ [ [ 415660.588855470647104, 7622358.398676932789385 ], [ 416182.58450333122164, 7621881.325713384896517 ] ] ] } },
{ "type": "Feature", "properties": { "fid": 49.0, "COMPR_M": 704.87, "CLASSE": "04 - Longa", "CD_FAZ": "403995", "TALHOES": "1", "FAZ_tAL": "403995001", "ID_LINHA": 245708 }, "geometry": { "type": "MultiLineString", "coordinates": [ [ [ 415664.120878333807923, 7622359.234801396727562 ], [ 416184.261831954994705, 7621883.856918029487133 ] ] ] } },
{ "type": "Feature", "properties": { "fid": 50.0, "COMPR_M": 702.36, "CLASSE": "04 - Longa", "CD_FAZ": "403995", "TALHOES": "1", "FAZ_tAL": "403995001", "ID_LINHA": 245709 }, "geometry": { "type": "MultiLineString", "coordinates": [ [ [ 415667.652901198074687, 7622360.070925860665739 ], [ 416185.939160581154283, 7621886.388122674077749 ] ] ] } },
{ "type": "Feature", "properties": { "fid": 51.0, "COMPR_M": 699.84, "CLASSE": "04 - Longa", "CD_FAZ": "403995", "TALHOES": "1", "FAZ_tAL": "403995001", "ID_LINHA": 245710 }, "geometry": { "type": "MultiLineString", "coordinates": [ [ [ 415671.184924060711637, 7622360.907050324603915 ], [ 416187.61648920562584, 7621888.919327320531011 ] ] ] } },
{ "type": "Feature", "properties": { "fid": 52.0, "COMPR_M": 697.33, "CLASSE": "04 - Longa", "CD_FAZ": "403995", "TALHOES": "1", "FAZ_tAL": "403995001", "ID_LINHA": 245711 }, "geometry": { "type": "MultiLineString", "coordinates": [ [ [ 415674.716946924454533, 7622361.743174789473414 ], [ 416189.293817829806358, 7621891.450531963258982 ] ] ] } },
{ "type": "Feature", "properties": { "fid": 53.0, "COMPR_M": 115.47, "CLASSE": "02 - Curta", "CD_FAZ": "403995", "TALHOES": "1", "FAZ_tAL": "403995001", "ID_LINHA": 245712 }, "geometry": { "type": "MultiLineString", "coordinates": [ [ [ 416105.760331611265428, 7621971.859351353719831 ], [ 416190.971146455034614, 7621893.981736607849598 ] ] ] } },
{ "type": "Feature", "properties": { "fid": 54.0, "COMPR_M": 511.46, "CLASSE": "03 - Média", "CD_FAZ": "403995", "TALHOES": "1", "FAZ_tAL": "403995001", "ID_LINHA": 245713 }, "geometry": { "type": "MultiLineString", "coordinates": [ [ [ 415678.248969789245166, 7622362.579299252480268 ], [ 416055.666356051689945, 7622017.642264438793063 ] ] ] } },
{ "type": "Feature", "properties": { "fid": 55.0, "COMPR_M": 113.01, "CLASSE": "02 - Curta", "CD_FAZ": "403995", "TALHOES": "1", "FAZ_tAL": "403995001", "ID_LINHA": 245714 }, "geometry": { "type": "MultiLineString", "coordinates": [ [ [ 416109.256327012204565, 7621972.728402778506279 ], [ 416192.648475079913624, 7621896.512941252440214 ] ] ] } },
{ "type": "Feature", "properties": { "fid": 56.0, "COMPR_M": 506.41, "CLASSE": "03 - Média", "CD_FAZ": "403995", "TALHOES": "1", "FAZ_tAL": "403995001", "ID_LINHA": 245715 }, "geometry": { "type": "MultiLineString", "coordinates": [ [ [ 415681.780992652464192, 7622363.415423717349768 ], [ 416055.474006754579023, 7622021.882243460044265 ] ] ] } },
{ "type": "Feature", "properties": { "fid": 57.0, "COMPR_M": 111.88, "CLASSE": "02 - Curta", "CD_FAZ": "403995", "TALHOES": "1", "FAZ_tAL": "403995001", "ID_LINHA": 245716 }, "geometry": { "type": "MultiLineString", "coordinates": [ [ [ 416111.763712561805733, 7621974.500984782353044 ], [ 416194.32580370514188, 7621899.044145897962153 ] ] ] } },
{ "type": "Feature", "properties": { "fid": 58.0, "COMPR_M": 501.5, "CLASSE": "03 - Média", "CD_FAZ": "403995", "TALHOES": "1", "FAZ_tAL": "403995001", "ID_LINHA": 245717 }, "geometry": { "type": "MultiLineString", "coordinates": [ [ [ 415685.313015516730957, 7622364.251548184081912 ], [ 416055.380957058281638, 7622026.031468553468585 ] ] ] } },
{ "type": "Feature", "properties": { "fid": 59.0, "COMPR_M": 111.44, "CLASSE": "02 - Curta", "CD_FAZ": "403995", "TALHOES": "1", "FAZ_tAL": "403995001", "ID_LINHA": 245718 }, "geometry": { "type": "MultiLineString", "coordinates": [ [ [ 416113.768878705624957, 7621976.732565438374877 ], [ 416196.003132328100037, 7621901.575350542552769 ] ] ] } },
{ "type": "Feature", "properties": { "fid": 60.0, "COMPR_M": 496.62, "CLASSE": "03 - Média", "CD_FAZ": "403995", "TALHOES": "1", "FAZ_tAL": "403995001", "ID_LINHA": 245719 }, "geometry": { "type": "MultiLineString", "coordinates": [ [ [ 415688.845038380124606, 7622365.087672647088766 ], [ 416055.312348589184694, 7622030.158355819061399 ] ] ] } },
{ "type": "Feature", "properties": { "fid": 61.0, "COMPR_M": 111.19, "CLASSE": "02 - Curta", "CD_FAZ": "403995", "TALHOES": "1", "FAZ_tAL": "403995001", "ID_LINHA": 245720 }, "geometry": { "type": "MultiLineString", "coordinates": [ [ [ 416115.629240714537445, 7621979.096488463692367 ], [ 416197.6804609533865, 7621904.106555189937353 ] ] ] } },
{ "type": "Feature", "properties": { "fid": 62.0, "COMPR_M": 491.81, "CLASSE": "03 - Média", "CD_FAZ": "403995", "TALHOES": "1", "FAZ_tAL": "403995001", "ID_LINHA": 245721 }, "geometry": { "type": "MultiLineString", "coordinates": [ [ [ 415692.377061243983917, 7622365.92379711009562 ], [ 416055.299503635033034, 7622034.234278552234173 ] ] ] } },
{ "type": "Feature", "properties": { "fid": 63.0, "COMPR_M": 110.94, "CLASSE": "02 - Curta", "CD_FAZ": "403995", "TALHOES": "1", "FAZ_tAL": "403995001", "ID_LINHA": 245722 }, "geometry": { "type": "MultiLineString", "coordinates": [ [ [ 416117.492396290355828, 7621981.457858331501484 ], [ 416199.357789578323718, 7621906.637759834527969 ] ] ] } },
{ "type": "Feature", "properties": { "fid": 64.0, "COMPR_M": 487.1, "CLASSE": "03 - Média", "CD_FAZ": "403995", "TALHOES": "1", "FAZ_tAL": "403995001", "ID_LINHA": 245723 }, "geometry": { "type": "MultiLineString", "coordinates": [ [ [ 415695.909084107493982, 7622366.759921573102474 ], [ 416055.353873368818313, 7622038.24877105653286 ] ] ] } },
{ "type": "Feature", "properties": { "fid": 65.0, "COMPR_M": 110.69, "CLASSE": "02 - Curta", "CD_FAZ": "403995", "TALHOES": "1", "FAZ_tAL": "403995001", "ID_LINHA": 245724 }, "geometry": { "type": "MultiLineString", "coordinates": [ [ [ 416119.351681684202049, 7621983.822765313088894 ], [ 416201.035118202969898, 7621909.16896447725594 ] ] ] } },
{ "type": "Feature", "properties": { "fid": 66.0, "COMPR_M": 482.53, "CLASSE": "03 - Média", "CD_FAZ": "403995", "TALHOES": "1", "FAZ_tAL": "403995001", "ID_LINHA": 245725 }, "geometry": { "type": "MultiLineString", "coordinates": [ [ [ 415699.441106970829424, 7622367.596046037971973 ], [ 416055.514640972600318, 7622042.166022239252925 ] ] ] } },
{ "type": "Feature", "properties": { "fid": 67.0, "COMPR_M": 68.3, "CLASSE": "01 - Muito curta", "CD_FAZ": "403995", "TALHOES": "1", "FAZ_tAL": "403995001", "ID_LINHA": 245726 }, "geometry": { "type": "MultiLineString", "coordinates": [ [ [ 416121.118608849705197, 7621986.272082223556936 ], [ 416171.516024278651457, 7621940.211843154393137 ] ] ] } },
{ "type": "Feature", "properties": { "fid": 68.0, "COMPR_M": 478.49, "CLASSE": "03 - Média", "CD_FAZ": "403995", "TALHOES": "1", "FAZ_tAL": "403995001", "ID_LINHA": 245727 }, "geometry": { "type": "MultiLineString", "coordinates": [ [ [ 415702.973129833873827, 7622368.432170500978827 ], [ 416056.059696494834498, 7622045.732057128101587 ] ] ] } },
{ "type": "Feature", "properties": { "fid": 69.0, "COMPR_M": 474.92, "CLASSE": "03 - Média", "CD_FAZ": "403995", "TALHOES": "1", "FAZ_tAL": "403995001", "ID_LINHA": 245728 }, "geometry": { "type": "MultiLineString", "coordinates": [ [ [ 415706.505152698024176, 7622369.268294967710972 ], [ 416056.963062864495441, 7622048.970617225393653 ] ] ] } },
{ "type": "Feature", "properties": { "fid": 70.0, "COMPR_M": 73.11, "CLASSE": "01 - Muito curta", "CD_FAZ": "403995", "TALHOES": "1", "FAZ_tAL": "403995001", "ID_LINHA": 245729 }, "geometry": { "type": "MultiLineString", "coordinates": [ [ [ 416152.120027029013727, 7621966.066996999084949 ], [ 416206.067104077665135, 7621916.762578411959112 ] ] ] } },
{ "type": "Feature", "properties": { "fid": 71.0, "COMPR_M": 471.81, "CLASSE": "03 - Média", "CD_FAZ": "403995", "TALHOES": "1", "FAZ_tAL": "403995001", "ID_LINHA": 245730 }, "geometry": { "type": "MultiLineString", "coordinates": [ [ [ 415710.037175562581979, 7622370.104419431649148 ], [ 416058.200617985858116, 7622051.903748685494065 ] ] ] } },
{ "type": "Feature", "properties": { "fid": 72.0, "COMPR_M": 110.14, "CLASSE": "02 - Curta", "CD_FAZ": "403995", "TALHOES": "1", "FAZ_tAL": "403995001", "ID_LINHA": 245731 }, "geometry": { "type": "MultiLineString", "coordinates": [ [ [ 416126.472364576766267, 7621993.571617658250034 ], [ 416207.744432701729238, 7621919.29378305748105 ] ] ] } },
{ "type": "Feature", "properties": { "fid": 73.0, "COMPR_M": 469.04, "CLASSE": "03 - Média", "CD_FAZ": "403995", "TALHOES": "1", "FAZ_tAL": "403995001", "ID_LINHA": 245732 }, "geometry": { "type": "MultiLineString", "coordinates": [ [ [ 415713.569198425568175, 7622370.940543895587325 ], [ 416059.686050395888742, 7622054.610335051082075 ] ] ] } },
{ "type": "Feature", "properties": { "fid": 74.0, "COMPR_M": 109.9, "CLASSE": "02 - Curta", "CD_FAZ": "403995", "TALHOES": "1", "FAZ_tAL": "403995001", "ID_LINHA": 245733 }, "geometry": { "type": "MultiLineString", "coordinates": [ [ [ 416128.321514673007187, 7621995.945787701755762 ], [ 416209.421761325444095, 7621921.824987700209022 ] ] ] } },
{ "type": "Feature", "properties": { "fid": 75.0, "COMPR_M": 466.35, "CLASSE": "03 - Média", "CD_FAZ": "403995", "TALHOES": "1", "FAZ_tAL": "403995001", "ID_LINHA": 245734 }, "geometry": { "type": "MultiLineString", "coordinates": [ [ [ 415717.101221289660316, 7622371.776668359525502 ], [ 416061.230408773815725, 7622057.263066590763628 ] ] ] } },
{ "type": "Feature", "properties": { "fid": 76.0, "COMPR_M": 109.55, "CLASSE": "02 - Curta", "CD_FAZ": "403995", "TALHOES": "1", "FAZ_tAL": "403995001", "ID_LINHA": 245735 }, "geometry": { "type": "MultiLineString", "coordinates": [ [ [ 416130.258572940132581, 7621998.23961490765214 ], [ 416211.099089951487258, 7621924.356192348524928 ] ] ] } },
{ "type": "Feature", "properties": { "fid": 77.0, "COMPR_M": 463.69, "CLASSE": "03 - Média", "CD_FAZ": "403995", "TALHOES": "1", "FAZ_tAL": "403995001", "ID_LINHA": 245736 }, "geometry": { "type": "MultiLineString", "coordinates": [ [ [ 415720.633244153519627, 7622372.612792823463678 ], [ 416062.802194163086824, 7622059.89073147252202 ] ] ] } },
{ "type": "Feature", "properties": { "fid": 78.0, "COMPR_M": 108.93, "CLASSE": "02 - Curta", "CD_FAZ": "403995", "TALHOES": "1", "FAZ_tAL": "403995001", "ID_LINHA": 245737 }, "geometry": { "type": "MultiLineString", "coordinates": [ [ [ 416132.39321437291801, 7622000.352862857282162 ], [ 416212.776418577181175, 7621926.887396993115544 ] ] ] } },
{ "type": "Feature", "properties": { "fid": 79.0, "COMPR_M": 461.16, "CLASSE": "03 - Média", "CD_FAZ": "403995", "TALHOES": "1", "FAZ_tAL": "403995001", "ID_LINHA": 245738 }, "geometry": { "type": "MultiLineString", "coordinates": [ [ [ 415724.165267017786391, 7622373.448917286470532 ], [ 416064.470345840905793, 7622062.430323302745819 ] ] ] } },
{ "type": "Feature", "properties": { "fid": 80.0, "COMPR_M": 107.96, "CLASSE": "02 - Curta", "CD_FAZ": "403995", "TALHOES": "1", "FAZ_tAL": "403995001", "ID_LINHA": 245739 }, "geometry": { "type": "MultiLineString", "coordinates": [ [ [ 416134.786719957832247, 7622002.229524371214211 ], [ 416214.453747199906502, 7621929.418601637706161 ] ] ] } },
{ "type": "Feature", "properties": { "fid": 81.0, "COMPR_M": 458.7, "CLASSE": "03 - Média", "CD_FAZ": "403995", "TALHOES": "1", "FAZ_tAL": "403995001", "ID_LINHA": 245740 }, "geometry": { "type": "MultiLineString", "coordinates": [ [ [ 415727.697289880481549, 7622374.285041751340032 ], [ 416066.181824018829502, 7622064.930317288264632 ] ] ] } },
{ "type": "Feature", "properties": { "fid": 82.0, "COMPR_M": 106.37, "CLASSE": "02 - Curta", "CD_FAZ": "403995", "TALHOES": "1", "FAZ_tAL": "403995001", "ID_LINHA": 245741 }, "geometry": { "type": "MultiLineString", "coordinates": [ [ [ 416137.637647452007513, 7622003.68812947999686 ], [ 416216.131075824960135, 7621931.949806282296777 ] ] ] } },
{ "type": "Feature", "properties": { "fid": 83.0, "COMPR_M": 456.27, "CLASSE": "03 - Média", "CD_FAZ": "403995", "TALHOES": "1", "FAZ_tAL": "403995001", "ID_LINHA": 245742 }, "geometry": { "type": "MultiLineString", "coordinates": [ [ [ 415731.229312744282652, 7622375.121166216209531 ], [ 416067.925931561854668, 7622067.400489971973002 ] ] ] } },
{ "type": "Feature", "properties": { "fid": 84.0, "COMPR_M": 104.34, "CLASSE": "02 - Curta", "CD_FAZ": "403995", "TALHOES": "1", "FAZ_tAL": "403995001", "ID_LINHA": 245743 }, "geometry": { "type": "MultiLineString", "coordinates": [ [ [ 416140.810494224075228, 7622004.852519517764449 ], [ 416217.808404449082445, 7621934.481010926887393 ] ] ] } },
{ "type": "Feature", "properties": { "fid": 85.0, "COMPR_M": 453.82, "CLASSE": "03 - Média", "CD_FAZ": "403995", "TALHOES": "1", "FAZ_tAL": "403995001", "ID_LINHA": 245744 }, "geometry": { "type": "MultiLineString", "coordinates": [ [ [ 415734.761335608491208, 7622375.957290682010353 ], [ 416069.64816695114132, 7622069.890652506612241 ] ] ] } },
{ "type": "Feature", "properties": { "fid": 86.0, "COMPR_M": 102.1, "CLASSE": "02 - Curta", "CD_FAZ": "403995", "TALHOES": "1", "FAZ_tAL": "403995001", "ID_LINHA": 245745 }, "geometry": { "type": "MultiLineString", "coordinates": [ [ [ 416144.143476713215932, 7622005.87055504322052 ], [ 416219.485733074136078, 7621937.012215571478009 ] ] ] } },
{ "type": "Feature", "properties": { "fid": 87.0, "COMPR_M": 451.36, "CLASSE": "03 - Média", "CD_FAZ": "403995", "TALHOES": "1", "FAZ_tAL": "403995001", "ID_LINHA": 245746 }, "geometry": { "type": "MultiLineString", "coordinates": [ [ [ 415738.293358473165426, 7622376.793415144085884 ], [ 416071.360896412690636, 7622072.389502895995975 ] ] ] } },
{ "type": "Feature", "properties": { "fid": 88.0, "COMPR_M": 99.94, "CLASSE": "01 - Muito curta", "CD_FAZ": "403995", "TALHOES": "1", "FAZ_tAL": "403995001", "ID_LINHA": 245747 }, "geometry": { "type": "MultiLineString", "coordinates": [ [ [ 416147.416036690934561, 7622006.94381314702332 ], [ 416221.163061698258389, 7621939.543420217931271 ] ] ] } },
{ "type": "Feature", "properties": { "fid": 89.0, "COMPR_M": 448.88, "CLASSE": "03 - Média", "CD_FAZ": "403995", "TALHOES": "1", "FAZ_tAL": "403995001", "ID_LINHA": 245748 }, "geometry": { "type": "MultiLineString", "coordinates": [ [ [ 415741.825381334929261, 7622377.629539608955383 ], [ 416073.06292394339107, 7622074.898134209215641 ] ] ] } },
{ "type": "Feature", "properties": { "fid": 90.0, "COMPR_M": 97.88, "CLASSE": "01 - Muito curta", "CD_FAZ": "403995", "TALHOES": "1", "FAZ_tAL": "403995001", "ID_LINHA": 245749 }, "geometry": { "type": "MultiLineString", "coordinates": [ [ [ 416150.610378933080938, 7622008.088557606562972 ], [ 416222.840390324010514, 7621942.074624862521887 ] ] ] } },
{ "type": "Feature", "properties": { "fid": 91.0, "COMPR_M": 446.32, "CLASSE": "03 - Média", "CD_FAZ": "403995", "TALHOES": "1", "FAZ_tAL": "403995001", "ID_LINHA": 245750 }, "geometry": { "type": "MultiLineString", "coordinates": [ [ [ 415745.357404199137818, 7622378.46566407289356 ], [ 416074.710504301590845, 7622077.45652699843049 ] ] ] } },
{ "type": "Feature", "properties": { "fid": 92.0, "COMPR_M": 95.89, "CLASSE": "01 - Muito curta", "CD_FAZ": "403995", "TALHOES": "1", "FAZ_tAL": "403995001", "ID_LINHA": 245751 }, "geometry": { "type": "MultiLineString", "coordinates": [ [ [ 416153.75559133826755, 7622009.278203815221786 ], [ 416224.517718948714901, 7621944.605829507112503 ] ] ] } },
{ "type": "Feature", "properties": { "fid": 93.0, "COMPR_M": 443.7, "CLASSE": "03 - Média", "CD_FAZ": "403995", "TALHOES": "1", "FAZ_tAL": "403995001", "ID_LINHA": 245752 }, "geometry": { "type": "MultiLineString", "coordinates": [ [ [ 415748.889427063753828, 7622379.301788536831737 ], [ 416076.307472974294797, 7622080.061175858601928 ] ] ] } },
{ "type": "Feature", "properties": { "fid": 94.0, "COMPR_M": 94.43, "CLASSE": "01 - Muito curta", "CD_FAZ": "403995", "TALHOES": "1", "FAZ_tAL": "403995001", "ID_LINHA": 245753 }, "geometry": { "type": "MultiLineString", "coordinates": [ [ [ 416156.512086388538592, 7622010.82311455719173 ], [ 416226.195047573826741, 7621947.137034149840474 ] ] ] } },
{ "type": "Feature", "properties": { "fid": 95.0, "COMPR_M": 441.1, "CLASSE": "03 - Média", "CD_FAZ": "403995", "TALHOES": "1", "FAZ_tAL": "403995001", "ID_LINHA": 245754 }, "geometry": { "type": "MultiLineString", "coordinates": [ [ [ 415752.421449926798232, 7622380.137912999838591 ], [ 416077.91673999663908, 7622082.654584756121039 ] ] ] } },
{ "type": "Feature", "properties": { "fid": 96.0, "COMPR_M": 93.59, "CLASSE": "01 - Muito curta", "CD_FAZ": "403995", "TALHOES": "1", "FAZ_tAL": "403995001", "ID_LINHA": 245755 }, "geometry": { "type": "MultiLineString", "coordinates": [ [ [ 416158.813182820100337, 7622012.784232540056109 ], [ 416227.872376197949052, 7621949.668238796293736 ] ] ] } },
{ "type": "Feature", "properties": { "fid": 97.0, "COMPR_M": 438.51, "CLASSE": "03 - Média", "CD_FAZ": "403995", "TALHOES": "1", "FAZ_tAL": "403995001", "ID_LINHA": 245756 }, "geometry": { "type": "MultiLineString", "coordinates": [ [ [ 415755.953472790308297, 7622380.974037466570735 ], [ 416079.537920362548903, 7622085.237105570733547 ] ] ] } },
{ "type": "Feature", "properties": { "fid": 98.0, "COMPR_M": 93.09, "CLASSE": "01 - Muito curta", "CD_FAZ": "403995", "TALHOES": "1", "FAZ_tAL": "403995001", "ID_LINHA": 245757 }, "geometry": { "type": "MultiLineString", "coordinates": [ [ [ 416160.859539180179127, 7622014.978167790919542 ], [ 416229.549704823060893, 7621952.199443440884352 ] ] ] } },
{ "type": "Feature", "properties": { "fid": 99.0, "COMPR_M": 435.96, "CLASSE": "03 - Média", "CD_FAZ": "403995", "TALHOES": "1", "FAZ_tAL": "403995001", "ID_LINHA": 245758 }, "geometry": { "type": "MultiLineString", "coordinates": [ [ [ 415759.485495652945247, 7622381.810161931440234 ], [ 416081.193049974681344, 7622087.788598792627454 ] ] ] } },
{ "type": "Feature", "properties": { "fid": 100.0, "COMPR_M": 93.05, "CLASSE": "01 - Muito curta", "CD_FAZ": "403995", "TALHOES": "1", "FAZ_tAL": "403995001", "ID_LINHA": 245759 }, "geometry": { "type": "MultiLineString", "coordinates": [ [ [ 416162.563513026863802, 7622017.485020290128887 ], [ 416231.227033447124995, 7621954.730648085474968 ] ] ] } },
{ "type": "Feature", "properties": { "fid": 101.0, "COMPR_M": 433.32, "CLASSE": "03 - Média", "CD_FAZ": "403995", "TALHOES": "1", "FAZ_tAL": "403995001", "ID_LINHA": 245760 }, "geometry": { "type": "MultiLineString", "coordinates": [ [ [ 415763.017518517328426, 7622382.646286392584443 ], [ 416082.774490661977325, 7622090.407439306378365 ] ] ] } },
{ "type": "Feature", "properties": { "fid": 102.0, "COMPR_M": 93.42, "CLASSE": "01 - Muito curta", "CD_FAZ": "403995", "TALHOES": "1", "FAZ_tAL": "403995001", "ID_LINHA": 245761 }, "geometry": { "type": "MultiLineString", "coordinates": [ [ [ 416163.970799934293609, 7622020.263026997447014 ], [ 416232.904362072236836, 7621957.261852731928229 ] ] ] } },
{ "type": "Feature", "properties": { "fid": 103.0, "COMPR_M": 430.54, "CLASSE": "03 - Média", "CD_FAZ": "403995", "TALHOES": "1", "FAZ_tAL": "403995001", "ID_LINHA": 245762 }, "geometry": { "type": "MultiLineString", "coordinates": [ [ [ 415766.549541380838491, 7622383.482410857453942 ], [ 416084.258642796019558, 7622093.115195767953992 ] ] ] } },
{ "type": "Feature", "properties": { "fid": 104.0, "COMPR_M": 94.32, "CLASSE": "01 - Muito curta", "CD_FAZ": "403995", "TALHOES": "1", "FAZ_tAL": "403995001", "ID_LINHA": 245763 }, "geometry": { "type": "MultiLineString", "coordinates": [ [ [ 416164.983044774620794, 7622023.402078649029136 ], [ 416234.581690696999431, 7621959.793057376518846 ] ] ] } },
{ "type": "Feature", "properties": { "fid": 105.0, "COMPR_M": 427.66, "CLASSE": "03 - Média", "CD_FAZ": "403995", "TALHOES": "1", "FAZ_tAL": "403995001", "ID_LINHA": 245764 }, "geometry": { "type": "MultiLineString", "coordinates": [ [ [ 415770.081564245454501, 7622384.318535320460796 ], [ 416085.665394847281277, 7622095.893691305071115 ] ] ] } },
{ "type": "Feature", "properties": { "fid": 106.0, "COMPR_M": 96.22, "CLASSE": "01 - Muito curta", "CD_FAZ": "403995", "TALHOES": "1", "FAZ_tAL": "403995001", "ID_LINHA": 245765 }, "geometry": { "type": "MultiLineString", "coordinates": [ [ [ 416165.252310030045919, 7622027.220169434323907 ], [ 416236.259019321412779, 7621962.324262019246817 ] ] ] } },
{ "type": "Feature", "properties": { "fid": 107.0, "COMPR_M": 424.82, "CLASSE": "03 - Média", "CD_FAZ": "403995", "TALHOES": "1", "FAZ_tAL": "403995001", "ID_LINHA": 245766 }, "geometry": { "type": "MultiLineString", "coordinates": [ [ [ 415773.613587109837681, 7622385.154659786261618 ], [ 416087.098716539680026, 7622098.647903766483068 ] ] ] } },
{ "type": "Feature", "properties": { "fid": 108.0, "COMPR_M": 98.93, "CLASSE": "01 - Muito curta", "CD_FAZ": "403995", "TALHOES": "1", "FAZ_tAL": "403995001", "ID_LINHA": 245767 }, "geometry": { "type": "MultiLineString", "coordinates": [ [ [ 416164.93692928989185, 7622031.572591872885823 ], [ 416237.936347946815658, 7621964.855466665700078 ] ] ] } },
{ "type": "Feature", "properties": { "fid": 109.0, "COMPR_M": 422.26, "CLASSE": "03 - Média", "CD_FAZ": "403995", "TALHOES": "1", "FAZ_tAL": "403995001", "ID_LINHA": 245768 }, "geometry": { "type": "MultiLineString", "coordinates": [ [ [ 415777.14560997200897, 7622385.990784250199795 ], [ 416088.744035728741437, 7622101.208363130688667 ] ] ] } },
{ "type": "Feature", "properties": { "fid": 110.0, "COMPR_M": 102.8, "CLASSE": "02 - Curta", "CD_FAZ": "403995", "TALHOES": "1", "FAZ_tAL": "403995001", "ID_LINHA": 245769 }, "geometry": { "type": "MultiLineString", "coordinates": [ [ [ 416163.754914458608255, 7622036.717066304758191 ], [ 416239.613676570530515, 7621967.386671310290694 ] ] ] } },
{ "type": "Feature", "properties": { "fid": 111.0, "COMPR_M": 419.75, "CLASSE": "03 - Média", "CD_FAZ": "403995", "TALHOES": "1", "FAZ_tAL": "403995001", "ID_LINHA": 245770 }, "geometry": { "type": "MultiLineString", "coordinates": [ [ [ 415780.67763283662498, 7622386.826908713206649 ], [ 416090.419594445847906, 7622103.741185365244746 ] ] ] } },
{ "type": "Feature", "properties": { "fid": 112.0, "COMPR_M": 108.03, "CLASSE": "02 - Curta", "CD_FAZ": "403995", "TALHOES": "1", "FAZ_tAL": "403995001", "ID_LINHA": 245771 }, "geometry": { "type": "MultiLineString", "coordinates": [ [ [ 416161.576222091272939, 7622042.772444704547524 ], [ 416241.291005195933394, 7621969.917875955812633 ] ] ] } },
{ "type": "Feature", "properties": { "fid": 113.0, "COMPR_M": 417.29, "CLASSE": "03 - Média", "CD_FAZ": "403995", "TALHOES": "1", "FAZ_tAL": "403995001", "ID_LINHA": 245772 }, "geometry": { "type": "MultiLineString", "coordinates": [ [ [ 415784.209655700367875, 7622387.663033179938793 ], [ 416092.137099539453629, 7622106.235671108588576 ] ] ] } },
{ "type": "Feature", "properties": { "fid": 114.0, "COMPR_M": 114.05, "CLASSE": "02 - Curta", "CD_FAZ": "403995", "TALHOES": "1", "FAZ_tAL": "403995001", "ID_LINHA": 245773 }, "geometry": { "type": "MultiLineString", "coordinates": [ [ [ 416158.806598558847327, 7622049.367899027653039 ], [ 416242.968333821045235, 7621972.449080599471927 ] ] ] } },
{ "type": "Feature", "properties": { "fid": 115.0, "COMPR_M": 414.96, "CLASSE": "03 - Média", "CD_FAZ": "403995", "TALHOES": "1", "FAZ_tAL": "403995001", "ID_LINHA": 245774 }, "geometry": { "type": "MultiLineString", "coordinates": [ [ [ 415787.74167856387794, 7622388.49915764387697 ], [ 416093.949060725048184, 7622108.643829601816833 ] ] ] } },
{ "type": "Feature", "properties": { "fid": 116.0, "COMPR_M": 120.67, "CLASSE": "02 - Curta", "CD_FAZ": "403995", "TALHOES": "1", "FAZ_tAL": "403995001", "ID_LINHA": 245775 }, "geometry": { "type": "MultiLineString", "coordinates": [ [ [ 416155.599395506666042, 7622056.363274999894202 ], [ 416244.645662445749622, 7621974.980285245925188 ] ] ] } },
{ "type": "Feature", "properties": { "fid": 117.0, "COMPR_M": 413.66, "CLASSE": "03 - Média", "CD_FAZ": "403995", "TALHOES": "1", "FAZ_tAL": "403995001", "ID_LINHA": 245776 }, "geometry": { "type": "MultiLineString", "coordinates": [ [ [ 415791.273701427853666, 7622389.335282108746469 ], [ 416096.525226757046767, 7622110.353550337255001 ] ] ] } },
{ "type": "Feature", "properties": { "fid": 118.0, "COMPR_M": 127.8, "CLASSE": "02 - Curta", "CD_FAZ": "403995", "TALHOES": "1", "FAZ_tAL": "403995001", "ID_LINHA": 245777 }, "geometry": { "type": "MultiLineString", "coordinates": [ [ [ 416152.017350558831822, 7622063.701234156265855 ], [ 416246.322991069464479, 7621977.511489889584482 ] ] ] } },
{ "type": "Feature", "properties": { "fid": 119.0, "COMPR_M": 412.62, "CLASSE": "03 - Média", "CD_FAZ": "403995", "TALHOES": "1", "FAZ_tAL": "403995001", "ID_LINHA": 245778 }, "geometry": { "type": "MultiLineString", "coordinates": [ [ [ 415794.805724291596562, 7622390.171406571753323 ], [ 416099.288682910380885, 7622111.892099045217037 ] ] ] } },
{ "type": "Feature", "properties": { "fid": 120.0, "COMPR_M": 135.42, "CLASSE": "02 - Curta", "CD_FAZ": "403995", "TALHOES": "1", "FAZ_tAL": "403995001", "ID_LINHA": 245779 }, "geometry": { "type": "MultiLineString", "coordinates": [ [ [ 416148.069988135190215, 7622071.373071754351258 ], [ 416248.00031969480915, 7621980.042694533243775 ] ] ] } },
{ "type": "Feature", "properties": { "fid": 121.0, "COMPR_M": 411.71, "CLASSE": "03 - Média", "CD_FAZ": "403995", "TALHOES": "1", "FAZ_tAL": "403995001", "ID_LINHA": 245780 }, "geometry": { "type": "MultiLineString", "coordinates": [ [ [ 415798.337747155106626, 7622391.0075310356915 ], [ 416102.151859164820053, 7622113.339509515091777 ] ] ] } },
{ "type": "Feature", "properties": { "fid": 122.0, "COMPR_M": 156.91, "CLASSE": "02 - Curta", "CD_FAZ": "403995", "TALHOES": "1", "FAZ_tAL": "403995001", "ID_LINHA": 245781 }, "geometry": { "type": "MultiLineString", "coordinates": [ [ [ 416133.888712202082388, 7622088.39809738099575 ], [ 416249.677648319804575, 7621982.573899179697037 ] ] ] } },
{ "type": "Feature", "properties": { "fid": 123.0, "COMPR_M": 414.02, "CLASSE": "03 - Média", "CD_FAZ": "403995", "TALHOES": "1", "FAZ_tAL": "403995001", "ID_LINHA": 245782 }, "geometry": { "type": "MultiLineString", "coordinates": [ [ [ 415801.869770019082353, 7622391.843655499629676 ], [ 416107.387390037300065, 7622112.618729018606246 ] ] ] } },
{ "type": "Feature", "properties": { "fid": 124.0, "COMPR_M": 604.33, "CLASSE": "04 - Longa", "CD_FAZ": "403995", "TALHOES": "1", "FAZ_tAL": "403995001", "ID_LINHA": 245783 }, "geometry": { "type": "MultiLineString", "coordinates": [ [ [ 415805.401792882883456, 7622392.679779963567853 ], [ 416251.354976944508962, 7621985.105103824287653 ] ] ] } },
{ "type": "Feature", "properties": { "fid": 125.0, "COMPR_M": 601.82, "CLASSE": "04 - Longa", "CD_FAZ": "403995", "TALHOES": "1", "FAZ_tAL": "403995001", "ID_LINHA": 245784 }, "geometry": { "type": "MultiLineString", "coordinates": [ [ [ 415808.93381574517116, 7622393.515904428437352 ], [ 416253.032305568864103, 7621987.636308467015624 ] ] ] } },
{ "type": "Feature", "properties": { "fid": 126.0, "COMPR_M": 599.31, "CLASSE": "03 - Média", "CD_FAZ": "403995", "TALHOES": "1", "FAZ_tAL": "403995001", "ID_LINHA": 245785 }, "geometry": { "type": "MultiLineString", "coordinates": [ [ [ 415812.465838609146886, 7622394.352028892375529 ], [ 416254.709634193452075, 7621990.167513112537563 ] ] ] } },
{ "type": "Feature", "properties": { "fid": 127.0, "COMPR_M": 596.79, "CLASSE": "03 - Média", "CD_FAZ": "403995", "TALHOES": "1", "FAZ_tAL": "403995001", "ID_LINHA": 245786 }, "geometry": { "type": "MultiLineString", "coordinates": [ [ [ 415815.997861473006196, 7622395.188153358176351 ], [ 416256.386962817807216, 7621992.698717758990824 ] ] ] } },
{ "type": "Feature", "properties": { "fid": 128.0, "COMPR_M": 594.28, "CLASSE": "03 - Média", "CD_FAZ": "403995", "TALHOES": "1", "FAZ_tAL": "403995001", "ID_LINHA": 245787 }, "geometry": { "type": "MultiLineString", "coordinates": [ [ [ 415819.529884337913245, 7622396.024277822114527 ], [ 416258.064291442395188, 7621995.229922401718795 ] ] ] } },
{ "type": "Feature", "properties": { "fid": 129.0, "COMPR_M": 589.25, "CLASSE": "03 - Média", "CD_FAZ": "403995", "TALHOES": "1", "FAZ_tAL": "403995001", "ID_LINHA": 245788 }, "geometry": { "type": "MultiLineString", "coordinates": [ [ [ 415823.061907200026326, 7622396.860402286052704 ], [ 416257.886591555434279, 7621999.45651273522526 ] ] ] } },
{ "type": "Feature", "properties": { "fid": 130.0, "COMPR_M": 531.12, "CLASSE": "03 - Média", "CD_FAZ": "403995", "TALHOES": "1", "FAZ_tAL": "403995001", "ID_LINHA": 245789 }, "geometry": { "type": "MultiLineString", "coordinates": [ [ [ 415826.593930065166205, 7622397.696526749059558 ], [ 416218.520680112414993, 7622039.498796740546823 ] ] ] } },
{ "type": "Feature", "properties": { "fid": 131.0, "COMPR_M": 472.99, "CLASSE": "03 - Média", "CD_FAZ": "403995", "TALHOES": "1", "FAZ_tAL": "403995001", "ID_LINHA": 245790 }, "geometry": { "type": "MultiLineString", "coordinates": [ [ [ 415830.125952928268816, 7622398.532651212066412 ], [ 416179.154768670501653, 7622079.541080744937062 ] ] ] } },
{ "type": "Feature", "properties": { "fid": 132.0, "COMPR_M": 414.85, "CLASSE": "03 - Média", "CD_FAZ": "403995", "TALHOES": "1", "FAZ_tAL": "403995001", "ID_LINHA": 245791 }, "geometry": { "type": "MultiLineString", "coordinates": [ [ [ 415833.657975793001242, 7622399.368775677867234 ], [ 416139.788857225794345, 7622119.583364753052592 ] ] ] } },
{ "type": "Feature", "properties": { "fid": 133.0, "COMPR_M": 356.72, "CLASSE": "03 - Média", "CD_FAZ": "403995", "TALHOES": "1", "FAZ_tAL": "403995001", "ID_LINHA": 245792 }, "geometry": { "type": "MultiLineString", "coordinates": [ [ [ 415837.189998654299416, 7622400.204900140874088 ], [ 416100.42294579121517, 7622159.625648748129606 ] ] ] } },
{ "type": "Feature", "properties": { "fid": 134.0, "COMPR_M": 298.59, "CLASSE": "02 - Curta", "CD_FAZ": "403995", "TALHOES": "1", "FAZ_tAL": "403995001", "ID_LINHA": 245793 }, "geometry": { "type": "MultiLineString", "coordinates": [ [ [ 415840.722021520021372, 7622401.04102460667491 ], [ 416061.057034350524191, 7622199.667932752519846 ] ] ] } },
{ "type": "Feature", "properties": { "fid": 135.0, "COMPR_M": 240.45, "CLASSE": "02 - Curta", "CD_FAZ": "403995", "TALHOES": "1", "FAZ_tAL": "403995001", "ID_LINHA": 245794 }, "geometry": { "type": "MultiLineString", "coordinates": [ [ [ 415844.25404438294936, 7622401.877149069681764 ], [ 416021.691122907970566, 7622239.710216755047441 ] ] ] } },
{ "type": "Feature", "properties": { "fid": 136.0, "COMPR_M": 182.32, "CLASSE": "02 - Curta", "CD_FAZ": "403995", "TALHOES": "1", "FAZ_tAL": "403995001", "ID_LINHA": 245795 }, "geometry": { "type": "MultiLineString", "coordinates": [ [ [ 415847.786067246284802, 7622402.713273534551263 ], [ 415982.325211462506559, 7622279.752500763162971 ] ] ] } },
{ "type": "Feature", "properties": { "fid": 137.0, "COMPR_M": 124.19, "CLASSE": "02 - Curta", "CD_FAZ": "403995", "TALHOES": "1", "FAZ_tAL": "403995001", "ID_LINHA": 245796 }, "geometry": { "type": "MultiLineString", "coordinates": [ [ [ 415851.318090111424681, 7622403.549397997558117 ], [ 415942.959300020418596, 7622319.79478476755321 ] ] ] } },
{ "type": "Feature", "properties": { "fid": 138.0, "COMPR_M": 66.05, "CLASSE": "01 - Muito curta", "CD_FAZ": "403995", "TALHOES": "1", "FAZ_tAL": "403995001", "ID_LINHA": 245797 }, "geometry": { "type": "MultiLineString", "coordinates": [ [ [ 415854.850112974352669, 7622404.385522463358939 ], [ 415903.593388578738086, 7622359.837068771012127 ] ] ] } },
{ "type": "Feature", "properties": { "fid": 139.0, "COMPR_M": 7.92, "CLASSE": "01 - Muito curta", "CD_FAZ": "403995", "TALHOES": "1", "FAZ_tAL": "403995001", "ID_LINHA": 245798 }, "geometry": { "type": "MultiLineString", "coordinates": [ [ [ 415858.382135837804526, 7622405.221646926365793 ], [ 415864.227477133565117, 7622399.87935278005898 ] ] ] } },
{ "type": "Feature", "properties": { "fid": 140.0, "COMPR_M": 911.3, "CLASSE": "05 - Muito longa", "CD_FAZ": "403995", "TALHOES": "1", "FAZ_tAL": "403995001", "ID_LINHA": 245799 }, "geometry": { "type": "MultiLineString", "coordinates": [ [ [ 415441.344965724973008, 7622392.143035709857941 ], [ 416113.814029717061203, 7621777.546322948299348 ] ] ] } }
]
}
