{
"type": "FeatureCollection",
"name": "404070",
"crs": { "type": "name", "properties": { "name": "urn:ogc:def:crs:EPSG::32722" } },
"xy_coordinate_resolution": 1e-15,
"features": [
{ "type": "Feature", "properties": { "fid": 978.0, "COMPR_M": 103.65, "CLASSE": "02 - Curta", "CD_FAZ": "404070", "TALHOES": "1", "FAZ_tAL": "404070001, 403931001", "ID_LINHA": 223536 }, "geometry": { "type": "MultiLineString", "coordinates": [ [ [ 434474.681852088542655, 7625160.875550476834178 ], [ 434479.048146123823244, 7625163.974388280883431 ], [ 434484.03152676060563, 7625166.137930781580508 ], [ 434489.537231103691738, 7625167.349658606573939 ], [ 434494.583950638247188, 7625167.489186597988009 ], [ 434498.979603189858608, 7625166.91288036480546 ], [ 434503.377720931079239, 7625165.611698185093701 ], [ 434520.181246646912768, 7625158.062380647286773 ], [ 434530.879533246625215, 7625151.988883245736361 ], [ 434540.211727050540503, 7625144.012169286608696 ], [ 434547.664368611876853, 7625134.740916550159454 ], [ 434557.410681715642568, 7625119.408928191289306 ] ] ] } },
{ "type": "Feature", "properties": { "fid": 981.0, "COMPR_M": 100.2, "CLASSE": "02 - Curta", "CD_FAZ": "404070", "TALHOES": "1", "FAZ_tAL": "404070001, 403931001", "ID_LINHA": 223539 }, "geometry": { "type": "MultiLineString", "coordinates": [ [ [ 434476.147320828284137, 7625160.114233489148319 ], [ 434480.244468900957145, 7625162.922877997159958 ], [ 434485.077890105778351, 7625164.892873008735478 ], [ 434490.287697689724155, 7625165.92041945271194 ], [ 434495.725908456137404, 7625165.896226924844086 ], [ 434499.783550689928234, 7625165.184183191508055 ], [ 434504.363325551094022, 7625163.629797320812941 ], [ 434522.179354461259209, 7625155.361529979854822 ], [ 434531.907828510273248, 7625149.386393737047911 ], [ 434540.216948952060193, 7625141.818564999848604 ], [ 434546.972337342274841, 7625133.102893074974418 ], [ 434556.008159904740751, 7625118.83269864320755 ] ] ] } },
{ "type": "Feature", "properties": { "fid": 982.0, "COMPR_M": 97.67, "CLASSE": "01 - Muito curta", "CD_FAZ": "404070", "TALHOES": "1", "FAZ_tAL": "404070001, 403931001", "ID_LINHA": 223540 }, "geometry": { "type": "MultiLineString", "coordinates": [ [ [ 434477.061639816558454, 7625158.925107430666685 ], [ 434481.394752341730054, 7625161.831728162243962 ], [ 434486.062875704374164, 7625163.615880256518722 ], [ 434490.978425798530225, 7625164.472504798322916 ], [ 434496.15108429902466, 7625164.340618586167693 ], [ 434499.925117817241699, 7625163.591678615659475 ], [ 434504.607258464151528, 7625161.915399538353086 ], [ 434522.323553104128223, 7625153.593980370089412 ], [ 434531.000643389998004, 7625148.191773165017366 ], [ 434539.111064046504907, 7625140.805094936862588 ], [ 434545.735205474426039, 7625132.25464422442019 ], [ 434554.718906501249876, 7625118.066000748425722 ] ] ] } },
{ "type": "Feature", "properties": { "fid": 985.0, "COMPR_M": 94.22, "CLASSE": "01 - Muito curta", "CD_FAZ": "404070", "TALHOES": "1", "FAZ_tAL": "404070001, 403931001", "ID_LINHA": 223543 }, "geometry": { "type": "MultiLineString", "coordinates": [ [ [ 434478.560213006974664, 7625158.185214409604669 ], [ 434482.499473009142093, 7625160.703750393353403 ], [ 434486.984678665583488, 7625162.308656760491431 ], [ 434491.610332615789957, 7625163.008087260648608 ], [ 434496.505108094715979, 7625162.781225500628352 ], [ 434500.582999639853369, 7625161.820677448064089 ], [ 434505.730914182669949, 7625159.82306194677949 ], [ 434523.183788093097974, 7625151.430334583856165 ], [ 434531.281362271402031, 7625146.069637317210436 ], [ 434538.503536277683452, 7625139.240383259952068 ], [ 434545.032911072019488, 7625130.621182223781943 ], [ 434553.340986071445514, 7625117.448402347043157 ] ] ] } },
{ "type": "Feature", "properties": { "fid": 986.0, "COMPR_M": 91.69, "CLASSE": "01 - Muito curta", "CD_FAZ": "404070", "TALHOES": "1", "FAZ_tAL": "404070001, 403931001", "ID_LINHA": 223544 }, "geometry": { "type": "MultiLineString", "coordinates": [ [ [ 434479.474531994492281, 7625156.996088346466422 ], [ 434483.146256375301164, 7625159.350241185165942 ], [ 434487.353986546047963, 7625160.854740368202329 ], [ 434492.183967917750124, 7625161.529218482784927 ], [ 434496.786393528454937, 7625161.220502782613039 ], [ 434500.691174531006254, 7625160.200287387706339 ], [ 434506.892997933668084, 7625157.690490713343024 ], [ 434523.182123040838633, 7625149.716349922120571 ], [ 434530.92088890390005, 7625144.429606053978205 ], [ 434537.857859691255726, 7625137.703201929107308 ], [ 434543.790892490476836, 7625129.780107725411654 ], [ 434552.051732666441239, 7625116.681704454123974 ] ] ] } },
{ "type": "Feature", "properties": { "fid": 987.0, "COMPR_M": 88.52, "CLASSE": "01 - Muito curta", "CD_FAZ": "404070", "TALHOES": "1", "FAZ_tAL": "404070001, 403931001", "ID_LINHA": 223545 }, "geometry": { "type": "MultiLineString", "coordinates": [ [ [ 434480.983472656691447, 7625156.256610441952944 ], [ 434484.173964231216814, 7625158.173246281221509 ], [ 434488.632260028622113, 7625159.610949488356709 ], [ 434492.699862129229587, 7625160.037873136810958 ], [ 434496.993367463524919, 7625159.661039778962731 ], [ 434507.161690470122267, 7625155.933910494670272 ], [ 434523.119186780590098, 7625148.026932042092085 ], [ 434529.967331931751687, 7625143.271668039262295 ], [ 434536.724610720295459, 7625136.720422631129622 ], [ 434542.5488739067805, 7625128.939033234491944 ], [ 434550.820861361338757, 7625115.81683318503201 ] ] ] } },
{ "type": "Feature", "properties": { "fid": 988.0, "COMPR_M": 86.0, "CLASSE": "01 - Muito curta", "CD_FAZ": "404070", "TALHOES": "1", "FAZ_tAL": "404070001, 403931001", "ID_LINHA": 223546 }, "geometry": { "type": "MultiLineString", "coordinates": [ [ [ 434481.885970766365062, 7625155.058488092385232 ], [ 434484.788871458324138, 7625156.80496618244797 ], [ 434488.938065047899727, 7625158.142360625788569 ], [ 434493.158519279037137, 7625158.535955838859081 ], [ 434497.12448546779342, 7625158.105566984042525 ], [ 434508.282043501443695, 7625153.787206432782114 ], [ 434522.99040543474257, 7625146.365149512887001 ], [ 434529.562407113495283, 7625141.656036516651511 ], [ 434536.030597295961343, 7625135.223998980596662 ], [ 434541.835010400041938, 7625127.313466869294643 ], [ 434549.531607957847882, 7625115.05013529304415 ] ] ] } },
{ "type": "Feature", "properties": { "fid": 989.0, "COMPR_M": 82.78, "CLASSE": "01 - Muito curta", "CD_FAZ": "404070", "TALHOES": "1", "FAZ_tAL": "404070001, 403931001", "ID_LINHA": 223547 }, "geometry": { "type": "MultiLineString", "coordinates": [ [ [ 434483.441866429289803, 7625154.334987968206406 ], [ 434486.470055693469476, 7625155.872121562249959 ], [ 434490.008055718033575, 7625156.815506594255567 ], [ 434493.560409774829168, 7625157.02530843950808 ], [ 434497.178248763084412, 7625156.556961867026985 ], [ 434508.520805535255931, 7625152.028401732444763 ], [ 434522.791473891295027, 7625144.734356895089149 ], [ 434529.128962214337662, 7625140.052757043391466 ], [ 434534.883895257604308, 7625134.256951769813895 ], [ 434540.588735387951601, 7625126.478714632801712 ], [ 434548.300736653036438, 7625114.185264024883509 ] ] ] } },
{ "type": "Feature", "properties": { "fid": 990.0, "COMPR_M": 80.3, "CLASSE": "01 - Muito curta", "CD_FAZ": "404070", "TALHOES": "1", "FAZ_tAL": "404070001, 403931001", "ID_LINHA": 223548 }, "geometry": { "type": "MultiLineString", "coordinates": [ [ [ 434484.301548582967371, 7625153.10578229278326 ], [ 434486.991782968514599, 7625154.465684814378619 ], [ 434490.590337762434501, 7625155.386463383212686 ], [ 434493.904559104295913, 7625155.507782598957419 ], [ 434497.153480166161899, 7625155.018189900554717 ], [ 434508.748523352434859, 7625150.269733928143978 ], [ 434522.523611292184796, 7625143.134964883327484 ], [ 434528.665197521506343, 7625138.464308155700564 ], [ 434534.152190998196602, 7625132.790904322639108 ], [ 434539.866844105243217, 7625124.85702683404088 ], [ 434547.011483247682918, 7625113.418566128239036 ] ] ] } },
{ "type": "Feature", "properties": { "fid": 991.0, "COMPR_M": 76.94, "CLASSE": "01 - Muito curta", "CD_FAZ": "404070", "TALHOES": "1", "FAZ_tAL": "404070001, 403931001", "ID_LINHA": 223549 }, "geometry": { "type": "MultiLineString", "coordinates": [ [ [ 434486.032428368285764, 7625152.407898239791393 ], [ 434491.411840295011643, 7625153.972439849749207 ], [ 434497.388376066170167, 7625153.392486874945462 ], [ 434510.675218904623762, 7625147.695622006431222 ], [ 434522.68583844677778, 7625141.237871342338622 ], [ 434528.654573559062555, 7625136.445852401666343 ], [ 434533.404866684752051, 7625131.330314527265728 ], [ 434539.137312090781052, 7625123.23912600055337 ], [ 434545.780611941183452, 7625112.553694861009717 ] ] ] } },
{ "type": "Feature", "properties": { "fid": 1046.0, "COMPR_M": 145.34, "CLASSE": "02 - Curta", "CD_FAZ": "404070", "TALHOES": "1, 2", "FAZ_tAL": "404070001, 403931002", "ID_LINHA": 223602 }, "geometry": { "type": "MultiLineString", "coordinates": [ [ [ 434427.792255131644197, 7625115.508277988992631 ], [ 434447.004561616107821, 7625119.534362550824881 ], [ 434457.4816793986829, 7625120.696961049921811 ], [ 434467.129601848486345, 7625121.082786340266466 ], [ 434475.494262771040667, 7625120.842078198678792 ], [ 434484.852477892301977, 7625119.893261563032866 ], [ 434495.162085711082909, 7625117.95581016689539 ], [ 434502.476566513476428, 7625115.96870812959969 ], [ 434516.644105770334136, 7625110.518607471138239 ], [ 434523.201341907551978, 7625107.212778298184276 ], [ 434532.42050359165296, 7625101.606172303669155 ], [ 434538.181163750356063, 7625097.455879516899586 ], [ 434546.254393594746944, 7625090.640765723772347 ], [ 434553.340852808090858, 7625083.484524304047227 ], [ 434558.849878738750704, 7625076.957571733742952 ] ] ] } },
{ "type": "Feature", "properties": { "fid": 1047.0, "COMPR_M": 147.08, "CLASSE": "02 - Curta", "CD_FAZ": "404070", "TALHOES": "1, 2", "FAZ_tAL": "404070001, 403931002", "ID_LINHA": 223603 }, "geometry": { "type": "MultiLineString", "coordinates": [ [ [ 434427.405540948500857, 7625116.957571659237146 ], [ 434446.786939690937288, 7625121.018525102175772 ], [ 434457.369972183485515, 7625122.19284035358578 ], [ 434467.124016007175669, 7625122.582851896993816 ], [ 434475.587926913809497, 7625122.339259691536427 ], [ 434485.063056981191039, 7625121.378557614982128 ], [ 434495.506836229527835, 7625119.415858197025955 ], [ 434502.918996439082548, 7625117.402212982997298 ], [ 434517.27566188829951, 7625111.879393959417939 ], [ 434523.919427198532503, 7625108.529944094829261 ], [ 434533.259384660981596, 7625102.849884613417089 ], [ 434539.09519086102955, 7625098.64545348379761 ], [ 434547.27353015152039, 7625091.741614854894578 ], [ 434554.45083944167709, 7625084.49365746229887 ], [ 434560.023515303211752, 7625077.89169014710933 ] ] ] } },
{ "type": "Feature", "properties": { "fid": 1049.0, "COMPR_M": 126.16, "CLASSE": "02 - Curta", "CD_FAZ": "404070", "TALHOES": "1, 2", "FAZ_tAL": "404070001, 403931002", "ID_LINHA": 223605 }, "geometry": { "type": "MultiLineString", "coordinates": [ [ [ 434430.708243906497955, 7625120.905658978968859 ], [ 434448.427573714347091, 7625124.277269912883639 ], [ 434464.455212314962409, 7625125.546339450404048 ], [ 434472.771676855627447, 7625125.485293367877603 ], [ 434482.132424620795064, 7625124.776206942275167 ], [ 434496.196337268396746, 7625122.335954262875021 ], [ 434511.356588638329413, 7625117.649732567369938 ], [ 434525.355597777757794, 7625111.16427568718791 ], [ 434537.96889393235324, 7625103.223232195712626 ], [ 434548.653476268518716, 7625094.534654418937862 ] ] ] } }
]
}
