{
"type": "FeatureCollection",
"name": "404015",
"crs": { "type": "name", "properties": { "name": "urn:ogc:def:crs:EPSG::32722" } },
"xy_coordinate_resolution": 1e-15,
"features": [
{ "type": "Feature", "properties": { "fid": 1.0, "COMPR_M": 32.87, "CLASSE": "01 - Muito curta", "CD_FAZ": "404015", "TALHOES": "1", "FAZ_tAL": "404015001", "ID_LINHA": 248183 }, "geometry": { "type": "MultiLineString", "coordinates": [ [ [ 410026.945718122588005, 7634354.610608630813658 ], [ 410013.847514981229324, 7634324.47126885689795 ] ] ] } },
{ "type": "Feature", "properties": { "fid": 2.0, "COMPR_M": 62.92, "CLASSE": "01 - Muito curta", "CD_FAZ": "404015", "TALHOES": "1", "FAZ_tAL": "404015001", "ID_LINHA": 248184 }, "geometry": { "type": "MultiLineString", "coordinates": [ [ [ 410055.328040656109806, 7634427.445935610681772 ], [ 410030.258538706577383, 7634369.760295139625669 ] ] ] } },
{ "type": "Feature", "properties": { "fid": 3.0, "COMPR_M": 35.39, "CLASSE": "01 - Muito curta", "CD_FAZ": "404015", "TALHOES": "1", "FAZ_tAL": "404015001", "ID_LINHA": 248185 }, "geometry": { "type": "MultiLineString", "coordinates": [ [ [ 410024.704940164403524, 7634356.981306169182062 ], [ 410010.602340213546995, 7634324.530820632353425 ] ] ] } },
{ "type": "Feature", "properties": { "fid": 4.0, "COMPR_M": 135.47, "CLASSE": "02 - Curta", "CD_FAZ": "404015", "TALHOES": "1", "FAZ_tAL": "404015001", "ID_LINHA": 248186 }, "geometry": { "type": "MultiLineString", "coordinates": [ [ [ 410061.338009479979519, 7634448.801837299019098 ], [ 410007.357165446970612, 7634324.590372409671545 ] ] ] } },
{ "type": "Feature", "properties": { "fid": 5.0, "COMPR_M": 159.29, "CLASSE": "02 - Curta", "CD_FAZ": "404015", "TALHOES": "1", "FAZ_tAL": "404015001", "ID_LINHA": 248187 }, "geometry": { "type": "MultiLineString", "coordinates": [ [ [ 410067.582570697763003, 7634470.697542795911431 ], [ 410004.111990679521114, 7634324.64992418512702 ] ] ] } },
{ "type": "Feature", "properties": { "fid": 6.0, "COMPR_M": 179.11, "CLASSE": "02 - Curta", "CD_FAZ": "404015", "TALHOES": "1", "FAZ_tAL": "404015001", "ID_LINHA": 248188 }, "geometry": { "type": "MultiLineString", "coordinates": [ [ [ 410072.233682098216377, 7634488.926674717105925 ], [ 410000.866815911838785, 7634324.70947596244514 ] ] ] } },
{ "type": "Feature", "properties": { "fid": 7.0, "COMPR_M": 198.28, "CLASSE": "02 - Curta", "CD_FAZ": "404015", "TALHOES": "1", "FAZ_tAL": "404015001", "ID_LINHA": 248189 }, "geometry": { "type": "MultiLineString", "coordinates": [ [ [ 410076.680323046864942, 7634506.685314291156828 ], [ 409997.673694107565098, 7634324.88880308996886 ] ] ] } },
{ "type": "Feature", "properties": { "fid": 8.0, "COMPR_M": 215.42, "CLASSE": "02 - Curta", "CD_FAZ": "404015", "TALHOES": "1", "FAZ_tAL": "404015001", "ID_LINHA": 248190 }, "geometry": { "type": "MultiLineString", "coordinates": [ [ [ 410080.464588749338873, 7634522.919809486716986 ], [ 409994.62936742376769, 7634325.410512048751116 ] ] ] } },
{ "type": "Feature", "properties": { "fid": 9.0, "COMPR_M": 222.2, "CLASSE": "02 - Curta", "CD_FAZ": "404015", "TALHOES": "1", "FAZ_tAL": "404015001", "ID_LINHA": 248191 }, "geometry": { "type": "MultiLineString", "coordinates": [ [ [ 410080.123133875837084, 7634529.660903725773096 ], [ 409991.585040739737451, 7634325.932221004739404 ] ] ] } },
{ "type": "Feature", "properties": { "fid": 10.0, "COMPR_M": 225.67, "CLASSE": "02 - Curta", "CD_FAZ": "404015", "TALHOES": "1", "FAZ_tAL": "404015001", "ID_LINHA": 248192 }, "geometry": { "type": "MultiLineString", "coordinates": [ [ [ 410078.461040116730146, 7634533.363170148804784 ], [ 409988.540714056114666, 7634326.453929960727692 ] ] ] } },
{ "type": "Feature", "properties": { "fid": 11.0, "COMPR_M": 228.17, "CLASSE": "02 - Curta", "CD_FAZ": "404015", "TALHOES": "1", "FAZ_tAL": "404015001", "ID_LINHA": 248193 }, "geometry": { "type": "MultiLineString", "coordinates": [ [ [ 410076.413598912244197, 7634536.178741082549095 ], [ 409985.496387372259051, 7634326.975638918578625 ] ] ] } },
{ "type": "Feature", "properties": { "fid": 12.0, "COMPR_M": 229.16, "CLASSE": "02 - Curta", "CD_FAZ": "404015", "TALHOES": "1", "FAZ_tAL": "404015001", "ID_LINHA": 248194 }, "geometry": { "type": "MultiLineString", "coordinates": [ [ [ 410073.764254796376918, 7634537.609316216781735 ], [ 409982.452060687646735, 7634327.497347876429558 ] ] ] } },
{ "type": "Feature", "properties": { "fid": 13.0, "COMPR_M": 230.11, "CLASSE": "02 - Curta", "CD_FAZ": "404015", "TALHOES": "1", "FAZ_tAL": "404015001", "ID_LINHA": 248195 }, "geometry": { "type": "MultiLineString", "coordinates": [ [ [ 410071.096330956439488, 7634538.997138872742653 ], [ 409979.407734005362727, 7634328.019056832417846 ] ] ] } },
{ "type": "Feature", "properties": { "fid": 14.0, "COMPR_M": 230.18, "CLASSE": "02 - Curta", "CD_FAZ": "404015", "TALHOES": "1", "FAZ_tAL": "404015001", "ID_LINHA": 248196 }, "geometry": { "type": "MultiLineString", "coordinates": [ [ [ 410068.079413385479711, 7634539.58191698230803 ], [ 409976.363407322205603, 7634328.540765790268779 ] ] ] } },
{ "type": "Feature", "properties": { "fid": 15.0, "COMPR_M": 230.05, "CLASSE": "02 - Curta", "CD_FAZ": "404015", "TALHOES": "1", "FAZ_tAL": "404015001", "ID_LINHA": 248197 }, "geometry": { "type": "MultiLineString", "coordinates": [ [ [ 410064.984351517865434, 7634539.986882828176022 ], [ 409973.319080638117157, 7634329.062474746257067 ] ] ] } },
{ "type": "Feature", "properties": { "fid": 16.0, "COMPR_M": 229.17, "CLASSE": "02 - Curta", "CD_FAZ": "404015", "TALHOES": "1", "FAZ_tAL": "404015001", "ID_LINHA": 248198 }, "geometry": { "type": "MultiLineString", "coordinates": [ [ [ 410061.589370410540141, 7634539.701725935563445 ], [ 409970.274753953213803, 7634329.584183704108 ] ] ] } },
{ "type": "Feature", "properties": { "fid": 17.0, "COMPR_M": 228.19, "CLASSE": "02 - Curta", "CD_FAZ": "404015", "TALHOES": "1", "FAZ_tAL": "404015001", "ID_LINHA": 248199 }, "geometry": { "type": "MultiLineString", "coordinates": [ [ [ 410058.152359511994291, 7634539.31985729187727 ], [ 409967.23042727005668, 7634330.105892660096288 ] ] ] } },
{ "type": "Feature", "properties": { "fid": 18.0, "COMPR_M": 226.92, "CLASSE": "02 - Curta", "CD_FAZ": "404015", "TALHOES": "1", "FAZ_tAL": "404015001", "ID_LINHA": 248200 }, "geometry": { "type": "MultiLineString", "coordinates": [ [ [ 410054.605164007691201, 7634538.684450719505548 ], [ 409964.186100587947294, 7634330.627601617947221 ] ] ] } },
{ "type": "Feature", "properties": { "fid": 19.0, "COMPR_M": 226.24, "CLASSE": "02 - Curta", "CD_FAZ": "404015", "TALHOES": "1", "FAZ_tAL": "404015001", "ID_LINHA": 248201 }, "geometry": { "type": "MultiLineString", "coordinates": [ [ [ 410051.284508248674683, 7634538.570318578742445 ], [ 409961.137301916314755, 7634331.139020401984453 ] ] ] } },
{ "type": "Feature", "properties": { "fid": 20.0, "COMPR_M": 160.84, "CLASSE": "02 - Curta", "CD_FAZ": "404015", "TALHOES": "1", "FAZ_tAL": "404015001", "ID_LINHA": 248202 }, "geometry": { "type": "MultiLineString", "coordinates": [ [ [ 410048.151633310480975, 7634538.888275470584631 ], [ 409984.065311367216054, 7634391.423817096278071 ] ] ] } },
{ "type": "Feature", "properties": { "fid": 21.0, "COMPR_M": 59.09, "CLASSE": "01 - Muito curta", "CD_FAZ": "404015", "TALHOES": "1", "FAZ_tAL": "404015001", "ID_LINHA": 248203 }, "geometry": { "type": "MultiLineString", "coordinates": [ [ [ 409981.627820932422765, 7634385.815081938169897 ], [ 409958.084911031997763, 7634331.64217340387404 ] ] ] } },
{ "type": "Feature", "properties": { "fid": 22.0, "COMPR_M": 159.7, "CLASSE": "02 - Curta", "CD_FAZ": "404015", "TALHOES": "1", "FAZ_tAL": "404015001", "ID_LINHA": 248204 }, "geometry": { "type": "MultiLineString", "coordinates": [ [ [ 410045.200242493534461, 7634539.623832514509559 ], [ 409981.565446042863186, 7634393.198347199708223 ] ] ] } },
{ "type": "Feature", "properties": { "fid": 23.0, "COMPR_M": 58.25, "CLASSE": "01 - Muito curta", "CD_FAZ": "404015", "TALHOES": "1", "FAZ_tAL": "404015001", "ID_LINHA": 248205 }, "geometry": { "type": "MultiLineString", "coordinates": [ [ [ 409978.243720708356705, 7634385.554962269961834 ], [ 409955.032520146516617, 7634332.145326405763626 ] ] ] } },
{ "type": "Feature", "properties": { "fid": 24.0, "COMPR_M": 157.47, "CLASSE": "02 - Curta", "CD_FAZ": "404015", "TALHOES": "1", "FAZ_tAL": "404015001", "ID_LINHA": 248206 }, "geometry": { "type": "MultiLineString", "coordinates": [ [ [ 410042.301466919132508, 7634540.480458732694387 ], [ 409979.556032311171293, 7634396.101420437917113 ] ] ] } },
{ "type": "Feature", "properties": { "fid": 25.0, "COMPR_M": 56.55, "CLASSE": "01 - Muito curta", "CD_FAZ": "404015", "TALHOES": "1", "FAZ_tAL": "404015001", "ID_LINHA": 248207 }, "geometry": { "type": "MultiLineString", "coordinates": [ [ [ 409974.511877039272804, 7634384.494674993678927 ], [ 409951.980129264295101, 7634332.648479405790567 ] ] ] } },
{ "type": "Feature", "properties": { "fid": 26.0, "COMPR_M": 157.04, "CLASSE": "02 - Curta", "CD_FAZ": "404015", "TALHOES": "1", "FAZ_tAL": "404015001", "ID_LINHA": 248208 }, "geometry": { "type": "MultiLineString", "coordinates": [ [ [ 410039.456534430850297, 7634541.460979430004954 ], [ 409976.882113606610801, 7634397.475448740646243 ] ] ] } },
{ "type": "Feature", "properties": { "fid": 27.0, "COMPR_M": 56.14, "CLASSE": "01 - Muito curta", "CD_FAZ": "404015", "TALHOES": "1", "FAZ_tAL": "404015001", "ID_LINHA": 248209 }, "geometry": { "type": "MultiLineString", "coordinates": [ [ [ 409971.297113540524151, 7634384.624203966930509 ], [ 409948.927738379628863, 7634333.151632405817509 ] ] ] } },
{ "type": "Feature", "properties": { "fid": 28.0, "COMPR_M": 157.99, "CLASSE": "02 - Curta", "CD_FAZ": "404015", "TALHOES": "1", "FAZ_tAL": "404015001", "ID_LINHA": 248210 }, "geometry": { "type": "MultiLineString", "coordinates": [ [ [ 410036.639686563634314, 7634542.506123645231128 ], [ 409973.686424100073054, 7634397.648867517709732 ] ] ] } },
{ "type": "Feature", "properties": { "fid": 29.0, "COMPR_M": 56.02, "CLASSE": "01 - Muito curta", "CD_FAZ": "404015", "TALHOES": "1", "FAZ_tAL": "404015001", "ID_LINHA": 248211 }, "geometry": { "type": "MultiLineString", "coordinates": [ [ [ 409968.197784889256582, 7634385.019351825118065 ], [ 409945.875347495661117, 7634333.654785408638418 ] ] ] } },
{ "type": "Feature", "properties": { "fid": 30.0, "COMPR_M": 160.32, "CLASSE": "02 - Curta", "CD_FAZ": "404015", "TALHOES": "1", "FAZ_tAL": "404015001", "ID_LINHA": 248212 }, "geometry": { "type": "MultiLineString", "coordinates": [ [ [ 410033.846522806794383, 7634543.605765676125884 ], [ 409969.964798648259602, 7634396.612092651426792 ] ] ] } },
{ "type": "Feature", "properties": { "fid": 31.0, "COMPR_M": 56.12, "CLASSE": "01 - Muito curta", "CD_FAZ": "404015", "TALHOES": "1", "FAZ_tAL": "404015001", "ID_LINHA": 248213 }, "geometry": { "type": "MultiLineString", "coordinates": [ [ [ 409965.184037433005869, 7634385.611424456350505 ], [ 409942.822956611053087, 7634334.157938409596682 ] ] ] } },
{ "type": "Feature", "properties": { "fid": 32.0, "COMPR_M": 105.38, "CLASSE": "02 - Curta", "CD_FAZ": "404015", "TALHOES": "1", "FAZ_tAL": "404015001", "ID_LINHA": 248214 }, "geometry": { "type": "MultiLineString", "coordinates": [ [ [ 410031.039190720999613, 7634544.672805974259973 ], [ 409989.050545533071272, 7634448.055733364075422 ] ] ] } },
{ "type": "Feature", "properties": { "fid": 33.0, "COMPR_M": 51.86, "CLASSE": "01 - Muito curta", "CD_FAZ": "404015", "TALHOES": "1", "FAZ_tAL": "404015001", "ID_LINHA": 248215 }, "geometry": { "type": "MultiLineString", "coordinates": [ [ [ 409986.811597751395311, 7634442.903850526548922 ], [ 409966.146226968325209, 7634395.352241740562022 ] ] ] } },
{ "type": "Feature", "properties": { "fid": 34.0, "COMPR_M": 58.3, "CLASSE": "01 - Muito curta", "CD_FAZ": "404015", "TALHOES": "1", "FAZ_tAL": "404015001", "ID_LINHA": 248216 }, "geometry": { "type": "MultiLineString", "coordinates": [ [ [ 409963.001251463894732, 7634388.115563222207129 ], [ 409939.77056572784204, 7634334.661091409623623 ] ] ] } },
{ "type": "Feature", "properties": { "fid": 35.0, "COMPR_M": 100.47, "CLASSE": "02 - Curta", "CD_FAZ": "404015", "TALHOES": "1", "FAZ_tAL": "404015001", "ID_LINHA": 248217 }, "geometry": { "type": "MultiLineString", "coordinates": [ [ [ 410028.223925815313123, 7634545.721592627465725 ], [ 409988.192653909034561, 7634453.608491880819201 ] ] ] } },
{ "type": "Feature", "properties": { "fid": 36.0, "COMPR_M": 49.67, "CLASSE": "01 - Muito curta", "CD_FAZ": "404015", "TALHOES": "1", "FAZ_tAL": "404015001", "ID_LINHA": 248218 }, "geometry": { "type": "MultiLineString", "coordinates": [ [ [ 409982.877656305150595, 7634441.378530490212142 ], [ 409963.085487739124801, 7634395.836184961721301 ] ] ] } },
{ "type": "Feature", "properties": { "fid": 37.0, "COMPR_M": 59.68, "CLASSE": "01 - Muito curta", "CD_FAZ": "404015", "TALHOES": "1", "FAZ_tAL": "404015001", "ID_LINHA": 248219 }, "geometry": { "type": "MultiLineString", "coordinates": [ [ [ 409960.498147854581475, 7634389.88264194317162 ], [ 409936.718174842128064, 7634335.164244409650564 ] ] ] } },
{ "type": "Feature", "properties": { "fid": 38.0, "COMPR_M": 99.03, "CLASSE": "01 - Muito curta", "CD_FAZ": "404015", "TALHOES": "1", "FAZ_tAL": "404015001", "ID_LINHA": 248220 }, "geometry": { "type": "MultiLineString", "coordinates": [ [ [ 410025.098390856059268, 7634546.056439021602273 ], [ 409985.637492522248067, 7634455.255784165114164 ] ] ] } },
{ "type": "Feature", "properties": { "fid": 39.0, "COMPR_M": 113.94, "CLASSE": "02 - Curta", "CD_FAZ": "404015", "TALHOES": "1", "FAZ_tAL": "404015001", "ID_LINHA": 248221 }, "geometry": { "type": "MultiLineString", "coordinates": [ [ [ 409979.067311211489141, 7634440.13760919496417 ], [ 409933.665783958393149, 7634335.667397412471473 ] ] ] } },
{ "type": "Feature", "properties": { "fid": 40.0, "COMPR_M": 95.03, "CLASSE": "01 - Muito curta", "CD_FAZ": "404015", "TALHOES": "1", "FAZ_tAL": "404015001", "ID_LINHA": 248222 }, "geometry": { "type": "MultiLineString", "coordinates": [ [ [ 410021.903070544591174, 7634546.230707325041294 ], [ 409984.038003957364708, 7634459.102106927894056 ] ] ] } },
{ "type": "Feature", "properties": { "fid": 41.0, "COMPR_M": 111.49, "CLASSE": "02 - Curta", "CD_FAZ": "404015", "TALHOES": "1", "FAZ_tAL": "404015001", "ID_LINHA": 248223 }, "geometry": { "type": "MultiLineString", "coordinates": [ [ [ 409975.037532594404183, 7634438.391765086911619 ], [ 409930.613393074774649, 7634336.170550411567092 ] ] ] } },
{ "type": "Feature", "properties": { "fid": 42.0, "COMPR_M": 91.09, "CLASSE": "01 - Muito curta", "CD_FAZ": "404015", "TALHOES": "1", "FAZ_tAL": "404015001", "ID_LINHA": 248224 }, "geometry": { "type": "MultiLineString", "coordinates": [ [ [ 410018.295624082034919, 7634545.456661579199135 ], [ 409982.00174647057429, 7634461.943411918357015 ] ] ] } },
{ "type": "Feature", "properties": { "fid": 43.0, "COMPR_M": 109.99, "CLASSE": "02 - Curta", "CD_FAZ": "404015", "TALHOES": "1", "FAZ_tAL": "404015001", "ID_LINHA": 248225 }, "geometry": { "type": "MultiLineString", "coordinates": [ [ [ 409971.387509714346379, 7634437.519749784842134 ], [ 409927.56100218987558, 7634336.673703412525356 ] ] ] } },
{ "type": "Feature", "properties": { "fid": 44.0, "COMPR_M": 85.4, "CLASSE": "01 - Muito curta", "CD_FAZ": "404015", "TALHOES": "1", "FAZ_tAL": "404015001", "ID_LINHA": 248226 }, "geometry": { "type": "MultiLineString", "coordinates": [ [ [ 410013.688058694824576, 7634542.381313599646091 ], [ 409979.659231016295962, 7634464.080008570104837 ] ] ] } },
{ "type": "Feature", "properties": { "fid": 45.0, "COMPR_M": 109.3, "CLASSE": "02 - Curta", "CD_FAZ": "404015", "TALHOES": "1", "FAZ_tAL": "404015001", "ID_LINHA": 248227 }, "geometry": { "type": "MultiLineString", "coordinates": [ [ [ 409968.059420416131616, 7634437.388512859120965 ], [ 409924.508611306373496, 7634337.176856415346265 ] ] ] } },
{ "type": "Feature", "properties": { "fid": 46.0, "COMPR_M": 73.94, "CLASSE": "01 - Muito curta", "CD_FAZ": "404015", "TALHOES": "1", "FAZ_tAL": "404015001", "ID_LINHA": 248228 }, "geometry": { "type": "MultiLineString", "coordinates": [ [ [ 410006.553019014012534, 7634533.490175038576126 ], [ 409977.090500943129882, 7634465.696078918874264 ] ] ] } },
{ "type": "Feature", "properties": { "fid": 47.0, "COMPR_M": 109.43, "CLASSE": "02 - Curta", "CD_FAZ": "404015", "TALHOES": "1", "FAZ_tAL": "404015001", "ID_LINHA": 248229 }, "geometry": { "type": "MultiLineString", "coordinates": [ [ [ 409965.060876253526658, 7634438.01556870341301 ], [ 409921.456220422289334, 7634337.680009414441884 ] ] ] } },
{ "type": "Feature", "properties": { "fid": 48.0, "COMPR_M": 65.63, "CLASSE": "01 - Muito curta", "CD_FAZ": "404015", "TALHOES": "1", "FAZ_tAL": "404015001", "ID_LINHA": 248230 }, "geometry": { "type": "MultiLineString", "coordinates": [ [ [ 410000.529998669866472, 7634527.157824752852321 ], [ 409974.379233493527863, 7634466.984166692942381 ] ] ] } },
{ "type": "Feature", "properties": { "fid": 49.0, "COMPR_M": 109.85, "CLASSE": "02 - Curta", "CD_FAZ": "404015", "TALHOES": "1", "FAZ_tAL": "404015001", "ID_LINHA": 248231 }, "geometry": { "type": "MultiLineString", "coordinates": [ [ [ 409962.174016648961697, 7634438.899613907560706 ], [ 409918.403829536924604, 7634338.183162415400147 ] ] ] } },
{ "type": "Feature", "properties": { "fid": 50.0, "COMPR_M": 61.97, "CLASSE": "01 - Muito curta", "CD_FAZ": "404015", "TALHOES": "1", "FAZ_tAL": "404015001", "ID_LINHA": 248232 }, "geometry": { "type": "MultiLineString", "coordinates": [ [ [ 409996.056972561229486, 7634524.392055500298738 ], [ 409971.363658511894755, 7634467.572034138254821 ] ] ] } },
{ "type": "Feature", "properties": { "fid": 51.0, "COMPR_M": 111.07, "CLASSE": "02 - Curta", "CD_FAZ": "404015", "TALHOES": "1", "FAZ_tAL": "404015001", "ID_LINHA": 248233 }, "geometry": { "type": "MultiLineString", "coordinates": [ [ [ 409959.608001890126616, 7634440.521932274103165 ], [ 409915.351438654237427, 7634338.686315419152379 ] ] ] } },
{ "type": "Feature", "properties": { "fid": 52.0, "COMPR_M": 61.59, "CLASSE": "01 - Muito curta", "CD_FAZ": "404015", "TALHOES": "1", "FAZ_tAL": "404015001", "ID_LINHA": 248234 }, "geometry": { "type": "MultiLineString", "coordinates": [ [ [ 409992.313678495411295, 7634523.305420533753932 ], [ 409967.773519370763097, 7634466.837813030928373 ] ] ] } },
{ "type": "Feature", "properties": { "fid": 53.0, "COMPR_M": 114.82, "CLASSE": "02 - Curta", "CD_FAZ": "404015", "TALHOES": "1", "FAZ_tAL": "404015001", "ID_LINHA": 248235 }, "geometry": { "type": "MultiLineString", "coordinates": [ [ [ 409958.049855063785799, 7634444.463383557274938 ], [ 409912.299047769687604, 7634339.18946841917932 ] ] ] } },
{ "type": "Feature", "properties": { "fid": 54.0, "COMPR_M": 61.27, "CLASSE": "01 - Muito curta", "CD_FAZ": "404015", "TALHOES": "1", "FAZ_tAL": "404015001", "ID_LINHA": 248236 }, "geometry": { "type": "MultiLineString", "coordinates": [ [ [ 409989.012809105217457, 7634523.236817391589284 ], [ 409964.599439104262274, 7634467.060955286957324 ] ] ] } },
{ "type": "Feature", "properties": { "fid": 55.0, "COMPR_M": 118.97, "CLASSE": "02 - Curta", "CD_FAZ": "404015", "TALHOES": "1", "FAZ_tAL": "404015001", "ID_LINHA": 248237 }, "geometry": { "type": "MultiLineString", "coordinates": [ [ [ 409956.652950554154813, 7634448.775858023203909 ], [ 409909.246656885836273, 7634339.692621419206262 ] ] ] } },
{ "type": "Feature", "properties": { "fid": 56.0, "COMPR_M": 64.54, "CLASSE": "01 - Muito curta", "CD_FAZ": "404015", "TALHOES": "1", "FAZ_tAL": "404015001", "ID_LINHA": 248238 }, "geometry": { "type": "MultiLineString", "coordinates": [ [ [ 409986.032000297098421, 7634523.904682796448469 ], [ 409960.317170192021877, 7634464.734123795293272 ] ] ] } },
{ "type": "Feature", "properties": { "fid": 57.0, "COMPR_M": 124.68, "CLASSE": "02 - Curta", "CD_FAZ": "404015", "TALHOES": "1", "FAZ_tAL": "404015001", "ID_LINHA": 248239 }, "geometry": { "type": "MultiLineString", "coordinates": [ [ [ 409955.872045493568294, 7634454.505764819681644 ], [ 409906.19426600204315, 7634340.195774419233203 ] ] ] } },
{ "type": "Feature", "properties": { "fid": 58.0, "COMPR_M": 201.35, "CLASSE": "02 - Curta", "CD_FAZ": "404015", "TALHOES": "1", "FAZ_tAL": "404015001", "ID_LINHA": 248240 }, "geometry": { "type": "MultiLineString", "coordinates": [ [ [ 409983.373118806630373, 7634525.313312156125903 ], [ 409903.141875116387382, 7634340.698927422054112 ] ] ] } },
{ "type": "Feature", "properties": { "fid": 59.0, "COMPR_M": 203.07, "CLASSE": "02 - Curta", "CD_FAZ": "404015", "TALHOES": "1", "FAZ_tAL": "404015001", "ID_LINHA": 248241 }, "geometry": { "type": "MultiLineString", "coordinates": [ [ [ 409981.003543960279785, 7634527.387644372880459 ], [ 409900.089484232012182, 7634341.202080423012376 ] ] ] } },
{ "type": "Feature", "properties": { "fid": 60.0, "COMPR_M": 205.2, "CLASSE": "02 - Curta", "CD_FAZ": "404015", "TALHOES": "1", "FAZ_tAL": "404015001", "ID_LINHA": 248242 }, "geometry": { "type": "MultiLineString", "coordinates": [ [ [ 409978.801770907768514, 7634529.848093315958977 ], [ 409897.037093349150382, 7634341.705233423039317 ] ] ] } },
{ "type": "Feature", "properties": { "fid": 61.0, "COMPR_M": 207.54, "CLASSE": "02 - Curta", "CD_FAZ": "404015", "TALHOES": "1", "FAZ_tAL": "404015001", "ID_LINHA": 248243 }, "geometry": { "type": "MultiLineString", "coordinates": [ [ [ 409976.679737600497901, 7634532.492025695741177 ], [ 409893.984702464193106, 7634342.208386424928904 ] ] ] } },
{ "type": "Feature", "properties": { "fid": 62.0, "COMPR_M": 210.03, "CLASSE": "02 - Curta", "CD_FAZ": "404015", "TALHOES": "1", "FAZ_tAL": "404015001", "ID_LINHA": 248244 }, "geometry": { "type": "MultiLineString", "coordinates": [ [ [ 409974.621945767779835, 7634535.283779535442591 ], [ 409890.932311580108944, 7634342.7115394230932 ] ] ] } },
{ "type": "Feature", "properties": { "fid": 63.0, "COMPR_M": 212.58, "CLASSE": "02 - Curta", "CD_FAZ": "404015", "TALHOES": "1", "FAZ_tAL": "404015001", "ID_LINHA": 248245 }, "geometry": { "type": "MultiLineString", "coordinates": [ [ [ 409972.584373017307371, 7634538.122058067470789 ], [ 409887.879920696665067, 7634343.214692426845431 ] ] ] } },
{ "type": "Feature", "properties": { "fid": 64.0, "COMPR_M": 215.0, "CLASSE": "02 - Curta", "CD_FAZ": "404015", "TALHOES": "1", "FAZ_tAL": "404015001", "ID_LINHA": 248246 }, "geometry": { "type": "MultiLineString", "coordinates": [ [ [ 409970.496883938205428, 7634540.845477700233459 ], [ 409884.827529812580906, 7634343.717845426872373 ] ] ] } },
{ "type": "Feature", "properties": { "fid": 65.0, "COMPR_M": 217.41, "CLASSE": "02 - Curta", "CD_FAZ": "404015", "TALHOES": "1", "FAZ_tAL": "404015001", "ID_LINHA": 248247 }, "geometry": { "type": "MultiLineString", "coordinates": [ [ [ 409968.404654776328243, 7634543.55799026042223 ], [ 409881.775138928671367, 7634344.220998428761959 ] ] ] } },
{ "type": "Feature", "properties": { "fid": 66.0, "COMPR_M": 219.82, "CLASSE": "02 - Curta", "CD_FAZ": "404015", "TALHOES": "1", "FAZ_tAL": "404015001", "ID_LINHA": 248248 }, "geometry": { "type": "MultiLineString", "coordinates": [ [ [ 409966.311256298038643, 7634546.267812198027968 ], [ 409878.722748043364845, 7634344.724151430651546 ] ] ] } },
{ "type": "Feature", "properties": { "fid": 67.0, "COMPR_M": 222.23, "CLASSE": "02 - Curta", "CD_FAZ": "404015", "TALHOES": "1", "FAZ_tAL": "404015001", "ID_LINHA": 248249 }, "geometry": { "type": "MultiLineString", "coordinates": [ [ [ 409964.220092433039099, 7634548.982776042073965 ], [ 409875.670357160153799, 7634345.227304430678487 ] ] ] } },
{ "type": "Feature", "properties": { "fid": 68.0, "COMPR_M": 224.69, "CLASSE": "02 - Curta", "CD_FAZ": "404015", "TALHOES": "1", "FAZ_tAL": "404015001", "ID_LINHA": 248250 }, "geometry": { "type": "MultiLineString", "coordinates": [ [ [ 409962.148033142788336, 7634551.741700055077672 ], [ 409872.617966275662184, 7634345.730457430705428 ] ] ] } },
{ "type": "Feature", "properties": { "fid": 69.0, "COMPR_M": 227.18, "CLASSE": "02 - Curta", "CD_FAZ": "404015", "TALHOES": "1", "FAZ_tAL": "404015001", "ID_LINHA": 248251 }, "geometry": { "type": "MultiLineString", "coordinates": [ [ [ 409960.088442910113372, 7634554.529315732419491 ], [ 409869.565575391228776, 7634346.233610433526337 ] ] ] } },
{ "type": "Feature", "properties": { "fid": 70.0, "COMPR_M": 229.79, "CLASSE": "02 - Curta", "CD_FAZ": "404015", "TALHOES": "1", "FAZ_tAL": "404015001", "ID_LINHA": 248252 }, "geometry": { "type": "MultiLineString", "coordinates": [ [ [ 409958.074490744678769, 7634557.421945901587605 ], [ 409866.513184507493861, 7634346.736763434484601 ] ] ] } },
{ "type": "Feature", "properties": { "fid": 71.0, "COMPR_M": 232.32, "CLASSE": "02 - Curta", "CD_FAZ": "404015", "TALHOES": "1", "FAZ_tAL": "404015001", "ID_LINHA": 248253 }, "geometry": { "type": "MultiLineString", "coordinates": [ [ [ 409956.031590504164342, 7634560.247965727001429 ], [ 409863.460793623176869, 7634347.239916436374187 ] ] ] } },
{ "type": "Feature", "properties": { "fid": 72.0, "COMPR_M": 234.56, "CLASSE": "02 - Curta", "CD_FAZ": "404015", "TALHOES": "1", "FAZ_tAL": "404015001", "ID_LINHA": 248254 }, "geometry": { "type": "MultiLineString", "coordinates": [ [ [ 409953.871731855848338, 7634562.804860910400748 ], [ 409860.408402739558369, 7634347.743069434538484 ] ] ] } },
{ "type": "Feature", "properties": { "fid": 73.0, "COMPR_M": 236.83, "CLASSE": "02 - Curta", "CD_FAZ": "404015", "TALHOES": "1", "FAZ_tAL": "404015001", "ID_LINHA": 248255 }, "geometry": { "type": "MultiLineString", "coordinates": [ [ [ 409951.723899689968675, 7634565.389429375529289 ], [ 409857.356011854019016, 7634348.246222435496747 ] ] ] } },
{ "type": "Feature", "properties": { "fid": 74.0, "COMPR_M": 239.24, "CLASSE": "02 - Curta", "CD_FAZ": "404015", "TALHOES": "1", "FAZ_tAL": "404015001", "ID_LINHA": 248256 }, "geometry": { "type": "MultiLineString", "coordinates": [ [ [ 409949.631967899855226, 7634568.102626204490662 ], [ 409854.303620971157216, 7634348.749375437386334 ] ] ] } },
{ "type": "Feature", "properties": { "fid": 75.0, "COMPR_M": 241.59, "CLASSE": "02 - Curta", "CD_FAZ": "404015", "TALHOES": "1", "FAZ_tAL": "404015001", "ID_LINHA": 248257 }, "geometry": { "type": "MultiLineString", "coordinates": [ [ [ 409947.515739747905172, 7634570.759916404262185 ], [ 409851.251230087014847, 7634349.252528437413275 ] ] ] } },
{ "type": "Feature", "properties": { "fid": 76.0, "COMPR_M": 243.68, "CLASSE": "02 - Curta", "CD_FAZ": "404015", "TALHOES": "1", "FAZ_tAL": "404015001", "ID_LINHA": 248258 }, "geometry": { "type": "MultiLineString", "coordinates": [ [ [ 409945.29528888076311, 7634573.177387161180377 ], [ 409848.198839202232193, 7634349.755681438371539 ] ] ] } },
{ "type": "Feature", "properties": { "fid": 77.0, "COMPR_M": 245.83, "CLASSE": "02 - Curta", "CD_FAZ": "404015", "TALHOES": "1", "FAZ_tAL": "404015001", "ID_LINHA": 248259 }, "geometry": { "type": "MultiLineString", "coordinates": [ [ [ 409943.099724506959319, 7634575.652122450992465 ], [ 409845.146448318206239, 7634350.258834440261126 ] ] ] } },
{ "type": "Feature", "properties": { "fid": 78.0, "COMPR_M": 248.04, "CLASSE": "02 - Curta", "CD_FAZ": "404015", "TALHOES": "1", "FAZ_tAL": "404015001", "ID_LINHA": 248260 }, "geometry": { "type": "MultiLineString", "coordinates": [ [ [ 409940.926933122682385, 7634578.179259036667645 ], [ 409842.094057434238493, 7634350.761987440288067 ] ] ] } },
{ "type": "Feature", "properties": { "fid": 79.0, "COMPR_M": 250.02, "CLASSE": "02 - Curta", "CD_FAZ": "404015", "TALHOES": "1", "FAZ_tAL": "404015001", "ID_LINHA": 248261 }, "geometry": { "type": "MultiLineString", "coordinates": [ [ [ 409938.664723015332129, 7634580.500640591606498 ], [ 409839.041666548931971, 7634351.265140439383686 ] ] ] } },
{ "type": "Feature", "properties": { "fid": 80.0, "COMPR_M": 66.91, "CLASSE": "01 - Muito curta", "CD_FAZ": "404015", "TALHOES": "1", "FAZ_tAL": "404015001", "ID_LINHA": 248262 }, "geometry": { "type": "MultiLineString", "coordinates": [ [ [ 409936.367218008555938, 7634582.740807570517063 ], [ 409909.706971959094517, 7634521.394819460809231 ] ] ] } },
{ "type": "Feature", "properties": { "fid": 81.0, "COMPR_M": 180.08, "CLASSE": "02 - Curta", "CD_FAZ": "404015", "TALHOES": "1", "FAZ_tAL": "404015001", "ID_LINHA": 248263 }, "geometry": { "type": "MultiLineString", "coordinates": [ [ [ 409907.741930716030765, 7634516.87320340052247 ], [ 409835.989275665662717, 7634351.768293443135917 ] ] ] } },
{ "type": "Feature", "properties": { "fid": 82.0, "COMPR_M": 67.14, "CLASSE": "01 - Muito curta", "CD_FAZ": "404015", "TALHOES": "1", "FAZ_tAL": "404015001", "ID_LINHA": 248264 }, "geometry": { "type": "MultiLineString", "coordinates": [ [ [ 409933.943619358935393, 7634584.69082947447896 ], [ 409907.192200106335804, 7634523.135049220174551 ] ] ] } },
{ "type": "Feature", "properties": { "fid": 83.0, "COMPR_M": 180.39, "CLASSE": "02 - Curta", "CD_FAZ": "404015", "TALHOES": "1", "FAZ_tAL": "404015001", "ID_LINHA": 248265 }, "geometry": { "type": "MultiLineString", "coordinates": [ [ [ 409904.814573244191706, 7634517.664061861112714 ], [ 409832.936884781811386, 7634352.271446442231536 ] ] ] } },
{ "type": "Feature", "properties": { "fid": 84.0, "COMPR_M": 63.28, "CLASSE": "01 - Muito curta", "CD_FAZ": "404015", "TALHOES": "1", "FAZ_tAL": "404015001", "ID_LINHA": 248266 }, "geometry": { "type": "MultiLineString", "coordinates": [ [ [ 409931.514226014609449, 7634586.627517618238926 ], [ 409906.298071971337777, 7634528.604426492005587 ] ] ] } },
{ "type": "Feature", "properties": { "fid": 85.0, "COMPR_M": 176.52, "CLASSE": "02 - Curta", "CD_FAZ": "404015", "TALHOES": "1", "FAZ_tAL": "404015001", "ID_LINHA": 248267 }, "geometry": { "type": "MultiLineString", "coordinates": [ [ [ 409900.219218287151307, 7634514.616810427978635 ], [ 409829.88449389860034, 7634352.774599445052445 ] ] ] } },
{ "type": "Feature", "properties": { "fid": 86.0, "COMPR_M": 60.75, "CLASSE": "01 - Muito curta", "CD_FAZ": "404015", "TALHOES": "1", "FAZ_tAL": "404015001", "ID_LINHA": 248268 }, "geometry": { "type": "MultiLineString", "coordinates": [ [ [ 409929.07849688193528, 7634588.549626935273409 ], [ 409904.871424290817231, 7634532.848461066372693 ] ] ] } },
{ "type": "Feature", "properties": { "fid": 87.0, "COMPR_M": 174.59, "CLASSE": "02 - Curta", "CD_FAZ": "404015", "TALHOES": "1", "FAZ_tAL": "404015001", "ID_LINHA": 248269 }, "geometry": { "type": "MultiLineString", "coordinates": [ [ [ 409896.396993586211465, 7634513.348553814925253 ], [ 409826.832103013526648, 7634353.277752445079386 ] ] ] } },
{ "type": "Feature", "properties": { "fid": 88.0, "COMPR_M": 59.36, "CLASSE": "01 - Muito curta", "CD_FAZ": "404015", "TALHOES": "1", "FAZ_tAL": "404015001", "ID_LINHA": 248270 }, "geometry": { "type": "MultiLineString", "coordinates": [ [ [ 409926.571952575061005, 7634590.308788511902094 ], [ 409902.92043798812665, 7634535.885977488011122 ] ] ] } },
{ "type": "Feature", "properties": { "fid": 89.0, "COMPR_M": 173.97, "CLASSE": "02 - Curta", "CD_FAZ": "404015", "TALHOES": "1", "FAZ_tAL": "404015001", "ID_LINHA": 248271 }, "geometry": { "type": "MultiLineString", "coordinates": [ [ [ 409893.100283582636621, 7634513.289521541446447 ], [ 409823.779712129035033, 7634353.78090544603765 ] ] ] } },
{ "type": "Feature", "properties": { "fid": 90.0, "COMPR_M": 58.89, "CLASSE": "01 - Muito curta", "CD_FAZ": "404015", "TALHOES": "1", "FAZ_tAL": "404015001", "ID_LINHA": 248272 }, "geometry": { "type": "MultiLineString", "coordinates": [ [ [ 409924.046133907977492, 7634592.02359923440963 ], [ 409900.582569997932296, 7634538.033268086612225 ] ] ] } },
{ "type": "Feature", "properties": { "fid": 91.0, "COMPR_M": 173.91, "CLASSE": "02 - Curta", "CD_FAZ": "404015", "TALHOES": "1", "FAZ_tAL": "404015001", "ID_LINHA": 248273 }, "geometry": { "type": "MultiLineString", "coordinates": [ [ [ 409890.023403496888932, 7634513.736324188299477 ], [ 409820.727321245358326, 7634354.284058447927237 ] ] ] } },
{ "type": "Feature", "properties": { "fid": 92.0, "COMPR_M": 58.94, "CLASSE": "01 - Muito curta", "CD_FAZ": "404015", "TALHOES": "1", "FAZ_tAL": "404015001", "ID_LINHA": 248274 }, "geometry": { "type": "MultiLineString", "coordinates": [ [ [ 409921.520326766127255, 7634593.738436474464834 ], [ 409898.036597288679332, 7634539.70170378498733 ] ] ] } },
{ "type": "Feature", "properties": { "fid": 93.0, "COMPR_M": 174.05, "CLASSE": "02 - Curta", "CD_FAZ": "404015", "TALHOES": "1", "FAZ_tAL": "404015001", "ID_LINHA": 248275 }, "geometry": { "type": "MultiLineString", "coordinates": [ [ [ 409887.028190315293614, 7634514.371044716797769 ], [ 409817.674930360401049, 7634354.7872114488855 ] ] ] } },
{ "type": "Feature", "properties": { "fid": 94.0, "COMPR_M": 60.24, "CLASSE": "01 - Muito curta", "CD_FAZ": "404015", "TALHOES": "1", "FAZ_tAL": "404015001", "ID_LINHA": 248276 }, "geometry": { "type": "MultiLineString", "coordinates": [ [ [ 409918.994526480673812, 7634595.453289497643709 ], [ 409894.99146922188811, 7634540.221568731591105 ] ] ] } },
{ "type": "Feature", "properties": { "fid": 95.0, "COMPR_M": 173.94, "CLASSE": "02 - Curta", "CD_FAZ": "404015", "TALHOES": "1", "FAZ_tAL": "404015001", "ID_LINHA": 248277 }, "geometry": { "type": "MultiLineString", "coordinates": [ [ [ 409883.930351368617266, 7634514.769620425999165 ], [ 409814.622539476724342, 7634355.290364450775087 ] ] ] } },
{ "type": "Feature", "properties": { "fid": 96.0, "COMPR_M": 63.31, "CLASSE": "01 - Muito curta", "CD_FAZ": "404015", "TALHOES": "1", "FAZ_tAL": "404015001", "ID_LINHA": 248278 }, "geometry": { "type": "MultiLineString", "coordinates": [ [ [ 409916.446598365320824, 7634597.117225741967559 ], [ 409891.219514079450164, 7634539.068983810022473 ] ] ] } },
{ "type": "Feature", "properties": { "fid": 97.0, "COMPR_M": 174.84, "CLASSE": "02 - Curta", "CD_FAZ": "404015", "TALHOES": "1", "FAZ_tAL": "404015001", "ID_LINHA": 248279 }, "geometry": { "type": "MultiLineString", "coordinates": [ [ [ 409881.236453656747472, 7634516.097676462493837 ], [ 409811.570148591767065, 7634355.793517451733351 ] ] ] } },
{ "type": "Feature", "properties": { "fid": 98.0, "COMPR_M": 67.3, "CLASSE": "01 - Muito curta", "CD_FAZ": "404015", "TALHOES": "1", "FAZ_tAL": "404015001", "ID_LINHA": 248280 }, "geometry": { "type": "MultiLineString", "coordinates": [ [ [ 409913.887375160236843, 7634598.755171668715775 ], [ 409887.070780362817459, 7634537.049420621246099 ] ] ] } },
{ "type": "Feature", "properties": { "fid": 99.0, "COMPR_M": 178.21, "CLASSE": "02 - Curta", "CD_FAZ": "404015", "TALHOES": "1", "FAZ_tAL": "404015001", "ID_LINHA": 248281 }, "geometry": { "type": "MultiLineString", "coordinates": [ [ [ 409879.527698726742528, 7634519.692574195563793 ], [ 409808.517757708905265, 7634356.296670450828969 ] ] ] } },
{ "type": "Feature", "properties": { "fid": 100.0, "COMPR_M": 71.03, "CLASSE": "01 - Muito curta", "CD_FAZ": "404015", "TALHOES": "1", "FAZ_tAL": "404015001", "ID_LINHA": 248282 }, "geometry": { "type": "MultiLineString", "coordinates": [ [ [ 409911.243601778463926, 7634600.198565220460296 ], [ 409882.939550500828773, 7634535.070134300738573 ] ] ] } },
{ "type": "Feature", "properties": { "fid": 101.0, "COMPR_M": 184.31, "CLASSE": "02 - Curta", "CD_FAZ": "404015", "TALHOES": "1", "FAZ_tAL": "404015001", "ID_LINHA": 248283 }, "geometry": { "type": "MultiLineString", "coordinates": [ [ [ 409878.903627065126784, 7634525.783359128050506 ], [ 409805.465366823947988, 7634356.799823453649879 ] ] ] } },
{ "type": "Feature", "properties": { "fid": 102.0, "COMPR_M": 71.25, "CLASSE": "01 - Muito curta", "CD_FAZ": "404015", "TALHOES": "1", "FAZ_tAL": "404015001", "ID_LINHA": 248284 }, "geometry": { "type": "MultiLineString", "coordinates": [ [ [ 409908.567508902749978, 7634601.567590691149235 ], [ 409880.176097818010021, 7634536.238142360001802 ] ] ] } },
{ "type": "Feature", "properties": { "fid": 103.0, "COMPR_M": 185.93, "CLASSE": "02 - Curta", "CD_FAZ": "404015", "TALHOES": "1", "FAZ_tAL": "404015001", "ID_LINHA": 248285 }, "geometry": { "type": "MultiLineString", "coordinates": [ [ [ 409876.499402954708785, 7634527.777962401509285 ], [ 409802.412975940504111, 7634357.30297645367682 ] ] ] } },
{ "type": "Feature", "properties": { "fid": 104.0, "COMPR_M": 267.14, "CLASSE": "02 - Curta", "CD_FAZ": "404015", "TALHOES": "1", "FAZ_tAL": "404015001", "ID_LINHA": 248286 }, "geometry": { "type": "MultiLineString", "coordinates": [ [ [ 409905.80514560994925, 7634602.738105471245944 ], [ 409799.360585055022966, 7634357.806129455566406 ] ] ] } },
{ "type": "Feature", "properties": { "fid": 105.0, "COMPR_M": 267.7, "CLASSE": "02 - Curta", "CD_FAZ": "404015", "TALHOES": "1", "FAZ_tAL": "404015001", "ID_LINHA": 248287 }, "geometry": { "type": "MultiLineString", "coordinates": [ [ [ 409902.973690441693179, 7634603.749637868255377 ], [ 409796.308194171579089, 7634358.309282455593348 ] ] ] } },
{ "type": "Feature", "properties": { "fid": 106.0, "COMPR_M": 268.16, "CLASSE": "02 - Curta", "CD_FAZ": "404015", "TALHOES": "1", "FAZ_tAL": "404015001", "ID_LINHA": 248288 }, "geometry": { "type": "MultiLineString", "coordinates": [ [ [ 409900.10784699593205, 7634604.682041856460273 ], [ 409793.255803287494928, 7634358.812435457482934 ] ] ] } },
{ "type": "Feature", "properties": { "fid": 107.0, "COMPR_M": 268.55, "CLASSE": "02 - Curta", "CD_FAZ": "404015", "TALHOES": "1", "FAZ_tAL": "404015001", "ID_LINHA": 248289 }, "geometry": { "type": "MultiLineString", "coordinates": [ [ [ 409897.209914020088036, 7634605.540606918744743 ], [ 409790.203412404109258, 7634359.31558845937252 ] ] ] } },
{ "type": "Feature", "properties": { "fid": 108.0, "COMPR_M": 268.92, "CLASSE": "02 - Curta", "CD_FAZ": "404015", "TALHOES": "1", "FAZ_tAL": "404015001", "ID_LINHA": 248290 }, "geometry": { "type": "MultiLineString", "coordinates": [ [ [ 409894.304805512889288, 7634606.382660878822207 ], [ 409787.15102151944302, 7634359.818741459399462 ] ] ] } },
{ "type": "Feature", "properties": { "fid": 109.0, "COMPR_M": 269.35, "CLASSE": "02 - Curta", "CD_FAZ": "404015", "TALHOES": "1", "FAZ_tAL": "404015001", "ID_LINHA": 248291 }, "geometry": { "type": "MultiLineString", "coordinates": [ [ [ 409891.42446626862511, 7634607.281709620729089 ], [ 409784.098630635475274, 7634360.321894459426403 ] ] ] } },
{ "type": "Feature", "properties": { "fid": 110.0, "COMPR_M": 270.19, "CLASSE": "02 - Curta", "CD_FAZ": "404015", "TALHOES": "1", "FAZ_tAL": "404015001", "ID_LINHA": 248292 }, "geometry": { "type": "MultiLineString", "coordinates": [ [ [ 409888.705059475498274, 7634608.551068531349301 ], [ 409781.046239751507528, 7634360.825047460384667 ] ] ] } },
{ "type": "Feature", "properties": { "fid": 111.0, "COMPR_M": 271.25, "CLASSE": "02 - Curta", "CD_FAZ": "404015", "TALHOES": "1", "FAZ_tAL": "404015001", "ID_LINHA": 248293 }, "geometry": { "type": "MultiLineString", "coordinates": [ [ [ 409886.076604806585237, 7634610.029710881412029 ], [ 409777.99384886759799, 7634361.328200461342931 ] ] ] } },
{ "type": "Feature", "properties": { "fid": 112.0, "COMPR_M": 272.6, "CLASSE": "02 - Curta", "CD_FAZ": "404015", "TALHOES": "1", "FAZ_tAL": "404015001", "ID_LINHA": 248294 }, "geometry": { "type": "MultiLineString", "coordinates": [ [ [ 409883.562506887421478, 7634611.771491376683116 ], [ 409774.941457982349675, 7634361.831353463232517 ] ] ] } },
{ "type": "Feature", "properties": { "fid": 113.0, "COMPR_M": 274.31, "CLASSE": "02 - Curta", "CD_FAZ": "404015", "TALHOES": "1", "FAZ_tAL": "404015001", "ID_LINHA": 248295 }, "geometry": { "type": "MultiLineString", "coordinates": [ [ [ 409881.1909378937562, 7634613.841235006228089 ], [ 409771.889067097799852, 7634362.334506464190781 ] ] ] } },
{ "type": "Feature", "properties": { "fid": 114.0, "COMPR_M": 276.1, "CLASSE": "02 - Curta", "CD_FAZ": "404015", "TALHOES": "1", "FAZ_tAL": "404015001", "ID_LINHA": 248296 }, "geometry": { "type": "MultiLineString", "coordinates": [ [ [ 409878.849701878498308, 7634615.980775684118271 ], [ 409768.83667621522909, 7634362.837659465149045 ] ] ] } },
{ "type": "Feature", "properties": { "fid": 115.0, "COMPR_M": 277.99, "CLASSE": "02 - Curta", "CD_FAZ": "404015", "TALHOES": "1", "FAZ_tAL": "404015001", "ID_LINHA": 248297 }, "geometry": { "type": "MultiLineString", "coordinates": [ [ [ 409876.549405874393415, 7634618.214520500041544 ], [ 409765.784285330795683, 7634363.340812465175986 ] ] ] } },
{ "type": "Feature", "properties": { "fid": 116.0, "COMPR_M": 279.99, "CLASSE": "02 - Curta", "CD_FAZ": "404015", "TALHOES": "1", "FAZ_tAL": "404015001", "ID_LINHA": 248298 }, "geometry": { "type": "MultiLineString", "coordinates": [ [ [ 409874.29472721402999, 7634620.553232125937939 ], [ 409762.731894445663784, 7634363.843965467065573 ] ] ] } },
{ "type": "Feature", "properties": { "fid": 117.0, "COMPR_M": 282.34, "CLASSE": "02 - Curta", "CD_FAZ": "404015", "TALHOES": "1", "FAZ_tAL": "404015001", "ID_LINHA": 248299 }, "geometry": { "type": "MultiLineString", "coordinates": [ [ [ 409872.178465085220523, 7634623.210444148629904 ], [ 409759.679503562510945, 7634364.347118468955159 ] ] ] } },
{ "type": "Feature", "properties": { "fid": 118.0, "COMPR_M": 284.79, "CLASSE": "02 - Curta", "CD_FAZ": "404015", "TALHOES": "1", "FAZ_tAL": "404015001", "ID_LINHA": 248300 }, "geometry": { "type": "MultiLineString", "coordinates": [ [ [ 409870.104615819524042, 7634625.965249378234148 ], [ 409756.627112678077538, 7634364.850271469913423 ] ] ] } },
{ "type": "Feature", "properties": { "fid": 119.0, "COMPR_M": 287.52, "CLASSE": "02 - Curta", "CD_FAZ": "404015", "TALHOES": "1", "FAZ_tAL": "404015001", "ID_LINHA": 248301 }, "geometry": { "type": "MultiLineString", "coordinates": [ [ [ 409868.139802663354203, 7634628.970949816517532 ], [ 409753.574721794342622, 7634365.353424469940364 ] ] ] } },
{ "type": "Feature", "properties": { "fid": 120.0, "COMPR_M": 290.66, "CLASSE": "02 - Curta", "CD_FAZ": "404015", "TALHOES": "1", "FAZ_tAL": "404015001", "ID_LINHA": 248302 }, "geometry": { "type": "MultiLineString", "coordinates": [ [ [ 409866.336807101557497, 7634632.348997160792351 ], [ 409750.522330909909215, 7634365.856577472761273 ] ] ] } },
{ "type": "Feature", "properties": { "fid": 121.0, "COMPR_M": 294.87, "CLASSE": "02 - Curta", "CD_FAZ": "404015", "TALHOES": "1", "FAZ_tAL": "404015001", "ID_LINHA": 248303 }, "geometry": { "type": "MultiLineString", "coordinates": [ [ [ 409864.962118737515993, 7634636.712591611780226 ], [ 409747.469940026232507, 7634366.359730472788215 ] ] ] } },
{ "type": "Feature", "properties": { "fid": 122.0, "COMPR_M": 302.22, "CLASSE": "03 - Média", "CD_FAZ": "404015", "TALHOES": "1", "FAZ_tAL": "404015001", "ID_LINHA": 248304 }, "geometry": { "type": "MultiLineString", "coordinates": [ [ [ 409864.838975339545868, 7634643.956026792526245 ], [ 409744.417549141857307, 7634366.862883472815156 ] ] ] } },
{ "type": "Feature", "properties": { "fid": 123.0, "COMPR_M": 311.75, "CLASSE": "03 - Média", "CD_FAZ": "404015", "TALHOES": "1", "FAZ_tAL": "404015001", "ID_LINHA": 248305 }, "geometry": { "type": "MultiLineString", "coordinates": [ [ [ 409865.582666406815406, 7634653.194072855636477 ], [ 409741.365158257540315, 7634367.366036472842097 ] ] ] } },
{ "type": "Feature", "properties": { "fid": 124.0, "COMPR_M": 323.6, "CLASSE": "03 - Média", "CD_FAZ": "404015", "TALHOES": "1", "FAZ_tAL": "404015001", "ID_LINHA": 248306 }, "geometry": { "type": "MultiLineString", "coordinates": [ [ [ 409867.252345556742512, 7634664.562843963503838 ], [ 409738.312767373165116, 7634367.869189474731684 ] ] ] } },
{ "type": "Feature", "properties": { "fid": 125.0, "COMPR_M": 334.85, "CLASSE": "03 - Média", "CD_FAZ": "404015", "TALHOES": "1", "FAZ_tAL": "404015001", "ID_LINHA": 248307 }, "geometry": { "type": "MultiLineString", "coordinates": [ [ [ 409868.684141705336515, 7634675.384239485487342 ], [ 409735.260376489546616, 7634368.37234247662127 ] ] ] } },
{ "type": "Feature", "properties": { "fid": 126.0, "COMPR_M": 157.08, "CLASSE": "02 - Curta", "CD_FAZ": "404015", "TALHOES": "1", "FAZ_tAL": "404015001", "ID_LINHA": 248308 }, "geometry": { "type": "MultiLineString", "coordinates": [ [ [ 409869.396060749131721, 7634684.549177212640643 ], [ 409806.805669510678854, 7634540.526898141950369 ] ] ] } },
{ "type": "Feature", "properties": { "fid": 127.0, "COMPR_M": 180.68, "CLASSE": "02 - Curta", "CD_FAZ": "404015", "TALHOES": "1", "FAZ_tAL": "404015001", "ID_LINHA": 248309 }, "geometry": { "type": "MultiLineString", "coordinates": [ [ [ 409804.199809856945649, 7634534.530740603804588 ], [ 409732.207985604589339, 7634368.875495475716889 ] ] ] } },
{ "type": "Feature", "properties": { "fid": 128.0, "COMPR_M": 164.77, "CLASSE": "02 - Curta", "CD_FAZ": "404015", "TALHOES": "1", "FAZ_tAL": "404015001", "ID_LINHA": 248310 }, "geometry": { "type": "MultiLineString", "coordinates": [ [ [ 409869.68358116253512, 7634692.73756156489253 ], [ 409804.028211019060109, 7634541.662678435444832 ] ] ] } },
{ "type": "Feature", "properties": { "fid": 129.0, "COMPR_M": 179.98, "CLASSE": "02 - Curta", "CD_FAZ": "404015", "TALHOES": "1", "FAZ_tAL": "404015001", "ID_LINHA": 248311 }, "geometry": { "type": "MultiLineString", "coordinates": [ [ [ 409800.868804075522348, 7634534.392792763188481 ], [ 409729.155594720970839, 7634369.378648478537798 ] ] ] } },
{ "type": "Feature", "properties": { "fid": 130.0, "COMPR_M": 167.36, "CLASSE": "02 - Curta", "CD_FAZ": "404015", "TALHOES": "1", "FAZ_tAL": "404015001", "ID_LINHA": 248312 }, "geometry": { "type": "MultiLineString", "coordinates": [ [ [ 409868.583253822405823, 7634697.732468571513891 ], [ 409801.896494529093616, 7634544.28432953171432 ] ] ] } },
{ "type": "Feature", "properties": { "fid": 131.0, "COMPR_M": 173.98, "CLASSE": "02 - Curta", "CD_FAZ": "404015", "TALHOES": "1", "FAZ_tAL": "404015001", "ID_LINHA": 248313 }, "geometry": { "type": "MultiLineString", "coordinates": [ [ [ 409795.425280854047742, 7634529.393881916999817 ], [ 409726.103203836013563, 7634369.881801479496062 ] ] ] } },
{ "type": "Feature", "properties": { "fid": 132.0, "COMPR_M": 168.7, "CLASSE": "02 - Curta", "CD_FAZ": "404015", "TALHOES": "1", "FAZ_tAL": "404015001", "ID_LINHA": 248314 }, "geometry": { "type": "MultiLineString", "coordinates": [ [ [ 409866.738216281519271, 7634701.013776120729744 ], [ 409799.516905944678001, 7634546.335619851946831 ] ] ] } },
{ "type": "Feature", "properties": { "fid": 133.0, "COMPR_M": 171.58, "CLASSE": "02 - Curta", "CD_FAZ": "404015", "TALHOES": "1", "FAZ_tAL": "404015001", "ID_LINHA": 248315 }, "geometry": { "type": "MultiLineString", "coordinates": [ [ [ 409791.418592098751105, 7634527.701168240979314 ], [ 409723.050812952453271, 7634370.384954480454326 ] ] ] } },
{ "type": "Feature", "properties": { "fid": 134.0, "COMPR_M": 170.25, "CLASSE": "02 - Curta", "CD_FAZ": "404015", "TALHOES": "1", "FAZ_tAL": "404015001", "ID_LINHA": 248316 }, "geometry": { "type": "MultiLineString", "coordinates": [ [ [ 409864.717392924823798, 7634703.890595484524965 ], [ 409796.880877124494873, 7634547.796833861619234 ] ] ] } },
{ "type": "Feature", "properties": { "fid": 135.0, "COMPR_M": 169.62, "CLASSE": "02 - Curta", "CD_FAZ": "404015", "TALHOES": "1", "FAZ_tAL": "404015001", "ID_LINHA": 248317 }, "geometry": { "type": "MultiLineString", "coordinates": [ [ [ 409787.583397659240291, 7634526.403067892417312 ], [ 409719.99842206883477, 7634370.888107480481267 ] ] ] } },
{ "type": "Feature", "properties": { "fid": 136.0, "COMPR_M": 171.18, "CLASSE": "02 - Curta", "CD_FAZ": "404015", "TALHOES": "1", "FAZ_tAL": "404015001", "ID_LINHA": 248318 }, "geometry": { "type": "MultiLineString", "coordinates": [ [ [ 409862.115700524358544, 7634705.430818576365709 ], [ 409793.908999604813289, 7634548.485250417143106 ] ] ] } },
{ "type": "Feature", "properties": { "fid": 137.0, "COMPR_M": 167.93, "CLASSE": "02 - Curta", "CD_FAZ": "404015", "TALHOES": "1", "FAZ_tAL": "404015001", "ID_LINHA": 248319 }, "geometry": { "type": "MultiLineString", "coordinates": [ [ [ 409783.85736760526197, 7634525.356157910078764 ], [ 409716.946031184634194, 7634371.391260481439531 ] ] ] } },
{ "type": "Feature", "properties": { "fid": 138.0, "COMPR_M": 173.0, "CLASSE": "02 - Curta", "CD_FAZ": "404015", "TALHOES": "1", "FAZ_tAL": "404015001", "ID_LINHA": 248320 }, "geometry": { "type": "MultiLineString", "coordinates": [ [ [ 409859.492601062986068, 7634706.921783410012722 ], [ 409790.557963033206761, 7634548.301211155019701 ] ] ] } },
{ "type": "Feature", "properties": { "fid": 139.0, "COMPR_M": 166.48, "CLASSE": "02 - Curta", "CD_FAZ": "404015", "TALHOES": "1", "FAZ_tAL": "404015001", "ID_LINHA": 248321 }, "geometry": { "type": "MultiLineString", "coordinates": [ [ [ 409780.227678857801948, 7634524.53093202970922 ], [ 409713.893640299735125, 7634371.894413482397795 ] ] ] } },
{ "type": "Feature", "properties": { "fid": 140.0, "COMPR_M": 174.76, "CLASSE": "02 - Curta", "CD_FAZ": "404015", "TALHOES": "1", "FAZ_tAL": "404015001", "ID_LINHA": 248322 }, "geometry": { "type": "MultiLineString", "coordinates": [ [ [ 409856.476325411058497, 7634707.508038595318794 ], [ 409786.840120865672361, 7634547.273141735233366 ] ] ] } },
{ "type": "Feature", "properties": { "fid": 141.0, "COMPR_M": 166.52, "CLASSE": "02 - Curta", "CD_FAZ": "404015", "TALHOES": "1", "FAZ_tAL": "404015001", "ID_LINHA": 248323 }, "geometry": { "type": "MultiLineString", "coordinates": [ [ [ 409777.19381074316334, 7634525.076706452295184 ], [ 409710.841249415534548, 7634372.397566482424736 ] ] ] } },
{ "type": "Feature", "properties": { "fid": 142.0, "COMPR_M": 176.42, "CLASSE": "02 - Curta", "CD_FAZ": "404015", "TALHOES": "1", "FAZ_tAL": "404015001", "ID_LINHA": 248324 }, "geometry": { "type": "MultiLineString", "coordinates": [ [ [ 409853.460049762565177, 7634708.094293780624866 ], [ 409783.164753090124577, 7634546.342807101085782 ] ] ] } },
{ "type": "Feature", "properties": { "fid": 143.0, "COMPR_M": 166.64, "CLASSE": "02 - Curta", "CD_FAZ": "404015", "TALHOES": "1", "FAZ_tAL": "404015001", "ID_LINHA": 248325 }, "geometry": { "type": "MultiLineString", "coordinates": [ [ [ 409774.18655738607049, 7634525.683722191490233 ], [ 409707.788858531974256, 7634372.900719483383 ] ] ] } },
{ "type": "Feature", "properties": { "fid": 144.0, "COMPR_M": 156.32, "CLASSE": "02 - Curta", "CD_FAZ": "404015", "TALHOES": "1", "FAZ_tAL": "404015001", "ID_LINHA": 248326 }, "geometry": { "type": "MultiLineString", "coordinates": [ [ [ 409841.74585681129247, 7634688.666392674669623 ], [ 409779.461071675410494, 7634545.347321979701519 ] ] ] } },
{ "type": "Feature", "properties": { "fid": 145.0, "COMPR_M": 166.7, "CLASSE": "02 - Curta", "CD_FAZ": "404015", "TALHOES": "1", "FAZ_tAL": "404015001", "ID_LINHA": 248327 }, "geometry": { "type": "MultiLineString", "coordinates": [ [ [ 409771.159450506325811, 7634526.24505440890789 ], [ 409704.736467647715472, 7634373.403872486203909 ] ] ] } },
{ "type": "Feature", "properties": { "fid": 146.0, "COMPR_M": 155.06, "CLASSE": "02 - Curta", "CD_FAZ": "404015", "TALHOES": "1", "FAZ_tAL": "404015001", "ID_LINHA": 248328 }, "geometry": { "type": "MultiLineString", "coordinates": [ [ [ 409837.440956602338701, 7634686.287485921755433 ], [ 409775.656924720795359, 7634544.120662776753306 ] ] ] } },
{ "type": "Feature", "properties": { "fid": 147.0, "COMPR_M": 166.98, "CLASSE": "02 - Curta", "CD_FAZ": "404015", "TALHOES": "1", "FAZ_tAL": "404015001", "ID_LINHA": 248329 }, "geometry": { "type": "MultiLineString", "coordinates": [ [ [ 409768.21948095341213, 7634527.00689210742712 ], [ 409701.684076762234326, 7634373.90702548623085 ] ] ] } },
{ "type": "Feature", "properties": { "fid": 148.0, "COMPR_M": 151.07, "CLASSE": "02 - Curta", "CD_FAZ": "404015", "TALHOES": "1", "FAZ_tAL": "404015001", "ID_LINHA": 248330 }, "geometry": { "type": "MultiLineString", "coordinates": [ [ [ 409832.223259489517659, 7634681.808207407593727 ], [ 409772.029222288518213, 7634543.300007462501526 ] ] ] } },
{ "type": "Feature", "properties": { "fid": 149.0, "COMPR_M": 167.42, "CLASSE": "02 - Curta", "CD_FAZ": "404015", "TALHOES": "1", "FAZ_tAL": "404015001", "ID_LINHA": 248331 }, "geometry": { "type": "MultiLineString", "coordinates": [ [ [ 409765.340612712665461, 7634527.909325670450926 ], [ 409698.631685878732242, 7634374.410178486257792 ] ] ] } },
{ "type": "Feature", "properties": { "fid": 150.0, "COMPR_M": 150.63, "CLASSE": "02 - Curta", "CD_FAZ": "404015", "TALHOES": "1", "FAZ_tAL": "404015001", "ID_LINHA": 248332 }, "geometry": { "type": "MultiLineString", "coordinates": [ [ [ 409828.874647582008038, 7634681.629747366532683 ], [ 409768.855755238968413, 7634543.524560746736825 ] ] ] } },
{ "type": "Feature", "properties": { "fid": 151.0, "COMPR_M": 167.87, "CLASSE": "02 - Curta", "CD_FAZ": "404015", "TALHOES": "1", "FAZ_tAL": "404015001", "ID_LINHA": 248333 }, "geometry": { "type": "MultiLineString", "coordinates": [ [ [ 409762.466689684661105, 7634528.823138311505318 ], [ 409695.579294995171949, 7634374.913331488147378 ] ] ] } },
{ "type": "Feature", "properties": { "fid": 152.0, "COMPR_M": 151.14, "CLASSE": "02 - Curta", "CD_FAZ": "404015", "TALHOES": "1", "FAZ_tAL": "404015001", "ID_LINHA": 248334 }, "geometry": { "type": "MultiLineString", "coordinates": [ [ [ 409826.053543457353953, 7634682.665097812190652 ], [ 409765.829060647636652, 7634544.086841654032469 ] ] ] } },
{ "type": "Feature", "properties": { "fid": 153.0, "COMPR_M": 168.28, "CLASSE": "02 - Curta", "CD_FAZ": "404015", "TALHOES": "1", "FAZ_tAL": "404015001", "ID_LINHA": 248335 }, "geometry": { "type": "MultiLineString", "coordinates": [ [ [ 409759.57750960777048, 7634529.701844041235745 ], [ 409692.526904111611657, 7634375.416484490036964 ] ] ] } },
{ "type": "Feature", "properties": { "fid": 154.0, "COMPR_M": 151.94, "CLASSE": "02 - Curta", "CD_FAZ": "404015", "TALHOES": "1", "FAZ_tAL": "404015001", "ID_LINHA": 248336 }, "geometry": { "type": "MultiLineString", "coordinates": [ [ [ 409823.422719334659632, 7634684.138287977315485 ], [ 409762.88183143013157, 7634544.831974653527141 ] ] ] } },
{ "type": "Feature", "properties": { "fid": 155.0, "COMPR_M": 168.68, "CLASSE": "02 - Curta", "CD_FAZ": "404015", "TALHOES": "1", "FAZ_tAL": "404015001", "ID_LINHA": 248337 }, "geometry": { "type": "MultiLineString", "coordinates": [ [ [ 409756.684896506019868, 7634530.572650285437703 ], [ 409689.474513226770796, 7634375.919637490063906 ] ] ] } },
{ "type": "Feature", "properties": { "fid": 156.0, "COMPR_M": 152.87, "CLASSE": "02 - Curta", "CD_FAZ": "404015", "TALHOES": "1", "FAZ_tAL": "404015001", "ID_LINHA": 248338 }, "geometry": { "type": "MultiLineString", "coordinates": [ [ [ 409820.873686925857328, 7634685.799683220684528 ], [ 409759.962059300451074, 7634545.640287200920284 ] ] ] } },
{ "type": "Feature", "properties": { "fid": 157.0, "COMPR_M": 169.27, "CLASSE": "02 - Curta", "CD_FAZ": "404015", "TALHOES": "1", "FAZ_tAL": "404015001", "ID_LINHA": 248339 }, "geometry": { "type": "MultiLineString", "coordinates": [ [ [ 409753.869961949647404, 7634531.622197080403566 ], [ 409686.422122342628427, 7634376.422790491953492 ] ] ] } },
{ "type": "Feature", "properties": { "fid": 158.0, "COMPR_M": 153.76, "CLASSE": "02 - Curta", "CD_FAZ": "404015", "TALHOES": "1", "FAZ_tAL": "404015001", "ID_LINHA": 248340 }, "geometry": { "type": "MultiLineString", "coordinates": [ [ [ 409818.320846809656359, 7634687.452316815033555 ], [ 409757.053415130823851, 7634546.474205501377583 ] ] ] } },
{ "type": "Feature", "properties": { "fid": 159.0, "COMPR_M": 169.57, "CLASSE": "02 - Curta", "CD_FAZ": "404015", "TALHOES": "1", "FAZ_tAL": "404015001", "ID_LINHA": 248341 }, "geometry": { "type": "MultiLineString", "coordinates": [ [ [ 409750.936496372916736, 7634532.399000616744161 ], [ 409683.369731459068134, 7634376.925943491049111 ] ] ] } },
{ "type": "Feature", "properties": { "fid": 160.0, "COMPR_M": 154.68, "CLASSE": "02 - Curta", "CD_FAZ": "404015", "TALHOES": "1", "FAZ_tAL": "404015001", "ID_LINHA": 248342 }, "geometry": { "type": "MultiLineString", "coordinates": [ [ [ 409815.712288706738036, 7634688.976741725578904 ], [ 409754.078675744414795, 7634547.156036814674735 ] ] ] } },
{ "type": "Feature", "properties": { "fid": 161.0, "COMPR_M": 169.94, "CLASSE": "02 - Curta", "CD_FAZ": "404015", "TALHOES": "1", "FAZ_tAL": "404015001", "ID_LINHA": 248343 }, "geometry": { "type": "MultiLineString", "coordinates": [ [ [ 409748.029591720784083, 7634533.236921595409513 ], [ 409680.317340572888497, 7634377.42909649387002 ] ] ] } },
{ "type": "Feature", "properties": { "fid": 162.0, "COMPR_M": 155.49, "CLASSE": "02 - Curta", "CD_FAZ": "404015", "TALHOES": "1", "FAZ_tAL": "404015001", "ID_LINHA": 248344 }, "geometry": { "type": "MultiLineString", "coordinates": [ [ [ 409813.091583289322443, 7634690.473215324804187 ], [ 409751.135884881368838, 7634547.911382600665092 ] ] ] } },
{ "type": "Feature", "properties": { "fid": 163.0, "COMPR_M": 170.32, "CLASSE": "02 - Curta", "CD_FAZ": "404015", "TALHOES": "1", "FAZ_tAL": "404015001", "ID_LINHA": 248345 }, "geometry": { "type": "MultiLineString", "coordinates": [ [ [ 409745.128741103340872, 7634534.088773081079125 ], [ 409677.264949690666981, 7634377.932249495759606 ] ] ] } },
{ "type": "Feature", "properties": { "fid": 164.0, "COMPR_M": 156.28, "CLASSE": "02 - Curta", "CD_FAZ": "404015", "TALHOES": "1", "FAZ_tAL": "404015001", "ID_LINHA": 248346 }, "geometry": { "type": "MultiLineString", "coordinates": [ [ [ 409810.484287319297437, 7634692.00054444372654 ], [ 409748.212074212788139, 7634548.71040234901011 ] ] ] } },
{ "type": "Feature", "properties": { "fid": 165.0, "COMPR_M": 170.71, "CLASSE": "02 - Curta", "CD_FAZ": "404015", "TALHOES": "1", "FAZ_tAL": "404015001", "ID_LINHA": 248347 }, "geometry": { "type": "MultiLineString", "coordinates": [ [ [ 409742.233872904034797, 7634534.954390279948711 ], [ 409674.212558806524612, 7634378.435402495786548 ] ] ] } },
{ "type": "Feature", "properties": { "fid": 166.0, "COMPR_M": 157.37, "CLASSE": "02 - Curta", "CD_FAZ": "404015", "TALHOES": "1", "FAZ_tAL": "404015001", "ID_LINHA": 248348 }, "geometry": { "type": "MultiLineString", "coordinates": [ [ [ 409807.992758985550608, 7634693.794258202426136 ], [ 409745.286751055507921, 7634549.50594182126224 ] ] ] } },
{ "type": "Feature", "properties": { "fid": 167.0, "COMPR_M": 171.12, "CLASSE": "02 - Curta", "CD_FAZ": "404015", "TALHOES": "1", "FAZ_tAL": "404015001", "ID_LINHA": 248349 }, "geometry": { "type": "MultiLineString", "coordinates": [ [ [ 409739.345499687537085, 7634535.834952621720731 ], [ 409671.160167922382243, 7634378.938555497676134 ] ] ] } },
{ "type": "Feature", "properties": { "fid": 168.0, "COMPR_M": 159.7, "CLASSE": "02 - Curta", "CD_FAZ": "404015", "TALHOES": "1", "FAZ_tAL": "404015001", "ID_LINHA": 248350 }, "geometry": { "type": "MultiLineString", "coordinates": [ [ [ 409806.00166970846476, 7634696.739496536552906 ], [ 409742.368619179818779, 7634550.318028634414077 ] ] ] } },
{ "type": "Feature", "properties": { "fid": 169.0, "COMPR_M": 171.45, "CLASSE": "02 - Curta", "CD_FAZ": "404015", "TALHOES": "1", "FAZ_tAL": "404015001", "ID_LINHA": 248351 }, "geometry": { "type": "MultiLineString", "coordinates": [ [ [ 409736.421267759753391, 7634536.633003046736121 ], [ 409668.107777037483174, 7634379.441708497703075 ] ] ] } },
{ "type": "Feature", "properties": { "fid": 170.0, "COMPR_M": 32.69, "CLASSE": "01 - Muito curta", "CD_FAZ": "404015", "TALHOES": "1", "FAZ_tAL": "404015001", "ID_LINHA": 248352 }, "geometry": { "type": "MultiLineString", "coordinates": [ [ [ 409804.142904360720422, 7634699.989216005429626 ], [ 409791.118237844668329, 7634670.019086111336946 ] ] ] } },
{ "type": "Feature", "properties": { "fid": 171.0, "COMPR_M": 120.03, "CLASSE": "02 - Curta", "CD_FAZ": "404015", "TALHOES": "1", "FAZ_tAL": "404015001", "ID_LINHA": 248353 }, "geometry": { "type": "MultiLineString", "coordinates": [ [ [ 409787.264455584925599, 7634661.151422988623381 ], [ 409739.437048485153355, 7634551.099192345514894 ] ] ] } },
{ "type": "Feature", "properties": { "fid": 172.0, "COMPR_M": 171.92, "CLASSE": "02 - Curta", "CD_FAZ": "404015", "TALHOES": "1", "FAZ_tAL": "404015001", "ID_LINHA": 248354 }, "geometry": { "type": "MultiLineString", "coordinates": [ [ [ 409733.558914333349094, 7634537.573437666520476 ], [ 409665.05538615398109, 7634379.944861499592662 ] ] ] } },
{ "type": "Feature", "properties": { "fid": 173.0, "COMPR_M": 36.16, "CLASSE": "01 - Muito curta", "CD_FAZ": "404015", "TALHOES": "1", "FAZ_tAL": "404015001", "ID_LINHA": 248355 }, "geometry": { "type": "MultiLineString", "coordinates": [ [ [ 409802.754657090408728, 7634704.321611023508012 ], [ 409788.344544841093011, 7634671.163530901074409 ] ] ] } },
{ "type": "Feature", "properties": { "fid": 174.0, "COMPR_M": 119.25, "CLASSE": "02 - Curta", "CD_FAZ": "404015", "TALHOES": "1", "FAZ_tAL": "404015001", "ID_LINHA": 248356 }, "geometry": { "type": "MultiLineString", "coordinates": [ [ [ 409784.028703807038255, 7634661.232657333835959 ], [ 409736.510741117293946, 7634551.892467122524977 ] ] ] } },
{ "type": "Feature", "properties": { "fid": 175.0, "COMPR_M": 172.4, "CLASSE": "02 - Curta", "CD_FAZ": "404015", "TALHOES": "1", "FAZ_tAL": "404015001", "ID_LINHA": 248357 }, "geometry": { "type": "MultiLineString", "coordinates": [ [ [ 409730.695455642766319, 7634538.511329047381878 ], [ 409662.002995269082021, 7634380.448014499619603 ] ] ] } },
{ "type": "Feature", "properties": { "fid": 176.0, "COMPR_M": 37.55, "CLASSE": "01 - Muito curta", "CD_FAZ": "404015", "TALHOES": "1", "FAZ_tAL": "404015001", "ID_LINHA": 248358 }, "geometry": { "type": "MultiLineString", "coordinates": [ [ [ 409801.899308834574185, 7634709.880221907049417 ], [ 409786.936927303962875, 7634675.451354379765689 ] ] ] } },
{ "type": "Feature", "properties": { "fid": 177.0, "COMPR_M": 112.95, "CLASSE": "02 - Curta", "CD_FAZ": "404015", "TALHOES": "1", "FAZ_tAL": "404015001", "ID_LINHA": 248359 }, "geometry": { "type": "MultiLineString", "coordinates": [ [ [ 409778.538252499885857, 7634656.12576362118125 ], [ 409733.533309398917481, 7634552.568103305064142 ] ] ] } },
{ "type": "Feature", "properties": { "fid": 178.0, "COMPR_M": 172.7, "CLASSE": "02 - Curta", "CD_FAZ": "404015", "TALHOES": "1", "FAZ_tAL": "404015001", "ID_LINHA": 248360 }, "geometry": { "type": "MultiLineString", "coordinates": [ [ [ 409727.765040226746351, 7634539.295151081867516 ], [ 409658.950604386802297, 7634380.951167499646544 ] ] ] } },
{ "type": "Feature", "properties": { "fid": 179.0, "COMPR_M": 37.96, "CLASSE": "01 - Muito curta", "CD_FAZ": "404015", "TALHOES": "1", "FAZ_tAL": "404015001", "ID_LINHA": 248361 }, "geometry": { "type": "MultiLineString", "coordinates": [ [ [ 409799.831341577460989, 7634712.648561805486679 ], [ 409784.705398149963003, 7634677.843333680182695 ] ] ] } },
{ "type": "Feature", "properties": { "fid": 180.0, "COMPR_M": 109.61, "CLASSE": "02 - Curta", "CD_FAZ": "404015", "TALHOES": "1", "FAZ_tAL": "404015001", "ID_LINHA": 248362 }, "geometry": { "type": "MultiLineString", "coordinates": [ [ [ 409774.243003746727481, 7634653.769065147265792 ], [ 409730.570068230386823, 7634553.276392351835966 ] ] ] } },
{ "type": "Feature", "properties": { "fid": 181.0, "COMPR_M": 173.0, "CLASSE": "02 - Curta", "CD_FAZ": "404015", "TALHOES": "1", "FAZ_tAL": "404015001", "ID_LINHA": 248363 }, "geometry": { "type": "MultiLineString", "coordinates": [ [ [ 409724.832871147198603, 7634540.074937893077731 ], [ 409655.898213502019644, 7634381.454320501536131 ] ] ] } },
{ "type": "Feature", "properties": { "fid": 182.0, "COMPR_M": 42.91, "CLASSE": "01 - Muito curta", "CD_FAZ": "404015", "TALHOES": "1", "FAZ_tAL": "404015001", "ID_LINHA": 248364 }, "geometry": { "type": "MultiLineString", "coordinates": [ [ [ 409799.225056206923909, 7634718.780273504555225 ], [ 409782.125341957202181, 7634679.43334230594337 ] ] ] } },
{ "type": "Feature", "properties": { "fid": 183.0, "COMPR_M": 109.38, "CLASSE": "02 - Curta", "CD_FAZ": "404015", "TALHOES": "1", "FAZ_tAL": "404015001", "ID_LINHA": 248365 }, "geometry": { "type": "MultiLineString", "coordinates": [ [ [ 409771.160349075566046, 7634654.20258030667901 ], [ 409727.577713042206597, 7634553.917689204216003 ] ] ] } },
{ "type": "Feature", "properties": { "fid": 184.0, "COMPR_M": 173.25, "CLASSE": "02 - Curta", "CD_FAZ": "404015", "TALHOES": "1", "FAZ_tAL": "404015001", "ID_LINHA": 248366 }, "geometry": { "type": "MultiLineString", "coordinates": [ [ [ 409721.878606917627621, 7634540.803883131593466 ], [ 409652.845822616480291, 7634381.957473501563072 ] ] ] } },
{ "type": "Feature", "properties": { "fid": 185.0, "COMPR_M": 42.32, "CLASSE": "01 - Muito curta", "CD_FAZ": "404015", "TALHOES": "1", "FAZ_tAL": "404015001", "ID_LINHA": 248367 }, "geometry": { "type": "MultiLineString", "coordinates": [ [ [ 409796.259436408698093, 7634719.483089255169034 ], [ 409779.397527251101565, 7634680.683354372158647 ] ] ] } },
{ "type": "Feature", "properties": { "fid": 186.0, "COMPR_M": 109.09, "CLASSE": "02 - Curta", "CD_FAZ": "404015", "TALHOES": "1", "FAZ_tAL": "404015001", "ID_LINHA": 248368 }, "geometry": { "type": "MultiLineString", "coordinates": [ [ [ 409768.143844564037863, 7634654.788308879360557 ], [ 409724.675403349741828, 7634554.766183316707611 ] ] ] } },
{ "type": "Feature", "properties": { "fid": 187.0, "COMPR_M": 173.56, "CLASSE": "02 - Curta", "CD_FAZ": "404015", "TALHOES": "1", "FAZ_tAL": "404015001", "ID_LINHA": 248369 }, "geometry": { "type": "MultiLineString", "coordinates": [ [ [ 409718.950450196571182, 7634541.59290249273181 ], [ 409649.793431732861791, 7634382.460626502521336 ] ] ] } },
{ "type": "Feature", "properties": { "fid": 188.0, "COMPR_M": 41.9, "CLASSE": "01 - Muito curta", "CD_FAZ": "404015", "TALHOES": "1", "FAZ_tAL": "404015001", "ID_LINHA": 248370 }, "geometry": { "type": "MultiLineString", "coordinates": [ [ [ 409793.251519849465694, 7634720.08857895154506 ], [ 409776.55495689692907, 7634681.669310408644378 ] ] ] } },
{ "type": "Feature", "properties": { "fid": 189.0, "COMPR_M": 109.39, "CLASSE": "02 - Curta", "CD_FAZ": "404015", "TALHOES": "1", "FAZ_tAL": "404015001", "ID_LINHA": 248371 }, "geometry": { "type": "MultiLineString", "coordinates": [ [ [ 409765.339884946239181, 7634655.863109324127436 ], [ 409721.7519257273525, 7634555.565969416871667 ] ] ] } },
{ "type": "Feature", "properties": { "fid": 190.0, "COMPR_M": 173.84, "CLASSE": "02 - Curta", "CD_FAZ": "404015", "TALHOES": "1", "FAZ_tAL": "404015001", "ID_LINHA": 248372 }, "geometry": { "type": "MultiLineString", "coordinates": [ [ [ 409716.010002325230744, 7634542.35363956540823 ], [ 409646.741040847962722, 7634382.963779506273568 ] ] ] } },
{ "type": "Feature", "properties": { "fid": 191.0, "COMPR_M": 41.88, "CLASSE": "01 - Muito curta", "CD_FAZ": "404015", "TALHOES": "1", "FAZ_tAL": "404015001", "ID_LINHA": 248373 }, "geometry": { "type": "MultiLineString", "coordinates": [ [ [ 409790.174878975376487, 7634720.535932032391429 ], [ 409773.488270680711139, 7634682.139569440856576 ] ] ] } },
{ "type": "Feature", "properties": { "fid": 192.0, "COMPR_M": 110.01, "CLASSE": "02 - Curta", "CD_FAZ": "404015", "TALHOES": "1", "FAZ_tAL": "404015001", "ID_LINHA": 248374 }, "geometry": { "type": "MultiLineString", "coordinates": [ [ [ 409762.753070174949244, 7634657.437566267326474 ], [ 409718.919537022768054, 7634556.575353720225394 ] ] ] } },
{ "type": "Feature", "properties": { "fid": 193.0, "COMPR_M": 174.56, "CLASSE": "02 - Curta", "CD_FAZ": "404015", "TALHOES": "1", "FAZ_tAL": "404015001", "ID_LINHA": 248375 }, "geometry": { "type": "MultiLineString", "coordinates": [ [ [ 409713.244368392101023, 7634543.516628505662084 ], [ 409643.68864996440243, 7634383.466932505369186 ] ] ] } },
{ "type": "Feature", "properties": { "fid": 194.0, "COMPR_M": 43.27, "CLASSE": "01 - Muito curta", "CD_FAZ": "404015", "TALHOES": "1", "FAZ_tAL": "404015001", "ID_LINHA": 248376 }, "geometry": { "type": "MultiLineString", "coordinates": [ [ [ 409787.025570661004167, 7634720.816075252369046 ], [ 409769.786030235700309, 7634681.147400030866265 ] ] ] } },
{ "type": "Feature", "properties": { "fid": 195.0, "COMPR_M": 112.24, "CLASSE": "02 - Curta", "CD_FAZ": "404015", "TALHOES": "1", "FAZ_tAL": "404015001", "ID_LINHA": 248377 }, "geometry": { "type": "MultiLineString", "coordinates": [ [ [ 409760.520044822536875, 7634659.826102775521576 ], [ 409715.798938860418275, 7634556.921559824608266 ] ] ] } },
{ "type": "Feature", "properties": { "fid": 196.0, "COMPR_M": 177.05, "CLASSE": "02 - Curta", "CD_FAZ": "404015", "TALHOES": "1", "FAZ_tAL": "404015001", "ID_LINHA": 248378 }, "geometry": { "type": "MultiLineString", "coordinates": [ [ [ 409711.184259841917083, 7634546.303051516413689 ], [ 409640.63625908078393, 7634383.970085505396128 ] ] ] } },
{ "type": "Feature", "properties": { "fid": 197.0, "COMPR_M": 46.98, "CLASSE": "01 - Muito curta", "CD_FAZ": "404015", "TALHOES": "1", "FAZ_tAL": "404015001", "ID_LINHA": 248379 }, "geometry": { "type": "MultiLineString", "coordinates": [ [ [ 409783.92026592080947, 7634721.197471960447729 ], [ 409765.199685881263576, 7634678.120882254093885 ] ] ] } },
{ "type": "Feature", "properties": { "fid": 198.0, "COMPR_M": 114.26, "CLASSE": "02 - Curta", "CD_FAZ": "404015", "TALHOES": "1", "FAZ_tAL": "404015001", "ID_LINHA": 248380 }, "geometry": { "type": "MultiLineString", "coordinates": [ [ [ 409758.717381187714636, 7634663.204913888126612 ], [ 409713.189324282109737, 7634558.443553760647774 ] ] ] } },
{ "type": "Feature", "properties": { "fid": 199.0, "COMPR_M": 177.2, "CLASSE": "02 - Curta", "CD_FAZ": "404015", "TALHOES": "1", "FAZ_tAL": "404015001", "ID_LINHA": 248381 }, "geometry": { "type": "MultiLineString", "coordinates": [ [ [ 409708.189938967523631, 7634546.939825270324945 ], [ 409637.583868196525145, 7634384.473238505423069 ] ] ] } },
{ "type": "Feature", "properties": { "fid": 200.0, "COMPR_M": 46.87, "CLASSE": "01 - Muito curta", "CD_FAZ": "404015", "TALHOES": "1", "FAZ_tAL": "404015001", "ID_LINHA": 248382 }, "geometry": { "type": "MultiLineString", "coordinates": [ [ [ 409780.84355205995962, 7634721.644657095894217 ], [ 409762.166579930868465, 7634678.668410440906882 ] ] ] } },
{ "type": "Feature", "properties": { "fid": 201.0, "COMPR_M": 305.64, "CLASSE": "03 - Média", "CD_FAZ": "404015", "TALHOES": "1", "FAZ_tAL": "404015001", "ID_LINHA": 248383 }, "geometry": { "type": "MultiLineString", "coordinates": [ [ [ 409756.317698805476539, 7634665.209967808797956 ], [ 409634.531477312208153, 7634384.976391507312655 ] ] ] } },
{ "type": "Feature", "properties": { "fid": 202.0, "COMPR_M": 367.16, "CLASSE": "03 - Média", "CD_FAZ": "404015", "TALHOES": "1", "FAZ_tAL": "404015001", "ID_LINHA": 248384 }, "geometry": { "type": "MultiLineString", "coordinates": [ [ [ 409777.778029009175953, 7634722.117592604830861 ], [ 409631.479086427309085, 7634385.479544509202242 ] ] ] } },
{ "type": "Feature", "properties": { "fid": 203.0, "COMPR_M": 367.15, "CLASSE": "03 - Média", "CD_FAZ": "404015", "TALHOES": "1", "FAZ_tAL": "404015001", "ID_LINHA": 248385 }, "geometry": { "type": "MultiLineString", "coordinates": [ [ [ 409774.718436626542825, 7634722.604174753651023 ], [ 409628.426695544272661, 7634385.982697509229183 ] ] ] } },
{ "type": "Feature", "properties": { "fid": 204.0, "COMPR_M": 367.07, "CLASSE": "03 - Média", "CD_FAZ": "404015", "TALHOES": "1", "FAZ_tAL": "404015001", "ID_LINHA": 248386 }, "geometry": { "type": "MultiLineString", "coordinates": [ [ [ 409771.637817670125514, 7634723.042374152690172 ], [ 409625.374304659315385, 7634386.485850509256124 ] ] ] } },
{ "type": "Feature", "properties": { "fid": 205.0, "COMPR_M": 366.98, "CLASSE": "03 - Média", "CD_FAZ": "404015", "TALHOES": "1", "FAZ_tAL": "404015001", "ID_LINHA": 248387 }, "geometry": { "type": "MultiLineString", "coordinates": [ [ [ 409768.546106745139696, 7634723.455050615593791 ], [ 409622.321913776919246, 7634386.989003513008356 ] ] ] } },
{ "type": "Feature", "properties": { "fid": 206.0, "COMPR_M": 366.98, "CLASSE": "03 - Média", "CD_FAZ": "404015", "TALHOES": "1", "FAZ_tAL": "404015001", "ID_LINHA": 248388 }, "geometry": { "type": "MultiLineString", "coordinates": [ [ [ 409765.794701079954393, 7634724.650779210031033 ], [ 409619.570508111210074, 7634388.184732103720307 ] ] ] } }
]
}
