{
"type": "FeatureCollection",
"name": "404000",
"crs": { "type": "name", "properties": { "name": "urn:ogc:def:crs:EPSG::32722" } },
"xy_coordinate_resolution": 1e-15,
"features": [
{ "type": "Feature", "properties": { "fid": 14.0, "COMPR_M": 19.45, "CLASSE": "01 - Muito curta", "CD_FAZ": "404000", "TALHOES": "1", "FAZ_tAL": "404000001", "ID_LINHA": 242624 }, "geometry": { "type": "MultiLineString", "coordinates": [ [ [ 416832.943895104108378, 7619990.177444561384618 ], [ 416827.447895603952929, 7619971.525828320533037 ] ] ] } },
{ "type": "Feature", "properties": { "fid": 15.0, "COMPR_M": 21.1, "CLASSE": "01 - Muito curta", "CD_FAZ": "404000", "TALHOES": "1", "FAZ_tAL": "404000001", "ID_LINHA": 242625 }, "geometry": { "type": "MultiLineString", "coordinates": [ [ [ 416836.188249446859118, 7619990.573516316711903 ], [ 416830.229864479508251, 7619970.337846936658025 ] ] ] } },
{ "type": "Feature", "properties": { "fid": 16.0, "COMPR_M": 22.75, "CLASSE": "01 - Muito curta", "CD_FAZ": "404000", "TALHOES": "1", "FAZ_tAL": "404000001", "ID_LINHA": 242626 }, "geometry": { "type": "MultiLineString", "coordinates": [ [ [ 416839.447304444969632, 7619990.965149122290313 ], [ 416833.011833356402349, 7619969.149865553714335 ] ] ] } },
{ "type": "Feature", "properties": { "fid": 17.0, "COMPR_M": 24.4, "CLASSE": "01 - Muito curta", "CD_FAZ": "404000", "TALHOES": "1", "FAZ_tAL": "404000001", "ID_LINHA": 242627 }, "geometry": { "type": "MultiLineString", "coordinates": [ [ [ 416842.70674979663454, 7619991.353769721463323 ], [ 416835.793802233296447, 7619967.961884168908 ] ] ] } },
{ "type": "Feature", "properties": { "fid": 18.0, "COMPR_M": 26.05, "CLASSE": "01 - Muito curta", "CD_FAZ": "404000", "TALHOES": "1", "FAZ_tAL": "404000001", "ID_LINHA": 242628 }, "geometry": { "type": "MultiLineString", "coordinates": [ [ [ 416845.968045220593922, 7619991.748386679217219 ], [ 416838.575771109026391, 7619966.773902785032988 ] ] ] } },
{ "type": "Feature", "properties": { "fid": 19.0, "COMPR_M": 27.77, "CLASSE": "01 - Muito curta", "CD_FAZ": "404000", "TALHOES": "1", "FAZ_tAL": "404000001", "ID_LINHA": 242629 }, "geometry": { "type": "MultiLineString", "coordinates": [ [ [ 416849.246816585073248, 7619992.199645752087235 ], [ 416841.357739985454828, 7619965.58592139929533 ] ] ] } },
{ "type": "Feature", "properties": { "fid": 20.0, "COMPR_M": 29.52, "CLASSE": "01 - Muito curta", "CD_FAZ": "404000", "TALHOES": "1", "FAZ_tAL": "404000001", "ID_LINHA": 242630 }, "geometry": { "type": "MultiLineString", "coordinates": [ [ [ 416852.538162135984749, 7619992.691659620963037 ], [ 416844.139708861883264, 7619964.397940015420318 ] ] ] } },
{ "type": "Feature", "properties": { "fid": 21.0, "COMPR_M": 31.3, "CLASSE": "01 - Muito curta", "CD_FAZ": "404000", "TALHOES": "1", "FAZ_tAL": "404000001", "ID_LINHA": 242631 }, "geometry": { "type": "MultiLineString", "coordinates": [ [ [ 416855.835361047065817, 7619993.202645100653172 ], [ 416846.921677739126608, 7619963.209958631545305 ] ] ] } },
{ "type": "Feature", "properties": { "fid": 22.0, "COMPR_M": 32.98, "CLASSE": "01 - Muito curta", "CD_FAZ": "404000", "TALHOES": "1", "FAZ_tAL": "404000001", "ID_LINHA": 242632 }, "geometry": { "type": "MultiLineString", "coordinates": [ [ [ 416859.104807833966333, 7619993.623681832104921 ], [ 416849.70364661567146, 7619962.021977249532938 ] ] ] } },
{ "type": "Feature", "properties": { "fid": 23.0, "COMPR_M": 34.59, "CLASSE": "01 - Muito curta", "CD_FAZ": "404000", "TALHOES": "1", "FAZ_tAL": "404000001", "ID_LINHA": 242633 }, "geometry": { "type": "MultiLineString", "coordinates": [ [ [ 416862.353771202324424, 7619993.978328770957887 ], [ 416852.485615492332727, 7619960.833995861932635 ] ] ] } },
{ "type": "Feature", "properties": { "fid": 24.0, "COMPR_M": 36.18, "CLASSE": "01 - Muito curta", "CD_FAZ": "404000", "TALHOES": "1", "FAZ_tAL": "404000001", "ID_LINHA": 242634 }, "geometry": { "type": "MultiLineString", "coordinates": [ [ [ 416865.593684166844469, 7619994.303642015904188 ], [ 416855.267584368411917, 7619959.646014479920268 ] ] ] } },
{ "type": "Feature", "properties": { "fid": 25.0, "COMPR_M": 37.8, "CLASSE": "01 - Muito curta", "CD_FAZ": "404000", "TALHOES": "1", "FAZ_tAL": "404000001", "ID_LINHA": 242635 }, "geometry": { "type": "MultiLineString", "coordinates": [ [ [ 416868.845949511101935, 7619994.668991149403155 ], [ 416858.049553243909031, 7619958.458033093251288 ] ] ] } },
{ "type": "Feature", "properties": { "fid": 26.0, "COMPR_M": 39.41, "CLASSE": "01 - Muito curta", "CD_FAZ": "404000", "TALHOES": "1", "FAZ_tAL": "404000001", "ID_LINHA": 242636 }, "geometry": { "type": "MultiLineString", "coordinates": [ [ [ 416872.093221264716703, 7619995.018155314028263 ], [ 416860.831522121385206, 7619957.270051711238921 ] ] ] } },
{ "type": "Feature", "properties": { "fid": 27.0, "COMPR_M": 41.03, "CLASSE": "01 - Muito curta", "CD_FAZ": "404000", "TALHOES": "1", "FAZ_tAL": "404000001", "ID_LINHA": 242637 }, "geometry": { "type": "MultiLineString", "coordinates": [ [ [ 416875.34450614801608, 7619995.380326630547643 ], [ 416863.613490998337511, 7619956.082070326432586 ] ] ] } },
{ "type": "Feature", "properties": { "fid": 28.0, "COMPR_M": 42.69, "CLASSE": "01 - Muito curta", "CD_FAZ": "404000", "TALHOES": "1", "FAZ_tAL": "404000001", "ID_LINHA": 242638 }, "geometry": { "type": "MultiLineString", "coordinates": [ [ [ 416878.609899718372617, 7619995.788226285949349 ], [ 416866.395459874649532, 7619954.894088940694928 ] ] ] } },
{ "type": "Feature", "properties": { "fid": 29.0, "COMPR_M": 44.41, "CLASSE": "01 - Muito curta", "CD_FAZ": "404000", "TALHOES": "1", "FAZ_tAL": "404000001", "ID_LINHA": 242639 }, "geometry": { "type": "MultiLineString", "coordinates": [ [ [ 416881.890571819792967, 7619996.245645927265286 ], [ 416869.177428751019761, 7619953.706107557751238 ] ] ] } },
{ "type": "Feature", "properties": { "fid": 30.0, "COMPR_M": 46.14, "CLASSE": "01 - Muito curta", "CD_FAZ": "404000", "TALHOES": "1", "FAZ_tAL": "404000001", "ID_LINHA": 242640 }, "geometry": { "type": "MultiLineString", "coordinates": [ [ [ 416885.174220067507122, 7619996.712711703963578 ], [ 416871.959397626807913, 7619952.518126173876226 ] ] ] } },
{ "type": "Feature", "properties": { "fid": 31.0, "COMPR_M": 47.88, "CLASSE": "01 - Muito curta", "CD_FAZ": "404000", "TALHOES": "1", "FAZ_tAL": "404000001", "ID_LINHA": 242641 }, "geometry": { "type": "MultiLineString", "coordinates": [ [ [ 416888.469346634927206, 7619997.178709608502686 ], [ 416874.741366503352765, 7619951.330144789069891 ] ] ] } },
{ "type": "Feature", "properties": { "fid": 32.0, "COMPR_M": 49.59, "CLASSE": "01 - Muito curta", "CD_FAZ": "404000", "TALHOES": "1", "FAZ_tAL": "404000001", "ID_LINHA": 242642 }, "geometry": { "type": "MultiLineString", "coordinates": [ [ [ 416891.767322457337286, 7619997.626986423507333 ], [ 416877.523335379897617, 7619950.142163405194879 ] ] ] } },
{ "type": "Feature", "properties": { "fid": 33.0, "COMPR_M": 51.33, "CLASSE": "01 - Muito curta", "CD_FAZ": "404000", "TALHOES": "1", "FAZ_tAL": "404000001", "ID_LINHA": 242643 }, "geometry": { "type": "MultiLineString", "coordinates": [ [ [ 416895.070347787695937, 7619998.090876270085573 ], [ 416880.30530425789766, 7619948.954182021319866 ] ] ] } },
{ "type": "Feature", "properties": { "fid": 34.0, "COMPR_M": 53.09, "CLASSE": "01 - Muito curta", "CD_FAZ": "404000", "TALHOES": "1", "FAZ_tAL": "404000001", "ID_LINHA": 242644 }, "geometry": { "type": "MultiLineString", "coordinates": [ [ [ 416898.382474845275283, 7619998.582908569835126 ], [ 416883.087273133918643, 7619947.766200637444854 ] ] ] } },
{ "type": "Feature", "properties": { "fid": 35.0, "COMPR_M": 54.82, "CLASSE": "01 - Muito curta", "CD_FAZ": "404000", "TALHOES": "1", "FAZ_tAL": "404000001", "ID_LINHA": 242645 }, "geometry": { "type": "MultiLineString", "coordinates": [ [ [ 416901.684267269680277, 7619999.04298628307879 ], [ 416885.869242008717265, 7619946.578219253569841 ] ] ] } },
{ "type": "Feature", "properties": { "fid": 36.0, "COMPR_M": 56.54, "CLASSE": "01 - Muito curta", "CD_FAZ": "404000", "TALHOES": "1", "FAZ_tAL": "404000001", "ID_LINHA": 242646 }, "geometry": { "type": "MultiLineString", "coordinates": [ [ [ 416904.985190398641862, 7619999.500376145355403 ], [ 416888.651210886891931, 7619945.390237867832184 ] ] ] } },
{ "type": "Feature", "properties": { "fid": 37.0, "COMPR_M": 58.27, "CLASSE": "01 - Muito curta", "CD_FAZ": "404000", "TALHOES": "1", "FAZ_tAL": "404000001", "ID_LINHA": 242647 }, "geometry": { "type": "MultiLineString", "coordinates": [ [ [ 416908.286163122858852, 7619999.957919352687895 ], [ 416891.433179763145745, 7619944.202256483957171 ] ] ] } },
{ "type": "Feature", "properties": { "fid": 38.0, "COMPR_M": 59.99, "CLASSE": "01 - Muito curta", "CD_FAZ": "404000", "TALHOES": "1", "FAZ_tAL": "404000001", "ID_LINHA": 242648 }, "geometry": { "type": "MultiLineString", "coordinates": [ [ [ 416911.586758153280243, 7620000.414294729009271 ], [ 416902.278071266948245, 7619970.743030680343509 ], [ 416894.21514864009805, 7619943.014275097288191 ] ] ] } },
{ "type": "Feature", "properties": { "fid": 39.0, "COMPR_M": 61.71, "CLASSE": "01 - Muito curta", "CD_FAZ": "404000", "TALHOES": "1", "FAZ_tAL": "404000001", "ID_LINHA": 242649 }, "geometry": { "type": "MultiLineString", "coordinates": [ [ [ 416914.883174251765013, 7620000.857748896814883 ], [ 416905.15031397639541, 7619969.876670187339187 ], [ 416896.997117515827995, 7619941.826293715275824 ] ] ] } },
{ "type": "Feature", "properties": { "fid": 40.0, "COMPR_M": 63.4, "CLASSE": "01 - Muito curta", "CD_FAZ": "404000", "TALHOES": "1", "FAZ_tAL": "404000001", "ID_LINHA": 242650 }, "geometry": { "type": "MultiLineString", "coordinates": [ [ [ 416918.174102577439044, 7620001.28423492051661 ], [ 416908.022556688811164, 7619969.010309698060155 ], [ 416899.779086392256431, 7619940.638312330469489 ] ] ] } },
{ "type": "Feature", "properties": { "fid": 41.0, "COMPR_M": 65.18, "CLASSE": "01 - Muito curta", "CD_FAZ": "404000", "TALHOES": "1", "FAZ_tAL": "404000001", "ID_LINHA": 242651 }, "geometry": { "type": "MultiLineString", "coordinates": [ [ [ 416921.491313178674318, 7620001.791985491290689 ], [ 416910.894799400994089, 7619968.143949205055833 ], [ 416902.561055269441567, 7619939.450330945663154 ] ] ] } },
{ "type": "Feature", "properties": { "fid": 42.0, "COMPR_M": 66.93, "CLASSE": "01 - Muito curta", "CD_FAZ": "404000", "TALHOES": "1", "FAZ_tAL": "404000001", "ID_LINHA": 242652 }, "geometry": { "type": "MultiLineString", "coordinates": [ [ [ 416924.801751879509538, 7620002.278797410428524 ], [ 416913.767042110848706, 7619967.277588713914156 ], [ 416905.343024146044627, 7619938.262349564582109 ] ] ] } },
{ "type": "Feature", "properties": { "fid": 43.0, "COMPR_M": 68.67, "CLASSE": "01 - Muito curta", "CD_FAZ": "404000", "TALHOES": "1", "FAZ_tAL": "404000001", "ID_LINHA": 242653 }, "geometry": { "type": "MultiLineString", "coordinates": [ [ [ 416928.104106715705711, 7620002.740614095702767 ], [ 416916.639284822973423, 7619966.411228222772479 ], [ 416908.124993023346178, 7619937.074368178844452 ] ] ] } },
{ "type": "Feature", "properties": { "fid": 44.0, "COMPR_M": 70.35, "CLASSE": "01 - Muito curta", "CD_FAZ": "404000", "TALHOES": "1", "FAZ_tAL": "404000001", "ID_LINHA": 242654 }, "geometry": { "type": "MultiLineString", "coordinates": [ [ [ 416931.393314094399102, 7620003.161778963170946 ], [ 416919.511527534225024, 7619965.544867729768157 ], [ 416910.906961898086593, 7619935.886386795900762 ] ] ] } },
{ "type": "Feature", "properties": { "fid": 45.0, "COMPR_M": 72.09, "CLASSE": "01 - Muito curta", "CD_FAZ": "404000", "TALHOES": "1", "FAZ_tAL": "404000001", "ID_LINHA": 242655 }, "geometry": { "type": "MultiLineString", "coordinates": [ [ [ 416934.705797138274647, 7620003.625763827934861 ], [ 416922.383770245767664, 7619964.67850723862648 ], [ 416913.688930775562767, 7619934.698405409231782 ] ] ] } },
{ "type": "Feature", "properties": { "fid": 46.0, "COMPR_M": 73.85, "CLASSE": "01 - Muito curta", "CD_FAZ": "404000", "TALHOES": "1", "FAZ_tAL": "404000001", "ID_LINHA": 242656 }, "geometry": { "type": "MultiLineString", "coordinates": [ [ [ 416938.036799919325858, 7620004.105641476809978 ], [ 416925.25601295568049, 7619963.812146747484803 ], [ 416916.470899651758373, 7619933.51042402535677 ] ] ] } },
{ "type": "Feature", "properties": { "fid": 47.0, "COMPR_M": 75.5, "CLASSE": "01 - Muito curta", "CD_FAZ": "404000", "TALHOES": "1", "FAZ_tAL": "404000001", "ID_LINHA": 242657 }, "geometry": { "type": "MultiLineString", "coordinates": [ [ [ 416941.334375839622226, 7620004.487041523680091 ], [ 416928.128255667979829, 7619962.945786256343126 ], [ 416919.252868527371902, 7619932.322442641481757 ] ] ] } },
{ "type": "Feature", "properties": { "fid": 48.0, "COMPR_M": 77.1, "CLASSE": "01 - Muito curta", "CD_FAZ": "404000", "TALHOES": "1", "FAZ_tAL": "404000001", "ID_LINHA": 242658 }, "geometry": { "type": "MultiLineString", "coordinates": [ [ [ 416944.614937191829085, 7620004.818315602838993 ], [ 416931.000498378649354, 7619962.079425765201449 ], [ 416922.034837405022699, 7619931.134461253881454 ] ] ] } },
{ "type": "Feature", "properties": { "fid": 49.0, "COMPR_M": 78.69, "CLASSE": "01 - Muito curta", "CD_FAZ": "404000", "TALHOES": "1", "FAZ_tAL": "404000001", "ID_LINHA": 242659 }, "geometry": { "type": "MultiLineString", "coordinates": [ [ [ 416947.892852339486126, 7620005.141793793067336 ], [ 416933.872741090948693, 7619961.213065274991095 ], [ 416924.816806280752644, 7619929.946479874663055 ] ] ] } },
{ "type": "Feature", "properties": { "fid": 50.0, "COMPR_M": 80.31, "CLASSE": "01 - Muito curta", "CD_FAZ": "404000", "TALHOES": "1", "FAZ_tAL": "404000001", "ID_LINHA": 242660 }, "geometry": { "type": "MultiLineString", "coordinates": [ [ [ 416951.179929263656959, 7620005.492263153195381 ], [ 416936.744983802258503, 7619960.34670478105545 ], [ 416927.598775156657211, 7619928.75849848985672 ] ] ] } },
{ "type": "Feature", "properties": { "fid": 51.0, "COMPR_M": 81.96, "CLASSE": "01 - Muito curta", "CD_FAZ": "404000", "TALHOES": "1", "FAZ_tAL": "404000001", "ID_LINHA": 242661 }, "geometry": { "type": "MultiLineString", "coordinates": [ [ [ 416954.475711130769923, 7620005.86837780661881 ], [ 416939.617226512636989, 7619959.480344291776419 ], [ 416930.380744035122916, 7619927.570517104119062 ] ] ] } },
{ "type": "Feature", "properties": { "fid": 52.0, "COMPR_M": 83.61, "CLASSE": "01 - Muito curta", "CD_FAZ": "404000", "TALHOES": "1", "FAZ_tAL": "404000001", "ID_LINHA": 242662 }, "geometry": { "type": "MultiLineString", "coordinates": [ [ [ 416957.773307585099246, 7620006.249838352203369 ], [ 416942.489469224063214, 7619958.613983798772097 ], [ 416933.162712910445407, 7619926.38253572024405 ] ] ] } },
{ "type": "Feature", "properties": { "fid": 53.0, "COMPR_M": 85.27, "CLASSE": "01 - Muito curta", "CD_FAZ": "404000", "TALHOES": "1", "FAZ_tAL": "404000001", "ID_LINHA": 242663 }, "geometry": { "type": "MultiLineString", "coordinates": [ [ [ 416961.071678378910292, 7620006.633580142632127 ], [ 416951.147607321792748, 7619976.500566998496652 ], [ 416935.944681786524598, 7619925.194554335437715 ] ] ] } },
{ "type": "Feature", "properties": { "fid": 54.0, "COMPR_M": 86.9, "CLASSE": "01 - Muito curta", "CD_FAZ": "404000", "TALHOES": "1", "FAZ_tAL": "404000001", "ID_LINHA": 242664 }, "geometry": { "type": "MultiLineString", "coordinates": [ [ [ 416964.362612052646, 7620006.995411722920835 ], [ 416954.008281891117804, 7619975.596712443977594 ], [ 416938.726650663942564, 7619924.006572953425348 ] ] ] } },
{ "type": "Feature", "properties": { "fid": 55.0, "COMPR_M": 88.56, "CLASSE": "01 - Muito curta", "CD_FAZ": "404000", "TALHOES": "1", "FAZ_tAL": "404000001", "ID_LINHA": 242665 }, "geometry": { "type": "MultiLineString", "coordinates": [ [ [ 416967.662304381665308, 7620007.383046844042838 ], [ 416956.868956458987668, 7619974.692857889458537 ], [ 416941.50861954013817, 7619922.818591566756368 ] ] ] } },
{ "type": "Feature", "properties": { "fid": 56.0, "COMPR_M": 90.25, "CLASSE": "01 - Muito curta", "CD_FAZ": "404000", "TALHOES": "1", "FAZ_tAL": "404000001", "ID_LINHA": 242666 }, "geometry": { "type": "MultiLineString", "coordinates": [ [ [ 416970.972436405660119, 7620007.801437951624393 ], [ 416959.729631028079893, 7619973.78900333121419 ], [ 416944.290588416391984, 7619921.630610184744 ] ] ] } },
{ "type": "Feature", "properties": { "fid": 57.0, "COMPR_M": 92.01, "CLASSE": "01 - Muito curta", "CD_FAZ": "404000", "TALHOES": "1", "FAZ_tAL": "404000001", "ID_LINHA": 242667 }, "geometry": { "type": "MultiLineString", "coordinates": [ [ [ 416974.30557346297428, 7620008.287603307515383 ], [ 416962.590305595775135, 7619972.885148776695132 ], [ 416947.072557293344289, 7619920.442628799006343 ] ] ] } },
{ "type": "Feature", "properties": { "fid": 58.0, "COMPR_M": 93.76, "CLASSE": "01 - Muito curta", "CD_FAZ": "404000", "TALHOES": "1", "FAZ_tAL": "404000001", "ID_LINHA": 242668 }, "geometry": { "type": "MultiLineString", "coordinates": [ [ [ 416977.633415324788075, 7620008.75816869083792 ], [ 416965.450980163412169, 7619971.98129422031343 ], [ 416949.854526169714518, 7619919.25464741513133 ] ] ] } },
{ "type": "Feature", "properties": { "fid": 59.0, "COMPR_M": 95.51, "CLASSE": "01 - Muito curta", "CD_FAZ": "404000", "TALHOES": "1", "FAZ_tAL": "404000001", "ID_LINHA": 242669 }, "geometry": { "type": "MultiLineString", "coordinates": [ [ [ 416980.967462053638883, 7620009.224499418400228 ], [ 416968.311654733552132, 7619971.077439665794373 ], [ 416952.636495045560878, 7619918.066666030324996 ] ] ] } },
{ "type": "Feature", "properties": { "fid": 60.0, "COMPR_M": 97.26, "CLASSE": "01 - Muito curta", "CD_FAZ": "404000", "TALHOES": "1", "FAZ_tAL": "404000001", "ID_LINHA": 242670 }, "geometry": { "type": "MultiLineString", "coordinates": [ [ [ 416984.321876668022014, 7620009.699379564262927 ], [ 416971.172329300898127, 7619970.173585110343993 ], [ 416955.41846392210573, 7619916.878684647381306 ] ] ] } },
{ "type": "Feature", "properties": { "fid": 61.0, "COMPR_M": 98.97, "CLASSE": "01 - Muito curta", "CD_FAZ": "404000", "TALHOES": "1", "FAZ_tAL": "404000001", "ID_LINHA": 242671 }, "geometry": { "type": "MultiLineString", "coordinates": [ [ [ 416987.657475649553817, 7620010.12149908579886 ], [ 416974.033003868884407, 7619969.269730554893613 ], [ 416958.200432798126712, 7619915.690703261643648 ] ] ] } },
{ "type": "Feature", "properties": { "fid": 62.0, "COMPR_M": 100.67, "CLASSE": "02 - Curta", "CD_FAZ": "404000", "TALHOES": "1", "FAZ_tAL": "404000001", "ID_LINHA": 242672 }, "geometry": { "type": "MultiLineString", "coordinates": [ [ [ 416990.991175135422964, 7620010.538292260840535 ], [ 416976.893678438733332, 7619968.365876000374556 ], [ 416960.982401676068548, 7619914.502721878699958 ] ] ] } },
{ "type": "Feature", "properties": { "fid": 63.0, "COMPR_M": 102.41, "CLASSE": "02 - Curta", "CD_FAZ": "404000", "TALHOES": "1", "FAZ_tAL": "404000001", "ID_LINHA": 242673 }, "geometry": { "type": "MultiLineString", "coordinates": [ [ [ 416994.339980982767884, 7620010.997444942593575 ], [ 416979.754353007127065, 7619967.462021443992853 ], [ 416963.764370552264154, 7619913.314740493893623 ] ] ] } },
{ "type": "Feature", "properties": { "fid": 64.0, "COMPR_M": 104.18, "CLASSE": "02 - Curta", "CD_FAZ": "404000", "TALHOES": "1", "FAZ_tAL": "404000001", "ID_LINHA": 242674 }, "geometry": { "type": "MultiLineString", "coordinates": [ [ [ 416997.697838149266317, 7620011.481978298164904 ], [ 416982.615027575462591, 7619966.558166889473796 ], [ 416966.547046210383996, 7619912.12645729444921 ] ] ] } },
{ "type": "Feature", "properties": { "fid": 65.0, "COMPR_M": 105.95, "CLASSE": "02 - Curta", "CD_FAZ": "404000", "TALHOES": "1", "FAZ_tAL": "404000001", "ID_LINHA": 242675 }, "geometry": { "type": "MultiLineString", "coordinates": [ [ [ 417001.054533900110982, 7620011.963254938833416 ], [ 416985.475702142342925, 7619965.654312334023416 ], [ 416969.333072930166963, 7619910.936743091791868 ] ] ] } },
{ "type": "Feature", "properties": { "fid": 66.0, "COMPR_M": 107.69, "CLASSE": "02 - Curta", "CD_FAZ": "404000", "TALHOES": "1", "FAZ_tAL": "404000001", "ID_LINHA": 242676 }, "geometry": { "type": "MultiLineString", "coordinates": [ [ [ 417004.40379093925003, 7620012.423672804608941 ], [ 416988.336376711842604, 7619964.750457776710391 ], [ 416972.119099650764838, 7619909.747028890997171 ] ] ] } },
{ "type": "Feature", "properties": { "fid": 67.0, "COMPR_M": 109.43, "CLASSE": "02 - Curta", "CD_FAZ": "404000", "TALHOES": "1", "FAZ_tAL": "404000001", "ID_LINHA": 242677 }, "geometry": { "type": "MultiLineString", "coordinates": [ [ [ 417007.750455365516245, 7620012.876820767298341 ], [ 416991.197051279828884, 7619963.846603220328689 ], [ 416974.90512637142092, 7619908.557314689271152 ] ] ] } },
{ "type": "Feature", "properties": { "fid": 68.0, "COMPR_M": 111.17, "CLASSE": "02 - Curta", "CD_FAZ": "404000", "TALHOES": "1", "FAZ_tAL": "404000001", "ID_LINHA": 242678 }, "geometry": { "type": "MultiLineString", "coordinates": [ [ [ 417011.096423586714081, 7620013.328016514889896 ], [ 416994.057725847756956, 7619962.942748667672276 ], [ 416977.691153091669548, 7619907.367600489407778 ] ] ] } },
{ "type": "Feature", "properties": { "fid": 69.0, "COMPR_M": 112.9, "CLASSE": "02 - Curta", "CD_FAZ": "404000", "TALHOES": "1", "FAZ_tAL": "404000001", "ID_LINHA": 242679 }, "geometry": { "type": "MultiLineString", "coordinates": [ [ [ 417014.441820491978433, 7620013.777610236778855 ], [ 416996.918400416965596, 7619962.038894109427929 ], [ 416980.477179810695816, 7619906.177886286750436 ] ] ] } },
{ "type": "Feature", "properties": { "fid": 70.0, "COMPR_M": 114.54, "CLASSE": "02 - Curta", "CD_FAZ": "404000", "TALHOES": "1", "FAZ_tAL": "404000001", "ID_LINHA": 242680 }, "geometry": { "type": "MultiLineString", "coordinates": [ [ [ 417017.757299551041797, 7620014.143311802297831 ], [ 416999.779074985301122, 7619961.135039556771517 ], [ 416983.263206532574259, 7619904.988172085955739 ] ] ] } },
{ "type": "Feature", "properties": { "fid": 71.0, "COMPR_M": 116.19, "CLASSE": "02 - Curta", "CD_FAZ": "404000", "TALHOES": "1", "FAZ_tAL": "404000001", "ID_LINHA": 242681 }, "geometry": { "type": "MultiLineString", "coordinates": [ [ [ 417021.072305901674554, 7620014.507687844336033 ], [ 417002.639749553636648, 7619960.231185000389814 ], [ 416986.049233253230341, 7619903.798457885161042 ] ] ] } },
{ "type": "Feature", "properties": { "fid": 72.0, "COMPR_M": 117.88, "CLASSE": "02 - Curta", "CD_FAZ": "404000", "TALHOES": "1", "FAZ_tAL": "404000001", "ID_LINHA": 242682 }, "geometry": { "type": "MultiLineString", "coordinates": [ [ [ 417024.409267451497726, 7620014.913988753221929 ], [ 417017.643278253730386, 7619995.961223315447569 ], [ 417005.500424121855758, 7619959.327330444939435 ], [ 416988.83525997272227, 7619902.608743684366345 ] ] ] } },
{ "type": "Feature", "properties": { "fid": 73.0, "COMPR_M": 119.59, "CLASSE": "02 - Curta", "CD_FAZ": "404000", "TALHOES": "1", "FAZ_tAL": "404000001", "ID_LINHA": 242683 }, "geometry": { "type": "MultiLineString", "coordinates": [ [ [ 417027.770375168416649, 7620015.332905596122146 ], [ 417020.476693232776597, 7619994.975176504813135 ], [ 417008.361098691297229, 7619958.423475889489055 ], [ 416991.62128669366939, 7619901.419029483571649 ] ] ] } },
{ "type": "Feature", "properties": { "fid": 74.0, "COMPR_M": 121.27, "CLASSE": "02 - Curta", "CD_FAZ": "404000", "TALHOES": "1", "FAZ_tAL": "404000001", "ID_LINHA": 242684 }, "geometry": { "type": "MultiLineString", "coordinates": [ [ [ 417031.121995881083421, 7620015.726524328812957 ], [ 417023.3101082125213, 7619993.989129697903991 ], [ 417011.221773258701432, 7619957.51962133217603 ], [ 416994.40731341287028, 7619900.229315280914307 ] ] ] } },
{ "type": "Feature", "properties": { "fid": 75.0, "COMPR_M": 122.87, "CLASSE": "02 - Curta", "CD_FAZ": "404000", "TALHOES": "1", "FAZ_tAL": "404000001", "ID_LINHA": 242685 }, "geometry": { "type": "MultiLineString", "coordinates": [ [ [ 417034.443477446446195, 7620016.039773822762072 ], [ 417026.143523192382418, 7619993.003082889132202 ], [ 417014.082447827910073, 7619956.615766779519618 ], [ 416997.193340132827871, 7619899.03960108011961 ] ] ] } },
{ "type": "Feature", "properties": { "fid": 76.0, "COMPR_M": 124.47, "CLASSE": "02 - Curta", "CD_FAZ": "404000", "TALHOES": "1", "FAZ_tAL": "404000001", "ID_LINHA": 242686 }, "geometry": { "type": "MultiLineString", "coordinates": [ [ [ 417037.767601817671675, 7620016.360070642083883 ], [ 417028.976938171603251, 7619992.01703607942909 ], [ 417016.943122395779938, 7619955.71191222127527 ], [ 416999.979366854240652, 7619897.84988687839359 ] ] ] } },
{ "type": "Feature", "properties": { "fid": 77.0, "COMPR_M": 126.18, "CLASSE": "02 - Curta", "CD_FAZ": "404000", "TALHOES": "1", "FAZ_tAL": "404000001", "ID_LINHA": 242687 }, "geometry": { "type": "MultiLineString", "coordinates": [ [ [ 417041.129059208498802, 7620016.779919924214482 ], [ 417031.810353150824085, 7619991.030989273451269 ], [ 417019.803796964872163, 7619954.80805766582489 ], [ 417002.76539357251022, 7619896.660172678530216 ] ] ] } },
{ "type": "Feature", "properties": { "fid": 78.0, "COMPR_M": 128.03, "CLASSE": "02 - Curta", "CD_FAZ": "404000", "TALHOES": "1", "FAZ_tAL": "404000001", "ID_LINHA": 242688 }, "geometry": { "type": "MultiLineString", "coordinates": [ [ [ 417044.538567310431972, 7620017.327901534736156 ], [ 417034.643768131441902, 7619990.04494246467948 ], [ 417022.664471533149481, 7619953.904203111305833 ], [ 417005.551420292933472, 7619895.470458475872874 ] ] ] } },
{ "type": "Feature", "properties": { "fid": 79.0, "COMPR_M": 129.99, "CLASSE": "02 - Curta", "CD_FAZ": "404000", "TALHOES": "1", "FAZ_tAL": "404000001", "ID_LINHA": 242689 }, "geometry": { "type": "MultiLineString", "coordinates": [ [ [ 417047.986980113491882, 7620017.979626664891839 ], [ 417037.477183110779151, 7619989.058895656839013 ], [ 417025.525146100088023, 7619953.000348557718098 ], [ 417014.8526843097643, 7619917.623599106445909 ], [ 417008.337447012891062, 7619894.280744275078177 ] ] ] } },
{ "type": "Feature", "properties": { "fid": 80.0, "COMPR_M": 132.15, "CLASSE": "02 - Curta", "CD_FAZ": "404000", "TALHOES": "1", "FAZ_tAL": "404000001", "ID_LINHA": 242690 }, "geometry": { "type": "MultiLineString", "coordinates": [ [ [ 417051.505687786615454, 7620018.818800544366241 ], [ 417040.3105980908731, 7619988.072848849929869 ], [ 417028.38582067086827, 7619952.096493999473751 ], [ 417017.7352508706972, 7619916.792263481765985 ], [ 417011.123473733605351, 7619893.091030075214803 ] ] ] } },
{ "type": "Feature", "properties": { "fid": 81.0, "COMPR_M": 134.52, "CLASSE": "02 - Curta", "CD_FAZ": "404000", "TALHOES": "1", "FAZ_tAL": "404000001", "ID_LINHA": 242691 }, "geometry": { "type": "MultiLineString", "coordinates": [ [ [ 417055.098482142493594, 7620019.855534436181188 ], [ 417043.144013068987988, 7619987.08680204115808 ], [ 417031.246495238272473, 7619951.192639444023371 ], [ 417020.617817432503216, 7619915.960927862673998 ], [ 417013.90950045385398, 7619891.901315871626139 ] ] ] } },
{ "type": "Feature", "properties": { "fid": 82.0, "COMPR_M": 136.97, "CLASSE": "02 - Curta", "CD_FAZ": "404000", "TALHOES": "1", "FAZ_tAL": "404000001", "ID_LINHA": 242692 }, "geometry": { "type": "MultiLineString", "coordinates": [ [ [ 417058.720132956863381, 7620020.969217143021524 ], [ 417045.977428049780428, 7619986.100755231454968 ], [ 417034.107169807539321, 7619950.288784889504313 ], [ 417023.500383993261494, 7619915.12959223613143 ], [ 417016.695527174859308, 7619890.711601672694087 ] ] ] } },
{ "type": "Feature", "properties": { "fid": 83.0, "COMPR_M": 139.5, "CLASSE": "02 - Curta", "CD_FAZ": "404000", "TALHOES": "1", "FAZ_tAL": "404000001", "ID_LINHA": 242693 }, "geometry": { "type": "MultiLineString", "coordinates": [ [ [ 417062.383311727666296, 7620022.154397688806057 ], [ 417055.25913922599284, 7620003.196275242604315 ], [ 417042.721140381938312, 7619967.174067562445998 ], [ 417031.528993276471738, 7619931.756808565929532 ], [ 417019.481553894118406, 7619889.521887470036745 ] ] ] } },
{ "type": "Feature", "properties": { "fid": 84.0, "COMPR_M": 142.12, "CLASSE": "02 - Curta", "CD_FAZ": "404000", "TALHOES": "1", "FAZ_tAL": "404000001", "ID_LINHA": 242694 }, "geometry": { "type": "MultiLineString", "coordinates": [ [ [ 417066.103670755866915, 7620023.409482343122363 ], [ 417058.076659798505716, 7620002.165659174323082 ], [ 417045.568905792490114, 7619966.230298010632396 ], [ 417034.401235987606924, 7619930.89044807292521 ], [ 417022.26758061547298, 7619888.332173269242048 ] ] ] } },
{ "type": "Feature", "properties": { "fid": 85.0, "COMPR_M": 144.72, "CLASSE": "02 - Curta", "CD_FAZ": "404000", "TALHOES": "1", "FAZ_tAL": "404000001", "ID_LINHA": 242695 }, "geometry": { "type": "MultiLineString", "coordinates": [ [ [ 417069.816625205625314, 7620024.645801929756999 ], [ 417060.8941803710768, 7620001.135043106973171 ], [ 417048.416671202576254, 7619965.286528458818793 ], [ 417037.273478699149564, 7619930.024087582714856 ], [ 417025.053607334964909, 7619887.142459069378674 ] ] ] } },
{ "type": "Feature", "properties": { "fid": 86.0, "COMPR_M": 147.26, "CLASSE": "02 - Curta", "CD_FAZ": "404000", "TALHOES": "1", "FAZ_tAL": "404000001", "ID_LINHA": 242696 }, "geometry": { "type": "MultiLineString", "coordinates": [ [ [ 417073.505789299611934, 7620025.821830758824944 ], [ 417063.711700941901654, 7620000.104427040554583 ], [ 417051.264436613535509, 7619964.342758907005191 ], [ 417040.145721410342958, 7619929.157727091573179 ], [ 417027.839634055271745, 7619885.952744867652655 ] ] ] } },
{ "type": "Feature", "properties": { "fid": 87.0, "COMPR_M": 149.88, "CLASSE": "02 - Curta", "CD_FAZ": "404000", "TALHOES": "1", "FAZ_tAL": "404000001", "ID_LINHA": 242697 }, "geometry": { "type": "MultiLineString", "coordinates": [ [ [ 417077.228334498708136, 7620027.082455720752478 ], [ 417066.529221516742837, 7619999.07381097227335 ], [ 417054.112202022748534, 7619963.398989355191588 ], [ 417043.017964121303521, 7619928.291366599500179 ], [ 417030.625660776451696, 7619884.763030666857958 ] ] ] } },
{ "type": "Feature", "properties": { "fid": 88.0, "COMPR_M": 152.59, "CLASSE": "02 - Curta", "CD_FAZ": "404000", "TALHOES": "1", "FAZ_tAL": "404000001", "ID_LINHA": 242698 }, "geometry": { "type": "MultiLineString", "coordinates": [ [ [ 417080.980497772921808, 7620028.418140359222889 ], [ 417069.34674208908109, 7619998.043194904923439 ], [ 417056.959967432776466, 7619962.455219803377986 ], [ 417045.890206831332762, 7619927.425006109289825 ], [ 417033.411687495885417, 7619883.573316466063261 ] ] ] } },
{ "type": "Feature", "properties": { "fid": 89.0, "COMPR_M": 155.34, "CLASSE": "02 - Curta", "CD_FAZ": "404000", "TALHOES": "1", "FAZ_tAL": "404000001", "ID_LINHA": 242699 }, "geometry": { "type": "MultiLineString", "coordinates": [ [ [ 417084.749770459719002, 7620029.797184567898512 ], [ 417072.16426266025519, 7619997.012578835710883 ], [ 417059.807732843095437, 7619961.511450249701738 ], [ 417048.762449544272386, 7619926.558645618148148 ], [ 417036.197714216657914, 7619882.383602264337242 ] ] ] } },
{ "type": "Feature", "properties": { "fid": 90.0, "COMPR_M": 158.03, "CLASSE": "02 - Curta", "CD_FAZ": "404000", "TALHOES": "1", "FAZ_tAL": "404000001", "ID_LINHA": 242700 }, "geometry": { "type": "MultiLineString", "coordinates": [ [ [ 417088.49317088763928, 7620031.110661940649152 ], [ 417074.981783232942689, 7619995.981962768360972 ], [ 417062.655498252948746, 7619960.567680699750781 ], [ 417051.634692255756818, 7619925.692285124212503 ], [ 417038.98374093696475, 7619881.193888062611222 ] ] ] } },
{ "type": "Feature", "properties": { "fid": 91.0, "COMPR_M": 160.6, "CLASSE": "02 - Curta", "CD_FAZ": "404000", "TALHOES": "1", "FAZ_tAL": "404000001", "ID_LINHA": 242701 }, "geometry": { "type": "MultiLineString", "coordinates": [ [ [ 417092.223581568687223, 7620032.306322431191802 ], [ 417077.79930380434962, 7619994.951346701011062 ], [ 417065.503263663093094, 7619959.623911147937179 ], [ 417054.506934966193512, 7619924.825924634002149 ], [ 417041.769767656805925, 7619880.004173860885203 ] ] ] } },
{ "type": "Feature", "properties": { "fid": 92.0, "COMPR_M": 163.12, "CLASSE": "02 - Curta", "CD_FAZ": "404000", "TALHOES": "1", "FAZ_tAL": "404000001", "ID_LINHA": 242702 }, "geometry": { "type": "MultiLineString", "coordinates": [ [ [ 417095.949574600788765, 7620033.458784949034452 ], [ 417080.616824376571458, 7619993.920730633661151 ], [ 417068.35102907277178, 7619958.680141596123576 ], [ 417057.379177676339168, 7619923.95956414192915 ], [ 417044.555794376123231, 7619878.814459659159184 ] ] ] } },
{ "type": "Feature", "properties": { "fid": 93.0, "COMPR_M": 165.63, "CLASSE": "02 - Curta", "CD_FAZ": "404000", "TALHOES": "1", "FAZ_tAL": "404000001", "ID_LINHA": 242703 }, "geometry": { "type": "MultiLineString", "coordinates": [ [ [ 417099.66885129106231, 7620034.595057432539761 ], [ 417083.434344949608203, 7619992.890114564448595 ], [ 417071.198794483323582, 7619957.736372044309974 ], [ 417060.25142038956983, 7619923.093203650787473 ], [ 417047.341821096255444, 7619877.624745456501842 ] ] ] } },
{ "type": "Feature", "properties": { "fid": 94.0, "COMPR_M": 168.18, "CLASSE": "02 - Curta", "CD_FAZ": "404000", "TALHOES": "1", "FAZ_tAL": "404000001", "ID_LINHA": 242704 }, "geometry": { "type": "MultiLineString", "coordinates": [ [ [ 417103.40254359820392, 7620035.766079400666058 ], [ 417086.251865522121079, 7619991.859498497098684 ], [ 417074.046559894108213, 7619956.792602492496371 ], [ 417063.123663099831901, 7619922.226843160577118 ], [ 417050.127847817260772, 7619876.43503125756979 ] ] ] } },
{ "type": "Feature", "properties": { "fid": 95.0, "COMPR_M": 170.78, "CLASSE": "02 - Curta", "CD_FAZ": "404000", "TALHOES": "1", "FAZ_tAL": "404000001", "ID_LINHA": 242705 }, "geometry": { "type": "MultiLineString", "coordinates": [ [ [ 417107.157619489706121, 7620036.988647455349565 ], [ 417089.069386094750371, 7619990.828882430680096 ], [ 417076.894325303845108, 7619955.848832940682769 ], [ 417065.995905811781995, 7619921.360482668504119 ], [ 417052.913874537684023, 7619875.245317056775093 ] ] ] } },
{ "type": "Feature", "properties": { "fid": 96.0, "COMPR_M": 173.42, "CLASSE": "02 - Curta", "CD_FAZ": "404000", "TALHOES": "1", "FAZ_tAL": "404000001", "ID_LINHA": 242706 }, "geometry": { "type": "MultiLineString", "coordinates": [ [ [ 417110.926686284190509, 7620038.244941202923656 ], [ 417091.886906666797586, 7619989.798266362398863 ], [ 417079.742090713756625, 7619954.905063388869166 ], [ 417068.868148523499258, 7619920.494122175499797 ], [ 417055.699901257641613, 7619874.055602855980396 ] ] ] } },
{ "type": "Feature", "properties": { "fid": 97.0, "COMPR_M": 176.02, "CLASSE": "02 - Curta", "CD_FAZ": "404000", "TALHOES": "1", "FAZ_tAL": "404000001", "ID_LINHA": 242707 }, "geometry": { "type": "MultiLineString", "coordinates": [ [ [ 417114.681348591169808, 7620039.46651229262352 ], [ 417101.28675170103088, 7620006.320118218660355 ], [ 417082.589856123842765, 7619953.961293837055564 ], [ 417071.740391234867275, 7619919.62776168435812 ], [ 417058.485927978414111, 7619872.865888655185699 ] ] ] } },
{ "type": "Feature", "properties": { "fid": 98.0, "COMPR_M": 178.68, "CLASSE": "02 - Curta", "CD_FAZ": "404000", "TALHOES": "1", "FAZ_tAL": "404000001", "ID_LINHA": 242708 }, "geometry": { "type": "MultiLineString", "coordinates": [ [ [ 417118.466783972515259, 7620040.737085203640163 ], [ 417104.086746276007034, 7620005.24276720918715 ], [ 417085.437621533637866, 7619953.017524285241961 ], [ 417074.612633946002461, 7619918.761401195079088 ], [ 417061.271954698022455, 7619871.676174454391003 ] ] ] } },
{ "type": "Feature", "properties": { "fid": 99.0, "COMPR_M": 181.4, "CLASSE": "02 - Curta", "CD_FAZ": "404000", "TALHOES": "1", "FAZ_tAL": "404000001", "ID_LINHA": 242709 }, "geometry": { "type": "MultiLineString", "coordinates": [ [ [ 417122.307875099417288, 7620042.044472742825747 ], [ 417106.886740848131012, 7620004.165416201576591 ], [ 417094.145482701365836, 7619969.337959494441748 ], [ 417077.484876657545101, 7619917.895040702074766 ], [ 417064.057981419144198, 7619870.486460250802338 ] ] ] } },
{ "type": "Feature", "properties": { "fid": 100.0, "COMPR_M": 183.86, "CLASSE": "02 - Curta", "CD_FAZ": "404000", "TALHOES": "1", "FAZ_tAL": "404000001", "ID_LINHA": 242710 }, "geometry": { "type": "MultiLineString", "coordinates": [ [ [ 417126.048454632691573, 7620043.120974998921156 ], [ 417109.686735421535559, 7620003.088065193966031 ], [ 417096.978897682507522, 7619968.351912686601281 ], [ 417080.357119368738495, 7619917.028680210933089 ], [ 417066.844008139043581, 7619869.296746052801609 ] ] ] } },
{ "type": "Feature", "properties": { "fid": 101.0, "COMPR_M": 186.29, "CLASSE": "02 - Curta", "CD_FAZ": "404000", "TALHOES": "1", "FAZ_tAL": "404000001", "ID_LINHA": 242711 }, "geometry": { "type": "MultiLineString", "coordinates": [ [ [ 417129.775740242970642, 7620044.166939772665501 ], [ 417112.486729994241614, 7620002.010714184492826 ], [ 417099.812312661728356, 7619967.365865878760815 ], [ 417083.229362079699058, 7619916.162319719791412 ], [ 417069.630034858477302, 7619868.10703185107559 ] ] ] } },
{ "type": "Feature", "properties": { "fid": 102.0, "COMPR_M": 188.89, "CLASSE": "02 - Curta", "CD_FAZ": "404000", "TALHOES": "1", "FAZ_tAL": "404000001", "ID_LINHA": 242712 }, "geometry": { "type": "MultiLineString", "coordinates": [ [ [ 417133.573762082494795, 7620045.375392810441554 ], [ 417115.286724567471538, 7620000.933363178744912 ], [ 417102.645727641647682, 7619966.379819069057703 ], [ 417086.101604790368583, 7619915.29595922678709 ], [ 417072.416061578784138, 7619866.917317646555603 ] ] ] } },
{ "type": "Feature", "properties": { "fid": 103.0, "COMPR_M": 191.58, "CLASSE": "02 - Curta", "CD_FAZ": "404000", "TALHOES": "1", "FAZ_tAL": "404000001", "ID_LINHA": 242713 }, "geometry": { "type": "MultiLineString", "coordinates": [ [ [ 417137.404698630212806, 7620046.659454260021448 ], [ 417118.086719141225331, 7619999.85601217020303 ], [ 417105.479142621625215, 7619965.393772261217237 ], [ 417088.973847503366414, 7619914.429598735645413 ], [ 417075.202088299207389, 7619865.727603448554873 ] ] ] } },
{ "type": "Feature", "properties": { "fid": 104.0, "COMPR_M": 194.21, "CLASSE": "02 - Curta", "CD_FAZ": "404000", "TALHOES": "1", "FAZ_tAL": "404000001", "ID_LINHA": 242714 }, "geometry": { "type": "MultiLineString", "coordinates": [ [ [ 417141.212759105139412, 7620047.89096705801785 ], [ 417127.690588472934905, 7620016.021395886316895 ], [ 417120.886713713582139, 7619998.778661161661148 ], [ 417108.312557601020671, 7619964.407725451514125 ], [ 417091.846090214210562, 7619913.563238246366382 ], [ 417077.988115018466488, 7619864.537889244966209 ] ] ] } },
{ "type": "Feature", "properties": { "fid": 105.0, "COMPR_M": 196.92, "CLASSE": "02 - Curta", "CD_FAZ": "404000", "TALHOES": "1", "FAZ_tAL": "404000001", "ID_LINHA": 242715 }, "geometry": { "type": "MultiLineString", "coordinates": [ [ [ 417145.052144817193039, 7620049.185845592059195 ], [ 417130.471610259788577, 7620014.895963052287698 ], [ 417123.686708287161309, 7619997.701310154050589 ], [ 417111.145972579834051, 7619963.421678644604981 ], [ 417094.718332924647257, 7619912.69687775336206 ], [ 417080.774141740519553, 7619863.348175044171512 ] ] ] } },
{ "type": "Feature", "properties": { "fid": 106.0, "COMPR_M": 199.72, "CLASSE": "02 - Curta", "CD_FAZ": "404000", "TALHOES": "1", "FAZ_tAL": "404000001", "ID_LINHA": 242716 }, "geometry": { "type": "MultiLineString", "coordinates": [ [ [ 417148.974625282280613, 7620050.556692276149988 ], [ 417133.252632045652717, 7620013.770530215464532 ], [ 417126.486702858703211, 7619996.623959146440029 ], [ 417113.979387559986208, 7619962.435631833970547 ], [ 417097.590575636888389, 7619911.830517263151705 ], [ 417083.560913355264347, 7619862.158142752945423 ] ] ] } },
{ "type": "Feature", "properties": { "fid": 107.0, "COMPR_M": 202.46, "CLASSE": "02 - Curta", "CD_FAZ": "404000", "TALHOES": "1", "FAZ_tAL": "404000001", "ID_LINHA": 242717 }, "geometry": { "type": "MultiLineString", "coordinates": [ [ [ 417152.869407134479843, 7620051.866806071251631 ], [ 417136.033653833088465, 7620012.645097384229302 ], [ 417129.286697432107758, 7619995.54660813882947 ], [ 417116.812802540196571, 7619961.449585027992725 ], [ 417100.462818346801214, 7619910.964156771078706 ], [ 417086.350952664681245, 7619860.966715059243143 ] ] ] } },
{ "type": "Feature", "properties": { "fid": 108.0, "COMPR_M": 205.12, "CLASSE": "02 - Curta", "CD_FAZ": "404000", "TALHOES": "1", "FAZ_tAL": "404000001", "ID_LINHA": 242718 }, "geometry": { "type": "MultiLineString", "coordinates": [ [ [ 417156.728166062152013, 7620053.097934817895293 ], [ 417138.814675618894398, 7620011.519664546474814 ], [ 417132.086692006094381, 7619994.469257132150233 ], [ 417119.646217517845798, 7619960.463538220152259 ], [ 417103.335061058460269, 7619910.097796279937029 ], [ 417089.140991975669749, 7619859.775287363678217 ] ] ] } },
{ "type": "Feature", "properties": { "fid": 109.0, "COMPR_M": 207.73, "CLASSE": "02 - Curta", "CD_FAZ": "404000", "TALHOES": "1", "FAZ_tAL": "404000001", "ID_LINHA": 242719 }, "geometry": { "type": "MultiLineString", "coordinates": [ [ [ 417160.573296311777085, 7620054.299180871807039 ], [ 417141.595697405049577, 7620010.394231710582972 ], [ 417134.886686578625813, 7619993.391906122677028 ], [ 417122.479632498871069, 7619959.477491412311792 ], [ 417106.207303769828286, 7619909.231435786932707 ], [ 417091.931031286949292, 7619858.583859672769904 ] ] ] } },
{ "type": "Feature", "properties": { "fid": 110.0, "COMPR_M": 210.43, "CLASSE": "02 - Curta", "CD_FAZ": "404000", "TALHOES": "1", "FAZ_tAL": "404000001", "ID_LINHA": 242720 }, "geometry": { "type": "MultiLineString", "coordinates": [ [ [ 417164.447976391762495, 7620055.565218862146139 ], [ 417144.376719191437587, 7620009.268798875622451 ], [ 417137.686681151797529, 7619992.314555115997791 ], [ 417125.313047477975488, 7619958.491444602608681 ], [ 417109.079546482942533, 7619908.36507529579103 ], [ 417094.721070595143829, 7619857.392431978136301 ] ] ] } },
{ "type": "Feature", "properties": { "fid": 111.0, "COMPR_M": 213.15, "CLASSE": "02 - Curta", "CD_FAZ": "404000", "TALHOES": "1", "FAZ_tAL": "404000001", "ID_LINHA": 242721 }, "geometry": { "type": "MultiLineString", "coordinates": [ [ [ 417168.338270800886676, 7620056.865493340417743 ], [ 417154.13845277542714, 7620024.970683348365128 ], [ 417147.157740977592766, 7620008.143366041593254 ], [ 417140.48667572485283, 7619991.237204106524587 ], [ 417128.146462457079906, 7619957.505397794768214 ], [ 417111.951789193088189, 7619907.498714805580676 ], [ 417097.511109906248748, 7619856.201004286296666 ] ] ] } },
{ "type": "Feature", "properties": { "fid": 112.0, "COMPR_M": 216.08, "CLASSE": "02 - Curta", "CD_FAZ": "404000", "TALHOES": "1", "FAZ_tAL": "404000001", "ID_LINHA": 242722 }, "geometry": { "type": "MultiLineString", "coordinates": [ [ [ 417172.334881065879017, 7620058.336861249059439 ], [ 417164.151987294084392, 7620040.456796990707517 ], [ 417149.938762763340492, 7620007.017933204770088 ], [ 417143.286670297093224, 7619990.159853100776672 ], [ 417130.979877437639516, 7619956.519350988790393 ], [ 417114.824031903641298, 7619906.632354313507676 ], [ 417100.301149215607438, 7619855.009576592594385 ] ] ] } },
{ "type": "Feature", "properties": { "fid": 113.0, "COMPR_M": 218.94, "CLASSE": "02 - Curta", "CD_FAZ": "404000", "TALHOES": "1", "FAZ_tAL": "404000001", "ID_LINHA": 242723 }, "geometry": { "type": "MultiLineString", "coordinates": [ [ [ 417176.324407575360965, 7620059.731916815973818 ], [ 417166.892284847272094, 7620039.235550474375486 ], [ 417152.719784549321048, 7620005.892500371672213 ], [ 417146.086664871952962, 7619989.082502091303468 ], [ 417133.813292416918557, 7619955.533304178155959 ], [ 417117.696274615940638, 7619905.765993822365999 ], [ 417103.091188527178019, 7619853.818148899823427 ] ] ] } },
{ "type": "Feature", "properties": { "fid": 114.0, "COMPR_M": 221.64, "CLASSE": "02 - Curta", "CD_FAZ": "404000", "TALHOES": "1", "FAZ_tAL": "404000001", "ID_LINHA": 242724 }, "geometry": { "type": "MultiLineString", "coordinates": [ [ [ 417180.248865297879092, 7620060.990588322281837 ], [ 417162.421594032959547, 7620021.449935121461749 ], [ 417155.500806335767265, 7620004.767067538574338 ], [ 417142.60227696923539, 7619971.247177143581212 ], [ 417125.648755995673127, 7619921.365439111366868 ], [ 417115.742513943114318, 7619888.526852269656956 ], [ 417105.881227835139725, 7619852.626721205189824 ] ] ] } },
{ "type": "Feature", "properties": { "fid": 115.0, "COMPR_M": 224.31, "CLASSE": "02 - Curta", "CD_FAZ": "404000", "TALHOES": "1", "FAZ_tAL": "404000001", "ID_LINHA": 242725 }, "geometry": { "type": "MultiLineString", "coordinates": [ [ [ 417184.154570107639302, 7620062.20995376445353 ], [ 417165.182641118532047, 7620020.276352379471064 ], [ 417158.281828121864237, 7620003.64163470081985 ], [ 417145.419797541340813, 7619970.216561075299978 ], [ 417128.509430564357899, 7619920.461584556847811 ], [ 417118.625080502941273, 7619887.695516647771001 ], [ 417108.671267146593891, 7619851.435293510556221 ] ] ] } },
{ "type": "Feature", "properties": { "fid": 116.0, "COMPR_M": 227.04, "CLASSE": "02 - Curta", "CD_FAZ": "404000", "TALHOES": "1", "FAZ_tAL": "404000001", "ID_LINHA": 242726 }, "geometry": { "type": "MultiLineString", "coordinates": [ [ [ 417188.089710866624955, 7620063.491016898304224 ], [ 417167.943688202591147, 7620019.102769637480378 ], [ 417161.062849908194039, 7620002.51620186585933 ], [ 417148.237318114261143, 7619969.185945009812713 ], [ 417131.370105134206824, 7619919.557730000466108 ], [ 417121.507647064921912, 7619886.864181023091078 ], [ 417111.461306456942111, 7619850.243865818716586 ] ] ] } },
{ "type": "Feature", "properties": { "fid": 117.0, "COMPR_M": 229.92, "CLASSE": "02 - Curta", "CD_FAZ": "404000", "TALHOES": "1", "FAZ_tAL": "404000001", "ID_LINHA": 242727 }, "geometry": { "type": "MultiLineString", "coordinates": [ [ [ 417192.090357266366482, 7620064.909379730001092 ], [ 417170.70473528909497, 7620017.929186891764402 ], [ 417163.843871695513371, 7620001.390769030898809 ], [ 417151.054838684678543, 7619968.155328940600157 ], [ 417134.230779702018481, 7619918.653875447809696 ], [ 417124.390213625796605, 7619886.032845399342477 ], [ 417114.251345766941085, 7619849.052438125014305 ] ] ] } },
{ "type": "Feature", "properties": { "fid": 118.0, "COMPR_M": 232.62, "CLASSE": "02 - Curta", "CD_FAZ": "404000", "TALHOES": "1", "FAZ_tAL": "404000001", "ID_LINHA": 242728 }, "geometry": { "type": "MultiLineString", "coordinates": [ [ [ 417196.023036833503284, 7620066.156214878894389 ], [ 417188.005774178425781, 7620049.381116732954979 ], [ 417173.465782374027185, 7620016.755604149773717 ], [ 417166.624893481202889, 7620000.265336196869612 ], [ 417153.872359258588403, 7619967.124712871387601 ], [ 417137.091454269830137, 7619917.750020890496671 ], [ 417127.272780186263844, 7619885.201509777456522 ], [ 417117.041385075834114, 7619847.861010430380702 ] ] ] } },
{ "type": "Feature", "properties": { "fid": 119.0, "COMPR_M": 235.4, "CLASSE": "02 - Curta", "CD_FAZ": "404000", "TALHOES": "1", "FAZ_tAL": "404000001", "ID_LINHA": 242729 }, "geometry": { "type": "MultiLineString", "coordinates": [ [ [ 417200.026041886187159, 7620067.462247996591032 ], [ 417190.724552896688692, 7620048.112687308341265 ], [ 417176.226829460065346, 7620015.582021408714354 ], [ 417169.405915267881937, 7619999.139903360977769 ], [ 417156.689879830577411, 7619966.09409680403769 ], [ 417139.952128838864155, 7619916.846166335046291 ], [ 417130.155346747022122, 7619884.370174150913954 ], [ 417119.831424386997242, 7619846.669582737609744 ] ] ] } },
{ "type": "Feature", "properties": { "fid": 120.0, "COMPR_M": 238.39, "CLASSE": "02 - Curta", "CD_FAZ": "404000", "TALHOES": "1", "FAZ_tAL": "404000001", "ID_LINHA": 242730 }, "geometry": { "type": "MultiLineString", "coordinates": [ [ [ 417204.122209256864153, 7620068.955186880193651 ], [ 417193.443331613321789, 7620046.844257885590196 ], [ 417178.987876545230392, 7620014.408438664861023 ], [ 417172.186937052872963, 7619998.014470526948571 ], [ 417159.507400403381325, 7619965.063480736687779 ], [ 417148.088460557803046, 7619932.254594148136675 ], [ 417137.801973595516756, 7619899.701470384374261 ], [ 417122.621463697054423, 7619845.478155042976141 ] ] ] } },
{ "type": "Feature", "properties": { "fid": 121.0, "COMPR_M": 241.22, "CLASSE": "02 - Curta", "CD_FAZ": "404000", "TALHOES": "1", "FAZ_tAL": "404000001", "ID_LINHA": 242731 }, "geometry": { "type": "MultiLineString", "coordinates": [ [ [ 417208.144829777884297, 7620070.300573291257024 ], [ 417196.162110330304131, 7620045.575828461907804 ], [ 417181.748923631501384, 7620013.234855923801661 ], [ 417174.967958840134088, 7619996.889037692919374 ], [ 417162.324920975079294, 7619964.032864667475224 ], [ 417150.936225967714563, 7619931.31082459539175 ], [ 417140.674216305604205, 7619898.835109891369939 ], [ 417125.411503007402644, 7619844.286727350205183 ] ] ] } },
{ "type": "Feature", "properties": { "fid": 122.0, "COMPR_M": 243.62, "CLASSE": "02 - Curta", "CD_FAZ": "404000", "TALHOES": "1", "FAZ_tAL": "404000001", "ID_LINHA": 242732 }, "geometry": { "type": "MultiLineString", "coordinates": [ [ [ 417211.977552398806438, 7620071.264979360625148 ], [ 417198.880889047577512, 7620044.30739903729409 ], [ 417184.509970716899261, 7620012.061273180879653 ], [ 417177.74898062646389, 7619995.763604858890176 ], [ 417165.142441546893679, 7619963.002248600125313 ], [ 417153.783991376461927, 7619930.367055045440793 ], [ 417143.546459018078167, 7619897.968749400228262 ], [ 417128.201542317983694, 7619843.095299657434225 ] ] ] } },
{ "type": "Feature", "properties": { "fid": 123.0, "COMPR_M": 246.44, "CLASSE": "02 - Curta", "CD_FAZ": "404000", "TALHOES": "1", "FAZ_tAL": "404000001", "ID_LINHA": 242733 }, "geometry": { "type": "MultiLineString", "coordinates": [ [ [ 417216.000081758596934, 7620072.610182880423963 ], [ 417201.599667765200138, 7620043.038969613611698 ], [ 417187.271017801365815, 7620010.887690437957644 ], [ 417180.530002413026523, 7619994.638172021135688 ], [ 417167.959962120163254, 7619961.971632532775402 ], [ 417156.631756788119674, 7619929.423285493627191 ], [ 417146.418701728980523, 7619897.102388910017908 ], [ 417130.991581627517007, 7619841.903871964663267 ] ] ] } },
{ "type": "Feature", "properties": { "fid": 124.0, "COMPR_M": 249.49, "CLASSE": "02 - Curta", "CD_FAZ": "404000", "TALHOES": "1", "FAZ_tAL": "404000001", "ID_LINHA": 242734 }, "geometry": { "type": "MultiLineString", "coordinates": [ [ [ 417220.135709981899709, 7620074.146828141994774 ], [ 417211.878107472148258, 7620057.615575440227985 ], [ 417197.035557934083045, 7620025.801838814280927 ], [ 417183.311024199356325, 7619993.512739185243845 ], [ 417170.777482691570185, 7619960.941016465425491 ], [ 417159.479522198089398, 7619928.479515940882266 ], [ 417149.29094443959184, 7619896.236028416082263 ], [ 417133.781620936642867, 7619840.712444270960987 ] ] ] } },
{ "type": "Feature", "properties": { "fid": 125.0, "COMPR_M": 252.54, "CLASSE": "02 - Curta", "CD_FAZ": "404000", "TALHOES": "1", "FAZ_tAL": "404000001", "ID_LINHA": 242735 }, "geometry": { "type": "MultiLineString", "coordinates": [ [ [ 417224.306893423083238, 7620075.664909267798066 ], [ 417214.574595070851501, 7620056.300423873588443 ], [ 417199.775855487911031, 7620024.580592300742865 ], [ 417186.092045983939897, 7619992.38730635214597 ], [ 417173.595003264490515, 7619959.910400396212935 ], [ 417162.327287607593462, 7619927.535746388137341 ], [ 417152.163187151309103, 7619895.369667924940586 ], [ 417136.571660247340333, 7619839.521016578190029 ] ] ] } },
{ "type": "Feature", "properties": { "fid": 126.0, "COMPR_M": 255.38, "CLASSE": "02 - Curta", "CD_FAZ": "404000", "TALHOES": "1", "FAZ_tAL": "404000001", "ID_LINHA": 242736 }, "geometry": { "type": "MultiLineString", "coordinates": [ [ [ 417228.384232553304173, 7620077.002570842392743 ], [ 417217.271082669612952, 7620054.985272308811545 ], [ 417202.51615304092411, 7620023.359345785342157 ], [ 417188.87306777149206, 7619991.26187351718545 ], [ 417176.412523836246692, 7619958.879784329794347 ], [ 417165.175053016690072, 7619926.591976838186383 ], [ 417155.035429863375612, 7619894.503307432867587 ], [ 417139.361699556291569, 7619838.329588884487748 ] ] ] } },
{ "type": "Feature", "properties": { "fid": 127.0, "COMPR_M": 258.1, "CLASSE": "02 - Curta", "CD_FAZ": "404000", "TALHOES": "1", "FAZ_tAL": "404000001", "ID_LINHA": 242737 }, "geometry": { "type": "MultiLineString", "coordinates": [ [ [ 417232.402629963995423, 7620078.226914534345269 ], [ 417219.967570266569965, 7620053.670120740309358 ], [ 417205.256450593064073, 7620022.138099271804094 ], [ 417191.654089556774125, 7619990.136440679430962 ], [ 417179.23004440945806, 7619957.849168261513114 ], [ 417168.022818427998573, 7619925.648207286372781 ], [ 417157.907672574510798, 7619893.636946942657232 ], [ 417142.151738866232336, 7619837.138161192648113 ] ] ] } },
{ "type": "Feature", "properties": { "fid": 128.0, "COMPR_M": 260.79, "CLASSE": "02 - Curta", "CD_FAZ": "404000", "TALHOES": "1", "FAZ_tAL": "404000001", "ID_LINHA": 242738 }, "geometry": { "type": "MultiLineString", "coordinates": [ [ [ 417236.407132859050762, 7620079.424545453861356 ], [ 417222.66405786620453, 7620052.354969172738492 ], [ 417207.996748146950267, 7620020.916852758266032 ], [ 417194.435111344326288, 7619989.011007845401764 ], [ 417188.086583466676529, 7619972.92223697155714 ], [ 417176.314517111459281, 7619940.742602055892348 ], [ 417165.69819995429134, 7619908.71147533506155 ], [ 417156.098445796058513, 7619876.888153536245227 ], [ 417144.941778176988009, 7619835.946733497083187 ] ] ] } },
{ "type": "Feature", "properties": { "fid": 129.0, "COMPR_M": 263.59, "CLASSE": "02 - Curta", "CD_FAZ": "404000", "TALHOES": "1", "FAZ_tAL": "404000001", "ID_LINHA": 242739 }, "geometry": { "type": "MultiLineString", "coordinates": [ [ [ 417240.467252350412309, 7620080.729101565666497 ], [ 417225.360545465315226, 7620051.03981760609895 ], [ 417210.737045699963346, 7620019.695606242865324 ], [ 417190.886578040139284, 7619971.844885963946581 ], [ 417179.147932090505492, 7619939.756555247120559 ], [ 417168.558874521986581, 7619907.807620778679848 ], [ 417158.981012355885468, 7619876.056817911565304 ], [ 417147.731817488092929, 7619834.755305802449584 ] ] ] } },
{ "type": "Feature", "properties": { "fid": 130.0, "COMPR_M": 266.7, "CLASSE": "02 - Curta", "CD_FAZ": "404000", "TALHOES": "1", "FAZ_tAL": "404000001", "ID_LINHA": 242740 }, "geometry": { "type": "MultiLineString", "coordinates": [ [ [ 417244.695979861484375, 7620082.280992492102087 ], [ 417235.752534840954468, 7620065.163672488182783 ], [ 417220.631118784483988, 7620034.159963648766279 ], [ 417206.59834740072256, 7620002.672611236572266 ], [ 417193.686572613485623, 7619970.767534956336021 ], [ 417181.981347070250195, 7619938.770508439280093 ], [ 417171.419549091602676, 7619906.903766223229468 ], [ 417161.863578917982522, 7619875.225482288748026 ], [ 417150.521856796753127, 7619833.563878111541271 ] ] ] } },
{ "type": "Feature", "properties": { "fid": 131.0, "COMPR_M": 269.67, "CLASSE": "02 - Curta", "CD_FAZ": "404000", "TALHOES": "1", "FAZ_tAL": "404000001", "ID_LINHA": 242741 }, "geometry": { "type": "MultiLineString", "coordinates": [ [ [ 417248.879537261091173, 7620083.702715863473713 ], [ 417238.425954066216946, 7620063.802240280434489 ], [ 417223.349897501408122, 7620032.891534225083888 ], [ 417209.359394486062229, 7620001.49902849458158 ], [ 417196.486567186773755, 7619969.690183948725462 ], [ 417184.814762049471028, 7619937.784461633302271 ], [ 417174.280223659821786, 7619905.999911668710411 ], [ 417164.746145478391554, 7619874.394146664068103 ], [ 417153.311896108381916, 7619832.372450416907668 ] ] ] } },
{ "type": "Feature", "properties": { "fid": 132.0, "COMPR_M": 272.65, "CLASSE": "02 - Curta", "CD_FAZ": "404000", "TALHOES": "1", "FAZ_tAL": "404000001", "ID_LINHA": 242742 }, "geometry": { "type": "MultiLineString", "coordinates": [ [ [ 417253.07148672756739, 7620085.139916027896106 ], [ 417241.099373291188385, 7620062.44080807082355 ], [ 417226.068676219321787, 7620031.623104799538851 ], [ 417212.120441571227275, 7620000.325445752590895 ], [ 417199.286561759305187, 7619968.612832941114902 ], [ 417187.648177029390354, 7619936.798414824530482 ], [ 417177.140898227342404, 7619905.096057111397386 ], [ 417167.628712039673701, 7619873.562811040319502 ], [ 417156.101935418206267, 7619831.181022722274065 ] ] ] } },
{ "type": "Feature", "properties": { "fid": 133.0, "COMPR_M": 275.67, "CLASSE": "02 - Curta", "CD_FAZ": "404000", "TALHOES": "1", "FAZ_tAL": "404000001", "ID_LINHA": 242743 }, "geometry": { "type": "MultiLineString", "coordinates": [ [ [ 417257.276652468193788, 7620086.601489884778857 ], [ 417243.772792515985202, 7620061.079375863075256 ], [ 417228.78745493630413, 7620030.354675380513072 ], [ 417214.88148865691619, 7619999.151863008737564 ], [ 417202.086556333000772, 7619967.535481931641698 ], [ 417190.481592008669395, 7619935.812368017621338 ], [ 417180.001572796725668, 7619904.192202555947006 ], [ 417170.51127859990811, 7619872.731475414708257 ], [ 417158.891974728321657, 7619829.989595031365752 ] ] ] } },
{ "type": "Feature", "properties": { "fid": 134.0, "COMPR_M": 278.71, "CLASSE": "02 - Curta", "CD_FAZ": "404000", "TALHOES": "1", "FAZ_tAL": "404000001", "ID_LINHA": 242744 }, "geometry": { "type": "MultiLineString", "coordinates": [ [ [ 417261.497165412642062, 7620088.091367326676846 ], [ 417246.446211741887964, 7620059.717943653464317 ], [ 417231.506233653519303, 7620029.086245954036713 ], [ 417217.642535742954351, 7619997.978280266746879 ], [ 417204.886550905357581, 7619966.458130927756429 ], [ 417193.315006988763344, 7619934.826321207918227 ], [ 417182.862247364770155, 7619903.288348000496626 ], [ 417173.393845160375349, 7619871.900139792822301 ], [ 417161.682014038029592, 7619828.798167336732149 ] ] ] } },
{ "type": "Feature", "properties": { "fid": 135.0, "COMPR_M": 282.01, "CLASSE": "02 - Curta", "CD_FAZ": "404000", "TALHOES": "1", "FAZ_tAL": "404000001", "ID_LINHA": 242745 }, "geometry": { "type": "MultiLineString", "coordinates": [ [ [ 417265.859106441028416, 7620089.783826264552772 ], [ 417249.119630966859404, 7620058.356511447578669 ], [ 417234.225012369162869, 7620027.817816529422998 ], [ 417220.403582826897036, 7619996.804697523824871 ], [ 417207.686545478994958, 7619965.380779918283224 ], [ 417196.148421968217008, 7619933.840274399146438 ], [ 417185.722921934095211, 7619902.384493445977569 ], [ 417176.276411722414196, 7619871.068804169073701 ], [ 417164.472053348028567, 7619827.606739643961191 ] ] ] } },
{ "type": "Feature", "properties": { "fid": 136.0, "COMPR_M": 284.97, "CLASSE": "02 - Curta", "CD_FAZ": "404000", "TALHOES": "1", "FAZ_tAL": "404000001", "ID_LINHA": 242746 }, "geometry": { "type": "MultiLineString", "coordinates": [ [ [ 417270.092753257602453, 7620091.179617390036583 ], [ 417251.793050192296505, 7620056.995079236105084 ], [ 417236.943791087076534, 7620026.549387107603252 ], [ 417223.164629912527744, 7619995.631114782765508 ], [ 417210.486540052457713, 7619964.303428908810019 ], [ 417198.981836947787087, 7619932.854227591305971 ], [ 417188.583596501324791, 7619901.480638889595866 ], [ 417179.15897828276502, 7619870.237468544393778 ], [ 417167.262092658260372, 7619826.415311951190233 ] ] ] } },
{ "type": "Feature", "properties": { "fid": 137.0, "COMPR_M": 287.49, "CLASSE": "02 - Curta", "CD_FAZ": "404000", "TALHOES": "1", "FAZ_tAL": "404000001", "ID_LINHA": 242747 }, "geometry": { "type": "MultiLineString", "coordinates": [ [ [ 417274.10100721695926, 7620092.176310703158379 ], [ 417254.466469416860491, 7620055.633647026494145 ], [ 417239.66256980469916, 7620025.280957682058215 ], [ 417225.925676998565905, 7619994.457532038912177 ], [ 417213.286534623941407, 7619963.22607790119946 ], [ 417201.815251926134806, 7619931.868180781602859 ], [ 417191.444271070533432, 7619900.576784333214164 ], [ 417182.041544843930751, 7619869.4061329215765 ], [ 417170.052131968084723, 7619825.22388425655663 ] ] ] } },
{ "type": "Feature", "properties": { "fid": 138.0, "COMPR_M": 290.46, "CLASSE": "02 - Curta", "CD_FAZ": "404000", "TALHOES": "1", "FAZ_tAL": "404000001", "ID_LINHA": 242748 }, "geometry": { "type": "MultiLineString", "coordinates": [ [ [ 417278.336657619802281, 7620093.575649529695511 ], [ 417257.139888641773723, 7620054.272214818745852 ], [ 417242.381348520633765, 7620024.012528259307146 ], [ 417228.686724083148874, 7619993.283949295058846 ], [ 417216.086529198568314, 7619962.148726893588901 ], [ 417204.648666905821301, 7619930.882133975625038 ], [ 417194.304945638927165, 7619899.672929779626429 ], [ 417184.924111404106952, 7619868.574797296896577 ], [ 417172.842171278200112, 7619824.03245656285435 ] ] ] } },
{ "type": "Feature", "properties": { "fid": 139.0, "COMPR_M": 297.82, "CLASSE": "02 - Curta", "CD_FAZ": "404000", "TALHOES": "1", "FAZ_tAL": "404000001", "ID_LINHA": 242749 }, "geometry": { "type": "MultiLineString", "coordinates": [ [ [ 417284.75544156471733, 7620098.776339975185692 ], [ 417267.561260286543984, 7620067.806539932265878 ], [ 417252.325421445420943, 7620037.888301935046911 ], [ 417238.14002123271348, 7620007.483141098171473 ], [ 417225.026350993139204, 7619976.631246661767364 ], [ 417213.040291277109645, 7619945.48177545145154 ], [ 417197.16562020604033, 7619898.769075222313404 ], [ 417187.806677965214476, 7619867.743461672216654 ], [ 417175.632210588548332, 7619822.841028869152069 ] ] ] } },
{ "type": "Feature", "properties": { "fid": 140.0, "COMPR_M": 298.1, "CLASSE": "02 - Curta", "CD_FAZ": "404000", "TALHOES": "1", "FAZ_tAL": "404000001", "ID_LINHA": 242750 }, "geometry": { "type": "MultiLineString", "coordinates": [ [ [ 417287.677429526287597, 7620097.827267237007618 ], [ 417270.210826973780058, 7620066.399250239133835 ], [ 417255.021909043076448, 7620036.573150370270014 ], [ 417240.880318786657881, 7620006.26189458463341 ], [ 417227.807372779934667, 7619975.505813825875521 ], [ 417215.857811848982237, 7619944.451159381307662 ], [ 417200.026294775656424, 7619897.865220667794347 ], [ 417190.68924452655483, 7619866.912126048468053 ], [ 417178.422249899129383, 7619821.649601176381111 ] ] ] } },
{ "type": "Feature", "properties": { "fid": 175.0, "COMPR_M": 14.29, "CLASSE": "01 - Muito curta", "CD_FAZ": "404000", "TALHOES": "1", "FAZ_tAL": "404000001", "ID_LINHA": 242785 }, "geometry": { "type": "MultiLineString", "coordinates": [ [ [ 417545.505086568242405, 7619680.164950411766768 ], [ 417542.380477711441927, 7619666.22888352163136 ] ] ] } },
{ "type": "Feature", "properties": { "fid": 176.0, "COMPR_M": 25.64, "CLASSE": "01 - Muito curta", "CD_FAZ": "404000", "TALHOES": "1", "FAZ_tAL": "404000001", "ID_LINHA": 242786 }, "geometry": { "type": "MultiLineString", "coordinates": [ [ [ 417545.247861591633409, 7619692.428246725350618 ], [ 417539.573480844846927, 7619667.42755258269608 ] ] ] } },
{ "type": "Feature", "properties": { "fid": 177.0, "COMPR_M": 36.73, "CLASSE": "01 - Muito curta", "CD_FAZ": "404000", "TALHOES": "1", "FAZ_tAL": "404000001", "ID_LINHA": 242787 }, "geometry": { "type": "MultiLineString", "coordinates": [ [ [ 417544.996438253670931, 7619704.414947779849172 ], [ 417536.766483978542965, 7619668.6262216437608 ] ] ] } },
{ "type": "Feature", "properties": { "fid": 178.0, "COMPR_M": 47.54, "CLASSE": "01 - Muito curta", "CD_FAZ": "404000", "TALHOES": "1", "FAZ_tAL": "404000001", "ID_LINHA": 242788 }, "geometry": { "type": "MultiLineString", "coordinates": [ [ [ 417544.751123267342336, 7619716.110430866479874 ], [ 417533.959487113286741, 7619669.824890705756843 ] ] ] } },
{ "type": "Feature", "properties": { "fid": 179.0, "COMPR_M": 58.06, "CLASSE": "01 - Muito curta", "CD_FAZ": "404000", "TALHOES": "1", "FAZ_tAL": "404000001", "ID_LINHA": 242789 }, "geometry": { "type": "MultiLineString", "coordinates": [ [ [ 417544.512110114155803, 7619727.505471730604768 ], [ 417531.152490246400703, 7619671.023559767752886 ] ] ] } },
{ "type": "Feature", "properties": { "fid": 180.0, "COMPR_M": 68.23, "CLASSE": "01 - Muito curta", "CD_FAZ": "404000", "TALHOES": "1", "FAZ_tAL": "404000001", "ID_LINHA": 242790 }, "geometry": { "type": "MultiLineString", "coordinates": [ [ [ 417544.280589497182518, 7619738.543303162790835 ], [ 417535.49724602967035, 7619703.421874389052391 ], [ 417528.345493381202687, 7619672.222228828817606 ] ] ] } },
{ "type": "Feature", "properties": { "fid": 181.0, "COMPR_M": 78.1, "CLASSE": "01 - Muito curta", "CD_FAZ": "404000", "TALHOES": "1", "FAZ_tAL": "404000001", "ID_LINHA": 242791 }, "geometry": { "type": "MultiLineString", "coordinates": [ [ [ 417544.055794274085201, 7619749.260498931631446 ], [ 417535.595981736667454, 7619716.599656864069402 ], [ 417525.538496515713632, 7619673.420897891744971 ] ] ] } },
{ "type": "Feature", "properties": { "fid": 182.0, "COMPR_M": 87.67, "CLASSE": "01 - Muito curta", "CD_FAZ": "404000", "TALHOES": "1", "FAZ_tAL": "404000001", "ID_LINHA": 242792 }, "geometry": { "type": "MultiLineString", "coordinates": [ [ [ 417543.837492917722557, 7619759.668097145855427 ], [ 417532.682798254536465, 7619717.316252183169127 ], [ 417522.731499649875332, 7619674.619566952809691 ] ] ] } },
{ "type": "Feature", "properties": { "fid": 183.0, "COMPR_M": 96.95, "CLASSE": "01 - Muito curta", "CD_FAZ": "404000", "TALHOES": "1", "FAZ_tAL": "404000001", "ID_LINHA": 242793 }, "geometry": { "type": "MultiLineString", "coordinates": [ [ [ 417543.625508320285007, 7619769.774541556835175 ], [ 417532.83922068355605, 7619730.297943780198693 ], [ 417519.924502783105709, 7619675.818236014805734 ] ] ] } },
{ "type": "Feature", "properties": { "fid": 184.0, "COMPR_M": 105.95, "CLASSE": "02 - Curta", "CD_FAZ": "404000", "TALHOES": "1", "FAZ_tAL": "404000001", "ID_LINHA": 242794 }, "geometry": { "type": "MultiLineString", "coordinates": [ [ [ 417543.419603573624045, 7619779.591126881539822 ], [ 417529.932252030353993, 7619731.039371430873871 ], [ 417517.117505918606184, 7619677.016905074939132 ] ] ] } },
{ "type": "Feature", "properties": { "fid": 185.0, "COMPR_M": 114.68, "CLASSE": "02 - Curta", "CD_FAZ": "404000", "TALHOES": "1", "FAZ_tAL": "404000001", "ID_LINHA": 242795 }, "geometry": { "type": "MultiLineString", "coordinates": [ [ [ 417543.219752434117254, 7619789.11910417303443 ], [ 417530.157477090484463, 7619743.834978705272079 ], [ 417520.904454514908139, 7619706.893664985895157 ], [ 417514.310509051836561, 7619678.215574137866497 ] ] ] } },
{ "type": "Feature", "properties": { "fid": 186.0, "COMPR_M": 123.07, "CLASSE": "02 - Curta", "CD_FAZ": "404000", "TALHOES": "1", "FAZ_tAL": "404000001", "ID_LINHA": 242796 }, "geometry": { "type": "MultiLineString", "coordinates": [ [ [ 417543.02746189723257, 7619798.286626963876188 ], [ 417533.714665275998414, 7619767.983186801895499 ], [ 417527.257631769112777, 7619744.603820345364511 ], [ 417517.985896212572698, 7619707.588023103773594 ], [ 417511.503512185474392, 7619679.414243198931217 ] ] ] } },
{ "type": "Feature", "properties": { "fid": 187.0, "COMPR_M": 131.22, "CLASSE": "02 - Curta", "CD_FAZ": "404000", "TALHOES": "1", "FAZ_tAL": "404000001", "ID_LINHA": 242797 }, "geometry": { "type": "MultiLineString", "coordinates": [ [ [ 417542.840488615445793, 7619807.2006476521492 ], [ 417534.17146775854053, 7619780.14372256398201 ], [ 417524.357786447682884, 7619745.372661986388266 ], [ 417518.116880846500862, 7619720.899228781461716 ], [ 417508.696515320101753, 7619680.612912259995937 ] ] ] } },
{ "type": "Feature", "properties": { "fid": 188.0, "COMPR_M": 139.14, "CLASSE": "02 - Curta", "CD_FAZ": "404000", "TALHOES": "1", "FAZ_tAL": "404000001", "ID_LINHA": 242798 }, "geometry": { "type": "MultiLineString", "coordinates": [ [ [ 417542.658448356785811, 7619815.879484599456191 ], [ 417534.725219280982856, 7619792.114237671718001 ], [ 417524.670969523838721, 7619758.022474579513073 ], [ 417515.203697365592234, 7619721.615824101492763 ], [ 417505.889518453739583, 7619681.811581321060658 ] ] ] } },
{ "type": "Feature", "properties": { "fid": 189.0, "COMPR_M": 146.84, "CLASSE": "02 - Curta", "CD_FAZ": "404000", "TALHOES": "1", "FAZ_tAL": "404000001", "ID_LINHA": 242799 }, "geometry": { "type": "MultiLineString", "coordinates": [ [ [ 417542.481521298584994, 7619824.314547767862678 ], [ 417531.864544712589122, 7619793.018092226237059 ], [ 417521.779231124441139, 7619758.821293581277132 ], [ 417512.290513883403037, 7619722.332419423386455 ], [ 417503.082521586387884, 7619683.010250383988023 ] ] ] } },
{ "type": "Feature", "properties": { "fid": 190.0, "COMPR_M": 154.24, "CLASSE": "02 - Curta", "CD_FAZ": "404000", "TALHOES": "1", "FAZ_tAL": "404000001", "ID_LINHA": 242800 }, "geometry": { "type": "MultiLineString", "coordinates": [ [ [ 417542.311235524830408, 7619832.432985350489616 ], [ 417532.536790926998947, 7619804.845704669132829 ], [ 417522.184399032674264, 7619771.308529296889901 ], [ 417512.490440109046176, 7619735.487937331199646 ], [ 417500.275524722004775, 7619684.208919445052743 ] ] ] } },
{ "type": "Feature", "properties": { "fid": 191.0, "COMPR_M": 161.48, "CLASSE": "02 - Curta", "CD_FAZ": "404000", "TALHOES": "1", "FAZ_tAL": "404000001", "ID_LINHA": 242801 }, "geometry": { "type": "MultiLineString", "coordinates": [ [ [ 417542.144829473632853, 7619840.366455618292093 ], [ 417529.6890255160979, 7619805.789474222809076 ], [ 417519.301832471974194, 7619772.139864922501147 ], [ 417509.583471456542611, 7619736.229364981874824 ], [ 417497.470952925388701, 7619685.406552932225168 ] ] ] } },
{ "type": "Feature", "properties": { "fid": 192.0, "COMPR_M": 168.55, "CLASSE": "02 - Curta", "CD_FAZ": "404000", "TALHOES": "1", "FAZ_tAL": "404000001", "ID_LINHA": 242802 }, "geometry": { "type": "MultiLineString", "coordinates": [ [ [ 417541.982047065685038, 7619848.127167413942516 ], [ 417530.491389562143013, 7619817.486751036718488 ], [ 417523.282521007000469, 7619795.729655894450843 ], [ 417516.419265912263654, 7619772.971200545318425 ], [ 417506.6765028036898, 7619736.970792629756033 ], [ 417494.666736537474208, 7619686.604034649208188 ] ] ] } },
{ "type": "Feature", "properties": { "fid": 193.0, "COMPR_M": 175.34, "CLASSE": "02 - Curta", "CD_FAZ": "404000", "TALHOES": "1", "FAZ_tAL": "404000001", "ID_LINHA": 242803 }, "geometry": { "type": "MultiLineString", "coordinates": [ [ [ 417541.825531929847784, 7619855.589084680192173 ], [ 417535.285910527978558, 7619839.330711992457509 ], [ 417527.657974582107272, 7619818.472797844558954 ], [ 417516.938011490507051, 7619785.341885512694716 ], [ 417503.769534149847459, 7619737.712220281362534 ], [ 417491.862520149559714, 7619687.801516365259886 ] ] ] } },
{ "type": "Feature", "properties": { "fid": 194.0, "COMPR_M": 182.04, "CLASSE": "02 - Curta", "CD_FAZ": "404000", "TALHOES": "1", "FAZ_tAL": "404000001", "ID_LINHA": 242804 }, "geometry": { "type": "MultiLineString", "coordinates": [ [ [ 417541.671450520399958, 7619862.934973109513521 ], [ 417528.602595379576087, 7619830.052775863558054 ], [ 417521.145729285781272, 7619808.620782876387239 ], [ 417514.065768779779319, 7619786.208246003836393 ], [ 417500.862565495772287, 7619738.453647932037711 ], [ 417489.058303760830313, 7619688.998998081311584 ] ] ] } },
{ "type": "Feature", "properties": { "fid": 195.0, "COMPR_M": 188.57, "CLASSE": "02 - Curta", "CD_FAZ": "404000", "TALHOES": "1", "FAZ_tAL": "404000001", "ID_LINHA": 242805 }, "geometry": { "type": "MultiLineString", "coordinates": [ [ [ 417541.52104797877837, 7619870.105470134876668 ], [ 417533.719769268936943, 7619851.708201978355646 ], [ 417525.785074805957265, 7619831.083391929976642 ], [ 417518.297963875462301, 7619809.564552425406873 ], [ 417511.193526067538187, 7619787.07460649497807 ], [ 417497.95559684332693, 7619739.195075582712889 ], [ 417486.254087373323273, 7619690.196479799225926 ] ] ] } },
{ "type": "Feature", "properties": { "fid": 196.0, "COMPR_M": 194.94, "CLASSE": "02 - Curta", "CD_FAZ": "404000", "TALHOES": "1", "FAZ_tAL": "404000001", "ID_LINHA": 242806 }, "geometry": { "type": "MultiLineString", "coordinates": [ [ [ 417541.37441183096962, 7619877.096402995288372 ], [ 417526.885926809802186, 7619842.562765015289187 ], [ 417519.157729641767219, 7619821.430938269011676 ], [ 417511.839822733600158, 7619799.345074114389718 ], [ 417498.25917856162414, 7619752.292236756533384 ], [ 417483.449870985117741, 7619691.393961513414979 ] ] ] } },
{ "type": "Feature", "properties": { "fid": 197.0, "COMPR_M": 201.23, "CLASSE": "02 - Curta", "CD_FAZ": "404000", "TALHOES": "1", "FAZ_tAL": "404000001", "ID_LINHA": 242807 }, "geometry": { "type": "MultiLineString", "coordinates": [ [ [ 417541.229434839915484, 7619884.00823488086462 ], [ 417532.401903483143542, 7619864.189847600646317 ], [ 417524.085932235931978, 7619843.640116023831069 ], [ 417516.324314663535915, 7619822.416985076852143 ], [ 417508.979148164624348, 7619800.248928671702743 ], [ 417495.359333240776323, 7619753.061078395694494 ], [ 417480.645654598658439, 7619692.591443233191967 ] ] ] } },
{ "type": "Feature", "properties": { "fid": 198.0, "COMPR_M": 207.33, "CLASSE": "02 - Curta", "CD_FAZ": "404000", "TALHOES": "1", "FAZ_tAL": "404000001", "ID_LINHA": 242808 }, "geometry": { "type": "MultiLineString", "coordinates": [ [ [ 417541.089032643125392, 7619890.701961742714047 ], [ 417529.64085639861878, 7619865.36343034170568 ], [ 417521.28593766130507, 7619844.717467030510306 ], [ 417513.490899682685267, 7619823.403031885623932 ], [ 417506.118473597569391, 7619801.1527832262218 ], [ 417492.459487919171806, 7619753.829920038580894 ], [ 417477.841438210802153, 7619693.78892494738102 ] ] ] } },
{ "type": "Feature", "properties": { "fid": 199.0, "COMPR_M": 213.41, "CLASSE": "02 - Curta", "CD_FAZ": "404000", "TALHOES": "1", "FAZ_tAL": "404000001", "ID_LINHA": 242809 }, "geometry": { "type": "MultiLineString", "coordinates": [ [ [ 417540.949232573329937, 7619897.366982018575072 ], [ 417531.351859437825624, 7619876.809764050878584 ], [ 417522.595682123559527, 7619856.209933317266405 ], [ 417514.514992517943028, 7619835.205856202170253 ], [ 417506.906902235117741, 7619813.339630630798638 ], [ 417499.704555222648196, 7619790.540048459544778 ], [ 417489.559642598847859, 7619754.598761677742004 ], [ 417475.037221822829451, 7619694.986406663432717 ] ] ] } },
{ "type": "Feature", "properties": { "fid": 200.0, "COMPR_M": 219.3, "CLASSE": "02 - Curta", "CD_FAZ": "404000", "TALHOES": "1", "FAZ_tAL": "404000001", "ID_LINHA": 242810 }, "geometry": { "type": "MultiLineString", "coordinates": [ [ [ 417540.8138716830872, 7619903.820362762548029 ], [ 417528.611561884754337, 7619878.031010564416647 ], [ 417519.814660338568501, 7619857.335366152226925 ], [ 417511.697471943916753, 7619836.236472269520164 ], [ 417504.05913682555547, 7619814.283400185406208 ], [ 417496.832312511396594, 7619791.4064089525491 ], [ 417486.659797278523911, 7619755.367603320628405 ], [ 417472.233005435438827, 7619696.183888382278383 ] ] ] } },
{ "type": "Feature", "properties": { "fid": 201.0, "COMPR_M": 225.18, "CLASSE": "02 - Curta", "CD_FAZ": "404000", "TALHOES": "1", "FAZ_tAL": "404000001", "ID_LINHA": 242811 }, "geometry": { "type": "MultiLineString", "coordinates": [ [ [ 417540.678774352825712, 7619910.2611781116575 ], [ 417530.571892531006597, 7619889.559009341523051 ], [ 417521.357715141377412, 7619868.884178569540381 ], [ 417512.88595394382719, 7619847.949520053341985 ], [ 417501.21137141570216, 7619815.227169736288488 ], [ 417493.960069799912162, 7619792.272769445553422 ], [ 417483.759951956919394, 7619756.13644496165216 ], [ 417469.428789047233295, 7619697.381370099261403 ] ] ] } },
{ "type": "Feature", "properties": { "fid": 202.0, "COMPR_M": 230.88, "CLASSE": "02 - Curta", "CD_FAZ": "404000", "TALHOES": "1", "FAZ_tAL": "404000001", "ID_LINHA": 242812 }, "geometry": { "type": "MultiLineString", "coordinates": [ [ [ 417540.547696444904432, 7619916.510366107337177 ], [ 417527.853113813907839, 7619890.827438766136765 ], [ 417518.59666805609595, 7619870.057761313393712 ], [ 417510.085959370364435, 7619849.026871062815189 ], [ 417498.363606006139889, 7619816.170939287170768 ], [ 417491.087827088311315, 7619793.139129937626421 ], [ 417480.860106635896955, 7619756.90528660081327 ], [ 417466.624572660191916, 7619698.578851814381778 ] ] ] } },
{ "type": "Feature", "properties": { "fid": 203.0, "COMPR_M": 236.59, "CLASSE": "02 - Curta", "CD_FAZ": "404000", "TALHOES": "1", "FAZ_tAL": "404000001", "ID_LINHA": 242813 }, "geometry": { "type": "MultiLineString", "coordinates": [ [ [ 417540.416618535295129, 7619922.759554105810821 ], [ 417525.134335096459836, 7619892.095868188887835 ], [ 417515.835620969999582, 7619871.231344055384398 ], [ 417507.285964797600172, 7619850.104222069494426 ], [ 417499.323824786464684, 7619828.33326592668891 ], [ 417491.815100755135063, 7619805.672056003473699 ], [ 417481.294893554644659, 7619770.00475962087512 ], [ 417471.505945138575044, 7619732.36475389637053 ], [ 417463.820356272510253, 7619699.776333529502153 ] ] ] } },
{ "type": "Feature", "properties": { "fid": 204.0, "COMPR_M": 242.14, "CLASSE": "02 - Curta", "CD_FAZ": "404000", "TALHOES": "1", "FAZ_tAL": "404000001", "ID_LINHA": 242814 }, "geometry": { "type": "MultiLineString", "coordinates": [ [ [ 417540.2894449266023, 7619928.822603147476912 ], [ 417527.367156462161802, 7619903.742842094041407 ], [ 417517.650371669908054, 7619882.915996622294188 ], [ 417508.690573192434385, 7619861.837097492069006 ], [ 417496.490409806370735, 7619829.319312732666731 ], [ 417488.954426185460761, 7619806.575910560786724 ], [ 417478.403155156469438, 7619770.80357862636447 ], [ 417468.592761658015661, 7619733.081349216401577 ], [ 417461.016139884595759, 7619700.973815249279141 ] ] ] } },
{ "type": "Feature", "properties": { "fid": 205.0, "COMPR_M": 247.68, "CLASSE": "02 - Curta", "CD_FAZ": "404000", "TALHOES": "1", "FAZ_tAL": "404000001", "ID_LINHA": 242815 }, "geometry": { "type": "MultiLineString", "coordinates": [ [ [ 417540.162350418395363, 7619934.881881070323288 ], [ 417524.670668863109313, 7619905.057993659749627 ], [ 417514.910074117244221, 7619884.137243137694895 ], [ 417505.90955140668666, 7619862.962530326098204 ], [ 417493.656994825752918, 7619830.305359542369843 ], [ 417486.09375161776552, 7619807.479765117168427 ], [ 417475.51141675922554, 7619771.602397628128529 ], [ 417465.679578174836934, 7619733.797944534569979 ], [ 417458.21192349656485, 7619702.171296963468194 ] ] ] } },
{ "type": "Feature", "properties": { "fid": 206.0, "COMPR_M": 253.1, "CLASSE": "02 - Curta", "CD_FAZ": "404000", "TALHOES": "1", "FAZ_tAL": "404000001", "ID_LINHA": 242816 }, "geometry": { "type": "MultiLineString", "coordinates": [ [ [ 417540.038195298693608, 7619940.801022505387664 ], [ 417527.155230375647079, 7619916.767561724409461 ], [ 417512.169776563707273, 7619885.358489651232958 ], [ 417503.128529620589688, 7619864.087963162921369 ], [ 417490.823579846590292, 7619831.291406352072954 ], [ 417483.23307704803301, 7619808.383619671687484 ], [ 417472.619678361399565, 7619772.401216631755233 ], [ 417462.766394694219343, 7619734.514539854601026 ], [ 417455.407707108417526, 7619703.368778681382537 ] ] ] } },
{ "type": "Feature", "properties": { "fid": 207.0, "COMPR_M": 258.49, "CLASSE": "02 - Curta", "CD_FAZ": "404000", "TALHOES": "1", "FAZ_tAL": "404000001", "ID_LINHA": 242817 }, "geometry": { "type": "MultiLineString", "coordinates": [ [ [ 417539.914815823896788, 7619946.683184721507132 ], [ 417524.481811150850262, 7619918.128993934951723 ], [ 417514.25922022893792, 7619897.169585883617401 ], [ 417500.347507834201679, 7619865.213395996019244 ], [ 417491.974827938829549, 7619843.450784744694829 ], [ 417484.124778954253998, 7619820.88978704623878 ], [ 417473.180767497746274, 7619785.441234907135367 ], [ 417463.071973004611209, 7619748.092207385227084 ], [ 417452.603490720852278, 7619704.566260397434235 ] ] ] } },
{ "type": "Feature", "properties": { "fid": 208.0, "COMPR_M": 263.81, "CLASSE": "02 - Curta", "CD_FAZ": "404000", "TALHOES": "1", "FAZ_tAL": "404000001", "ID_LINHA": 242818 }, "geometry": { "type": "MultiLineString", "coordinates": [ [ [ 417539.793141650327016, 7619952.484046213328838 ], [ 417527.218795711698476, 7619929.892150034196675 ], [ 417511.540441510616802, 7619898.438015308231115 ], [ 417497.566486047522631, 7619866.338828831911087 ], [ 417489.157307367073372, 7619844.48140081204474 ], [ 417481.277013544517104, 7619821.833556598052382 ], [ 417470.298200935183559, 7619786.27257052809 ], [ 417460.165004351641983, 7619748.833635034039617 ], [ 417449.799274333170615, 7619705.763742115348577 ] ] ] } },
{ "type": "Feature", "properties": { "fid": 209.0, "COMPR_M": 269.05, "CLASSE": "02 - Curta", "CD_FAZ": "404000", "TALHOES": "1", "FAZ_tAL": "404000001", "ID_LINHA": 242819 }, "geometry": { "type": "MultiLineString", "coordinates": [ [ [ 417539.673235826834571, 7619958.200600910931826 ], [ 417524.569229023531079, 7619931.299439726397395 ], [ 417508.82166279462399, 7619899.70644473284483 ], [ 417494.785464262473397, 7619867.464261669665575 ], [ 417486.339786793512758, 7619845.51201687939465 ], [ 417478.429248133092187, 7619822.77732614800334 ], [ 417467.415634374832734, 7619787.103906152769923 ], [ 417457.258035697799642, 7619749.575062684714794 ], [ 417446.995057945372537, 7619706.961223831400275 ] ] ] } },
{ "type": "Feature", "properties": { "fid": 210.0, "COMPR_M": 274.29, "CLASSE": "02 - Curta", "CD_FAZ": "404000", "TALHOES": "1", "FAZ_tAL": "404000001", "ID_LINHA": 242820 }, "geometry": { "type": "MultiLineString", "coordinates": [ [ [ 417539.553574443270918, 7619963.905501874163747 ], [ 417527.55925484362524, 7619943.107366617769003 ], [ 417511.188230873027351, 7619911.633751494809985 ], [ 417496.508291372098029, 7619879.446423254907131 ], [ 417483.522266220883466, 7619846.542632946744561 ], [ 417475.58148272393737, 7619823.721095701679587 ], [ 417464.533067814190872, 7619787.935241777449846 ], [ 417454.351067043549847, 7619750.316490333527327 ], [ 417444.190841556759551, 7619708.158705547451973 ] ] ] } },
{ "type": "Feature", "properties": { "fid": 211.0, "COMPR_M": 279.41, "CLASSE": "02 - Curta", "CD_FAZ": "404000", "TALHOES": "1", "FAZ_tAL": "404000001", "ID_LINHA": 242821 }, "geometry": { "type": "MultiLineString", "coordinates": [ [ [ 417539.436924303299747, 7619969.466840524226427 ], [ 417524.934333650802728, 7619944.560107972472906 ], [ 417508.491743273392785, 7619912.948903061449528 ], [ 417493.747244287864305, 7619880.620005996897817 ], [ 417484.88600821205182, 7619858.72303013317287 ], [ 417472.733717312454246, 7619824.66486525349319 ], [ 417461.650501253840048, 7619788.766577399335802 ], [ 417451.444098390988074, 7619751.057917986065149 ], [ 417441.386625170067418, 7619709.356187266297638 ] ] ] } },
{ "type": "Feature", "properties": { "fid": 212.0, "COMPR_M": 284.47, "CLASSE": "02 - Curta", "CD_FAZ": "404000", "TALHOES": "1", "FAZ_tAL": "404000001", "ID_LINHA": 242822 }, "geometry": { "type": "MultiLineString", "coordinates": [ [ [ 417539.292255406675395, 7619974.982341390103102 ], [ 417522.309412458038423, 7619946.012849329970777 ], [ 417505.79525567649398, 7619914.264054629951715 ], [ 417490.986197202757467, 7619881.793588740751147 ], [ 417482.086013640160672, 7619859.800381140783429 ], [ 417469.885951903241221, 7619825.608634807169437 ], [ 417458.767934693139978, 7619789.597913023084402 ], [ 417448.537129738135263, 7619751.799345634877682 ], [ 417438.582408781861886, 7619710.553668981418014 ] ] ] } }
]
}
