{
"type": "FeatureCollection",
"name": "404046",
"crs": { "type": "name", "properties": { "name": "urn:ogc:def:crs:EPSG::32722" } },
"xy_coordinate_resolution": 1e-15,
"features": [
{ "type": "Feature", "properties": { "fid": 1.0, "COMPR_M": 1184.93, "CLASSE": "06 - Acima do limite", "CD_FAZ": "404046", "TALHOES": "1", "FAZ_tAL": "404046001", "ID_LINHA": 11110 }, "geometry": { "type": "MultiLineString", "coordinates": [ [ [ 430406.562756996077951, 7629214.574053079821169 ], [ 431489.85594946751371, 7628735.437747802585363 ] ] ] } },
{ "type": "Feature", "properties": { "fid": 2.0, "COMPR_M": 199.63, "CLASSE": "02 - Curta", "CD_FAZ": "404046", "TALHOES": "1", "FAZ_tAL": "404046001", "ID_LINHA": 11111 }, "geometry": { "type": "MultiLineString", "coordinates": [ [ [ 430960.624449690163601, 7629143.336661940440536 ], [ 431143.127630880451761, 7629062.614121861755848 ] ] ] } },
{ "type": "Feature", "properties": { "fid": 3.0, "COMPR_M": 343.84, "CLASSE": "03 - Média", "CD_FAZ": "404046", "TALHOES": "1", "FAZ_tAL": "404046001", "ID_LINHA": 11112 }, "geometry": { "type": "MultiLineString", "coordinates": [ [ [ 430850.143839744385332, 7629188.992904798127711 ], [ 431164.465458357473835, 7629049.8982436619699 ] ] ] } },
{ "type": "Feature", "properties": { "fid": 4.0, "COMPR_M": 461.99, "CLASSE": "03 - Média", "CD_FAZ": "404046", "TALHOES": "1", "FAZ_tAL": "404046001", "ID_LINHA": 11113 }, "geometry": { "type": "MultiLineString", "coordinates": [ [ [ 430760.892561173299327, 7629225.245617071166635 ], [ 431183.209430089569651, 7629038.329376155510545 ] ] ] } },
{ "type": "Feature", "properties": { "fid": 5.0, "COMPR_M": 548.75, "CLASSE": "03 - Média", "CD_FAZ": "404046", "TALHOES": "1", "FAZ_tAL": "404046001", "ID_LINHA": 11114 }, "geometry": { "type": "MultiLineString", "coordinates": [ [ [ 430692.4940694415709, 7629252.261589138768613 ], [ 431194.11344068456674, 7629030.227362886071205 ] ] ] } },
{ "type": "Feature", "properties": { "fid": 6.0, "COMPR_M": 617.64, "CLASSE": "04 - Longa", "CD_FAZ": "404046", "TALHOES": "1", "FAZ_tAL": "404046001", "ID_LINHA": 11115 }, "geometry": { "type": "MultiLineString", "coordinates": [ [ [ 430646.505179536587093, 7629269.33602228667587 ], [ 431211.096811860334128, 7629019.437038084492087 ] ] ] } },
{ "type": "Feature", "properties": { "fid": 7.0, "COMPR_M": 695.93, "CLASSE": "04 - Longa", "CD_FAZ": "404046", "TALHOES": "1", "FAZ_tAL": "404046001", "ID_LINHA": 11116 }, "geometry": { "type": "MultiLineString", "coordinates": [ [ [ 430588.174851008341648, 7629291.807217825204134 ], [ 431224.359988641401287, 7629010.291794339194894 ] ] ] } },
{ "type": "Feature", "properties": { "fid": 8.0, "COMPR_M": 761.11, "CLASSE": "04 - Longa", "CD_FAZ": "404046", "TALHOES": "1", "FAZ_tAL": "404046001", "ID_LINHA": 11117 }, "geometry": { "type": "MultiLineString", "coordinates": [ [ [ 430541.332822545431554, 7629309.206785352900624 ], [ 431237.122107997885905, 7629001.368119636550546 ] ] ] } },
{ "type": "Feature", "properties": { "fid": 9.0, "COMPR_M": 805.08, "CLASSE": "04 - Longa", "CD_FAZ": "404046", "TALHOES": "1", "FAZ_tAL": "404046001", "ID_LINHA": 11118 }, "geometry": { "type": "MultiLineString", "coordinates": [ [ [ 430520.731444420118351, 7629315.02214839309454 ], [ 431256.731899059552234, 7628989.416383867152035 ] ] ] } },
{ "type": "Feature", "properties": { "fid": 10.0, "COMPR_M": 835.69, "CLASSE": "04 - Longa", "CD_FAZ": "404046", "TALHOES": "1", "FAZ_tAL": "404046001", "ID_LINHA": 11119 }, "geometry": { "type": "MultiLineString", "coordinates": [ [ [ 430504.373246572271455, 7629318.964315936900675 ], [ 431268.361067466728855, 7628980.993703356012702 ] ] ] } },
{ "type": "Feature", "properties": { "fid": 11.0, "COMPR_M": 956.4, "CLASSE": "05 - Muito longa", "CD_FAZ": "404046", "TALHOES": "1", "FAZ_tAL": "404046001", "ID_LINHA": 11120 }, "geometry": { "type": "MultiLineString", "coordinates": [ [ [ 430404.006953262898605, 7629359.992719687521458 ], [ 431278.381447641411796, 7628973.282433792948723 ] ] ] } },
{ "type": "Feature", "properties": { "fid": 12.0, "COMPR_M": 973.81, "CLASSE": "05 - Muito longa", "CD_FAZ": "404046", "TALHOES": "1", "FAZ_tAL": "404046001", "ID_LINHA": 11121 }, "geometry": { "type": "MultiLineString", "coordinates": [ [ [ 430397.011041705845855, 7629359.801809830591083 ], [ 431287.306871684850194, 7628966.055357087403536 ] ] ] } },
{ "type": "Feature", "properties": { "fid": 13.0, "COMPR_M": 989.89, "CLASSE": "06 - Acima do limite", "CD_FAZ": "404046", "TALHOES": "1", "FAZ_tAL": "404046001", "ID_LINHA": 11122 }, "geometry": { "type": "MultiLineString", "coordinates": [ [ [ 430392.263829082017764, 7629358.618188742548227 ], [ 431297.260612185928039, 7628958.373555704019964 ] ] ] } },
{ "type": "Feature", "properties": { "fid": 14.0, "COMPR_M": 1003.8, "CLASSE": "06 - Acima do limite", "CD_FAZ": "404046", "TALHOES": "1", "FAZ_tAL": "404046001", "ID_LINHA": 11123 }, "geometry": { "type": "MultiLineString", "coordinates": [ [ [ 430389.382591716712341, 7629356.610813722014427 ], [ 431307.096841350314207, 7628950.743717318400741 ] ] ] } },
{ "type": "Feature", "properties": { "fid": 15.0, "COMPR_M": 1016.8, "CLASSE": "06 - Acima do limite", "CD_FAZ": "404046", "TALHOES": "1", "FAZ_tAL": "404046001", "ID_LINHA": 11124 }, "geometry": { "type": "MultiLineString", "coordinates": [ [ [ 430386.501354350999463, 7629354.603438699617982 ], [ 431316.099195831746329, 7628943.48262082785368 ] ] ] } },
{ "type": "Feature", "properties": { "fid": 16.0, "COMPR_M": 1028.99, "CLASSE": "06 - Acima do limite", "CD_FAZ": "404046", "TALHOES": "1", "FAZ_tAL": "404046001", "ID_LINHA": 11125 }, "geometry": { "type": "MultiLineString", "coordinates": [ [ [ 430383.614798191876616, 7629352.598411714658141 ], [ 431324.358338707592338, 7628936.550174809992313 ] ] ] } },
{ "type": "Feature", "properties": { "fid": 17.0, "COMPR_M": 1040.25, "CLASSE": "06 - Acima do limite", "CD_FAZ": "404046", "TALHOES": "1", "FAZ_tAL": "404046001", "ID_LINHA": 11126 }, "geometry": { "type": "MultiLineString", "coordinates": [ [ [ 430381.407855180557817, 7629350.293362526223063 ], [ 431332.449189167935401, 7628929.692148218862712 ] ] ] } },
{ "type": "Feature", "properties": { "fid": 18.0, "COMPR_M": 1050.37, "CLASSE": "06 - Acima do limite", "CD_FAZ": "404046", "TALHOES": "1", "FAZ_tAL": "404046001", "ID_LINHA": 11127 }, "geometry": { "type": "MultiLineString", "coordinates": [ [ [ 430379.200912168831564, 7629347.988313341513276 ], [ 431339.489169675856829, 7628923.298819575458765 ] ] ] } },
{ "type": "Feature", "properties": { "fid": 19.0, "COMPR_M": 1060.48, "CLASSE": "06 - Acima do limite", "CD_FAZ": "404046", "TALHOES": "1", "FAZ_tAL": "404046001", "ID_LINHA": 11128 }, "geometry": { "type": "MultiLineString", "coordinates": [ [ [ 430376.993969157338142, 7629345.683264154009521 ], [ 431346.529150184884202, 7628916.905490932054818 ] ] ] } },
{ "type": "Feature", "properties": { "fid": 20.0, "COMPR_M": 1070.59, "CLASSE": "06 - Acima do limite", "CD_FAZ": "404046", "TALHOES": "1", "FAZ_tAL": "404046001", "ID_LINHA": 11129 }, "geometry": { "type": "MultiLineString", "coordinates": [ [ [ 430374.787026144796982, 7629343.378214968368411 ], [ 431353.56913069228176, 7628910.512162290513515 ] ] ] } },
{ "type": "Feature", "properties": { "fid": 21.0, "COMPR_M": 1080.41, "CLASSE": "06 - Acima do limite", "CD_FAZ": "404046", "TALHOES": "1", "FAZ_tAL": "404046001", "ID_LINHA": 11130 }, "geometry": { "type": "MultiLineString", "coordinates": [ [ [ 430372.580083134525921, 7629341.073165781795979 ], [ 431360.339700839656871, 7628904.237967740744352 ] ] ] } },
{ "type": "Feature", "properties": { "fid": 22.0, "COMPR_M": 1090.0, "CLASSE": "06 - Acima do limite", "CD_FAZ": "404046", "TALHOES": "1", "FAZ_tAL": "404046001", "ID_LINHA": 11131 }, "geometry": { "type": "MultiLineString", "coordinates": [ [ [ 430370.373140123207122, 7629338.768116594292223 ], [ 431366.89850528491661, 7628898.057416642084718 ] ] ] } },
{ "type": "Feature", "properties": { "fid": 23.0, "COMPR_M": 1099.57, "CLASSE": "06 - Acima do limite", "CD_FAZ": "404046", "TALHOES": "1", "FAZ_tAL": "404046001", "ID_LINHA": 11132 }, "geometry": { "type": "MultiLineString", "coordinates": [ [ [ 430368.184810603153892, 7629336.454850291833282 ], [ 431373.457309731282294, 7628891.876865543425083 ] ] ] } },
{ "type": "Feature", "properties": { "fid": 24.0, "COMPR_M": 1108.31, "CLASSE": "06 - Acima do limite", "CD_FAZ": "404046", "TALHOES": "1", "FAZ_tAL": "404046001", "ID_LINHA": 11133 }, "geometry": { "type": "MultiLineString", "coordinates": [ [ [ 430366.451374397031032, 7629333.940766662359238 ], [ 431379.714834767160937, 7628885.829541131854057 ] ] ] } },
{ "type": "Feature", "properties": { "fid": 25.0, "COMPR_M": 1115.92, "CLASSE": "06 - Acima do limite", "CD_FAZ": "404046", "TALHOES": "1", "FAZ_tAL": "404046001", "ID_LINHA": 11134 }, "geometry": { "type": "MultiLineString", "coordinates": [ [ [ 430364.717938190966379, 7629331.426683034747839 ], [ 431384.943649423541501, 7628880.237115638330579 ] ] ] } },
{ "type": "Feature", "properties": { "fid": 26.0, "COMPR_M": 1123.54, "CLASSE": "06 - Acima do limite", "CD_FAZ": "404046", "TALHOES": "1", "FAZ_tAL": "404046001", "ID_LINHA": 11135 }, "geometry": { "type": "MultiLineString", "coordinates": [ [ [ 430362.984501984901726, 7629328.912599408999085 ], [ 431390.172464082308579, 7628874.64469014108181 ] ] ] } },
{ "type": "Feature", "properties": { "fid": 27.0, "COMPR_M": 1131.13, "CLASSE": "06 - Acima do limite", "CD_FAZ": "404046", "TALHOES": "1", "FAZ_tAL": "404046001", "ID_LINHA": 11136 }, "geometry": { "type": "MultiLineString", "coordinates": [ [ [ 430361.251065778895281, 7629326.398515783250332 ], [ 431395.380053528351709, 7628869.061650497838855 ] ] ] } },
{ "type": "Feature", "properties": { "fid": 28.0, "COMPR_M": 1138.71, "CLASSE": "06 - Acima do limite", "CD_FAZ": "404046", "TALHOES": "1", "FAZ_tAL": "404046001", "ID_LINHA": 11137 }, "geometry": { "type": "MultiLineString", "coordinates": [ [ [ 430359.517629572947044, 7629323.884432153776288 ], [ 431400.581887362932321, 7628863.481156004592776 ] ] ] } },
{ "type": "Feature", "properties": { "fid": 29.0, "COMPR_M": 1146.3, "CLASSE": "06 - Acima do limite", "CD_FAZ": "404046", "TALHOES": "1", "FAZ_tAL": "404046001", "ID_LINHA": 11138 }, "geometry": { "type": "MultiLineString", "coordinates": [ [ [ 430357.784193366358522, 7629321.370348526164889 ], [ 431405.783721196232364, 7628857.900661513209343 ] ] ] } },
{ "type": "Feature", "properties": { "fid": 30.0, "COMPR_M": 1152.82, "CLASSE": "06 - Acima do limite", "CD_FAZ": "404046", "TALHOES": "1", "FAZ_tAL": "404046001", "ID_LINHA": 11139 }, "geometry": { "type": "MultiLineString", "coordinates": [ [ [ 430356.050757161108777, 7629318.856264900416136 ], [ 431410.013356760959141, 7628852.750076107680798 ] ] ] } },
{ "type": "Feature", "properties": { "fid": 31.0, "COMPR_M": 1160.13, "CLASSE": "06 - Acima do limite", "CD_FAZ": "404046", "TALHOES": "1", "FAZ_tAL": "404046001", "ID_LINHA": 11140 }, "geometry": { "type": "MultiLineString", "coordinates": [ [ [ 430354.36609950294951, 7629316.320647480897605 ], [ 431415.008408655703533, 7628847.261021230369806 ] ] ] } },
{ "type": "Feature", "properties": { "fid": 32.0, "COMPR_M": 1167.76, "CLASSE": "06 - Acima do limite", "CD_FAZ": "404046", "TALHOES": "1", "FAZ_tAL": "404046001", "ID_LINHA": 11141 }, "geometry": { "type": "MultiLineString", "coordinates": [ [ [ 430352.714539353910368, 7629313.770418829284608 ], [ 431420.336060433881357, 7628841.624889653176069 ] ] ] } },
{ "type": "Feature", "properties": { "fid": 33.0, "COMPR_M": 1175.49, "CLASSE": "06 - Acima do limite", "CD_FAZ": "404046", "TALHOES": "1", "FAZ_tAL": "404046001", "ID_LINHA": 11142 }, "geometry": { "type": "MultiLineString", "coordinates": [ [ [ 430351.062979201145936, 7629311.220190177671611 ], [ 431425.754183236393146, 7628835.948751510120928 ] ] ] } },
{ "type": "Feature", "properties": { "fid": 34.0, "COMPR_M": 1183.42, "CLASSE": "06 - Acima do limite", "CD_FAZ": "404046", "TALHOES": "1", "FAZ_tAL": "404046001", "ID_LINHA": 11143 }, "geometry": { "type": "MultiLineString", "coordinates": [ [ [ 430349.411419052572455, 7629308.669961523264647 ], [ 431431.346808151341975, 7628830.195447989739478 ] ] ] } },
{ "type": "Feature", "properties": { "fid": 35.0, "COMPR_M": 1191.34, "CLASSE": "06 - Acima do limite", "CD_FAZ": "404046", "TALHOES": "1", "FAZ_tAL": "404046001", "ID_LINHA": 11144 }, "geometry": { "type": "MultiLineString", "coordinates": [ [ [ 430347.7598588996334, 7629306.119732871651649 ], [ 431436.93943306786241, 7628824.442144472151995 ] ] ] } },
{ "type": "Feature", "properties": { "fid": 36.0, "COMPR_M": 1198.57, "CLASSE": "06 - Acima do limite", "CD_FAZ": "404046", "TALHOES": "1", "FAZ_tAL": "404046001", "ID_LINHA": 11145 }, "geometry": { "type": "MultiLineString", "coordinates": [ [ [ 430346.108298748906236, 7629303.569504221901298 ], [ 431441.89687144337222, 7628818.969722405076027 ] ] ] } },
{ "type": "Feature", "properties": { "fid": 37.0, "COMPR_M": 1205.77, "CLASSE": "06 - Acima do limite", "CD_FAZ": "404046", "TALHOES": "1", "FAZ_tAL": "404046001", "ID_LINHA": 11146 }, "geometry": { "type": "MultiLineString", "coordinates": [ [ [ 430344.456738597073127, 7629301.019275568425655 ], [ 431446.826680299360305, 7628813.509518202394247 ] ] ] } },
{ "type": "Feature", "properties": { "fid": 38.0, "COMPR_M": 1212.97, "CLASSE": "06 - Acima do limite", "CD_FAZ": "404046", "TALHOES": "1", "FAZ_tAL": "404046001", "ID_LINHA": 11147 }, "geometry": { "type": "MultiLineString", "coordinates": [ [ [ 430342.805178446811624, 7629298.469046914950013 ], [ 431451.756489153951406, 7628808.049313997849822 ] ] ] } },
{ "type": "Feature", "properties": { "fid": 39.0, "COMPR_M": 1219.72, "CLASSE": "06 - Acima do limite", "CD_FAZ": "404046", "TALHOES": "1", "FAZ_tAL": "404046001", "ID_LINHA": 11148 }, "geometry": { "type": "MultiLineString", "coordinates": [ [ [ 430341.193541616201401, 7629295.901193702593446 ], [ 431456.314974475768395, 7628802.753310212865472 ] ] ] } },
{ "type": "Feature", "properties": { "fid": 40.0, "COMPR_M": 1226.37, "CLASSE": "06 - Acima do limite", "CD_FAZ": "404046", "TALHOES": "1", "FAZ_tAL": "404046001", "ID_LINHA": 11149 }, "geometry": { "type": "MultiLineString", "coordinates": [ [ [ 430339.625824349815957, 7629293.313951748423278 ], [ 431460.835644548176788, 7628797.474028443917632 ] ] ] } },
{ "type": "Feature", "properties": { "fid": 41.0, "COMPR_M": 1233.04, "CLASSE": "06 - Acima do limite", "CD_FAZ": "404046", "TALHOES": "1", "FAZ_tAL": "404046001", "ID_LINHA": 11150 }, "geometry": { "type": "MultiLineString", "coordinates": [ [ [ 430338.058107080578338, 7629290.726709795184433 ], [ 431465.362299033091404, 7628792.1921003498137 ] ] ] } },
{ "type": "Feature", "properties": { "fid": 42.0, "COMPR_M": 1239.77, "CLASSE": "06 - Acima do limite", "CD_FAZ": "404046", "TALHOES": "1", "FAZ_tAL": "404046001", "ID_LINHA": 11151 }, "geometry": { "type": "MultiLineString", "coordinates": [ [ [ 430336.490389812621288, 7629288.139467841014266 ], [ 431469.946096297819167, 7628786.884903544560075 ] ] ] } },
{ "type": "Feature", "properties": { "fid": 43.0, "COMPR_M": 1246.5, "CLASSE": "06 - Acima do limite", "CD_FAZ": "404046", "TALHOES": "1", "FAZ_tAL": "404046001", "ID_LINHA": 11152 }, "geometry": { "type": "MultiLineString", "coordinates": [ [ [ 430334.92267254384933, 7629285.552225889638066 ], [ 431474.52989355934551, 7628781.577706737443805 ] ] ] } },
{ "type": "Feature", "properties": { "fid": 44.0, "COMPR_M": 1252.23, "CLASSE": "06 - Acima do limite", "CD_FAZ": "404046", "TALHOES": "1", "FAZ_tAL": "404046001", "ID_LINHA": 11153 }, "geometry": { "type": "MultiLineString", "coordinates": [ [ [ 430334.263741482631303, 7629282.563790932297707 ], [ 431479.11369082366582, 7628776.27050992846489 ] ] ] } },
{ "type": "Feature", "properties": { "fid": 45.0, "COMPR_M": 1258.12, "CLASSE": "06 - Acima do limite", "CD_FAZ": "404046", "TALHOES": "1", "FAZ_tAL": "404046001", "ID_LINHA": 11154 }, "geometry": { "type": "MultiLineString", "coordinates": [ [ [ 430333.594189040595666, 7629279.580044895410538 ], [ 431483.82974047632888, 7628770.904830706305802 ] ] ] } },
{ "type": "Feature", "properties": { "fid": 46.0, "COMPR_M": 1263.87, "CLASSE": "06 - Acima do limite", "CD_FAZ": "404046", "TALHOES": "1", "FAZ_tAL": "404046001", "ID_LINHA": 11155 }, "geometry": { "type": "MultiLineString", "coordinates": [ [ [ 430333.152161600533873, 7629276.495855614542961 ], [ 431488.645109869306907, 7628765.495231987908483 ] ] ] } },
{ "type": "Feature", "properties": { "fid": 47.0, "COMPR_M": 1254.53, "CLASSE": "06 - Acima do limite", "CD_FAZ": "404046", "TALHOES": "1", "FAZ_tAL": "404046001", "ID_LINHA": 11156 }, "geometry": { "type": "MultiLineString", "coordinates": [ [ [ 430346.517528440395836, 7629267.316250368021429 ], [ 431493.460479260887951, 7628760.085633268579841 ] ] ] } },
{ "type": "Feature", "properties": { "fid": 48.0, "COMPR_M": 1223.74, "CLASSE": "06 - Acima do limite", "CD_FAZ": "404046", "TALHOES": "1", "FAZ_tAL": "404046001", "ID_LINHA": 11157 }, "geometry": { "type": "MultiLineString", "coordinates": [ [ [ 430378.441857381549198, 7629249.943600772880018 ], [ 431497.226218263211194, 7628755.140184356831014 ] ] ] } },
{ "type": "Feature", "properties": { "fid": 49.0, "COMPR_M": 1201.14, "CLASSE": "06 - Acima do limite", "CD_FAZ": "404046", "TALHOES": "1", "FAZ_tAL": "404046001", "ID_LINHA": 11158 }, "geometry": { "type": "MultiLineString", "coordinates": [ [ [ 430402.419039639236871, 7629236.079300666227937 ], [ 431500.538302322092932, 7628750.395343067124486 ] ] ] } },
{ "type": "Feature", "properties": { "fid": 50.0, "COMPR_M": 1197.25, "CLASSE": "06 - Acima do limite", "CD_FAZ": "404046", "TALHOES": "1", "FAZ_tAL": "404046001", "ID_LINHA": 11159 }, "geometry": { "type": "MultiLineString", "coordinates": [ [ [ 430408.631995842792094, 7629230.057200530543923 ], [ 431503.18970350624295, 7628745.942657790146768 ] ] ] } },
{ "type": "Feature", "properties": { "fid": 51.0, "COMPR_M": 1197.99, "CLASSE": "06 - Acima do limite", "CD_FAZ": "404046", "TALHOES": "1", "FAZ_tAL": "404046001", "ID_LINHA": 11160 }, "geometry": { "type": "MultiLineString", "coordinates": [ [ [ 430408.218148073530756, 7629226.960571037605405 ], [ 431503.456335133931134, 7628742.544524995610118 ] ] ] } },
{ "type": "Feature", "properties": { "fid": 52.0, "COMPR_M": 1198.45, "CLASSE": "06 - Acima do limite", "CD_FAZ": "404046", "TALHOES": "1", "FAZ_tAL": "404046001", "ID_LINHA": 11161 }, "geometry": { "type": "MultiLineString", "coordinates": [ [ [ 430407.804300304618664, 7629223.863941549323499 ], [ 431503.460465127718635, 7628739.262471236288548 ] ] ] } },
{ "type": "Feature", "properties": { "fid": 53.0, "COMPR_M": 1198.91, "CLASSE": "06 - Acima do limite", "CD_FAZ": "404046", "TALHOES": "1", "FAZ_tAL": "404046001", "ID_LINHA": 11162 }, "geometry": { "type": "MultiLineString", "coordinates": [ [ [ 430407.390452533960342, 7629220.767312059178948 ], [ 431503.464595121215098, 7628735.980417476966977 ] ] ] } },
{ "type": "Feature", "properties": { "fid": 54.0, "COMPR_M": 1199.36, "CLASSE": "06 - Acima do limite", "CD_FAZ": "404046", "TALHOES": "1", "FAZ_tAL": "404046001", "ID_LINHA": 11163 }, "geometry": { "type": "MultiLineString", "coordinates": [ [ [ 430406.976604764873628, 7629217.670682567171752 ], [ 431503.468725113780238, 7628732.698363721370697 ] ] ] } }
]
}
