{
"type": "FeatureCollection",
"name": "404040",
"crs": { "type": "name", "properties": { "name": "urn:ogc:def:crs:EPSG::32722" } },
"xy_coordinate_resolution": 1e-15,
"features": [
{ "type": "Feature", "properties": { "fid": 1.0, "COMPR_M": 1137.32, "CLASSE": "06 - Acima do limite", "CD_FAZ": "404040", "TALHOES": "1", "FAZ_tAL": "404040001", "ID_LINHA": 8901 }, "geometry": { "type": "MultiLineString", "coordinates": [ [ [ 412917.657088069827296, 7616061.473824541084468 ], [ 413324.453478809213266, 7616680.533743888139725 ], [ 413358.985030653246213, 7616732.084107552655041 ], [ 413378.503328034305014, 7616762.755677012726665 ], [ 413393.310945081640966, 7616788.181812444701791 ], [ 413403.651864722196478, 7616808.47167395055294 ], [ 413410.244757824402768, 7616823.640523070469499 ], [ 413415.688145679945592, 7616838.87653686106205 ], [ 413421.308292186586186, 7616859.854702773503959 ], [ 413425.405778495187405, 7616882.190992653369904 ], [ 413431.795672289386857, 7616925.513134388253093 ], [ 413453.657799945911393, 7617048.247304785065353 ] ] ] } },
{ "type": "Feature", "properties": { "fid": 2.0, "COMPR_M": 93.61, "CLASSE": "01 - Muito curta", "CD_FAZ": "404040", "TALHOES": "1", "FAZ_tAL": "404040001", "ID_LINHA": 8902 }, "geometry": { "type": "MultiLineString", "coordinates": [ [ [ 413463.750450594176073, 7615969.29392840526998 ], [ 413515.142799825698603, 7616047.502448183484375 ] ] ] } },
{ "type": "Feature", "properties": { "fid": 3.0, "COMPR_M": 117.93, "CLASSE": "02 - Curta", "CD_FAZ": "404040", "TALHOES": "1", "FAZ_tAL": "404040001", "ID_LINHA": 8903 }, "geometry": { "type": "MultiLineString", "coordinates": [ [ [ 413452.191251067211851, 7615957.166064952500165 ], [ 413516.9315840031486, 7616055.687453536316752 ] ] ] } },
{ "type": "Feature", "properties": { "fid": 4.0, "COMPR_M": 141.66, "CLASSE": "02 - Curta", "CD_FAZ": "404040", "TALHOES": "1", "FAZ_tAL": "404040001", "ID_LINHA": 8904 }, "geometry": { "type": "MultiLineString", "coordinates": [ [ [ 413440.913703741156496, 7615945.466817865148187 ], [ 413518.684532116982155, 7616063.817923815920949 ] ] ] } },
{ "type": "Feature", "properties": { "fid": 5.0, "COMPR_M": 161.94, "CLASSE": "02 - Curta", "CD_FAZ": "404040", "TALHOES": "1", "FAZ_tAL": "404040001", "ID_LINHA": 8905 }, "geometry": { "type": "MultiLineString", "coordinates": [ [ [ 413431.460621816746425, 7615936.544029539451003 ], [ 413520.365799736988265, 7616071.839311219751835 ] ] ] } },
{ "type": "Feature", "properties": { "fid": 6.0, "COMPR_M": 183.25, "CLASSE": "02 - Curta", "CD_FAZ": "404040", "TALHOES": "1", "FAZ_tAL": "404040001", "ID_LINHA": 8906 }, "geometry": { "type": "MultiLineString", "coordinates": [ [ [ 413421.349509345600381, 7615926.619854900054634 ], [ 413521.951421796460636, 7616079.71514587290585 ] ] ] } },
{ "type": "Feature", "properties": { "fid": 7.0, "COMPR_M": 214.15, "CLASSE": "02 - Curta", "CD_FAZ": "404040", "TALHOES": "1", "FAZ_tAL": "404040001", "ID_LINHA": 8907 }, "geometry": { "type": "MultiLineString", "coordinates": [ [ [ 413405.852653244975954, 7615908.499693050980568 ], [ 413523.419784131459892, 7616087.412535496987402 ] ] ] } },
{ "type": "Feature", "properties": { "fid": 8.0, "COMPR_M": 243.54, "CLASSE": "02 - Curta", "CD_FAZ": "404040", "TALHOES": "1", "FAZ_tAL": "404040001", "ID_LINHA": 8908 }, "geometry": { "type": "MultiLineString", "coordinates": [ [ [ 413391.057283895264845, 7615891.447048859670758 ], [ 413524.76068633160321, 7616094.915957170538604 ] ] ] } },
{ "type": "Feature", "properties": { "fid": 9.0, "COMPR_M": 336.07, "CLASSE": "03 - Média", "CD_FAZ": "404040", "TALHOES": "1", "FAZ_tAL": "404040001", "ID_LINHA": 8909 }, "geometry": { "type": "MultiLineString", "coordinates": [ [ [ 413341.467590395768639, 7615821.44464407209307 ], [ 413525.967078276211396, 7616102.214682073332369 ] ] ] } },
{ "type": "Feature", "properties": { "fid": 10.0, "COMPR_M": 374.48, "CLASSE": "03 - Média", "CD_FAZ": "404040", "TALHOES": "1", "FAZ_tAL": "404040001", "ID_LINHA": 8910 }, "geometry": { "type": "MultiLineString", "coordinates": [ [ [ 413321.449781260162126, 7615796.444527323357761 ], [ 413527.03541795630008, 7616109.30332 ] ] ] } },
{ "type": "Feature", "properties": { "fid": 11.0, "COMPR_M": 395.09, "CLASSE": "03 - Média", "CD_FAZ": "404040", "TALHOES": "1", "FAZ_tAL": "404040001", "ID_LINHA": 8911 }, "geometry": { "type": "MultiLineString", "coordinates": [ [ [ 413311.062079416471533, 7615786.099440900608897 ], [ 413527.966460630646907, 7616116.183020298369229 ] ] ] } },
{ "type": "Feature", "properties": { "fid": 12.0, "COMPR_M": 415.93, "CLASSE": "03 - Média", "CD_FAZ": "404040", "TALHOES": "1", "FAZ_tAL": "404040001", "ID_LINHA": 8912 }, "geometry": { "type": "MultiLineString", "coordinates": [ [ [ 413300.434288986842148, 7615775.388989340513945 ], [ 413528.780447033233941, 7616122.884585173800588 ] ] ] } },
{ "type": "Feature", "properties": { "fid": 13.0, "COMPR_M": 433.87, "CLASSE": "03 - Média", "CD_FAZ": "404040", "TALHOES": "1", "FAZ_tAL": "404040001", "ID_LINHA": 8913 }, "geometry": { "type": "MultiLineString", "coordinates": [ [ [ 413291.335791731136851, 7615767.005805497989058 ], [ 413529.526820258353837, 7616129.483256786130369 ] ] ] } },
{ "type": "Feature", "properties": { "fid": 14.0, "COMPR_M": 448.0, "CLASSE": "03 - Média", "CD_FAZ": "404040", "TALHOES": "1", "FAZ_tAL": "404040001", "ID_LINHA": 8914 }, "geometry": { "type": "MultiLineString", "coordinates": [ [ [ 413284.303192233084701, 7615761.766490499489009 ], [ 413530.251264909980819, 7616136.048557649366558 ] ] ] } },
{ "type": "Feature", "properties": { "fid": 15.0, "COMPR_M": 461.55, "CLASSE": "03 - Média", "CD_FAZ": "404040", "TALHOES": "1", "FAZ_tAL": "404040001", "ID_LINHA": 8915 }, "geometry": { "type": "MultiLineString", "coordinates": [ [ [ 413277.615522737964056, 7615757.052087586373091 ], [ 413531.002085047774017, 7616142.653996545821428 ] ] ] } },
{ "type": "Feature", "properties": { "fid": 16.0, "COMPR_M": 469.29, "CLASSE": "03 - Média", "CD_FAZ": "404040", "TALHOES": "1", "FAZ_tAL": "404040001", "ID_LINHA": 8916 }, "geometry": { "type": "MultiLineString", "coordinates": [ [ [ 413274.190044934046455, 7615757.302065305411816 ], [ 413531.82837228756398, 7616149.374280747026205 ] ] ] } },
{ "type": "Feature", "properties": { "fid": 17.0, "COMPR_M": 476.26, "CLASSE": "03 - Média", "CD_FAZ": "404040", "TALHOES": "1", "FAZ_tAL": "404040001", "ID_LINHA": 8917 }, "geometry": { "type": "MultiLineString", "coordinates": [ [ [ 413271.321022332587745, 7615758.398852685466409 ], [ 413532.78674499533372, 7616156.295571699738503 ] ] ] } },
{ "type": "Feature", "properties": { "fid": 18.0, "COMPR_M": 483.54, "CLASSE": "03 - Média", "CD_FAZ": "404040", "TALHOES": "1", "FAZ_tAL": "404040001", "ID_LINHA": 8918 }, "geometry": { "type": "MultiLineString", "coordinates": [ [ [ 413268.451999731420074, 7615759.495640062727034 ], [ 413533.914929971797392, 7616163.475281781516969 ] ] ] } },
{ "type": "Feature", "properties": { "fid": 19.0, "COMPR_M": 491.06, "CLASSE": "03 - Média", "CD_FAZ": "404040", "TALHOES": "1", "FAZ_tAL": "404040001", "ID_LINHA": 8919 }, "geometry": { "type": "MultiLineString", "coordinates": [ [ [ 413265.582977131125517, 7615760.59242744371295 ], [ 413535.17126154829748, 7616170.850004469044507 ] ] ] } },
{ "type": "Feature", "properties": { "fid": 20.0, "COMPR_M": 498.8, "CLASSE": "03 - Média", "CD_FAZ": "404040", "TALHOES": "1", "FAZ_tAL": "404040001", "ID_LINHA": 8920 }, "geometry": { "type": "MultiLineString", "coordinates": [ [ [ 413262.713954529725015, 7615761.689214820973575 ], [ 413536.551290732808411, 7616178.412969317287207 ] ] ] } },
{ "type": "Feature", "properties": { "fid": 21.0, "COMPR_M": 506.99, "CLASSE": "03 - Média", "CD_FAZ": "404040", "TALHOES": "1", "FAZ_tAL": "404040001", "ID_LINHA": 8921 }, "geometry": { "type": "MultiLineString", "coordinates": [ [ [ 413259.844931928557344, 7615762.786002201028168 ], [ 413538.180315076722763, 7616186.354853265918791 ] ] ] } },
{ "type": "Feature", "properties": { "fid": 22.0, "COMPR_M": 516.08, "CLASSE": "03 - Média", "CD_FAZ": "404040", "TALHOES": "1", "FAZ_tAL": "404040001", "ID_LINHA": 8922 }, "geometry": { "type": "MultiLineString", "coordinates": [ [ [ 413256.975909326341935, 7615763.882789580151439 ], [ 413540.303111289278604, 7616195.048155814409256 ] ] ] } },
{ "type": "Feature", "properties": { "fid": 23.0, "COMPR_M": 526.34, "CLASSE": "03 - Média", "CD_FAZ": "404040", "TALHOES": "1", "FAZ_tAL": "404040001", "ID_LINHA": 8923 }, "geometry": { "type": "MultiLineString", "coordinates": [ [ [ 413254.106886726396624, 7615764.979576960206032 ], [ 413543.06686180998804, 7616204.716858169063926 ] ] ] } },
{ "type": "Feature", "properties": { "fid": 24.0, "COMPR_M": 535.64, "CLASSE": "03 - Média", "CD_FAZ": "404040", "TALHOES": "1", "FAZ_tAL": "404040001", "ID_LINHA": 8924 }, "geometry": { "type": "MultiLineString", "coordinates": [ [ [ 413251.237864124646876, 7615766.076364337466657 ], [ 413545.301118926960044, 7616213.579781144857407 ] ] ] } },
{ "type": "Feature", "properties": { "fid": 25.0, "COMPR_M": 543.01, "CLASSE": "03 - Média", "CD_FAZ": "404040", "TALHOES": "1", "FAZ_tAL": "404040001", "ID_LINHA": 8925 }, "geometry": { "type": "MultiLineString", "coordinates": [ [ [ 413248.368841523828451, 7615767.17315171752125 ], [ 413546.477271074138116, 7616220.83248733356595 ] ] ] } },
{ "type": "Feature", "properties": { "fid": 26.0, "COMPR_M": 549.42, "CLASSE": "03 - Média", "CD_FAZ": "404040", "TALHOES": "1", "FAZ_tAL": "404040001", "ID_LINHA": 8926 }, "geometry": { "type": "MultiLineString", "coordinates": [ [ [ 413245.49981892190408, 7615768.269939096644521 ], [ 413547.130403759656474, 7616227.289266140200198 ] ] ] } },
{ "type": "Feature", "properties": { "fid": 27.0, "COMPR_M": 555.37, "CLASSE": "03 - Média", "CD_FAZ": "404040", "TALHOES": "1", "FAZ_tAL": "404040001", "ID_LINHA": 8927 }, "geometry": { "type": "MultiLineString", "coordinates": [ [ [ 413242.630796320270747, 7615769.366726476699114 ], [ 413547.526552918134257, 7616233.354969203472137 ] ] ] } },
{ "type": "Feature", "properties": { "fid": 28.0, "COMPR_M": 561.1, "CLASSE": "03 - Média", "CD_FAZ": "404040", "TALHOES": "1", "FAZ_tAL": "404040001", "ID_LINHA": 8928 }, "geometry": { "type": "MultiLineString", "coordinates": [ [ [ 413239.761773718870245, 7615770.463513854891062 ], [ 413547.805589696508832, 7616239.242451461963356 ] ] ] } },
{ "type": "Feature", "properties": { "fid": 29.0, "COMPR_M": 566.83, "CLASSE": "03 - Média", "CD_FAZ": "404040", "TALHOES": "1", "FAZ_tAL": "404040001", "ID_LINHA": 8929 }, "geometry": { "type": "MultiLineString", "coordinates": [ [ [ 413236.892751118401065, 7615771.56030123308301 ], [ 413548.078946405439638, 7616245.121289828792214 ] ] ] } },
{ "type": "Feature", "properties": { "fid": 30.0, "COMPR_M": 572.7, "CLASSE": "03 - Média", "CD_FAZ": "404040", "TALHOES": "1", "FAZ_tAL": "404040001", "ID_LINHA": 8930 }, "geometry": { "type": "MultiLineString", "coordinates": [ [ [ 413234.023728516127449, 7615772.657088613137603 ], [ 413548.43616139376536, 7616251.127743143588305 ] ] ] } },
{ "type": "Feature", "properties": { "fid": 31.0, "COMPR_M": 578.86, "CLASSE": "03 - Média", "CD_FAZ": "404040", "TALHOES": "1", "FAZ_tAL": "404040001", "ID_LINHA": 8931 }, "geometry": { "type": "MultiLineString", "coordinates": [ [ [ 413231.154705915483646, 7615773.753875991329551 ], [ 413548.944889840437099, 7616257.364768585190177 ] ] ] } },
{ "type": "Feature", "properties": { "fid": 32.0, "COMPR_M": 585.29, "CLASSE": "03 - Média", "CD_FAZ": "404040", "TALHOES": "1", "FAZ_tAL": "404040001", "ID_LINHA": 8932 }, "geometry": { "type": "MultiLineString", "coordinates": [ [ [ 413228.285683314374182, 7615774.850663371384144 ], [ 413549.609389209421352, 7616263.838845133781433 ] ] ] } },
{ "type": "Feature", "properties": { "fid": 33.0, "COMPR_M": 592.06, "CLASSE": "03 - Média", "CD_FAZ": "404040", "TALHOES": "1", "FAZ_tAL": "404040001", "ID_LINHA": 8933 }, "geometry": { "type": "MultiLineString", "coordinates": [ [ [ 413225.416660712915473, 7615775.947450749576092 ], [ 413550.453333032201044, 7616270.585999004542828 ] ] ] } },
{ "type": "Feature", "properties": { "fid": 34.0, "COMPR_M": 599.16, "CLASSE": "03 - Média", "CD_FAZ": "404040", "TALHOES": "1", "FAZ_tAL": "404040001", "ID_LINHA": 8934 }, "geometry": { "type": "MultiLineString", "coordinates": [ [ [ 413222.547638111631386, 7615777.044238129630685 ], [ 413551.481114957598038, 7616277.612916419282556 ] ] ] } },
{ "type": "Feature", "properties": { "fid": 35.0, "COMPR_M": 606.58, "CLASSE": "04 - Longa", "CD_FAZ": "404040", "TALHOES": "1", "FAZ_tAL": "404040001", "ID_LINHA": 8935 }, "geometry": { "type": "MultiLineString", "coordinates": [ [ [ 413219.67861551058013, 7615778.141025508753955 ], [ 413552.6863422493916, 7616284.909868961200118 ] ] ] } },
{ "type": "Feature", "properties": { "fid": 36.0, "COMPR_M": 614.17, "CLASSE": "04 - Longa", "CD_FAZ": "404040", "TALHOES": "1", "FAZ_tAL": "404040001", "ID_LINHA": 8936 }, "geometry": { "type": "MultiLineString", "coordinates": [ [ [ 413216.809592908481136, 7615779.237812887877226 ], [ 413553.986838250188157, 7616292.351800764910877 ] ] ] } },
{ "type": "Feature", "properties": { "fid": 37.0, "COMPR_M": 621.76, "CLASSE": "04 - Longa", "CD_FAZ": "404040", "TALHOES": "1", "FAZ_tAL": "404040001", "ID_LINHA": 8937 }, "geometry": { "type": "MultiLineString", "coordinates": [ [ [ 413213.940570307953749, 7615780.334600267931819 ], [ 413555.286230424419045, 7616299.792052768170834 ] ] ] } },
{ "type": "Feature", "properties": { "fid": 38.0, "COMPR_M": 629.19, "CLASSE": "04 - Longa", "CD_FAZ": "404040", "TALHOES": "1", "FAZ_tAL": "404040001", "ID_LINHA": 8938 }, "geometry": { "type": "MultiLineString", "coordinates": [ [ [ 413211.071547705680132, 7615781.431387644261122 ], [ 413556.491358884202782, 7616307.088854910805821 ] ] ] } },
{ "type": "Feature", "properties": { "fid": 39.0, "COMPR_M": 636.32, "CLASSE": "04 - Longa", "CD_FAZ": "404040", "TALHOES": "1", "FAZ_tAL": "404040001", "ID_LINHA": 8939 }, "geometry": { "type": "MultiLineString", "coordinates": [ [ [ 413208.202525105560198, 7615782.52817502617836 ], [ 413557.537818113924004, 7616314.144195317290723 ] ] ] } },
{ "type": "Feature", "properties": { "fid": 40.0, "COMPR_M": 643.22, "CLASSE": "04 - Longa", "CD_FAZ": "404040", "TALHOES": "1", "FAZ_tAL": "404040001", "ID_LINHA": 8940 }, "geometry": { "type": "MultiLineString", "coordinates": [ [ [ 413205.333502504450735, 7615783.624962403438985 ], [ 413558.457771570247132, 7616321.007020119577646 ] ] ] } },
{ "type": "Feature", "properties": { "fid": 41.0, "COMPR_M": 649.98, "CLASSE": "04 - Longa", "CD_FAZ": "404040", "TALHOES": "1", "FAZ_tAL": "404040001", "ID_LINHA": 8941 }, "geometry": { "type": "MultiLineString", "coordinates": [ [ [ 413202.464479901595041, 7615784.721749780699611 ], [ 413559.300243749807123, 7616327.751934451982379 ] ] ] } },
{ "type": "Feature", "properties": { "fid": 42.0, "COMPR_M": 656.79, "CLASSE": "04 - Longa", "CD_FAZ": "404040", "TALHOES": "1", "FAZ_tAL": "404040001", "ID_LINHA": 8942 }, "geometry": { "type": "MultiLineString", "coordinates": [ [ [ 413199.595457300194539, 7615785.818537162616849 ], [ 413560.167646489688195, 7616334.534787941724062 ] ] ] } },
{ "type": "Feature", "properties": { "fid": 43.0, "COMPR_M": 664.09, "CLASSE": "04 - Longa", "CD_FAZ": "404040", "TALHOES": "1", "FAZ_tAL": "404040001", "ID_LINHA": 8943 }, "geometry": { "type": "MultiLineString", "coordinates": [ [ [ 413196.726434699143283, 7615786.915324540808797 ], [ 413561.309659131453373, 7616341.735540869645774 ] ] ] } },
{ "type": "Feature", "properties": { "fid": 44.0, "COMPR_M": 672.75, "CLASSE": "04 - Longa", "CD_FAZ": "404040", "TALHOES": "1", "FAZ_tAL": "404040001", "ID_LINHA": 8944 }, "geometry": { "type": "MultiLineString", "coordinates": [ [ [ 413193.85741209826665, 7615788.012111919932067 ], [ 413563.196089549688622, 7616350.069143591448665 ] ] ] } },
{ "type": "Feature", "properties": { "fid": 45.0, "COMPR_M": 683.74, "CLASSE": "04 - Longa", "CD_FAZ": "404040", "TALHOES": "1", "FAZ_tAL": "404040001", "ID_LINHA": 8945 }, "geometry": { "type": "MultiLineString", "coordinates": [ [ [ 413190.988389496342279, 7615789.108899299055338 ], [ 413566.358256089850329, 7616360.344152677804232 ] ] ] } },
{ "type": "Feature", "properties": { "fid": 46.0, "COMPR_M": 697.44, "CLASSE": "04 - Longa", "CD_FAZ": "404040", "TALHOES": "1", "FAZ_tAL": "404040001", "ID_LINHA": 8946 }, "geometry": { "type": "MultiLineString", "coordinates": [ [ [ 413188.119366896571591, 7615790.205686677247286 ], [ 413571.013169126585126, 7616372.890813002362847 ] ] ] } },
{ "type": "Feature", "properties": { "fid": 47.0, "COMPR_M": 712.57, "CLASSE": "04 - Longa", "CD_FAZ": "404040", "TALHOES": "1", "FAZ_tAL": "404040001", "ID_LINHA": 8947 }, "geometry": { "type": "MultiLineString", "coordinates": [ [ [ 413185.250344294472598, 7615791.302474055439234 ], [ 413576.448544434620999, 7616386.625175386667252 ] ] ] } },
{ "type": "Feature", "properties": { "fid": 48.0, "COMPR_M": 727.14, "CLASSE": "04 - Longa", "CD_FAZ": "404040", "TALHOES": "1", "FAZ_tAL": "404040001", "ID_LINHA": 8948 }, "geometry": { "type": "MultiLineString", "coordinates": [ [ [ 413182.381321693188511, 7615792.399261433631182 ], [ 413581.576416255440563, 7616399.891581101343036 ] ] ] } },
{ "type": "Feature", "properties": { "fid": 49.0, "COMPR_M": 742.17, "CLASSE": "04 - Longa", "CD_FAZ": "404040", "TALHOES": "1", "FAZ_tAL": "404040001", "ID_LINHA": 8949 }, "geometry": { "type": "MultiLineString", "coordinates": [ [ [ 413179.512299091555178, 7615793.49604881554842 ], [ 413586.958034291223157, 7616413.544136043637991 ] ] ] } },
{ "type": "Feature", "properties": { "fid": 50.0, "COMPR_M": 758.76, "CLASSE": "04 - Longa", "CD_FAZ": "404040", "TALHOES": "1", "FAZ_tAL": "404040001", "ID_LINHA": 8950 }, "geometry": { "type": "MultiLineString", "coordinates": [ [ [ 413176.64327649079496, 7615794.592836193740368 ], [ 413593.199816954322159, 7616428.5056835366413 ] ] ] } },
{ "type": "Feature", "properties": { "fid": 51.0, "COMPR_M": 775.55, "CLASSE": "04 - Longa", "CD_FAZ": "404040", "TALHOES": "1", "FAZ_tAL": "404040001", "ID_LINHA": 8951 }, "geometry": { "type": "MultiLineString", "coordinates": [ [ [ 413173.774253890267573, 7615795.689623571932316 ], [ 413599.548695982259233, 7616443.630209531635046 ] ] ] } },
{ "type": "Feature", "properties": { "fid": 52.0, "COMPR_M": 790.56, "CLASSE": "04 - Longa", "CD_FAZ": "404040", "TALHOES": "1", "FAZ_tAL": "404040001", "ID_LINHA": 8952 }, "geometry": { "type": "MultiLineString", "coordinates": [ [ [ 413170.905231287993956, 7615796.786410951986909 ], [ 413604.916733031976037, 7616457.262097021564841 ] ] ] } },
{ "type": "Feature", "properties": { "fid": 53.0, "COMPR_M": 803.69, "CLASSE": "04 - Longa", "CD_FAZ": "404040", "TALHOES": "1", "FAZ_tAL": "404040001", "ID_LINHA": 8953 }, "geometry": { "type": "MultiLineString", "coordinates": [ [ [ 413168.036208686651662, 7615797.883198330178857 ], [ 413609.25650778011186, 7616469.329182090237737 ] ] ] } },
{ "type": "Feature", "properties": { "fid": 54.0, "COMPR_M": 815.45, "CLASSE": "04 - Longa", "CD_FAZ": "404040", "TALHOES": "1", "FAZ_tAL": "404040001", "ID_LINHA": 8954 }, "geometry": { "type": "MultiLineString", "coordinates": [ [ [ 413165.167186085483991, 7615798.97998571023345 ], [ 413612.84330749232322, 7616480.250394985079765 ] ] ] } },
{ "type": "Feature", "properties": { "fid": 55.0, "COMPR_M": 826.14, "CLASSE": "04 - Longa", "CD_FAZ": "404040", "TALHOES": "1", "FAZ_tAL": "404040001", "ID_LINHA": 8955 }, "geometry": { "type": "MultiLineString", "coordinates": [ [ [ 413162.298163483850658, 7615800.076773090288043 ], [ 413615.871424621669576, 7616490.263347884640098 ] ] ] } },
{ "type": "Feature", "properties": { "fid": 56.0, "COMPR_M": 836.15, "CLASSE": "04 - Longa", "CD_FAZ": "404040", "TALHOES": "1", "FAZ_tAL": "404040001", "ID_LINHA": 8956 }, "geometry": { "type": "MultiLineString", "coordinates": [ [ [ 413159.429140883148648, 7615801.173560469411314 ], [ 413618.587714804743882, 7616499.660825541242957 ] ] ] } },
{ "type": "Feature", "properties": { "fid": 57.0, "COMPR_M": 845.99, "CLASSE": "04 - Longa", "CD_FAZ": "404040", "TALHOES": "1", "FAZ_tAL": "404040001", "ID_LINHA": 8957 }, "geometry": { "type": "MultiLineString", "coordinates": [ [ [ 413156.560118280758616, 7615802.270347846671939 ], [ 413621.211532424611505, 7616508.915599383413792 ] ] ] } },
{ "type": "Feature", "properties": { "fid": 58.0, "COMPR_M": 854.66, "CLASSE": "05 - Muito longa", "CD_FAZ": "404040", "TALHOES": "1", "FAZ_tAL": "404040001", "ID_LINHA": 8958 }, "geometry": { "type": "MultiLineString", "coordinates": [ [ [ 413153.691095679183491, 7615803.367135226726532 ], [ 413606.74523174809292, 7616492.821769822388887 ], [ 413623.181831865629647, 7616517.209712509997189 ] ] ] } },
{ "type": "Feature", "properties": { "fid": 59.0, "COMPR_M": 861.7, "CLASSE": "05 - Muito longa", "CD_FAZ": "404040", "TALHOES": "1", "FAZ_tAL": "404040001", "ID_LINHA": 8959 }, "geometry": { "type": "MultiLineString", "coordinates": [ [ [ 413150.822073077899404, 7615804.463922607712448 ], [ 413604.247074640763458, 7616494.48293773457408 ], [ 413624.231824149261229, 7616524.151773585937917 ] ] ] } },
{ "type": "Feature", "properties": { "fid": 60.0, "COMPR_M": 867.24, "CLASSE": "05 - Muito longa", "CD_FAZ": "404040", "TALHOES": "1", "FAZ_tAL": "404040001", "ID_LINHA": 8960 }, "geometry": { "type": "MultiLineString", "coordinates": [ [ [ 413147.953050478128716, 7615805.560709984973073 ], [ 413601.748917534248903, 7616496.144105645827949 ], [ 413624.437888049869798, 7616529.850893810391426 ] ] ] } },
{ "type": "Feature", "properties": { "fid": 61.0, "COMPR_M": 871.67, "CLASSE": "05 - Muito longa", "CD_FAZ": "404040", "TALHOES": "1", "FAZ_tAL": "404040001", "ID_LINHA": 8961 }, "geometry": { "type": "MultiLineString", "coordinates": [ [ [ 413145.084027876611799, 7615806.657497363165021 ], [ 413599.250760430528317, 7616497.805273558944464 ], [ 413624.028576074168086, 7616534.637437024153769 ] ] ] } },
{ "type": "Feature", "properties": { "fid": 62.0, "COMPR_M": 875.27, "CLASSE": "05 - Muito longa", "CD_FAZ": "404040", "TALHOES": "1", "FAZ_tAL": "404040001", "ID_LINHA": 8962 }, "geometry": { "type": "MultiLineString", "coordinates": [ [ [ 413142.215005274687428, 7615807.754284743219614 ], [ 413596.752603322966024, 7616499.466441472060978 ], [ 413623.147565870196559, 7616538.724948259070516 ] ] ] } },
{ "type": "Feature", "properties": { "fid": 63.0, "COMPR_M": 878.22, "CLASSE": "05 - Muito longa", "CD_FAZ": "404040", "TALHOES": "1", "FAZ_tAL": "404040001", "ID_LINHA": 8963 }, "geometry": { "type": "MultiLineString", "coordinates": [ [ [ 413139.345982674334664, 7615808.851072123274207 ], [ 413594.254446218255907, 7616501.127609381452203 ], [ 413621.91210094827693, 7616542.280623893253505 ] ] ] } },
{ "type": "Feature", "properties": { "fid": 64.0, "COMPR_M": 880.55, "CLASSE": "05 - Muito longa", "CD_FAZ": "404040", "TALHOES": "1", "FAZ_tAL": "404040001", "ID_LINHA": 8964 }, "geometry": { "type": "MultiLineString", "coordinates": [ [ [ 413136.476960072177462, 7615809.947859500534832 ], [ 413591.756289111741353, 7616502.78877729550004 ], [ 413620.328598970547318, 7616545.320554137229919 ] ] ] } },
{ "type": "Feature", "properties": { "fid": 65.0, "COMPR_M": 882.57, "CLASSE": "05 - Muito longa", "CD_FAZ": "404040", "TALHOES": "1", "FAZ_tAL": "404040001", "ID_LINHA": 8965 }, "geometry": { "type": "MultiLineString", "coordinates": [ [ [ 413133.607937470893376, 7615811.044646879658103 ], [ 413589.258132007380482, 7616504.44994520675391 ], [ 413618.574977524462156, 7616548.105108850635588 ] ] ] } },
{ "type": "Feature", "properties": { "fid": 66.0, "COMPR_M": 884.14, "CLASSE": "05 - Muito longa", "CD_FAZ": "404040", "TALHOES": "1", "FAZ_tAL": "404040001", "ID_LINHA": 8966 }, "geometry": { "type": "MultiLineString", "coordinates": [ [ [ 413130.738914869900327, 7615812.141434259712696 ], [ 413586.759974900516681, 7616506.111113118939102 ], [ 413616.570635771320667, 7616550.511341204866767 ] ] ] } },
{ "type": "Feature", "properties": { "fid": 67.0, "COMPR_M": 885.46, "CLASSE": "05 - Muito longa", "CD_FAZ": "404040", "TALHOES": "1", "FAZ_tAL": "404040001", "ID_LINHA": 8967 }, "geometry": { "type": "MultiLineString", "coordinates": [ [ [ 413127.869892268441617, 7615813.238221637904644 ], [ 413584.261817795806564, 7616507.772281029261649 ], [ 413614.429518334858585, 7616552.71118700504303 ] ] ] } },
{ "type": "Feature", "properties": { "fid": 68.0, "COMPR_M": 886.57, "CLASSE": "05 - Muito longa", "CD_FAZ": "404040", "TALHOES": "1", "FAZ_tAL": "404040001", "ID_LINHA": 8968 }, "geometry": { "type": "MultiLineString", "coordinates": [ [ [ 413125.000869667856023, 7615814.335009019821882 ], [ 413581.763660689233802, 7616509.433448942378163 ], [ 413612.170227105845697, 7616554.732715424150229 ] ] ] } },
{ "type": "Feature", "properties": { "fid": 69.0, "COMPR_M": 887.26, "CLASSE": "05 - Muito longa", "CD_FAZ": "404040", "TALHOES": "1", "FAZ_tAL": "404040001", "ID_LINHA": 8969 }, "geometry": { "type": "MultiLineString", "coordinates": [ [ [ 413122.131847064825706, 7615815.431796397082508 ], [ 413579.265503584872931, 7616511.094616855494678 ], [ 413609.678718423121609, 7616556.403841206803918 ] ] ] } },
{ "type": "Feature", "properties": { "fid": 70.0, "COMPR_M": 887.86, "CLASSE": "05 - Muito longa", "CD_FAZ": "404040", "TALHOES": "1", "FAZ_tAL": "404040001", "ID_LINHA": 8970 }, "geometry": { "type": "MultiLineString", "coordinates": [ [ [ 413119.262824463425204, 7615816.528583776205778 ], [ 413576.767346478067338, 7616512.75578476767987 ], [ 413607.141012065170798, 7616558.00525738671422 ] ] ] } },
{ "type": "Feature", "properties": { "fid": 71.0, "COMPR_M": 888.14, "CLASSE": "05 - Muito longa", "CD_FAZ": "404040", "TALHOES": "1", "FAZ_tAL": "404040001", "ID_LINHA": 8971 }, "geometry": { "type": "MultiLineString", "coordinates": [ [ [ 413116.393801862839609, 7615817.625371154397726 ], [ 413574.269189373299014, 7616514.41695267893374 ], [ 413604.421660634572618, 7616559.332581713795662 ] ] ] } },
{ "type": "Feature", "properties": { "fid": 72.0, "COMPR_M": 123.84, "CLASSE": "02 - Curta", "CD_FAZ": "404040", "TALHOES": "1", "FAZ_tAL": "404040001", "ID_LINHA": 8972 }, "geometry": { "type": "MultiLineString", "coordinates": [ [ [ 413113.524779262545053, 7615818.722158532589674 ], [ 413181.514397888735402, 7615922.188287489116192 ] ] ] } },
{ "type": "Feature", "properties": { "fid": 73.0, "COMPR_M": 724.53, "CLASSE": "04 - Longa", "CD_FAZ": "404040", "TALHOES": "1", "FAZ_tAL": "404040001", "ID_LINHA": 8973 }, "geometry": { "type": "MultiLineString", "coordinates": [ [ [ 413203.359790180809796, 7615955.432453610002995 ], [ 413571.771032268123236, 7616516.078120591118932 ], [ 413601.563700200524181, 7616560.450753116980195 ] ] ] } },
{ "type": "Feature", "properties": { "fid": 74.0, "COMPR_M": 73.39, "CLASSE": "01 - Muito curta", "CD_FAZ": "404040", "TALHOES": "1", "FAZ_tAL": "404040001", "ID_LINHA": 8974 }, "geometry": { "type": "MultiLineString", "coordinates": [ [ [ 413110.655756660504267, 7615819.818945910781622 ], [ 413150.945494107203558, 7615881.131588261574507 ] ] ] } },
{ "type": "Feature", "properties": { "fid": 75.0, "COMPR_M": 721.49, "CLASSE": "04 - Longa", "CD_FAZ": "404040", "TALHOES": "1", "FAZ_tAL": "404040001", "ID_LINHA": 8975 }, "geometry": { "type": "MultiLineString", "coordinates": [ [ [ 413202.043402364768554, 7615958.892029808834195 ], [ 413569.272875162423588, 7616517.739288503304124 ], [ 413598.578491783933714, 7616561.376914711669087 ] ] ] } },
{ "type": "Feature", "properties": { "fid": 76.0, "COMPR_M": 730.52, "CLASSE": "04 - Longa", "CD_FAZ": "404040", "TALHOES": "1", "FAZ_tAL": "404040001", "ID_LINHA": 8976 }, "geometry": { "type": "MultiLineString", "coordinates": [ [ [ 413194.01027512276778, 7615952.130118645727634 ], [ 413566.774718056898564, 7616519.400456419214606 ], [ 413595.499958215747029, 7616562.162254080176353 ] ] ] } },
{ "type": "Feature", "properties": { "fid": 77.0, "COMPR_M": 726.06, "CLASSE": "04 - Longa", "CD_FAZ": "404040", "TALHOES": "1", "FAZ_tAL": "404040001", "ID_LINHA": 8977 }, "geometry": { "type": "MultiLineString", "coordinates": [ [ [ 413193.303636653814465, 7615956.517607169225812 ], [ 413564.276560950209387, 7616521.061624328605831 ], [ 413592.339522836322431, 7616562.82400837726891 ] ] ] } },
{ "type": "Feature", "properties": { "fid": 78.0, "COMPR_M": 721.49, "CLASSE": "04 - Longa", "CD_FAZ": "404040", "TALHOES": "1", "FAZ_tAL": "404040001", "ID_LINHA": 8978 }, "geometry": { "type": "MultiLineString", "coordinates": [ [ [ 413192.596998186258134, 7615960.905095688998699 ], [ 413561.778403845673893, 7616522.722792237997055 ], [ 413589.114850636688061, 7616563.392848497256637 ] ] ] } },
{ "type": "Feature", "properties": { "fid": 79.0, "COMPR_M": 719.73, "CLASSE": "04 - Longa", "CD_FAZ": "404040", "TALHOES": "1", "FAZ_tAL": "404040001", "ID_LINHA": 8979 }, "geometry": { "type": "MultiLineString", "coordinates": [ [ [ 413190.309785514837131, 7615962.887277375906706 ], [ 413559.280246739974245, 7616524.383960150182247 ], [ 413585.854052116919775, 7616563.909646477550268 ] ] ] } },
{ "type": "Feature", "properties": { "fid": 80.0, "COMPR_M": 719.07, "CLASSE": "04 - Longa", "CD_FAZ": "404040", "TALHOES": "1", "FAZ_tAL": "404040001", "ID_LINHA": 8980 }, "geometry": { "type": "MultiLineString", "coordinates": [ [ [ 413187.40922490414232, 7615963.936070429161191 ], [ 413556.782089634449221, 7616526.045128064230084 ], [ 413582.587065647356212, 7616564.417159853503108 ] ] ] } },
{ "type": "Feature", "properties": { "fid": 81.0, "COMPR_M": 718.42, "CLASSE": "04 - Longa", "CD_FAZ": "404040", "TALHOES": "1", "FAZ_tAL": "404040001", "ID_LINHA": 8981 }, "geometry": { "type": "MultiLineString", "coordinates": [ [ [ 413184.508664294029586, 7615964.984863484278321 ], [ 413554.283932528458536, 7616527.706295973621309 ], [ 413579.319119237363338, 7616564.923232905566692 ] ] ] } },
{ "type": "Feature", "properties": { "fid": 82.0, "COMPR_M": 717.76, "CLASSE": "04 - Longa", "CD_FAZ": "404040", "TALHOES": "1", "FAZ_tAL": "404040001", "ID_LINHA": 8982 }, "geometry": { "type": "MultiLineString", "coordinates": [ [ [ 413181.608103681181092, 7615966.033656537532806 ], [ 413551.78577542322455, 7616529.367463888600469 ], [ 413576.052796125703026, 7616565.43174160644412 ] ] ] } },
{ "type": "Feature", "properties": { "fid": 83.0, "COMPR_M": 717.12, "CLASSE": "04 - Longa", "CD_FAZ": "404040", "TALHOES": "1", "FAZ_tAL": "404040001", "ID_LINHA": 8983 }, "geometry": { "type": "MultiLineString", "coordinates": [ [ [ 413178.707543069554958, 7615967.082449592649937 ], [ 413549.287618316884618, 7616531.028631800785661 ], [ 413572.789872399182059, 7616565.949011992663145 ] ] ] } },
{ "type": "Feature", "properties": { "fid": 84.0, "COMPR_M": 716.53, "CLASSE": "04 - Longa", "CD_FAZ": "404040", "TALHOES": "1", "FAZ_tAL": "404040001", "ID_LINHA": 8984 }, "geometry": { "type": "MultiLineString", "coordinates": [ [ [ 413175.806982459849678, 7615968.131242649629712 ], [ 413546.789461211417802, 7616532.689799711108208 ], [ 413569.554587687074672, 7616566.509162338450551 ] ] ] } },
{ "type": "Feature", "properties": { "fid": 85.0, "COMPR_M": 716.04, "CLASSE": "04 - Longa", "CD_FAZ": "404040", "TALHOES": "1", "FAZ_tAL": "404040001", "ID_LINHA": 8985 }, "geometry": { "type": "MultiLineString", "coordinates": [ [ [ 413172.906421848689206, 7615969.180035702884197 ], [ 413544.291304106009193, 7616534.350967625156045 ], [ 413566.378037098038476, 7616567.157037215307355 ] ] ] } },
{ "type": "Feature", "properties": { "fid": 86.0, "COMPR_M": 715.72, "CLASSE": "04 - Longa", "CD_FAZ": "404040", "TALHOES": "1", "FAZ_tAL": "404040001", "ID_LINHA": 8986 }, "geometry": { "type": "MultiLineString", "coordinates": [ [ [ 413170.005861238110811, 7615970.22882875893265 ], [ 413541.79314700019313, 7616536.012135533615947 ], [ 413563.295566726941615, 7616567.945429099723697 ] ] ] } },
{ "type": "Feature", "properties": { "fid": 87.0, "COMPR_M": 715.64, "CLASSE": "04 - Longa", "CD_FAZ": "404040", "TALHOES": "1", "FAZ_tAL": "404040001", "ID_LINHA": 8987 }, "geometry": { "type": "MultiLineString", "coordinates": [ [ [ 413167.105300625436939, 7615971.277621813118458 ], [ 413539.294989893911406, 7616537.673303446732461 ], [ 413560.341311553376727, 7616568.925321560353041 ] ] ] } },
{ "type": "Feature", "properties": { "fid": 88.0, "COMPR_M": 715.86, "CLASSE": "04 - Longa", "CD_FAZ": "404040", "TALHOES": "1", "FAZ_tAL": "404040001", "ID_LINHA": 8988 }, "geometry": { "type": "MultiLineString", "coordinates": [ [ [ 413164.204740016022697, 7615972.326414871029556 ], [ 413536.79683278844459, 7616539.334471359848976 ], [ 413557.56138988386374, 7616570.16559630073607 ] ] ] } },
{ "type": "Feature", "properties": { "fid": 89.0, "COMPR_M": 716.34, "CLASSE": "04 - Longa", "CD_FAZ": "404040", "TALHOES": "1", "FAZ_tAL": "404040001", "ID_LINHA": 8989 }, "geometry": { "type": "MultiLineString", "coordinates": [ [ [ 413161.304179403872695, 7615973.375207923352718 ], [ 413534.298675683734473, 7616540.995639272034168 ], [ 413554.92018448933959, 7616571.613055892288685 ] ] ] } },
{ "type": "Feature", "properties": { "fid": 90.0, "COMPR_M": 717.3, "CLASSE": "04 - Longa", "CD_FAZ": "404040", "TALHOES": "1", "FAZ_tAL": "404040001", "ID_LINHA": 8990 }, "geometry": { "type": "MultiLineString", "coordinates": [ [ [ 413158.403618792886846, 7615974.424000980332494 ], [ 413531.80051857791841, 7616542.65680718421936 ], [ 413552.551980696560349, 7616573.468267172574997 ] ] ] } },
{ "type": "Feature", "properties": { "fid": 91.0, "COMPR_M": 718.7, "CLASSE": "04 - Longa", "CD_FAZ": "404040", "TALHOES": "1", "FAZ_tAL": "404040001", "ID_LINHA": 8991 }, "geometry": { "type": "MultiLineString", "coordinates": [ [ [ 413155.503058181260712, 7615975.472794034518301 ], [ 413529.302361470938195, 7616544.317975096404552 ], [ 413550.422996068722568, 7616575.680773128755391 ] ] ] } },
{ "type": "Feature", "properties": { "fid": 92.0, "COMPR_M": 720.77, "CLASSE": "04 - Longa", "CD_FAZ": "404040", "TALHOES": "1", "FAZ_tAL": "404040001", "ID_LINHA": 8992 }, "geometry": { "type": "MultiLineString", "coordinates": [ [ [ 413152.60249757010024, 7615976.521587088704109 ], [ 413526.80420436616987, 7616545.979143008589745 ], [ 413548.668501835782081, 7616578.452613132074475 ] ] ] } },
{ "type": "Feature", "properties": { "fid": 93.0, "COMPR_M": 724.25, "CLASSE": "04 - Longa", "CD_FAZ": "404040", "TALHOES": "1", "FAZ_tAL": "404040001", "ID_LINHA": 8993 }, "geometry": { "type": "MultiLineString", "coordinates": [ [ [ 413149.701936959521845, 7615977.570380143821239 ], [ 413524.306047260819469, 7616547.640310920774937 ], [ 413547.699031357420608, 7616582.396954543888569 ] ] ] } },
{ "type": "Feature", "properties": { "fid": 94.0, "COMPR_M": 729.32, "CLASSE": "04 - Longa", "CD_FAZ": "404040", "TALHOES": "1", "FAZ_tAL": "404040001", "ID_LINHA": 8994 }, "geometry": { "type": "MultiLineString", "coordinates": [ [ [ 413146.801376348885242, 7615978.61917319893837 ], [ 413521.807890154363122, 7616549.301478832960129 ], [ 413547.605840628501028, 7616587.661884574219584 ] ] ] } },
{ "type": "Feature", "properties": { "fid": 95.0, "COMPR_M": 734.85, "CLASSE": "04 - Longa", "CD_FAZ": "404040", "TALHOES": "1", "FAZ_tAL": "404040001", "ID_LINHA": 8995 }, "geometry": { "type": "MultiLineString", "coordinates": [ [ [ 413143.900815737433732, 7615979.667966254986823 ], [ 413519.309733050060458, 7616550.962646745145321 ], [ 413547.763560066057835, 7616593.313487756066024 ] ] ] } },
{ "type": "Feature", "properties": { "fid": 96.0, "COMPR_M": 740.32, "CLASSE": "04 - Longa", "CD_FAZ": "404040", "TALHOES": "1", "FAZ_tAL": "404040001", "ID_LINHA": 8996 }, "geometry": { "type": "MultiLineString", "coordinates": [ [ [ 413141.00025512726279, 7615980.71675930917263 ], [ 413516.811575943313073, 7616552.62381465639919 ], [ 413547.88020833680639, 7616598.920170720666647 ] ] ] } },
{ "type": "Feature", "properties": { "fid": 97.0, "COMPR_M": 745.67, "CLASSE": "04 - Longa", "CD_FAZ": "404040", "TALHOES": "1", "FAZ_tAL": "404040001", "ID_LINHA": 8997 }, "geometry": { "type": "MultiLineString", "coordinates": [ [ [ 413138.099694514996372, 7615981.765552363358438 ], [ 413514.31341883802088, 7616554.284982569515705 ], [ 413547.921984121901914, 7616604.434860788285732 ] ] ] } },
{ "type": "Feature", "properties": { "fid": 98.0, "COMPR_M": 750.91, "CLASSE": "04 - Longa", "CD_FAZ": "404040", "TALHOES": "1", "FAZ_tAL": "404040001", "ID_LINHA": 8998 }, "geometry": { "type": "MultiLineString", "coordinates": [ [ [ 413135.199133903952315, 7615982.814345419406891 ], [ 413511.815261732903309, 7616555.946150481700897 ], [ 413547.901307890715543, 7616609.868727158755064 ] ] ] } },
{ "type": "Feature", "properties": { "fid": 99.0, "COMPR_M": 756.07, "CLASSE": "04 - Longa", "CD_FAZ": "404040", "TALHOES": "1", "FAZ_tAL": "404040001", "ID_LINHA": 8999 }, "geometry": { "type": "MultiLineString", "coordinates": [ [ [ 413132.298573293432128, 7615983.863138473592699 ], [ 413509.31710462726187, 7616557.607318394817412 ], [ 413547.820245853101369, 7616615.230842967517674 ] ] ] } },
{ "type": "Feature", "properties": { "fid": 100.0, "COMPR_M": 761.15, "CLASSE": "04 - Longa", "CD_FAZ": "404040", "TALHOES": "1", "FAZ_tAL": "404040001", "ID_LINHA": 9000 }, "geometry": { "type": "MultiLineString", "coordinates": [ [ [ 413129.398012681514956, 7615984.911931527778506 ], [ 413506.818947521154769, 7616559.268486306071281 ], [ 413547.688328366260976, 7616620.539352808147669 ] ] ] } },
{ "type": "Feature", "properties": { "fid": 101.0, "COMPR_M": 766.16, "CLASSE": "04 - Longa", "CD_FAZ": "404040", "TALHOES": "1", "FAZ_tAL": "404040001", "ID_LINHA": 9001 }, "geometry": { "type": "MultiLineString", "coordinates": [ [ [ 413126.497452070238069, 7615985.960724582895637 ], [ 413504.320790416619275, 7616560.929654216393828 ], [ 413547.511426935903728, 7616625.791345516219735 ] ] ] } },
{ "type": "Feature", "properties": { "fid": 102.0, "COMPR_M": 771.12, "CLASSE": "04 - Longa", "CD_FAZ": "404040", "TALHOES": "1", "FAZ_tAL": "404040001", "ID_LINHA": 9002 }, "geometry": { "type": "MultiLineString", "coordinates": [ [ [ 413123.596891460067127, 7615987.009517638944089 ], [ 413501.822633310221136, 7616562.590822128579021 ], [ 413547.293124573421665, 7616631.010970057919621 ] ] ] } },
{ "type": "Feature", "properties": { "fid": 103.0, "COMPR_M": 776.03, "CLASSE": "04 - Longa", "CD_FAZ": "404040", "TALHOES": "1", "FAZ_tAL": "404040001", "ID_LINHA": 9003 }, "geometry": { "type": "MultiLineString", "coordinates": [ [ [ 413120.696330847858917, 7615988.058310694992542 ], [ 413499.324476203939412, 7616564.251990042626858 ], [ 413527.123244314396288, 7616605.613791570067406 ], [ 413547.041224146902096, 7616636.196367397904396 ] ] ] } },
{ "type": "Feature", "properties": { "fid": 104.0, "COMPR_M": 780.9, "CLASSE": "04 - Longa", "CD_FAZ": "404040", "TALHOES": "1", "FAZ_tAL": "404040001", "ID_LINHA": 9004 }, "geometry": { "type": "MultiLineString", "coordinates": [ [ [ 413117.795770236232784, 7615989.107103748247027 ], [ 413546.753038502531126, 7616641.346358160488307 ] ] ] } },
{ "type": "Feature", "properties": { "fid": 105.0, "COMPR_M": 785.74, "CLASSE": "04 - Longa", "CD_FAZ": "404040", "TALHOES": "1", "FAZ_tAL": "404040001", "ID_LINHA": 9005 }, "geometry": { "type": "MultiLineString", "coordinates": [ [ [ 413114.895209625829011, 7615990.155896803364158 ], [ 413494.328161993296817, 7616567.574325865134597 ], [ 413529.583046034735162, 7616620.22503699362278 ], [ 413546.436173764872365, 7616646.483836566098034 ] ] ] } },
{ "type": "Feature", "properties": { "fid": 106.0, "COMPR_M": 790.53, "CLASSE": "04 - Longa", "CD_FAZ": "404040", "TALHOES": "1", "FAZ_tAL": "404040001", "ID_LINHA": 9006 }, "geometry": { "type": "MultiLineString", "coordinates": [ [ [ 413111.994649014610332, 7615991.204689858481288 ], [ 413491.830004886956885, 7616569.235493776388466 ], [ 413527.074251689831726, 7616621.870023326948285 ], [ 413546.09117245109519, 7616651.588022066280246 ] ] ] } },
{ "type": "Feature", "properties": { "fid": 107.0, "COMPR_M": 795.32, "CLASSE": "04 - Longa", "CD_FAZ": "404040", "TALHOES": "1", "FAZ_tAL": "404040001", "ID_LINHA": 9007 }, "geometry": { "type": "MultiLineString", "coordinates": [ [ [ 413109.094088403973728, 7615992.253482915461063 ], [ 413489.331847782013938, 7616570.896661690436304 ], [ 413524.565457345626783, 7616623.515009658411145 ], [ 413545.720598109648563, 7616656.698438806459308 ] ] ] } },
{ "type": "Feature", "properties": { "fid": 108.0, "COMPR_M": 800.12, "CLASSE": "04 - Longa", "CD_FAZ": "404040", "TALHOES": "1", "FAZ_tAL": "404040001", "ID_LINHA": 9008 }, "geometry": { "type": "MultiLineString", "coordinates": [ [ [ 413106.193527792580426, 7615993.302275967784226 ], [ 413486.83369067532476, 7616572.557829601690173 ], [ 413522.056663002236746, 7616625.15999598801136 ], [ 413545.351495619455818, 7616661.825819059275091 ] ] ] } },
{ "type": "Feature", "properties": { "fid": 109.0, "COMPR_M": 805.03, "CLASSE": "04 - Longa", "CD_FAZ": "404040", "TALHOES": "1", "FAZ_tAL": "404040001", "ID_LINHA": 9009 }, "geometry": { "type": "MultiLineString", "coordinates": [ [ [ 413103.292967182467692, 7615994.351069023832679 ], [ 413484.335533570148982, 7616574.21899751201272 ], [ 413519.54786865884671, 7616626.804982320405543 ], [ 413545.018201903963927, 7616667.0546207819134 ] ] ] } },
{ "type": "Feature", "properties": { "fid": 110.0, "COMPR_M": 810.09, "CLASSE": "04 - Longa", "CD_FAZ": "404040", "TALHOES": "1", "FAZ_tAL": "404040001", "ID_LINHA": 9010 }, "geometry": { "type": "MultiLineString", "coordinates": [ [ [ 413100.392406570841558, 7615995.399862079881132 ], [ 413481.837376463809051, 7616575.880165426060557 ], [ 413517.039074315631296, 7616628.449968652799726 ], [ 413544.751812444534153, 7616672.431461807340384 ] ] ] } },
{ "type": "Feature", "properties": { "fid": 111.0, "COMPR_M": 815.47, "CLASSE": "04 - Longa", "CD_FAZ": "404040", "TALHOES": "1", "FAZ_tAL": "404040001", "ID_LINHA": 9011 }, "geometry": { "type": "MultiLineString", "coordinates": [ [ [ 413097.491845958516933, 7615996.448655132204294 ], [ 413479.339219358924311, 7616577.541333336383104 ], [ 413514.530279971193522, 7616630.09495498239994 ], [ 413529.535898247326259, 7616653.409471046179533 ], [ 413544.626380943867844, 7616678.078178722411394 ] ] ] } },
{ "type": "Feature", "properties": { "fid": 112.0, "COMPR_M": 821.33, "CLASSE": "04 - Longa", "CD_FAZ": "404040", "TALHOES": "1", "FAZ_tAL": "404040001", "ID_LINHA": 9012 }, "geometry": { "type": "MultiLineString", "coordinates": [ [ [ 413094.591285347996745, 7615997.497448188252747 ], [ 413476.841062253573909, 7616579.202501248568296 ], [ 413512.021485626173671, 7616631.739941315725446 ], [ 413530.76683600130491, 7616661.030741848051548 ], [ 413544.71427390986355, 7616684.172162815928459 ] ] ] } },
{ "type": "Feature", "properties": { "fid": 113.0, "COMPR_M": 827.76, "CLASSE": "04 - Longa", "CD_FAZ": "404040", "TALHOES": "1", "FAZ_tAL": "404040001", "ID_LINHA": 9013 }, "geometry": { "type": "MultiLineString", "coordinates": [ [ [ 413091.690724738058634, 7615998.546241242438555 ], [ 413474.342905149096623, 7616580.863669163547456 ], [ 413509.512691283191089, 7616633.384927647188306 ], [ 413528.218981883255765, 7616662.614573917351663 ], [ 413545.053918353340123, 7616690.768986944109201 ] ] ] } },
{ "type": "Feature", "properties": { "fid": 114.0, "COMPR_M": 834.88, "CLASSE": "04 - Longa", "CD_FAZ": "404040", "TALHOES": "1", "FAZ_tAL": "404040001", "ID_LINHA": 9014 }, "geometry": { "type": "MultiLineString", "coordinates": [ [ [ 413088.790164124802686, 7615999.595034297555685 ], [ 413471.844748043455184, 7616582.524837076663971 ], [ 413507.003896939684637, 7616635.029913978651166 ], [ 413529.442461035505403, 7616670.306911773979664 ], [ 413545.689427458855789, 7616697.988240834325552 ] ] ] } },
{ "type": "Feature", "properties": { "fid": 115.0, "COMPR_M": 842.63, "CLASSE": "04 - Longa", "CD_FAZ": "404040", "TALHOES": "1", "FAZ_tAL": "404040001", "ID_LINHA": 9015 }, "geometry": { "type": "MultiLineString", "coordinates": [ [ [ 413085.889603515970521, 7616000.643827352672815 ], [ 413469.346590935951099, 7616584.186004985123873 ], [ 413504.495102595596109, 7616636.674900310114026 ], [ 413526.884170646371786, 7616671.873839996755123 ], [ 413546.571932112681679, 7616705.79813526570797 ] ] ] } },
{ "type": "Feature", "properties": { "fid": 116.0, "COMPR_M": 850.99, "CLASSE": "05 - Muito longa", "CD_FAZ": "404040", "TALHOES": "1", "FAZ_tAL": "404040001", "ID_LINHA": 9016 }, "geometry": { "type": "MultiLineString", "coordinates": [ [ [ 413082.989042904402595, 7616001.692620407789946 ], [ 413466.848433831357397, 7616585.847172897309065 ], [ 413505.684339424595237, 7616643.981985650956631 ], [ 413528.107229851768352, 7616679.664069145917892 ], [ 413547.663378194556572, 7616714.191633394919336 ] ] ] } },
{ "type": "Feature", "properties": { "fid": 117.0, "COMPR_M": 860.18, "CLASSE": "05 - Muito longa", "CD_FAZ": "404040", "TALHOES": "1", "FAZ_tAL": "404040001", "ID_LINHA": 9017 }, "geometry": { "type": "MultiLineString", "coordinates": [ [ [ 413080.088482292019762, 7616002.741413462907076 ], [ 413464.350276725541335, 7616587.508340809494257 ], [ 413503.169240847986657, 7616645.617319498211145 ], [ 413529.331799424719065, 7616687.574467806145549 ], [ 413540.767952778958715, 7616707.673490265384316 ], [ 413549.025922310655005, 7616723.368409976363182 ] ] ] } },
{ "type": "Feature", "properties": { "fid": 118.0, "COMPR_M": 870.57, "CLASSE": "05 - Muito longa", "CD_FAZ": "404040", "TALHOES": "1", "FAZ_tAL": "404040001", "ID_LINHA": 9018 }, "geometry": { "type": "MultiLineString", "coordinates": [ [ [ 413077.18792168161599, 7616003.790206517092884 ], [ 413461.852119619259611, 7616589.169508721679449 ], [ 413500.654142271087039, 7616647.252653346396983 ], [ 413515.479711294639856, 7616670.533734259195626 ], [ 413530.543365786666982, 7616695.601052433252335 ], [ 413541.908661102701444, 7616716.12982683442533 ], [ 413550.783945117087569, 7616733.699950193986297 ] ] ] } },
{ "type": "Feature", "properties": { "fid": 119.0, "COMPR_M": 882.65, "CLASSE": "05 - Muito longa", "CD_FAZ": "404040", "TALHOES": "1", "FAZ_tAL": "404040001", "ID_LINHA": 9019 }, "geometry": { "type": "MultiLineString", "coordinates": [ [ [ 413074.287361069757026, 7616004.838999573141336 ], [ 413459.353962514491286, 7616590.830676634795964 ], [ 413501.828896151331719, 7616654.588354088366032 ], [ 413516.651009086461272, 7616678.141552897170186 ], [ 413531.727215509337839, 7616703.739770459011197 ], [ 413542.980489087116439, 7616724.696043208241463 ], [ 413553.061966308567207, 7616745.645412035286427 ] ] ] } },
{ "type": "Feature", "properties": { "fid": 120.0, "COMPR_M": 897.41, "CLASSE": "05 - Muito longa", "CD_FAZ": "404040", "TALHOES": "1", "FAZ_tAL": "404040001", "ID_LINHA": 9020 }, "geometry": { "type": "MultiLineString", "coordinates": [ [ [ 413071.386800459062215, 7616005.887792628258467 ], [ 413456.855805407860316, 7616592.491844546049833 ], [ 413499.306727107265033, 7616656.21276493743062 ], [ 413517.826213715015911, 7616685.853023543022573 ], [ 413532.868470224319026, 7616711.986436096951365 ], [ 413543.973714861203916, 7616733.379385247826576 ], [ 413556.080610085802618, 7616760.206075798720121 ] ] ] } },
{ "type": "Feature", "properties": { "fid": 121.0, "COMPR_M": 914.31, "CLASSE": "05 - Muito longa", "CD_FAZ": "404040", "TALHOES": "1", "FAZ_tAL": "404040001", "ID_LINHA": 9021 }, "geometry": { "type": "MultiLineString", "coordinates": [ [ [ 413068.486239847610705, 7616006.936585683375597 ], [ 413454.357648302102461, 7616594.153012458235025 ], [ 413500.466221801238135, 7616663.582459563389421 ], [ 413522.746768513752613, 7616700.097197029739618 ], [ 413537.635890350677073, 7616727.423188548535109 ], [ 413548.415056340571027, 7616749.90681835450232 ], [ 413559.361922661308199, 7616776.962654005736113 ] ] ] } },
{ "type": "Feature", "properties": { "fid": 122.0, "COMPR_M": 928.49, "CLASSE": "05 - Muito longa", "CD_FAZ": "404040", "TALHOES": "1", "FAZ_tAL": "404040001", "ID_LINHA": 9022 }, "geometry": { "type": "MultiLineString", "coordinates": [ [ [ 413065.585679235460702, 7616007.985378736630082 ], [ 413501.611962895432953, 7616670.99532575160265 ], [ 413523.88116179179633, 7616708.149101508781314 ], [ 413538.586671275494155, 7616736.021771517582238 ], [ 413545.675778861390427, 7616751.130423969589174 ], [ 413552.443087088526227, 7616767.146351937204599 ], [ 413561.130210768373217, 7616791.380068603903055 ] ] ] } },
{ "type": "Feature", "properties": { "fid": 123.0, "COMPR_M": 937.24, "CLASSE": "05 - Muito longa", "CD_FAZ": "404040", "TALHOES": "1", "FAZ_tAL": "404040001", "ID_LINHA": 9023 }, "geometry": { "type": "MultiLineString", "coordinates": [ [ [ 413062.68511862505693, 7616009.034171795472503 ], [ 413499.073423318448476, 7616672.594039816409349 ], [ 413521.265810552926268, 7616709.618878524750471 ], [ 413535.893149482843, 7616737.342964649200439 ], [ 413542.936501383315772, 7616752.354029588401318 ], [ 413549.65488455403829, 7616768.254080781713128 ], [ 413555.853447041416075, 7616784.976134417578578 ], [ 413560.879508485959377, 7616800.747275340370834 ] ] ] } },
{ "type": "Feature", "properties": { "fid": 124.0, "COMPR_M": 944.04, "CLASSE": "05 - Muito longa", "CD_FAZ": "404040", "TALHOES": "1", "FAZ_tAL": "404040001", "ID_LINHA": 9024 }, "geometry": { "type": "MultiLineString", "coordinates": [ [ [ 413059.784558015293442, 7616010.082964848726988 ], [ 413496.534883740590885, 7616674.192753881216049 ], [ 413518.650459311844315, 7616711.088655539788306 ], [ 413529.61899224674562, 7616731.5139065599069 ], [ 413536.730403208581265, 7616746.014926189556718 ], [ 413543.582277056179009, 7616761.358116483315825 ], [ 413550.02672833763063, 7616777.58386461995542 ], [ 413555.798879332840443, 7616794.368778819218278 ], [ 413559.90774611645611, 7616808.2974863499403 ] ] ] } },
{ "type": "Feature", "properties": { "fid": 125.0, "COMPR_M": 950.08, "CLASSE": "05 - Muito longa", "CD_FAZ": "404040", "TALHOES": "1", "FAZ_tAL": "404040001", "ID_LINHA": 9025 }, "geometry": { "type": "MultiLineString", "coordinates": [ [ [ 413056.883997403434478, 7616011.131757903844118 ], [ 413444.365019880235195, 7616600.797684106975794 ], [ 413479.407159157446586, 7616653.12476362939924 ], [ 413497.644732470740564, 7616681.620558734983206 ], [ 413508.661365324864164, 7616699.770608415827155 ], [ 413519.702665966120549, 7616719.174679147079587 ], [ 413530.506105897075031, 7616739.985350920818746 ], [ 413537.457946426235139, 7616754.80124082788825 ], [ 413544.078479484596755, 7616770.469538472592831 ], [ 413550.179139419225976, 7616786.927378733642399 ], [ 413558.632898448093329, 7616815.142277487553656 ] ] ] } },
{ "type": "Feature", "properties": { "fid": 126.0, "COMPR_M": 955.9, "CLASSE": "05 - Muito longa", "CD_FAZ": "404040", "TALHOES": "1", "FAZ_tAL": "404040001", "ID_LINHA": 9026 }, "geometry": { "type": "MultiLineString", "coordinates": [ [ [ 413053.98343679215759, 7616012.180550957098603 ], [ 413441.866862774011679, 7616602.458852019160986 ], [ 413476.898364813765511, 7616654.769749958999455 ], [ 413495.096878352691419, 7616683.204390803351998 ], [ 413506.077561063633766, 7616701.295125991106033 ], [ 413517.069505114573985, 7616720.612327758222818 ], [ 413527.812584105355199, 7616741.306544055230916 ], [ 413534.718668946647085, 7616756.024846446700394 ], [ 413541.290276950283442, 7616771.57726732082665 ], [ 413547.341985607461538, 7616787.903000894002616 ], [ 413552.610242315684445, 7616804.485736186616123 ], [ 413557.221146676631179, 7616821.792152475565672 ] ] ] } },
{ "type": "Feature", "properties": { "fid": 127.0, "COMPR_M": 961.94, "CLASSE": "05 - Muito longa", "CD_FAZ": "404040", "TALHOES": "1", "FAZ_tAL": "404040001", "ID_LINHA": 9027 }, "geometry": { "type": "MultiLineString", "coordinates": [ [ [ 413051.08287618070608, 7616013.229344012215734 ], [ 413439.368705669301562, 7616604.120019931346178 ], [ 413474.389570468920283, 7616656.414736291393638 ], [ 413492.549024234409444, 7616684.788222873583436 ], [ 413503.493756799201947, 7616702.819643570110202 ], [ 413514.436344262270723, 7616722.04997636936605 ], [ 413525.119062311481684, 7616742.627737189643085 ], [ 413531.979391468805261, 7616757.248452064581215 ], [ 413538.502074416493997, 7616772.684996165335178 ], [ 413544.504831795522477, 7616788.878623053431511 ], [ 413549.73055995895993, 7616805.327529680915177 ], [ 413555.741892392048612, 7616828.6840506689623 ] ] ] } },
{ "type": "Feature", "properties": { "fid": 128.0, "COMPR_M": 968.35, "CLASSE": "05 - Muito longa", "CD_FAZ": "404040", "TALHOES": "1", "FAZ_tAL": "404040001", "ID_LINHA": 9028 }, "geometry": { "type": "MultiLineString", "coordinates": [ [ [ 413048.182315570476931, 7616014.278137067332864 ], [ 413436.870548562146723, 7616605.78118784353137 ], [ 413471.880776126054116, 7616658.05972262378782 ], [ 413493.626395578088704, 7616692.243906913325191 ], [ 413504.554708208073862, 7616710.588201083242893 ], [ 413515.38684757926967, 7616730.152567344717681 ], [ 413525.86684904579306, 7616751.1134362090379 ], [ 413532.528413066582289, 7616766.030151524581015 ], [ 413538.774310023873113, 7616781.755611686967313 ], [ 413544.361268421867862, 7616798.002065189182758 ], [ 413549.140961850353051, 7616814.351148316636682 ], [ 413554.236021011660341, 7616835.967909723520279 ] ] ] } },
{ "type": "Feature", "properties": { "fid": 129.0, "COMPR_M": 975.33, "CLASSE": "05 - Muito longa", "CD_FAZ": "404040", "TALHOES": "1", "FAZ_tAL": "404040001", "ID_LINHA": 9029 }, "geometry": { "type": "MultiLineString", "coordinates": [ [ [ 413045.281754958152305, 7616015.326930124312639 ], [ 413434.372391457145568, 7616607.44235575478524 ], [ 413469.371981781383511, 7616659.704708954319358 ], [ 413491.06810518814018, 7616693.81083513982594 ], [ 413501.955842449388001, 7616712.086915947496891 ], [ 413512.734666226489935, 7616731.554841398261487 ], [ 413523.150960505299736, 7616752.388063712976873 ], [ 413529.764947068644688, 7616767.198160285130143 ], [ 413538.830524172226433, 7616790.829867367632687 ], [ 413543.971195246092975, 7616807.011116674169898 ], [ 413548.321141952474136, 7616823.254081914201379 ], [ 413552.732398860389367, 7616843.826407317072153 ] ] ] } },
{ "type": "Feature", "properties": { "fid": 130.0, "COMPR_M": 982.84, "CLASSE": "06 - Acima do limite", "CD_FAZ": "404040", "TALHOES": "1", "FAZ_tAL": "404040001", "ID_LINHA": 9030 }, "geometry": { "type": "MultiLineString", "coordinates": [ [ [ 413042.381194346351549, 7616016.375723178498447 ], [ 413431.874234352260828, 7616609.103523667901754 ], [ 413466.86318743810989, 7616661.349695285782218 ], [ 413488.509814798948355, 7616695.377763362601399 ], [ 413502.958351877343375, 7616719.907317632809281 ], [ 413513.58519603748573, 7616739.69534258171916 ], [ 413523.761559033475351, 7616760.919268921017647 ], [ 413530.137466810818296, 7616776.008182702586055 ], [ 413535.993370360927656, 7616791.805489527992904 ], [ 413543.34478824416874, 7616815.90322750993073 ], [ 413547.275971305847634, 7616832.015081183984876 ], [ 413551.204549801012035, 7616852.234364533796906 ] ] ] } },
{ "type": "Feature", "properties": { "fid": 131.0, "COMPR_M": 990.42, "CLASSE": "06 - Acima do limite", "CD_FAZ": "404040", "TALHOES": "1", "FAZ_tAL": "404040001", "ID_LINHA": 9031 }, "geometry": { "type": "MultiLineString", "coordinates": [ [ [ 413039.480633736471646, 7616017.4245162345469 ], [ 413429.37607724632835, 7616610.764691580086946 ], [ 413464.354393093613908, 7616662.994681617245078 ], [ 413489.55341933935415, 7616702.872648123651743 ], [ 413503.903700855036732, 7616727.800570810213685 ], [ 413514.344975140877068, 7616747.912509724497795 ], [ 413524.238015072944108, 7616769.534177808091044 ], [ 413530.334996289922856, 7616784.884421983733773 ], [ 413535.783060238929465, 7616800.727029969915748 ], [ 413542.491729464149103, 7616824.676183166913688 ], [ 413545.99813011335209, 7616840.534093825146556 ], [ 413549.573142847395502, 7616860.73269084841013 ] ] ] } },
{ "type": "Feature", "properties": { "fid": 132.0, "COMPR_M": 997.54, "CLASSE": "06 - Acima do limite", "CD_FAZ": "404040", "TALHOES": "1", "FAZ_tAL": "404040001", "ID_LINHA": 9032 }, "geometry": { "type": "MultiLineString", "coordinates": [ [ [ 413036.580073125835042, 7616018.473309288732708 ], [ 413426.87792014121078, 7616612.425859492272139 ], [ 413461.84559875051491, 7616664.639667951501906 ], [ 413486.983165304700378, 7616704.419886725023389 ], [ 413501.270540003082715, 7616729.238219422288239 ], [ 413511.651453349681105, 7616749.23370286077261 ], [ 413521.474549076519907, 7616770.70218656770885 ], [ 413527.521891711687203, 7616785.927358750253916 ], [ 413532.923657511477359, 7616801.635351560078561 ], [ 413539.577023221936543, 7616825.387233791872859 ], [ 413544.502053601841908, 7616848.719320160336792 ], [ 413547.779237639042549, 7616868.784696809947491 ] ] ] } },
{ "type": "Feature", "properties": { "fid": 133.0, "COMPR_M": 1004.04, "CLASSE": "06 - Acima do limite", "CD_FAZ": "404040", "TALHOES": "1", "FAZ_tAL": "404040001", "ID_LINHA": 9033 }, "geometry": { "type": "MultiLineString", "coordinates": [ [ [ 413033.679512515082024, 7616019.522102341987193 ], [ 413424.37976303556934, 7616614.087027402594686 ], [ 413459.336804406892043, 7616666.284654281102121 ], [ 413484.41291127121076, 7616705.967125322669744 ], [ 413498.637379152351059, 7616730.675868032500148 ], [ 413508.957931554468814, 7616750.554895994253457 ], [ 413518.711083078640513, 7616771.870195329189301 ], [ 413524.708787132578436, 7616786.970295516774058 ], [ 413530.064254783850629, 7616802.543673153966665 ], [ 413536.662316978094168, 7616826.098284419625998 ], [ 413541.550565739977174, 7616849.257157920859754 ], [ 413545.8369156026165, 7616876.226637432351708 ] ] ] } },
{ "type": "Feature", "properties": { "fid": 134.0, "COMPR_M": 1009.86, "CLASSE": "06 - Acima do limite", "CD_FAZ": "404040", "TALHOES": "1", "FAZ_tAL": "404040001", "ID_LINHA": 9034 }, "geometry": { "type": "MultiLineString", "coordinates": [ [ [ 413030.778951903455891, 7616020.570895397104323 ], [ 413421.881605929462239, 7616615.748195314779878 ], [ 413456.828010062687099, 7616667.929640613496304 ], [ 413471.149487967486493, 7616690.179894525557756 ], [ 413485.407126963487826, 7616713.49126660451293 ], [ 413499.473759465385228, 7616738.566211652942002 ], [ 413509.571517802018207, 7616758.761201240122318 ], [ 413518.98465667408891, 7616780.439098086208105 ], [ 413524.644755112181883, 7616795.70797816477716 ], [ 413529.572783463809174, 7616811.220084155909717 ], [ 413535.558047667029314, 7616834.604813424870372 ], [ 413539.865084887598641, 7616857.064207317307591 ], [ 413543.774100670358166, 7616883.016157150268555 ] ] ] } },
{ "type": "Feature", "properties": { "fid": 135.0, "COMPR_M": 1015.05, "CLASSE": "06 - Acima do limite", "CD_FAZ": "404040", "TALHOES": "1", "FAZ_tAL": "404040001", "ID_LINHA": 9035 }, "geometry": { "type": "MultiLineString", "coordinates": [ [ [ 413027.878391291829757, 7616021.619688451290131 ], [ 413419.383448822889477, 7616617.40936322696507 ], [ 413454.319215718540363, 7616669.574626944959164 ], [ 413468.610948389978148, 7616691.778608588501811 ], [ 413482.823322701035067, 7616715.015784179791808 ], [ 413496.821578113478608, 7616739.968485702760518 ], [ 413506.855629262165166, 7616760.035828744061291 ], [ 413516.196454139600974, 7616781.546826930716634 ], [ 413521.807601301814429, 7616796.683600321412086 ], [ 413526.693101109005511, 7616812.061877653002739 ], [ 413532.628566756495275, 7616835.252246484160423 ], [ 413536.906353972037323, 7616857.560456613078713 ], [ 413541.618549221544527, 7616889.172025830484927 ] ] ] } },
{ "type": "Feature", "properties": { "fid": 136.0, "COMPR_M": 1019.66, "CLASSE": "06 - Acima do limite", "CD_FAZ": "404040", "TALHOES": "1", "FAZ_tAL": "404040001", "ID_LINHA": 9036 }, "geometry": { "type": "MultiLineString", "coordinates": [ [ [ 413024.977830680669285, 7616022.668481507338583 ], [ 413416.885291717131622, 7616619.070531139150262 ], [ 413451.810421375907026, 7616671.219613277353346 ], [ 413466.072408811596688, 7616693.377322656102479 ], [ 413480.239518438698724, 7616716.540301756933331 ], [ 413494.169396759243682, 7616741.370759753510356 ], [ 413504.139740721613634, 7616761.310456250794232 ], [ 413513.408251605054829, 7616782.654555778950453 ], [ 413518.970447489758953, 7616797.659222481772304 ], [ 413523.813418753037695, 7616812.903671149164438 ], [ 413529.699085846543312, 7616835.899679543450475 ], [ 413533.947623057058081, 7616858.056705909781158 ], [ 413539.39324604650028, 7616894.747169998474419 ] ] ] } },
{ "type": "Feature", "properties": { "fid": 137.0, "COMPR_M": 1023.79, "CLASSE": "06 - Acima do limite", "CD_FAZ": "404040", "TALHOES": "1", "FAZ_tAL": "404040001", "ID_LINHA": 9037 }, "geometry": { "type": "MultiLineString", "coordinates": [ [ [ 413022.07727007009089, 7616023.717274561524391 ], [ 413414.387134612188675, 7616620.731699051335454 ], [ 413449.301627030654345, 7616672.864599607884884 ], [ 413463.533869234379381, 7616694.976036719977856 ], [ 413477.655714176537003, 7616718.06481933221221 ], [ 413491.517215408617631, 7616742.773033805191517 ], [ 413501.423852181760594, 7616762.58508375659585 ], [ 413510.620049070275854, 7616783.762284621596336 ], [ 413518.626643873110879, 7616806.176959525793791 ], [ 413523.058180619380437, 7616821.335504686459899 ], [ 413528.347073762328364, 7616844.065199786797166 ], [ 413532.108309648465365, 7616865.492895726114511 ], [ 413537.11846667987993, 7616899.85542022716254 ] ] ] } },
{ "type": "Feature", "properties": { "fid": 138.0, "COMPR_M": 1027.48, "CLASSE": "06 - Acima do limite", "CD_FAZ": "404040", "TALHOES": "1", "FAZ_tAL": "404040001", "ID_LINHA": 9038 }, "geometry": { "type": "MultiLineString", "coordinates": [ [ [ 413019.176709459396079, 7616024.766067617572844 ], [ 413411.888977505557705, 7616622.392866964451969 ], [ 413446.792832688195631, 7616674.509585941210389 ], [ 413460.995329656987451, 7616696.574750784784555 ], [ 413475.071909914491698, 7616719.589336909353733 ], [ 413488.865034055779688, 7616744.175307856872678 ], [ 413498.70796364126727, 7616763.859711264260113 ], [ 413507.831846534041688, 7616784.87001346796751 ], [ 413515.767241145018488, 7616807.085281116887927 ], [ 413520.160093815240543, 7616822.111544282175601 ], [ 413525.4052310360712, 7616844.653717450797558 ], [ 413529.14435044984566, 7616865.956731752492487 ], [ 413534.793410974089056, 7616904.523896971717477 ] ] ] } },
{ "type": "Feature", "properties": { "fid": 139.0, "COMPR_M": 1030.83, "CLASSE": "06 - Acima do limite", "CD_FAZ": "404040", "TALHOES": "1", "FAZ_tAL": "404040001", "ID_LINHA": 9039 }, "geometry": { "type": "MultiLineString", "coordinates": [ [ [ 413016.276148847246077, 7616025.814860672689974 ], [ 413409.390820401604287, 7616624.054034875705838 ], [ 413444.284038344456349, 7616676.154572272673249 ], [ 413458.456790079479106, 7616698.17346484772861 ], [ 413472.488105651980732, 7616721.113854484632611 ], [ 413486.2128527025925, 7616745.577581906691194 ], [ 413495.992075100715738, 7616765.134338768199086 ], [ 413505.043644000950735, 7616785.977742314338684 ], [ 413512.907838417449966, 7616807.993602708913386 ], [ 413517.262007011857349, 7616822.887583878822625 ], [ 413522.463388311327435, 7616845.242235107347369 ], [ 413526.180391250061803, 7616866.420567777007818 ], [ 413532.432650062197354, 7616908.847636444494128 ] ] ] } },
{ "type": "Feature", "properties": { "fid": 140.0, "COMPR_M": 1033.82, "CLASSE": "06 - Acima do limite", "CD_FAZ": "404040", "TALHOES": "1", "FAZ_tAL": "404040001", "ID_LINHA": 9040 }, "geometry": { "type": "MultiLineString", "coordinates": [ [ [ 413013.375588236318436, 7616026.863653728738427 ], [ 413406.892663295962848, 7616625.715202786028385 ], [ 413441.775244000833482, 7616677.799558604136109 ], [ 413459.426920702971984, 7616705.378039756789804 ], [ 413473.368319113971666, 7616728.572779460810125 ], [ 413486.862202358432114, 7616753.331069283187389 ], [ 413496.368784249702003, 7616773.155325109139085 ], [ 413505.017055084521417, 7616794.270852879621089 ], [ 413510.04843569023069, 7616808.901924303732812 ], [ 413514.363920206669718, 7616823.663623478263617 ], [ 413519.521545586176217, 7616845.830752771347761 ], [ 413523.216432053071912, 7616866.884403802454472 ], [ 413530.09194276726339, 7616912.814013633877039 ] ] ] } },
{ "type": "Feature", "properties": { "fid": 141.0, "COMPR_M": 1036.61, "CLASSE": "06 - Acima do limite", "CD_FAZ": "404040", "TALHOES": "1", "FAZ_tAL": "404040001", "ID_LINHA": 9041 }, "geometry": { "type": "MultiLineString", "coordinates": [ [ [ 413010.475027625274379, 7616027.912446782924235 ], [ 413404.394506190437824, 7616627.376370700076222 ], [ 413439.266449656046461, 7616679.444544936530292 ], [ 413456.87906658515567, 7616706.961871825158596 ], [ 413470.769453356100712, 7616730.071494326926768 ], [ 413484.189902990299743, 7616754.694641954265535 ], [ 413493.62950677057961, 7616774.378930727019906 ], [ 413502.203950506751426, 7616795.313789643347263 ], [ 413507.189032961556222, 7616809.810245893895626 ], [ 413511.465833404858131, 7616824.439663074910641 ], [ 413516.579702860559337, 7616846.419270431622863 ], [ 413520.252472852880601, 7616867.348239830695093 ], [ 413527.714614477066789, 7616916.574800251051784 ] ] ] } },
{ "type": "Feature", "properties": { "fid": 142.0, "COMPR_M": 1039.34, "CLASSE": "06 - Acima do limite", "CD_FAZ": "404040", "TALHOES": "1", "FAZ_tAL": "404040001", "ID_LINHA": 9042 }, "geometry": { "type": "MultiLineString", "coordinates": [ [ [ 413007.574467014113907, 7616028.961239837110043 ], [ 413401.896349084447138, 7616629.037538612261415 ], [ 413436.757655311317649, 7616681.089531268924475 ], [ 413454.331212467164733, 7616708.545703893527389 ], [ 413468.170587598811835, 7616731.570209192112088 ], [ 413481.517603621410672, 7616756.058214622549713 ], [ 413490.890229292504955, 7616775.602536344900727 ], [ 413499.390845928806812, 7616796.356726409867406 ], [ 413506.5353246149607, 7616817.954432126134634 ], [ 413510.429960786015727, 7616832.497740052640438 ], [ 413514.987174990121275, 7616854.097697761841118 ], [ 413525.326161872886587, 7616920.273134858347476 ] ] ] } },
{ "type": "Feature", "properties": { "fid": 143.0, "COMPR_M": 1042.09, "CLASSE": "06 - Acima do limite", "CD_FAZ": "404040", "TALHOES": "1", "FAZ_tAL": "404040001", "ID_LINHA": 9043 }, "geometry": { "type": "MultiLineString", "coordinates": [ [ [ 413004.673906402837019, 7616030.010032890364528 ], [ 413399.398191977990791, 7616630.698706524446607 ], [ 413434.248860968684312, 7616682.73451759852469 ], [ 413451.783358350978233, 7616710.129535961896181 ], [ 413465.571721840125974, 7616733.068924056366086 ], [ 413478.845304254326038, 7616757.421787291765213 ], [ 413488.150951813498978, 7616776.826141964644194 ], [ 413496.577741349290591, 7616797.399663178250194 ], [ 413503.655642258701846, 7616818.796225624158978 ], [ 413507.515254541998729, 7616833.208790677599609 ], [ 413512.035687128198333, 7616854.635535523295403 ], [ 413522.942758210294414, 7616923.999814281240106 ] ] ] } },
{ "type": "Feature", "properties": { "fid": 144.0, "COMPR_M": 1044.98, "CLASSE": "06 - Acima do limite", "CD_FAZ": "404040", "TALHOES": "1", "FAZ_tAL": "404040001", "ID_LINHA": 9044 }, "geometry": { "type": "MultiLineString", "coordinates": [ [ [ 413001.773345792084001, 7616031.058825949206948 ], [ 413396.900034872989636, 7616632.359874436631799 ], [ 413431.740066624130122, 7616684.37950392998755 ], [ 413449.235504232521635, 7616711.713368030264974 ], [ 413462.97285608202219, 7616734.567638918757439 ], [ 413476.173004885728005, 7616758.785359963774681 ], [ 413485.411674334900454, 7616778.04974758438766 ], [ 413493.764636772160884, 7616798.442599941976368 ], [ 413500.775959901860915, 7616819.638019118458033 ], [ 413504.600548298330978, 7616833.919841303490102 ], [ 413509.084199267614167, 7616855.173373280093074 ], [ 413517.614910449367017, 7616911.196359508670866 ], [ 413520.583121996896807, 7616927.859924357384443 ] ] ] } },
{ "type": "Feature", "properties": { "fid": 145.0, "COMPR_M": 1048.13, "CLASSE": "06 - Acima do limite", "CD_FAZ": "404040", "TALHOES": "1", "FAZ_tAL": "404040001", "ID_LINHA": 9045 }, "geometry": { "type": "MultiLineString", "coordinates": [ [ [ 412998.872785181913059, 7616032.107619000598788 ], [ 413394.401877766940743, 7616634.021042347885668 ], [ 413429.23127228039084, 7616686.024490263313055 ], [ 413446.687650114530697, 7616713.297200098633766 ], [ 413460.373990324442275, 7616736.066353784874082 ], [ 413473.500705518294126, 7616760.148932633921504 ], [ 413482.6723968553124, 7616779.273353202268481 ], [ 413490.95153219345957, 7616799.485536709427834 ], [ 413497.896277545893099, 7616820.479812616482377 ], [ 413501.685842054372188, 7616834.630891929380596 ], [ 413506.132711407495663, 7616855.711211040616035 ], [ 413514.655626373598352, 7616911.690041402354836 ], [ 413518.269960999838077, 7616931.980946702882648 ] ] ] } },
{ "type": "Feature", "properties": { "fid": 146.0, "COMPR_M": 1051.68, "CLASSE": "06 - Acima do limite", "CD_FAZ": "404040", "TALHOES": "1", "FAZ_tAL": "404040001", "ID_LINHA": 9046 }, "geometry": { "type": "MultiLineString", "coordinates": [ [ [ 412995.972224569588434, 7616033.156412057578564 ], [ 413391.903720660950057, 7616635.682210259139538 ], [ 413426.722477936069481, 7616687.669476594775915 ], [ 413444.139795997703914, 7616714.881032165139914 ], [ 413457.775124566804152, 7616737.565068648196757 ], [ 413470.82840614876477, 7616761.512505303137004 ], [ 413479.933119378809351, 7616780.49695882294327 ], [ 413488.138427614467219, 7616800.528473474085331 ], [ 413495.016595189343207, 7616821.321606112644076 ], [ 413498.771135811461136, 7616835.341942558065057 ], [ 413503.181223546038382, 7616856.249048803001642 ], [ 413511.696342299226671, 7616912.183723293244839 ], [ 413516.02641014312394, 7616936.492760956287384 ] ] ] } },
{ "type": "Feature", "properties": { "fid": 147.0, "COMPR_M": 1055.81, "CLASSE": "06 - Acima do limite", "CD_FAZ": "404040", "TALHOES": "1", "FAZ_tAL": "404040001", "ID_LINHA": 9047 }, "geometry": { "type": "MultiLineString", "coordinates": [ [ [ 412993.071663957845885, 7616034.205205112695694 ], [ 413389.405563556530979, 7616637.343378173187375 ], [ 413424.213683593203314, 7616689.314462926238775 ], [ 413441.591941880004015, 7616716.464864237233996 ], [ 413455.176258808351122, 7616739.063783515244722 ], [ 413468.156106781680137, 7616762.87607797421515 ], [ 413477.193841899337713, 7616781.720564439892769 ], [ 413485.325323035940528, 7616801.571410240605474 ], [ 413492.136912833026145, 7616822.163399608805776 ], [ 413495.856429567618761, 7616836.052993182092905 ], [ 413500.229735684581101, 7616856.786886562593281 ], [ 413508.737058225087821, 7616912.677405185997486 ], [ 413513.88318396883551, 7616941.567798833362758 ] ] ] } },
{ "type": "Feature", "properties": { "fid": 148.0, "COMPR_M": 1060.87, "CLASSE": "06 - Acima do limite", "CD_FAZ": "404040", "TALHOES": "1", "FAZ_tAL": "404040001", "ID_LINHA": 9048 }, "geometry": { "type": "MultiLineString", "coordinates": [ [ [ 412990.171103346627206, 7616035.253998167812824 ], [ 413386.907406450307462, 7616639.004546083509922 ], [ 413421.704889249696862, 7616690.959449259564281 ], [ 413439.044087761431001, 7616718.048696303740144 ], [ 413452.577393049839884, 7616740.56249837949872 ], [ 413465.483807413838804, 7616764.239650646224618 ], [ 413474.454564420913812, 7616782.944170059636235 ], [ 413482.512218459160067, 7616802.614347007125616 ], [ 413489.257230477465782, 7616823.00519310683012 ], [ 413492.941723324125633, 7616836.764043807983398 ], [ 413497.278247823647689, 7616857.324724320322275 ], [ 413505.77777415048331, 7616913.171087079681456 ], [ 413511.904443519364577, 7616947.56626095995307 ] ] ] } },
{ "type": "Feature", "properties": { "fid": 149.0, "COMPR_M": 1068.1, "CLASSE": "06 - Acima do limite", "CD_FAZ": "404040", "TALHOES": "1", "FAZ_tAL": "404040001", "ID_LINHA": 9049 }, "geometry": { "type": "MultiLineString", "coordinates": [ [ [ 412987.270542736572679, 7616036.302791221067309 ], [ 413384.409249344840646, 7616640.665713995695114 ], [ 413419.196094905724749, 7616692.604435589164495 ], [ 413439.902297391090542, 7616725.149399625137448 ], [ 413453.266678329440765, 7616747.833080938085914 ], [ 413465.861582871992141, 7616771.693986144848168 ], [ 413474.495627117925324, 7616790.55833550170064 ], [ 413482.087447938160039, 7616810.342310546897352 ], [ 413488.281138974707574, 7616830.647979848086834 ], [ 413494.326759962597862, 7616857.862562080845237 ], [ 413502.818490076053422, 7616913.664768971502781 ], [ 413510.306918601272628, 7616955.704870332963765 ] ] ] } },
{ "type": "Feature", "properties": { "fid": 150.0, "COMPR_M": 1080.63, "CLASSE": "06 - Acima do limite", "CD_FAZ": "404040", "TALHOES": "1", "FAZ_tAL": "404040001", "ID_LINHA": 9050 }, "geometry": { "type": "MultiLineString", "coordinates": [ [ [ 412984.369982124422677, 7616037.351584278047085 ], [ 413381.911092239664868, 7616642.326881907880306 ], [ 413416.687300561810844, 7616694.249421920627356 ], [ 413437.34400700207334, 7616726.716327850706875 ], [ 413450.651327090046834, 7616749.302857952192426 ], [ 413463.168061079224572, 7616773.015179278329015 ], [ 413471.732161119987722, 7616791.726344262249768 ], [ 413479.250294126337394, 7616811.317932704463601 ], [ 413485.383052170975134, 7616831.424019442871213 ], [ 413491.375272101489827, 7616858.400399841368198 ], [ 413499.859206002438441, 7616914.158450862392783 ], [ 413509.636685103410855, 7616969.049301605671644 ] ] ] } },
{ "type": "Feature", "properties": { "fid": 151.0, "COMPR_M": 1055.0, "CLASSE": "06 - Acima do limite", "CD_FAZ": "404040", "TALHOES": "1", "FAZ_tAL": "404040001", "ID_LINHA": 9051 }, "geometry": { "type": "MultiLineString", "coordinates": [ [ [ 412981.469421513495035, 7616038.400377333164215 ], [ 413379.412935133324936, 7616643.988049820065498 ], [ 413414.178506217314862, 7616695.894408253952861 ], [ 413431.400525409146212, 7616722.800192506983876 ], [ 413444.780795777100138, 7616745.058642975054681 ], [ 413457.466909309849143, 7616768.330368656665087 ], [ 413466.236731985991355, 7616786.614986915141344 ], [ 413474.072904724045657, 7616805.743157306686044 ], [ 413480.618183407699689, 7616825.530573595315218 ], [ 413484.197604591958225, 7616838.897195687517524 ], [ 413488.423784240323585, 7616858.93823760189116 ], [ 413496.899921927019022, 7616914.652132753282785 ], [ 413502.278090672218241, 7616944.8452177811414 ] ] ] } },
{ "type": "Feature", "properties": { "fid": 152.0, "COMPR_M": 1061.95, "CLASSE": "06 - Acima do limite", "CD_FAZ": "404040", "TALHOES": "1", "FAZ_tAL": "404040001", "ID_LINHA": 9052 }, "geometry": { "type": "MultiLineString", "coordinates": [ [ [ 412978.568860903149471, 7616039.449170388281345 ], [ 413376.914778027799912, 7616645.649217733182013 ], [ 413411.669711872935295, 7616697.539394583553076 ], [ 413428.852671291097067, 7616724.384024575352669 ], [ 413442.18193001759937, 7616746.557357838377357 ], [ 413454.794609941367526, 7616769.693941324949265 ], [ 413463.497454507742077, 7616787.838592535816133 ], [ 413471.259800145635381, 7616806.786094072274864 ], [ 413477.738501052663196, 7616826.372367089614272 ], [ 413481.282898349920288, 7616839.608246311545372 ], [ 413485.472296377760358, 7616859.476075363345444 ], [ 413493.940637853113003, 7616915.145814647898078 ], [ 413500.630854635906871, 7616952.704748505726457 ] ] ] } },
{ "type": "Feature", "properties": { "fid": 153.0, "COMPR_M": 1135.79, "CLASSE": "06 - Acima do limite", "CD_FAZ": "404040", "TALHOES": "1", "FAZ_tAL": "404040001", "ID_LINHA": 9053 }, "geometry": { "type": "MultiLineString", "coordinates": [ [ [ 412975.668300291988999, 7616040.497963443398476 ], [ 413374.416620921809226, 7616647.310385645367205 ], [ 413409.160917529370636, 7616699.184380916878581 ], [ 413429.669135832169559, 7616731.417112524621189 ], [ 413445.97416211705422, 7616759.428840239532292 ], [ 413457.969635533343535, 7616782.979123841971159 ], [ 413466.008808517013676, 7616801.485946156084538 ], [ 413472.876200231432449, 7616820.710105005651712 ], [ 413478.368192107009236, 7616840.319296939298511 ], [ 413483.649197510036174, 7616866.49294391926378 ], [ 413490.981353778042831, 7616915.639496540650725 ], [ 413510.708942432422191, 7617026.390346840023994 ] ] ] } },
{ "type": "Feature", "properties": { "fid": 154.0, "COMPR_M": 1135.87, "CLASSE": "06 - Acima do limite", "CD_FAZ": "404040", "TALHOES": "1", "FAZ_tAL": "404040001", "ID_LINHA": 9054 }, "geometry": { "type": "MultiLineString", "coordinates": [ [ [ 412972.767739679373335, 7616041.546756497584283 ], [ 413371.918463815993164, 7616648.97155355848372 ], [ 413406.652123185864184, 7616700.829367248341441 ], [ 413427.110845441929996, 7616732.984040748327971 ], [ 413443.34100126492558, 7616760.866488849744201 ], [ 413455.253746992093511, 7616784.253751346841455 ], [ 413463.22060598275857, 7616802.593674999661744 ], [ 413470.016797504387796, 7616821.618426600471139 ], [ 413475.453485862410162, 7616841.030347563326359 ], [ 413480.690466595406178, 7616866.989193212240934 ], [ 413488.022069703205489, 7616916.133178434334695 ], [ 413507.856385307968594, 7617027.483194736763835 ] ] ] } },
{ "type": "Feature", "properties": { "fid": 155.0, "COMPR_M": 1135.94, "CLASSE": "06 - Acima do limite", "CD_FAZ": "404040", "TALHOES": "1", "FAZ_tAL": "404040001", "ID_LINHA": 9055 }, "geometry": { "type": "MultiLineString", "coordinates": [ [ [ 412969.867179069260601, 7616042.595549551770091 ], [ 413369.420306711050216, 7616650.632721468806267 ], [ 413404.14332884241594, 7616702.474353579804301 ], [ 413424.552555051806848, 7616734.55096897110343 ], [ 413440.707840414019302, 7616762.30413745995611 ], [ 413452.537858452240471, 7616785.52837885171175 ], [ 413460.432403448270634, 7616803.701403846032917 ], [ 413467.157394775247667, 7616822.52674819342792 ], [ 413472.538779619557317, 7616841.741398189216852 ], [ 413477.731735680077691, 7616867.485442508012056 ], [ 413485.062785629823338, 7616916.62686032615602 ], [ 413505.003828183398582, 7617028.576042635366321 ] ] ] } },
{ "type": "Feature", "properties": { "fid": 156.0, "COMPR_M": 1136.02, "CLASSE": "06 - Acima do limite", "CD_FAZ": "404040", "TALHOES": "1", "FAZ_tAL": "404040001", "ID_LINHA": 9056 }, "geometry": { "type": "MultiLineString", "coordinates": [ [ [ 412966.966618458391167, 7616043.644342606887221 ], [ 413366.9221496055834, 7616652.293889379128814 ], [ 413401.63453449786175, 7616704.119339911267161 ], [ 413421.994264662556816, 7616736.117897196672857 ], [ 413438.074679561774246, 7616763.741786070168018 ], [ 413449.821969911688939, 7616786.803006356582046 ], [ 413457.644200913025998, 7616804.809132693335414 ], [ 413464.297992048435844, 7616823.435069786384702 ], [ 413469.624073375714943, 7616842.452448815107346 ], [ 413474.773004765971564, 7616867.981691802851856 ], [ 413482.10350155463675, 7616917.120542217046022 ], [ 413502.151271059177816, 7617029.668890531174839 ] ] ] } },
{ "type": "Feature", "properties": { "fid": 157.0, "COMPR_M": 1136.1, "CLASSE": "06 - Acima do limite", "CD_FAZ": "404040", "TALHOES": "1", "FAZ_tAL": "404040001", "ID_LINHA": 9057 }, "geometry": { "type": "MultiLineString", "coordinates": [ [ [ 412964.066057848045602, 7616044.693135662935674 ], [ 413364.423992499650922, 7616653.955057293176651 ], [ 413399.125740154588129, 7616705.764326244592667 ], [ 413419.435974271502346, 7616737.684825420379639 ], [ 413435.441518709412776, 7616765.17943468131125 ], [ 413447.10608136979863, 7616788.077633865177631 ], [ 413454.855998378247023, 7616805.91686153691262 ], [ 413461.43858932016883, 7616824.343391379341483 ], [ 413466.709367130941246, 7616843.163499442860484 ], [ 413471.814273850468453, 7616868.4779410995543 ], [ 413479.144217479624785, 7616917.61422410979867 ], [ 413499.298713934898842, 7617030.761738428846002 ] ] ] } },
{ "type": "Feature", "properties": { "fid": 158.0, "COMPR_M": 1136.17, "CLASSE": "06 - Acima do limite", "CD_FAZ": "404040", "TALHOES": "1", "FAZ_tAL": "404040001", "ID_LINHA": 9058 }, "geometry": { "type": "MultiLineString", "coordinates": [ [ [ 412961.16549723688513, 7616045.741928714327514 ], [ 413361.925835393951274, 7616655.616225203499198 ], [ 413396.616945810848847, 7616707.409312576055527 ], [ 413416.877683883241843, 7616739.251753645949066 ], [ 413432.808357858972158, 7616766.617083290591836 ], [ 413444.390192830585875, 7616789.352261367253959 ], [ 413452.067795843991917, 7616807.024590383283794 ], [ 413458.579186594870407, 7616825.251712971366942 ], [ 413463.794660887855571, 7616843.874550067819655 ], [ 413468.855542936245911, 7616868.974190392531455 ], [ 413476.184933405427728, 7616918.107906002551317 ], [ 413496.446156809048261, 7617031.854586327448487 ] ] ] } },
{ "type": "Feature", "properties": { "fid": 159.0, "COMPR_M": 1136.25, "CLASSE": "06 - Acima do limite", "CD_FAZ": "404040", "TALHOES": "1", "FAZ_tAL": "404040001", "ID_LINHA": 9059 }, "geometry": { "type": "MultiLineString", "coordinates": [ [ [ 412958.264936624967959, 7616046.790721770375967 ], [ 413359.427678287727758, 7616657.277393118478358 ], [ 413394.108151467284188, 7616709.054298905655742 ], [ 413414.319393493176904, 7616740.818681871518493 ], [ 413430.175197006436065, 7616768.054731901735067 ], [ 413441.674304289335851, 7616790.6268888739869 ], [ 413449.279593308223411, 7616808.132319228723645 ], [ 413455.719783866778016, 7616826.160034565255046 ], [ 413460.879954645119142, 7616844.585600692778826 ], [ 413465.896812021965161, 7616869.470439689233899 ], [ 413473.225649332103785, 7616918.601587894372642 ], [ 413493.593599687039386, 7617032.947434224188328 ] ] ] } },
{ "type": "Feature", "properties": { "fid": 160.0, "COMPR_M": 1136.33, "CLASSE": "06 - Acima do limite", "CD_FAZ": "404040", "TALHOES": "1", "FAZ_tAL": "404040001", "ID_LINHA": 9060 }, "geometry": { "type": "MultiLineString", "coordinates": [ [ [ 412955.364376013632864, 7616047.839514827355742 ], [ 413356.929521181678865, 7616658.938561027869582 ], [ 413391.599357123021036, 7616710.699285238981247 ], [ 413411.761103102646302, 7616742.385610096156597 ], [ 413427.542036154598463, 7616769.492380511015654 ], [ 413438.958415749424603, 7616791.901516379788518 ], [ 413446.491390774957836, 7616809.240048075094819 ], [ 413452.860381137754302, 7616827.068356156349182 ], [ 413457.965248402091675, 7616845.296651319600642 ], [ 413462.938081106927712, 7616869.966688983142376 ], [ 413470.266365256975405, 7616919.095269786193967 ], [ 413490.741042561479844, 7617034.040282120928168 ] ] ] } },
{ "type": "Feature", "properties": { "fid": 161.0, "COMPR_M": 1136.4, "CLASSE": "06 - Acima do limite", "CD_FAZ": "404040", "TALHOES": "1", "FAZ_tAL": "404040001", "ID_LINHA": 9061 }, "geometry": { "type": "MultiLineString", "coordinates": [ [ [ 412952.463815403403714, 7616048.888307880610228 ], [ 413354.431364077143371, 7616660.599728941917419 ], [ 413389.090562778932508, 7616712.344271572306752 ], [ 413409.202812713570893, 7616743.952538319863379 ], [ 413424.908875303284731, 7616770.930029122158885 ], [ 413436.242527208174579, 7616793.176143884658813 ], [ 413443.703188240120653, 7616810.347776923328638 ], [ 413450.000978410476819, 7616827.976677752099931 ], [ 413455.050542156095617, 7616846.007701948285103 ], [ 413459.979350192530546, 7616870.462938278913498 ], [ 413467.307081182661932, 7616919.588951680809259 ], [ 413487.888485437142663, 7617035.133130017668009 ] ] ] } },
{ "type": "Feature", "properties": { "fid": 162.0, "COMPR_M": 1136.48, "CLASSE": "06 - Acima do limite", "CD_FAZ": "404040", "TALHOES": "1", "FAZ_tAL": "404040001", "ID_LINHA": 9062 }, "geometry": { "type": "MultiLineString", "coordinates": [ [ [ 412949.563254793116357, 7616049.937100935727358 ], [ 413351.933206970104948, 7616662.260896854102612 ], [ 413386.581768436240964, 7616713.989257901906967 ], [ 413406.644522324728314, 7616745.519466542638838 ], [ 413422.275714451214299, 7616772.367677732370794 ], [ 413433.526638668263331, 7616794.450771391391754 ], [ 413440.914985703886487, 7616811.455505767837167 ], [ 413447.141575682384428, 7616828.884999342262745 ], [ 413452.135835914465133, 7616846.718752573244274 ], [ 413457.020619278016966, 7616870.959187572821975 ], [ 413464.347797108464874, 7616920.082633571699262 ], [ 413485.035928313154727, 7617036.225977915339172 ] ] ] } },
{ "type": "Feature", "properties": { "fid": 163.0, "COMPR_M": 1136.56, "CLASSE": "06 - Acima do limite", "CD_FAZ": "404040", "TALHOES": "1", "FAZ_tAL": "404040001", "ID_LINHA": 9063 }, "geometry": { "type": "MultiLineString", "coordinates": [ [ [ 412946.662694180675317, 7616050.985893992707133 ], [ 413349.435049865976907, 7616663.922064766287804 ], [ 413384.072974091686774, 7616715.634244233369827 ], [ 413404.086231933382805, 7616747.086394767276943 ], [ 413419.642553599784151, 7616773.805326344445348 ], [ 413430.810750128352083, 7616795.725398895330727 ], [ 413438.126783170038834, 7616812.563234612345695 ], [ 413444.282172955980059, 7616829.793320935219526 ], [ 413449.221129669924267, 7616847.42980320006609 ], [ 413454.06188836414367, 7616871.455436867661774 ], [ 413461.388513033220079, 7616920.576315464451909 ], [ 413482.183371189108584, 7617037.318825813010335 ] ] ] } },
{ "type": "Feature", "properties": { "fid": 164.0, "COMPR_M": 1136.63, "CLASSE": "06 - Acima do limite", "CD_FAZ": "404040", "TALHOES": "1", "FAZ_tAL": "404040001", "ID_LINHA": 9064 }, "geometry": { "type": "MultiLineString", "coordinates": [ [ [ 412943.762133569456637, 7616052.034687045961618 ], [ 413346.936892759986222, 7616665.583232676610351 ], [ 413381.564179747889284, 7616717.279230566695333 ], [ 413401.52794154419098, 7616748.65332299284637 ], [ 413417.009392748295795, 7616775.242974953725934 ], [ 413428.094861587160267, 7616797.000026401132345 ], [ 413435.33858063473599, 7616813.670963460579515 ], [ 413441.422770227363799, 7616830.701642528176308 ], [ 413446.306423426955007, 7616848.140853824093938 ], [ 413451.103157449455466, 7616871.951686161570251 ], [ 413458.429228959372267, 7616921.069997357204556 ], [ 413479.330814064189326, 7617038.411673709750175 ] ] ] } },
{ "type": "Feature", "properties": { "fid": 165.0, "COMPR_M": 1136.71, "CLASSE": "06 - Acima do limite", "CD_FAZ": "404040", "TALHOES": "1", "FAZ_tAL": "404040001", "ID_LINHA": 9065 }, "geometry": { "type": "MultiLineString", "coordinates": [ [ [ 412940.861572958063334, 7616053.083480102941394 ], [ 413344.438735654868651, 7616667.244400589726865 ], [ 413379.055385404266417, 7616718.924216896295547 ], [ 413398.96965115389321, 7616750.220251217484474 ], [ 413414.376231896691024, 7616776.68062356300652 ], [ 413425.378973047831096, 7616798.274653906002641 ], [ 413432.550378101237584, 7616814.778692303225398 ], [ 413438.563367501192261, 7616831.609964119270444 ], [ 413443.391717183112632, 7616848.851904448121786 ], [ 413448.144426534767263, 7616872.447935454547405 ], [ 413455.469944885699078, 7616921.563679249025881 ], [ 413476.478256940376014, 7617039.504521608352661 ] ] ] } },
{ "type": "Feature", "properties": { "fid": 166.0, "COMPR_M": 1136.79, "CLASSE": "06 - Acima do limite", "CD_FAZ": "404040", "TALHOES": "1", "FAZ_tAL": "404040001", "ID_LINHA": 9066 }, "geometry": { "type": "MultiLineString", "coordinates": [ [ [ 412937.961012347252108, 7616054.132273156195879 ], [ 413341.940578548586927, 7616668.905568500980735 ], [ 413376.54659105866449, 7616720.56920322868973 ], [ 413396.411360764410347, 7616751.787179440259933 ], [ 413411.743071045086253, 7616778.118272174149752 ], [ 413422.663084506581072, 7616799.549281410872936 ], [ 413429.76217556692427, 7616815.886421147733927 ], [ 413435.703964772110339, 7616832.518285712227225 ], [ 413440.477010938921012, 7616849.562955075874925 ], [ 413445.185695620020851, 7616872.94418475124985 ], [ 413452.510660809639376, 7616922.057361140847206 ], [ 413473.625699816388078, 7617040.597369503229856 ] ] ] } },
{ "type": "Feature", "properties": { "fid": 167.0, "COMPR_M": 1136.86, "CLASSE": "06 - Acima do limite", "CD_FAZ": "404040", "TALHOES": "1", "FAZ_tAL": "404040001", "ID_LINHA": 9067 }, "geometry": { "type": "MultiLineString", "coordinates": [ [ [ 412935.060451735625975, 7616055.181066211313009 ], [ 413339.442421443178318, 7616670.566736415028572 ], [ 413374.03779671585653, 7616722.214189561083913 ], [ 413393.853070374461822, 7616753.354107666760683 ], [ 413409.109910192666575, 7616779.555920783430338 ], [ 413419.947195965971332, 7616800.823908916674554 ], [ 413426.973973031737842, 7616816.994149994105101 ], [ 413432.844562046113424, 7616833.426607305184007 ], [ 413437.562304696475621, 7616850.274005701765418 ], [ 413442.226964705158025, 7616873.440434045158327 ], [ 413449.551376736315433, 7616922.551043034531176 ], [ 413470.773142691527028, 7617041.690217401832342 ] ] ] } },
{ "type": "Feature", "properties": { "fid": 168.0, "COMPR_M": 1136.94, "CLASSE": "06 - Acima do limite", "CD_FAZ": "404040", "TALHOES": "1", "FAZ_tAL": "404040001", "ID_LINHA": 9068 }, "geometry": { "type": "MultiLineString", "coordinates": [ [ [ 412932.159891124581918, 7616056.229859264567494 ], [ 413336.944264337304048, 7616672.227904326282442 ], [ 413371.529002372524701, 7616723.859175892546773 ], [ 413391.294779983290937, 7616754.921035890467465 ], [ 413406.476749341585673, 7616780.993569394573569 ], [ 413417.231307424721308, 7616802.098536422476172 ], [ 413424.185770497773774, 7616818.101878841407597 ], [ 413429.985159317264333, 7616834.334928898140788 ], [ 413434.647598452400416, 7616850.985056327655911 ], [ 413439.268233790236991, 7616873.936683339998126 ], [ 413446.592092661187053, 7616923.044724926352501 ], [ 413467.920585567189846, 7617042.783065298572183 ] ] ] } },
{ "type": "Feature", "properties": { "fid": 169.0, "COMPR_M": 1137.02, "CLASSE": "06 - Acima do limite", "CD_FAZ": "404040", "TALHOES": "1", "FAZ_tAL": "404040001", "ID_LINHA": 9069 }, "geometry": { "type": "MultiLineString", "coordinates": [ [ [ 412929.259330512664746, 7616057.278652319684625 ], [ 413334.446107231604401, 7616673.889072237536311 ], [ 413369.020208028610796, 7616725.504162225872278 ], [ 413388.736489595670719, 7616756.487964114174247 ], [ 413403.843588488409296, 7616782.431218003854156 ], [ 413414.515418884111568, 7616803.373163925483823 ], [ 413421.397567962238099, 7616819.209607688710093 ], [ 413427.125756590103265, 7616835.243250490166247 ], [ 413431.732892209314741, 7616851.69610695540905 ], [ 413436.30950287648011, 7616874.432932635769248 ], [ 413443.63280858687358, 7616923.538406819105148 ], [ 413465.06802844197955, 7617043.875913197174668 ] ] ] } },
{ "type": "Feature", "properties": { "fid": 170.0, "COMPR_M": 1137.09, "CLASSE": "06 - Acima do limite", "CD_FAZ": "404040", "TALHOES": "1", "FAZ_tAL": "404040001", "ID_LINHA": 9070 }, "geometry": { "type": "MultiLineString", "coordinates": [ [ [ 412926.358769903308712, 7616058.3274453766644 ], [ 413331.947950126079377, 7616675.550240148790181 ], [ 413366.511413684755098, 7616727.149148557335138 ], [ 413386.178199204907287, 7616758.054892340674996 ], [ 413401.210427637794055, 7616783.868866616860032 ], [ 413411.799530344142113, 7616804.647791433148086 ], [ 413418.609365428506862, 7616820.317336533218622 ], [ 413424.266353862767573, 7616836.151572082191706 ], [ 413428.818185964599252, 7616852.407157578505576 ], [ 413433.350771961500868, 7616874.929181930609047 ], [ 413440.673524511454161, 7616924.032088709995151 ], [ 413462.215471317875199, 7617044.968761093914509 ] ] ] } },
{ "type": "Feature", "properties": { "fid": 171.0, "COMPR_M": 1137.17, "CLASSE": "06 - Acima do limite", "CD_FAZ": "404040", "TALHOES": "1", "FAZ_tAL": "404040001", "ID_LINHA": 9071 }, "geometry": { "type": "MultiLineString", "coordinates": [ [ [ 412923.45820929115871, 7616059.37623843178153 ], [ 413329.449793020728976, 7616677.211408062838018 ], [ 413364.002619341015816, 7616728.794134890660644 ], [ 413383.619908814958762, 7616759.621820561587811 ], [ 413398.577266784501262, 7616785.306515225209296 ], [ 413409.083641804172657, 7616805.922418937087059 ], [ 413415.821162893320434, 7616821.425065379589796 ], [ 413421.406951135140844, 7616837.059893675148487 ], [ 413425.903479721571784, 7616853.118208205327392 ], [ 413430.392041045706719, 7616875.425431223586202 ], [ 413437.714240437489934, 7616924.525770602747798 ], [ 413459.362914194935001, 7617046.061608991585672 ] ] ] } },
{ "type": "Feature", "properties": { "fid": 172.0, "COMPR_M": 1137.25, "CLASSE": "06 - Acima do limite", "CD_FAZ": "404040", "TALHOES": "1", "FAZ_tAL": "404040001", "ID_LINHA": 9072 }, "geometry": { "type": "MultiLineString", "coordinates": [ [ [ 412920.557648680871353, 7616060.425031486898661 ], [ 413326.951635914854705, 7616678.872575975954533 ], [ 413361.493824997451156, 7616730.439121218398213 ], [ 413381.061618424602784, 7616761.188748786225915 ], [ 413395.944105934351683, 7616786.744163835421205 ], [ 413406.367753262165934, 7616807.197046442888677 ], [ 413413.032960357959382, 7616822.532794225029647 ], [ 413418.547548408037983, 7616837.968215270899236 ], [ 413422.988773478253279, 7616853.829258831217885 ], [ 413427.4333101324155, 7616875.921680519357324 ], [ 413434.754956364340615, 7616925.019452495500445 ], [ 413456.510357069200836, 7617047.154456889256835 ] ] ] } }
]
}
