{
"type": "FeatureCollection",
"name": "404002",
"crs": { "type": "name", "properties": { "name": "urn:ogc:def:crs:EPSG::32722" } },
"xy_coordinate_resolution": 1e-15,
"features": [
{ "type": "Feature", "properties": { "fid": 1.0, "COMPR_M": 1103.85, "CLASSE": "06 - Acima do limite", "CD_FAZ": "404002", "TALHOES": "1", "FAZ_tAL": "404002001", "ID_LINHA": 247095 }, "geometry": { "type": "MultiLineString", "coordinates": [ [ [ 414005.180983950442169, 7622071.066678473725915 ], [ 414975.761796448030509, 7621545.993623850867152 ] ] ] } },
{ "type": "Feature", "properties": { "fid": 2.0, "COMPR_M": 1100.39, "CLASSE": "06 - Acima do limite", "CD_FAZ": "404002", "TALHOES": "1", "FAZ_tAL": "404002001", "ID_LINHA": 247096 }, "geometry": { "type": "MultiLineString", "coordinates": [ [ [ 414145.719828456814867, 7622325.890926036983728 ], [ 415113.261022037186194, 7621802.46227028220892 ] ] ] } },
{ "type": "Feature", "properties": { "fid": 3.0, "COMPR_M": 1100.39, "CLASSE": "06 - Acima do limite", "CD_FAZ": "404002", "TALHOES": "1", "FAZ_tAL": "404002001", "ID_LINHA": 247097 }, "geometry": { "type": "MultiLineString", "coordinates": [ [ [ 414147.147294195543509, 7622328.529550975188613 ], [ 415114.688487775565591, 7621805.100895221345127 ] ] ] } },
{ "type": "Feature", "properties": { "fid": 4.0, "COMPR_M": 1100.43, "CLASSE": "06 - Acima do limite", "CD_FAZ": "404002", "TALHOES": "1", "FAZ_tAL": "404002001", "ID_LINHA": 247098 }, "geometry": { "type": "MultiLineString", "coordinates": [ [ [ 414144.270881650096271, 7622323.263922111131251 ], [ 415111.848149022029247, 7621799.815750850364566 ] ] ] } },
{ "type": "Feature", "properties": { "fid": 5.0, "COMPR_M": 1100.47, "CLASSE": "06 - Acima do limite", "CD_FAZ": "404002", "TALHOES": "1", "FAZ_tAL": "404002001", "ID_LINHA": 247099 }, "geometry": { "type": "MultiLineString", "coordinates": [ [ [ 414142.82193484500749, 7622320.636918184347451 ], [ 415110.435276004718617, 7621797.169231416657567 ] ] ] } },
{ "type": "Feature", "properties": { "fid": 6.0, "COMPR_M": 1100.52, "CLASSE": "06 - Acima do limite", "CD_FAZ": "404002", "TALHOES": "1", "FAZ_tAL": "404002001", "ID_LINHA": 247100 }, "geometry": { "type": "MultiLineString", "coordinates": [ [ [ 414141.372988037008327, 7622318.009914255701005 ], [ 415109.022402989910915, 7621794.522711984813213 ] ] ] } },
{ "type": "Feature", "properties": { "fid": 7.0, "COMPR_M": 1100.56, "CLASSE": "06 - Acima do limite", "CD_FAZ": "404002", "TALHOES": "1", "FAZ_tAL": "404002001", "ID_LINHA": 247101 }, "geometry": { "type": "MultiLineString", "coordinates": [ [ [ 414139.924041231279261, 7622315.382910327985883 ], [ 415107.609529973531608, 7621791.87619255296886 ] ] ] } },
{ "type": "Feature", "properties": { "fid": 8.0, "COMPR_M": 1100.6, "CLASSE": "06 - Acima do limite", "CD_FAZ": "404002", "TALHOES": "1", "FAZ_tAL": "404002001", "ID_LINHA": 247102 }, "geometry": { "type": "MultiLineString", "coordinates": [ [ [ 414138.475094424502458, 7622312.755906398408115 ], [ 415106.196656958316453, 7621789.229673119261861 ] ] ] } },
{ "type": "Feature", "properties": { "fid": 9.0, "COMPR_M": 1100.64, "CLASSE": "06 - Acima do limite", "CD_FAZ": "404002", "TALHOES": "1", "FAZ_tAL": "404002001", "ID_LINHA": 247103 }, "geometry": { "type": "MultiLineString", "coordinates": [ [ [ 414137.026147618715186, 7622310.128902470692992 ], [ 415104.783783940947615, 7621786.583153681829572 ] ] ] } },
{ "type": "Feature", "properties": { "fid": 10.0, "COMPR_M": 1100.68, "CLASSE": "06 - Acima do limite", "CD_FAZ": "404002", "TALHOES": "1", "FAZ_tAL": "404002001", "ID_LINHA": 247104 }, "geometry": { "type": "MultiLineString", "coordinates": [ [ [ 414135.577200811938383, 7622307.501898543909192 ], [ 415103.37091092474293, 7621783.936634250916541 ] ] ] } },
{ "type": "Feature", "properties": { "fid": 11.0, "COMPR_M": 1100.72, "CLASSE": "06 - Acima do limite", "CD_FAZ": "404002", "TALHOES": "1", "FAZ_tAL": "404002001", "ID_LINHA": 247105 }, "geometry": { "type": "MultiLineString", "coordinates": [ [ [ 414134.12825400615111, 7622304.874894616194069 ], [ 415101.958037908945698, 7621781.290114816278219 ] ] ] } },
{ "type": "Feature", "properties": { "fid": 12.0, "COMPR_M": 1100.76, "CLASSE": "06 - Acima do limite", "CD_FAZ": "404002", "TALHOES": "1", "FAZ_tAL": "404002001", "ID_LINHA": 247106 }, "geometry": { "type": "MultiLineString", "coordinates": [ [ [ 414132.679307199316099, 7622302.247890688478947 ], [ 415100.545164893614128, 7621778.643595385365188 ] ] ] } },
{ "type": "Feature", "properties": { "fid": 13.0, "COMPR_M": 1100.8, "CLASSE": "06 - Acima do limite", "CD_FAZ": "404002", "TALHOES": "1", "FAZ_tAL": "404002001", "ID_LINHA": 247107 }, "geometry": { "type": "MultiLineString", "coordinates": [ [ [ 414131.230360392830335, 7622299.620886759832501 ], [ 415099.132291876885574, 7621775.997075952589512 ] ] ] } },
{ "type": "Feature", "properties": { "fid": 14.0, "COMPR_M": 1100.84, "CLASSE": "06 - Acima do limite", "CD_FAZ": "404002", "TALHOES": "1", "FAZ_tAL": "404002001", "ID_LINHA": 247108 }, "geometry": { "type": "MultiLineString", "coordinates": [ [ [ 414129.781413586693816, 7622296.993882833048701 ], [ 415097.719418861204758, 7621773.350556517019868 ] ] ] } },
{ "type": "Feature", "properties": { "fid": 15.0, "COMPR_M": 1100.88, "CLASSE": "06 - Acima do limite", "CD_FAZ": "404002", "TALHOES": "1", "FAZ_tAL": "404002001", "ID_LINHA": 247109 }, "geometry": { "type": "MultiLineString", "coordinates": [ [ [ 414128.332466781430412, 7622294.366878905333579 ], [ 415096.306545844767243, 7621770.704037083312869 ] ] ] } },
{ "type": "Feature", "properties": { "fid": 16.0, "COMPR_M": 1100.93, "CLASSE": "06 - Acima do limite", "CD_FAZ": "404002", "TALHOES": "1", "FAZ_tAL": "404002001", "ID_LINHA": 247110 }, "geometry": { "type": "MultiLineString", "coordinates": [ [ [ 414126.883519973256625, 7622291.739874979481101 ], [ 415094.893672829377465, 7621768.057517650537193 ] ] ] } },
{ "type": "Feature", "properties": { "fid": 17.0, "COMPR_M": 1100.97, "CLASSE": "06 - Acima do limite", "CD_FAZ": "404002", "TALHOES": "1", "FAZ_tAL": "404002001", "ID_LINHA": 247111 }, "geometry": { "type": "MultiLineString", "coordinates": [ [ [ 414125.434573166770861, 7622289.112871048972011 ], [ 415093.480799813230988, 7621765.410998219624162 ] ] ] } },
{ "type": "Feature", "properties": { "fid": 18.0, "COMPR_M": 1101.01, "CLASSE": "06 - Acima do limite", "CD_FAZ": "404002", "TALHOES": "1", "FAZ_tAL": "404002001", "ID_LINHA": 247112 }, "geometry": { "type": "MultiLineString", "coordinates": [ [ [ 414123.985626361216418, 7622286.485867124050856 ], [ 415092.067926797550172, 7621762.764478783123195 ] ] ] } },
{ "type": "Feature", "properties": { "fid": 19.0, "COMPR_M": 1101.05, "CLASSE": "06 - Acima do limite", "CD_FAZ": "404002", "TALHOES": "1", "FAZ_tAL": "404002001", "ID_LINHA": 247113 }, "geometry": { "type": "MultiLineString", "coordinates": [ [ [ 414122.53667955531273, 7622283.858863193541765 ], [ 415090.655053782276809, 7621760.117959350347519 ] ] ] } },
{ "type": "Feature", "properties": { "fid": 20.0, "COMPR_M": 1101.09, "CLASSE": "06 - Acima do limite", "CD_FAZ": "404002", "TALHOES": "1", "FAZ_tAL": "404002001", "ID_LINHA": 247114 }, "geometry": { "type": "MultiLineString", "coordinates": [ [ [ 414121.087732749758288, 7622281.231859266757965 ], [ 415089.242180764907971, 7621757.471439917571843 ] ] ] } },
{ "type": "Feature", "properties": { "fid": 21.0, "COMPR_M": 1101.13, "CLASSE": "06 - Acima do limite", "CD_FAZ": "404002", "TALHOES": "1", "FAZ_tAL": "404002001", "ID_LINHA": 247115 }, "geometry": { "type": "MultiLineString", "coordinates": [ [ [ 414119.638785943156108, 7622278.60485533811152 ], [ 415087.829307749401778, 7621754.824920484796166 ] ] ] } },
{ "type": "Feature", "properties": { "fid": 22.0, "COMPR_M": 1101.17, "CLASSE": "06 - Acima do limite", "CD_FAZ": "404002", "TALHOES": "1", "FAZ_tAL": "404002001", "ID_LINHA": 247116 }, "geometry": { "type": "MultiLineString", "coordinates": [ [ [ 414118.189839136961382, 7622275.977851412259042 ], [ 415086.416434733604547, 7621752.178401051089168 ] ] ] } },
{ "type": "Feature", "properties": { "fid": 23.0, "COMPR_M": 1101.21, "CLASSE": "06 - Acima do limite", "CD_FAZ": "404002", "TALHOES": "1", "FAZ_tAL": "404002001", "ID_LINHA": 247117 }, "geometry": { "type": "MultiLineString", "coordinates": [ [ [ 414116.74089233041741, 7622273.350847483612597 ], [ 415085.003561716410331, 7621749.531881619244814 ] ] ] } },
{ "type": "Feature", "properties": { "fid": 24.0, "COMPR_M": 1101.25, "CLASSE": "06 - Acima do limite", "CD_FAZ": "404002", "TALHOES": "1", "FAZ_tAL": "404002001", "ID_LINHA": 247118 }, "geometry": { "type": "MultiLineString", "coordinates": [ [ [ 414115.291945523524191, 7622270.723843554966152 ], [ 415083.590688700322062, 7621746.885362186469138 ] ] ] } },
{ "type": "Feature", "properties": { "fid": 25.0, "COMPR_M": 1101.3, "CLASSE": "06 - Acima do limite", "CD_FAZ": "404002", "TALHOES": "1", "FAZ_tAL": "404002001", "ID_LINHA": 247119 }, "geometry": { "type": "MultiLineString", "coordinates": [ [ [ 414113.842998716980219, 7622268.096839629113674 ], [ 415082.177815684757661, 7621744.238842749968171 ] ] ] } },
{ "type": "Feature", "properties": { "fid": 26.0, "COMPR_M": 1101.34, "CLASSE": "06 - Acima do limite", "CD_FAZ": "404002", "TALHOES": "1", "FAZ_tAL": "404002001", "ID_LINHA": 247120 }, "geometry": { "type": "MultiLineString", "coordinates": [ [ [ 414112.394051910028793, 7622265.469835700467229 ], [ 415080.764942668320145, 7621741.592323317192495 ] ] ] } },
{ "type": "Feature", "properties": { "fid": 27.0, "COMPR_M": 1101.38, "CLASSE": "06 - Acima do limite", "CD_FAZ": "404002", "TALHOES": "1", "FAZ_tAL": "404002001", "ID_LINHA": 247121 }, "geometry": { "type": "MultiLineString", "coordinates": [ [ [ 414110.945105105463881, 7622262.842831771820784 ], [ 415079.352069653046783, 7621738.945803884416819 ] ] ] } },
{ "type": "Feature", "properties": { "fid": 28.0, "COMPR_M": 1101.42, "CLASSE": "06 - Acima do limite", "CD_FAZ": "404002", "TALHOES": "1", "FAZ_tAL": "404002001", "ID_LINHA": 247122 }, "geometry": { "type": "MultiLineString", "coordinates": [ [ [ 414109.496158299210947, 7622260.215827845036983 ], [ 415077.939196636958513, 7621736.29928445070982 ] ] ] } },
{ "type": "Feature", "properties": { "fid": 29.0, "COMPR_M": 1101.46, "CLASSE": "06 - Acima do limite", "CD_FAZ": "404002", "TALHOES": "1", "FAZ_tAL": "404002001", "ID_LINHA": 247123 }, "geometry": { "type": "MultiLineString", "coordinates": [ [ [ 414108.047211491968483, 7622257.588823918253183 ], [ 415076.526323621976189, 7621733.652765017002821 ] ] ] } },
{ "type": "Feature", "properties": { "fid": 30.0, "COMPR_M": 1101.5, "CLASSE": "06 - Acima do limite", "CD_FAZ": "404002", "TALHOES": "1", "FAZ_tAL": "404002001", "ID_LINHA": 247124 }, "geometry": { "type": "MultiLineString", "coordinates": [ [ [ 414106.598264685773756, 7622254.961819987744093 ], [ 415075.113450603617821, 7621731.006245583295822 ] ] ] } },
{ "type": "Feature", "properties": { "fid": 31.0, "COMPR_M": 1101.54, "CLASSE": "06 - Acima do limite", "CD_FAZ": "404002", "TALHOES": "1", "FAZ_tAL": "404002001", "ID_LINHA": 247125 }, "geometry": { "type": "MultiLineString", "coordinates": [ [ [ 414105.149317879870068, 7622252.33481606002897 ], [ 415073.700577589625027, 7621728.359726150520146 ] ] ] } },
{ "type": "Feature", "properties": { "fid": 32.0, "COMPR_M": 1101.58, "CLASSE": "06 - Acima do limite", "CD_FAZ": "404002", "TALHOES": "1", "FAZ_tAL": "404002001", "ID_LINHA": 247126 }, "geometry": { "type": "MultiLineString", "coordinates": [ [ [ 414103.70037107297685, 7622249.707812132313848 ], [ 415072.287704572896473, 7621725.71320671774447 ] ] ] } },
{ "type": "Feature", "properties": { "fid": 33.0, "COMPR_M": 1101.62, "CLASSE": "06 - Acima do limite", "CD_FAZ": "404002", "TALHOES": "1", "FAZ_tAL": "404002001", "ID_LINHA": 247127 }, "geometry": { "type": "MultiLineString", "coordinates": [ [ [ 414102.251424267713446, 7622247.080808205530047 ], [ 415070.874831557273865, 7621723.066687284968793 ] ] ] } },
{ "type": "Feature", "properties": { "fid": 34.0, "COMPR_M": 1101.66, "CLASSE": "06 - Acima do limite", "CD_FAZ": "404002", "TALHOES": "1", "FAZ_tAL": "404002001", "ID_LINHA": 247128 }, "geometry": { "type": "MultiLineString", "coordinates": [ [ [ 414100.802477460878436, 7622244.453804277814925 ], [ 415069.461958540196065, 7621720.420167850330472 ] ] ] } },
{ "type": "Feature", "properties": { "fid": 35.0, "COMPR_M": 1101.71, "CLASSE": "06 - Acima do limite", "CD_FAZ": "404002", "TALHOES": "1", "FAZ_tAL": "404002001", "ID_LINHA": 247129 }, "geometry": { "type": "MultiLineString", "coordinates": [ [ [ 414099.353530654334463, 7622241.826800350099802 ], [ 415068.049085524922702, 7621717.773648416623473 ] ] ] } },
{ "type": "Feature", "properties": { "fid": 36.0, "COMPR_M": 1101.75, "CLASSE": "06 - Acima do limite", "CD_FAZ": "404002", "TALHOES": "1", "FAZ_tAL": "404002001", "ID_LINHA": 247130 }, "geometry": { "type": "MultiLineString", "coordinates": [ [ [ 414097.904583848139737, 7622239.199796423316002 ], [ 415066.636212508834433, 7621715.127128984779119 ] ] ] } },
{ "type": "Feature", "properties": { "fid": 37.0, "COMPR_M": 1101.79, "CLASSE": "06 - Acima do limite", "CD_FAZ": "404002", "TALHOES": "1", "FAZ_tAL": "404002001", "ID_LINHA": 247131 }, "geometry": { "type": "MultiLineString", "coordinates": [ [ [ 414096.455637042294256, 7622236.572792494669557 ], [ 415065.223339493270032, 7621712.480609550140798 ] ] ] } },
{ "type": "Feature", "properties": { "fid": 38.0, "COMPR_M": 1101.83, "CLASSE": "06 - Acima do limite", "CD_FAZ": "404002", "TALHOES": "1", "FAZ_tAL": "404002001", "ID_LINHA": 247132 }, "geometry": { "type": "MultiLineString", "coordinates": [ [ [ 414095.006690235459246, 7622233.945788567885756 ], [ 415063.810466476832516, 7621709.834090119227767 ] ] ] } },
{ "type": "Feature", "properties": { "fid": 39.0, "COMPR_M": 1101.87, "CLASSE": "06 - Acima do limite", "CD_FAZ": "404002", "TALHOES": "1", "FAZ_tAL": "404002001", "ID_LINHA": 247133 }, "geometry": { "type": "MultiLineString", "coordinates": [ [ [ 414093.557743429555558, 7622231.318784640170634 ], [ 415062.39759346091887, 7621707.187570685520768 ] ] ] } },
{ "type": "Feature", "properties": { "fid": 40.0, "COMPR_M": 1101.91, "CLASSE": "06 - Acima do limite", "CD_FAZ": "404002", "TALHOES": "1", "FAZ_tAL": "404002001", "ID_LINHA": 247134 }, "geometry": { "type": "MultiLineString", "coordinates": [ [ [ 414092.108796623419039, 7622228.691780712455511 ], [ 415060.984720444888808, 7621704.541051251813769 ] ] ] } },
{ "type": "Feature", "properties": { "fid": 41.0, "COMPR_M": 1101.95, "CLASSE": "06 - Acima do limite", "CD_FAZ": "404002", "TALHOES": "1", "FAZ_tAL": "404002001", "ID_LINHA": 247135 }, "geometry": { "type": "MultiLineString", "coordinates": [ [ [ 414090.659849816933274, 7622226.064776784740388 ], [ 415059.571847429964691, 7621701.894531818106771 ] ] ] } },
{ "type": "Feature", "properties": { "fid": 42.0, "COMPR_M": 1101.99, "CLASSE": "06 - Acima do limite", "CD_FAZ": "404002", "TALHOES": "1", "FAZ_tAL": "404002001", "ID_LINHA": 247136 }, "geometry": { "type": "MultiLineString", "coordinates": [ [ [ 414089.210903010854963, 7622223.437772857025266 ], [ 415058.158974412945099, 7621699.248012386262417 ] ] ] } },
{ "type": "Feature", "properties": { "fid": 43.0, "COMPR_M": 1102.03, "CLASSE": "06 - Acima do limite", "CD_FAZ": "404002", "TALHOES": "1", "FAZ_tAL": "404002001", "ID_LINHA": 247137 }, "geometry": { "type": "MultiLineString", "coordinates": [ [ [ 414087.76195620506769, 7622220.81076892837882 ], [ 415056.746101396391168, 7621696.601492953486741 ] ] ] } },
{ "type": "Feature", "properties": { "fid": 44.0, "COMPR_M": 1102.07, "CLASSE": "06 - Acima do limite", "CD_FAZ": "404002", "TALHOES": "1", "FAZ_tAL": "404002001", "ID_LINHA": 247138 }, "geometry": { "type": "MultiLineString", "coordinates": [ [ [ 414086.313009397010319, 7622218.183764999732375 ], [ 415055.333228379720822, 7621693.954973518848419 ] ] ] } },
{ "type": "Feature", "properties": { "fid": 45.0, "COMPR_M": 629.65, "CLASSE": "04 - Longa", "CD_FAZ": "404002", "TALHOES": "1", "FAZ_tAL": "404002001", "ID_LINHA": 247139 }, "geometry": { "type": "MultiLineString", "coordinates": [ [ [ 414500.292295515071601, 7621990.814865882508457 ], [ 415053.920355364854913, 7621691.308454083278775 ] ] ] } },
{ "type": "Feature", "properties": { "fid": 46.0, "COMPR_M": 601.07, "CLASSE": "04 - Longa", "CD_FAZ": "404002", "TALHOES": "1", "FAZ_tAL": "404002001", "ID_LINHA": 247140 }, "geometry": { "type": "MultiLineString", "coordinates": [ [ [ 414524.006057136575691, 7621974.575126148760319 ], [ 415052.507482348533813, 7621688.661934653297067 ] ] ] } },
{ "type": "Feature", "properties": { "fid": 47.0, "COMPR_M": 572.49, "CLASSE": "03 - Média", "CD_FAZ": "404002", "TALHOES": "1", "FAZ_tAL": "404002001", "ID_LINHA": 247141 }, "geometry": { "type": "MultiLineString", "coordinates": [ [ [ 414547.719818762154318, 7621958.335386415943503 ], [ 415051.094609331397805, 7621686.015415218658745 ] ] ] } },
{ "type": "Feature", "properties": { "fid": 48.0, "COMPR_M": 1102.24, "CLASSE": "06 - Acima do limite", "CD_FAZ": "404002", "TALHOES": "1", "FAZ_tAL": "404002001", "ID_LINHA": 247142 }, "geometry": { "type": "MultiLineString", "coordinates": [ [ [ 414080.517327648587525, 7622207.675692229531705 ], [ 415049.681736316764727, 7621683.368895784020424 ] ] ] } },
{ "type": "Feature", "properties": { "fid": 49.0, "COMPR_M": 1102.28, "CLASSE": "06 - Acima do limite", "CD_FAZ": "404002", "TALHOES": "1", "FAZ_tAL": "404002001", "ID_LINHA": 247143 }, "geometry": { "type": "MultiLineString", "coordinates": [ [ [ 414079.068551807897165, 7622205.048595811240375 ], [ 415048.26886330061825, 7621680.72237635217607 ] ] ] } },
{ "type": "Feature", "properties": { "fid": 50.0, "COMPR_M": 1102.32, "CLASSE": "06 - Acima do limite", "CD_FAZ": "404002", "TALHOES": "1", "FAZ_tAL": "404002001", "ID_LINHA": 247144 }, "geometry": { "type": "MultiLineString", "coordinates": [ [ [ 414077.619775968196336, 7622202.421499392017722 ], [ 415046.855990284995642, 7621678.075856918469071 ] ] ] } },
{ "type": "Feature", "properties": { "fid": 51.0, "COMPR_M": 1102.36, "CLASSE": "06 - Acima do limite", "CD_FAZ": "404002", "TALHOES": "1", "FAZ_tAL": "404002001", "ID_LINHA": 247145 }, "geometry": { "type": "MultiLineString", "coordinates": [ [ [ 414076.171000126865692, 7622199.794402975589037 ], [ 415045.443117267277557, 7621675.429337485693395 ] ] ] } },
{ "type": "Feature", "properties": { "fid": 52.0, "COMPR_M": 1102.4, "CLASSE": "06 - Acima do limite", "CD_FAZ": "404002", "TALHOES": "1", "FAZ_tAL": "404002001", "ID_LINHA": 247146 }, "geometry": { "type": "MultiLineString", "coordinates": [ [ [ 414074.722224287106656, 7622197.167306553572416 ], [ 415044.030244252702687, 7621672.782818049192429 ] ] ] } },
{ "type": "Feature", "properties": { "fid": 53.0, "COMPR_M": 1102.44, "CLASSE": "06 - Acima do limite", "CD_FAZ": "404002", "TALHOES": "1", "FAZ_tAL": "404002001", "ID_LINHA": 247147 }, "geometry": { "type": "MultiLineString", "coordinates": [ [ [ 414073.273448446358088, 7622194.540210137143731 ], [ 415042.617371235333849, 7621670.136298617348075 ] ] ] } },
{ "type": "Feature", "properties": { "fid": 54.0, "COMPR_M": 1102.48, "CLASSE": "06 - Acima do limite", "CD_FAZ": "404002", "TALHOES": "1", "FAZ_tAL": "404002001", "ID_LINHA": 247148 }, "geometry": { "type": "MultiLineString", "coordinates": [ [ [ 414071.824672606599052, 7622191.913113718852401 ], [ 415041.204498219129164, 7621667.489779185503721 ] ] ] } },
{ "type": "Feature", "properties": { "fid": 55.0, "COMPR_M": 1102.52, "CLASSE": "06 - Acima do limite", "CD_FAZ": "404002", "TALHOES": "1", "FAZ_tAL": "404002001", "ID_LINHA": 247149 }, "geometry": { "type": "MultiLineString", "coordinates": [ [ [ 414070.375896765151992, 7622189.28601730056107 ], [ 415039.791625204787124, 7621664.843259751796722 ] ] ] } },
{ "type": "Feature", "properties": { "fid": 56.0, "COMPR_M": 1102.57, "CLASSE": "06 - Acima do limite", "CD_FAZ": "404002", "TALHOES": "1", "FAZ_tAL": "404002001", "ID_LINHA": 247150 }, "geometry": { "type": "MultiLineString", "coordinates": [ [ [ 414068.927120924752671, 7622186.658920883201063 ], [ 415038.378752188291401, 7621662.196740317158401 ] ] ] } },
{ "type": "Feature", "properties": { "fid": 57.0, "COMPR_M": 1102.61, "CLASSE": "06 - Acima do limite", "CD_FAZ": "404002", "TALHOES": "1", "FAZ_tAL": "404002001", "ID_LINHA": 247151 }, "geometry": { "type": "MultiLineString", "coordinates": [ [ [ 414067.478345083945896, 7622184.03182446397841 ], [ 415036.965879171621054, 7621659.55022088624537 ] ] ] } },
{ "type": "Feature", "properties": { "fid": 58.0, "COMPR_M": 1102.65, "CLASSE": "06 - Acima do limite", "CD_FAZ": "404002", "TALHOES": "1", "FAZ_tAL": "404002001", "ID_LINHA": 247152 }, "geometry": { "type": "MultiLineString", "coordinates": [ [ [ 414066.029569246107712, 7622181.404728045687079 ], [ 415035.553006156871561, 7621656.903701452538371 ] ] ] } },
{ "type": "Feature", "properties": { "fid": 59.0, "COMPR_M": 1102.69, "CLASSE": "06 - Acima do limite", "CD_FAZ": "404002", "TALHOES": "1", "FAZ_tAL": "404002001", "ID_LINHA": 247153 }, "geometry": { "type": "MultiLineString", "coordinates": [ [ [ 414064.580793404020369, 7622178.777631627395749 ], [ 415034.140133140666876, 7621654.257182019762695 ] ] ] } },
{ "type": "Feature", "properties": { "fid": 60.0, "COMPR_M": 1102.73, "CLASSE": "06 - Acima do limite", "CD_FAZ": "404002", "TALHOES": "1", "FAZ_tAL": "404002001", "ID_LINHA": 247154 }, "geometry": { "type": "MultiLineString", "coordinates": [ [ [ 414063.132017565483693, 7622176.150535209104419 ], [ 415032.727260123589076, 7621651.610662585124373 ] ] ] } },
{ "type": "Feature", "properties": { "fid": 61.0, "COMPR_M": 1102.77, "CLASSE": "06 - Acima do limite", "CD_FAZ": "404002", "TALHOES": "1", "FAZ_tAL": "404002001", "ID_LINHA": 247155 }, "geometry": { "type": "MultiLineString", "coordinates": [ [ [ 414061.683241724036634, 7622173.523438789881766 ], [ 415031.314387107733637, 7621648.964143151417375 ] ] ] } },
{ "type": "Feature", "properties": { "fid": 62.0, "COMPR_M": 1102.81, "CLASSE": "06 - Acima do limite", "CD_FAZ": "404002", "TALHOES": "1", "FAZ_tAL": "404002001", "ID_LINHA": 247156 }, "geometry": { "type": "MultiLineString", "coordinates": [ [ [ 414060.234465882182121, 7622170.896342372521758 ], [ 415029.901514091703575, 7621646.317623719573021 ] ] ] } },
{ "type": "Feature", "properties": { "fid": 63.0, "COMPR_M": 1102.85, "CLASSE": "06 - Acima do limite", "CD_FAZ": "404002", "TALHOES": "1", "FAZ_tAL": "404002001", "ID_LINHA": 247157 }, "geometry": { "type": "MultiLineString", "coordinates": [ [ [ 414058.785690043354407, 7622168.269245952367783 ], [ 415028.48864107625559, 7621643.6711042849347 ] ] ] } },
{ "type": "Feature", "properties": { "fid": 64.0, "COMPR_M": 1102.89, "CLASSE": "06 - Acima do limite", "CD_FAZ": "404002", "TALHOES": "1", "FAZ_tAL": "404002001", "ID_LINHA": 247158 }, "geometry": { "type": "MultiLineString", "coordinates": [ [ [ 414057.336914203537162, 7622165.642149534076452 ], [ 415027.075768060632981, 7621641.024584852159023 ] ] ] } },
{ "type": "Feature", "properties": { "fid": 65.0, "COMPR_M": 1102.93, "CLASSE": "06 - Acima do limite", "CD_FAZ": "404002", "TALHOES": "1", "FAZ_tAL": "404002001", "ID_LINHA": 247159 }, "geometry": { "type": "MultiLineString", "coordinates": [ [ [ 414055.88813836267218, 7622163.015053115785122 ], [ 415025.662895043555181, 7621638.378065418452024 ] ] ] } },
{ "type": "Feature", "properties": { "fid": 66.0, "COMPR_M": 1102.97, "CLASSE": "06 - Acima do limite", "CD_FAZ": "404002", "TALHOES": "1", "FAZ_tAL": "404002001", "ID_LINHA": 247160 }, "geometry": { "type": "MultiLineString", "coordinates": [ [ [ 414054.439362522854935, 7622160.387956697493792 ], [ 415024.250022027641535, 7621635.731545984745026 ] ] ] } },
{ "type": "Feature", "properties": { "fid": 67.0, "COMPR_M": 1003.86, "CLASSE": "06 - Acima do limite", "CD_FAZ": "404002", "TALHOES": "1", "FAZ_tAL": "404002001", "ID_LINHA": 247161 }, "geometry": { "type": "MultiLineString", "coordinates": [ [ [ 414052.990586683328729, 7622157.760860279202461 ], [ 414935.656258873816114, 7621680.248885244131088 ] ] ] } },
{ "type": "Feature", "properties": { "fid": 68.0, "COMPR_M": 1031.97, "CLASSE": "06 - Acima do limite", "CD_FAZ": "404002", "TALHOES": "1", "FAZ_tAL": "404002001", "ID_LINHA": 247162 }, "geometry": { "type": "MultiLineString", "coordinates": [ [ [ 414051.541810842812993, 7622155.133763862773776 ], [ 414958.918449506512843, 7621664.253440221771598 ] ] ] } },
{ "type": "Feature", "properties": { "fid": 69.0, "COMPR_M": 1060.07, "CLASSE": "06 - Acima do limite", "CD_FAZ": "404002", "TALHOES": "1", "FAZ_tAL": "404002001", "ID_LINHA": 247163 }, "geometry": { "type": "MultiLineString", "coordinates": [ [ [ 414050.093035002006218, 7622152.506667444482446 ], [ 414982.180640139791649, 7621648.257995203137398 ] ] ] } },
{ "type": "Feature", "properties": { "fid": 70.0, "COMPR_M": 1088.17, "CLASSE": "06 - Acima do limite", "CD_FAZ": "404002", "TALHOES": "1", "FAZ_tAL": "404002001", "ID_LINHA": 247164 }, "geometry": { "type": "MultiLineString", "coordinates": [ [ [ 414048.644259160850197, 7622149.879571022465825 ], [ 415005.44283077865839, 7621632.262550175189972 ] ] ] } },
{ "type": "Feature", "properties": { "fid": 71.0, "COMPR_M": 1103.15, "CLASSE": "06 - Acima do limite", "CD_FAZ": "404002", "TALHOES": "1", "FAZ_tAL": "404002001", "ID_LINHA": 247165 }, "geometry": { "type": "MultiLineString", "coordinates": [ [ [ 414047.195483319985215, 7622147.252474606968462 ], [ 415017.158302867668681, 7621622.513747059740126 ] ] ] } },
{ "type": "Feature", "properties": { "fid": 72.0, "COMPR_M": 1103.17, "CLASSE": "06 - Acima do limite", "CD_FAZ": "404002", "TALHOES": "1", "FAZ_tAL": "404002001", "ID_LINHA": 247166 }, "geometry": { "type": "MultiLineString", "coordinates": [ [ [ 414045.74670748016797, 7622144.625378188677132 ], [ 415015.730837129813153, 7621619.875122122466564 ] ] ] } },
{ "type": "Feature", "properties": { "fid": 73.0, "COMPR_M": 1103.2, "CLASSE": "06 - Acima do limite", "CD_FAZ": "404002", "TALHOES": "1", "FAZ_tAL": "404002001", "ID_LINHA": 247167 }, "geometry": { "type": "MultiLineString", "coordinates": [ [ [ 414044.297931638662703, 7622141.998281771317124 ], [ 415014.303371391026303, 7621617.23649718426168 ] ] ] } },
{ "type": "Feature", "properties": { "fid": 74.0, "COMPR_M": 1103.22, "CLASSE": "06 - Acima do limite", "CD_FAZ": "404002", "TALHOES": "1", "FAZ_tAL": "404002001", "ID_LINHA": 247168 }, "geometry": { "type": "MultiLineString", "coordinates": [ [ [ 414042.849155799485743, 7622139.371185351163149 ], [ 415012.875905652646907, 7621614.597872245125473 ] ] ] } },
{ "type": "Feature", "properties": { "fid": 75.0, "COMPR_M": 1103.24, "CLASSE": "06 - Acima do limite", "CD_FAZ": "404002", "TALHOES": "1", "FAZ_tAL": "404002001", "ID_LINHA": 247169 }, "geometry": { "type": "MultiLineString", "coordinates": [ [ [ 414041.400379958678968, 7622136.744088934734464 ], [ 415011.448439912637696, 7621611.959247306920588 ] ] ] } },
{ "type": "Feature", "properties": { "fid": 76.0, "COMPR_M": 1103.27, "CLASSE": "06 - Acima do limite", "CD_FAZ": "404002", "TALHOES": "1", "FAZ_tAL": "404002001", "ID_LINHA": 247170 }, "geometry": { "type": "MultiLineString", "coordinates": [ [ [ 414039.951604119560216, 7622134.116992514580488 ], [ 415010.020974175073206, 7621609.320622369647026 ] ] ] } },
{ "type": "Feature", "properties": { "fid": 77.0, "COMPR_M": 1103.29, "CLASSE": "06 - Acima do limite", "CD_FAZ": "404002", "TALHOES": "1", "FAZ_tAL": "404002001", "ID_LINHA": 247171 }, "geometry": { "type": "MultiLineString", "coordinates": [ [ [ 414038.502828278695233, 7622131.489896096289158 ], [ 415008.593508436519187, 7621606.681997431442142 ] ] ] } },
{ "type": "Feature", "properties": { "fid": 78.0, "COMPR_M": 1103.32, "CLASSE": "06 - Acima do limite", "CD_FAZ": "404002", "TALHOES": "1", "FAZ_tAL": "404002001", "ID_LINHA": 247172 }, "geometry": { "type": "MultiLineString", "coordinates": [ [ [ 414037.054052436957136, 7622128.862799676135182 ], [ 415007.166042697033845, 7621604.043372492305934 ] ] ] } },
{ "type": "Feature", "properties": { "fid": 79.0, "COMPR_M": 1103.34, "CLASSE": "06 - Acima do limite", "CD_FAZ": "404002", "TALHOES": "1", "FAZ_tAL": "404002001", "ID_LINHA": 247173 }, "geometry": { "type": "MultiLineString", "coordinates": [ [ [ 414035.605276597547345, 7622126.235703258775175 ], [ 415005.738576958654448, 7621601.404747553169727 ] ] ] } },
{ "type": "Feature", "properties": { "fid": 80.0, "COMPR_M": 1103.36, "CLASSE": "06 - Acima do limite", "CD_FAZ": "404002", "TALHOES": "1", "FAZ_tAL": "404002001", "ID_LINHA": 247174 }, "geometry": { "type": "MultiLineString", "coordinates": [ [ [ 414034.1565007577301, 7622123.608606841415167 ], [ 415004.311111219925806, 7621598.766122614964843 ] ] ] } },
{ "type": "Feature", "properties": { "fid": 81.0, "COMPR_M": 1103.39, "CLASSE": "06 - Acima do limite", "CD_FAZ": "404002", "TALHOES": "1", "FAZ_tAL": "404002001", "ID_LINHA": 247175 }, "geometry": { "type": "MultiLineString", "coordinates": [ [ [ 414032.707724917680025, 7622120.981510423123837 ], [ 415002.883645481662825, 7621596.127497676759958 ] ] ] } },
{ "type": "Feature", "properties": { "fid": 82.0, "COMPR_M": 1103.41, "CLASSE": "06 - Acima do limite", "CD_FAZ": "404002", "TALHOES": "1", "FAZ_tAL": "404002001", "ID_LINHA": 247176 }, "geometry": { "type": "MultiLineString", "coordinates": [ [ [ 414031.258949076524004, 7622118.354414001107216 ], [ 415001.45617974374909, 7621593.488872740417719 ] ] ] } },
{ "type": "Feature", "properties": { "fid": 83.0, "COMPR_M": 1103.44, "CLASSE": "06 - Acima do limite", "CD_FAZ": "404002", "TALHOES": "1", "FAZ_tAL": "404002001", "ID_LINHA": 247177 }, "geometry": { "type": "MultiLineString", "coordinates": [ [ [ 414029.810173236532137, 7622115.727317585609853 ], [ 415000.028714004904032, 7621590.850247800350189 ] ] ] } },
{ "type": "Feature", "properties": { "fid": 84.0, "COMPR_M": 1103.46, "CLASSE": "06 - Acima do limite", "CD_FAZ": "404002", "TALHOES": "1", "FAZ_tAL": "404002001", "ID_LINHA": 247178 }, "geometry": { "type": "MultiLineString", "coordinates": [ [ [ 414028.361397396074608, 7622113.100221164524555 ], [ 414998.601248266466428, 7621588.21162286400795 ] ] ] } },
{ "type": "Feature", "properties": { "fid": 85.0, "COMPR_M": 1103.49, "CLASSE": "06 - Acima do limite", "CD_FAZ": "404002", "TALHOES": "1", "FAZ_tAL": "404002001", "ID_LINHA": 247179 }, "geometry": { "type": "MultiLineString", "coordinates": [ [ [ 414026.912621555384248, 7622110.473124749027193 ], [ 414997.173782526457217, 7621585.572997924871743 ] ] ] } },
{ "type": "Feature", "properties": { "fid": 86.0, "COMPR_M": 1103.51, "CLASSE": "06 - Acima do limite", "CD_FAZ": "404002", "TALHOES": "1", "FAZ_tAL": "404002001", "ID_LINHA": 247180 }, "geometry": { "type": "MultiLineString", "coordinates": [ [ [ 414025.463845715683419, 7622107.846028332598507 ], [ 414995.746316788136028, 7621582.934372989460826 ] ] ] } },
{ "type": "Feature", "properties": { "fid": 87.0, "COMPR_M": 1103.53, "CLASSE": "06 - Acima do limite", "CD_FAZ": "404002", "TALHOES": "1", "FAZ_tAL": "404002001", "ID_LINHA": 247181 }, "geometry": { "type": "MultiLineString", "coordinates": [ [ [ 414024.015069873712491, 7622105.218931912444532 ], [ 414994.3188510502805, 7621580.295748049393296 ] ] ] } },
{ "type": "Feature", "properties": { "fid": 88.0, "COMPR_M": 1103.56, "CLASSE": "06 - Acima do limite", "CD_FAZ": "404002", "TALHOES": "1", "FAZ_tAL": "404002001", "ID_LINHA": 247182 }, "geometry": { "type": "MultiLineString", "coordinates": [ [ [ 414022.566294034710154, 7622102.591835493221879 ], [ 414992.891385311435442, 7621577.657123112119734 ] ] ] } },
{ "type": "Feature", "properties": { "fid": 89.0, "COMPR_M": 1103.58, "CLASSE": "06 - Acima do limite", "CD_FAZ": "404002", "TALHOES": "1", "FAZ_tAL": "404002001", "ID_LINHA": 247183 }, "geometry": { "type": "MultiLineString", "coordinates": [ [ [ 414021.117518195358571, 7622099.964739075861871 ], [ 414991.463919572997838, 7621575.018498171120882 ] ] ] } },
{ "type": "Feature", "properties": { "fid": 90.0, "COMPR_M": 1103.61, "CLASSE": "06 - Acima do limite", "CD_FAZ": "404002", "TALHOES": "1", "FAZ_tAL": "404002001", "ID_LINHA": 247184 }, "geometry": { "type": "MultiLineString", "coordinates": [ [ [ 414019.668742353096604, 7622097.337642658501863 ], [ 414990.036453834385611, 7621572.379873232915998 ] ] ] } },
{ "type": "Feature", "properties": { "fid": 91.0, "COMPR_M": 1103.63, "CLASSE": "06 - Acima do limite", "CD_FAZ": "404002", "TALHOES": "1", "FAZ_tAL": "404002001", "ID_LINHA": 247185 }, "geometry": { "type": "MultiLineString", "coordinates": [ [ [ 414018.219966513803229, 7622094.710546240210533 ], [ 414988.608988096064422, 7621569.741248295642436 ] ] ] } },
{ "type": "Feature", "properties": { "fid": 92.0, "COMPR_M": 1103.66, "CLASSE": "06 - Acima do limite", "CD_FAZ": "404002", "TALHOES": "1", "FAZ_tAL": "404002001", "ID_LINHA": 247186 }, "geometry": { "type": "MultiLineString", "coordinates": [ [ [ 414016.771190673578531, 7622092.083449820056558 ], [ 414987.181522356870119, 7621567.102623357437551 ] ] ] } },
{ "type": "Feature", "properties": { "fid": 93.0, "COMPR_M": 1103.68, "CLASSE": "06 - Acima do limite", "CD_FAZ": "404002", "TALHOES": "1", "FAZ_tAL": "404002001", "ID_LINHA": 247187 }, "geometry": { "type": "MultiLineString", "coordinates": [ [ [ 414015.322414833703078, 7622089.456353401765227 ], [ 414985.75405661878176, 7621564.463998420163989 ] ] ] } },
{ "type": "Feature", "properties": { "fid": 94.0, "COMPR_M": 1103.7, "CLASSE": "06 - Acima do limite", "CD_FAZ": "404002", "TALHOES": "1", "FAZ_tAL": "404002001", "ID_LINHA": 247188 }, "geometry": { "type": "MultiLineString", "coordinates": [ [ [ 414013.87363899347838, 7622086.829256982542574 ], [ 414984.326590881042648, 7621561.825373480096459 ] ] ] } },
{ "type": "Feature", "properties": { "fid": 95.0, "COMPR_M": 1103.73, "CLASSE": "06 - Acima do limite", "CD_FAZ": "404002", "TALHOES": "1", "FAZ_tAL": "404002001", "ID_LINHA": 247189 }, "geometry": { "type": "MultiLineString", "coordinates": [ [ [ 414012.424863152322359, 7622084.202160566113889 ], [ 414982.899125141731929, 7621559.18674854375422 ] ] ] } },
{ "type": "Feature", "properties": { "fid": 96.0, "COMPR_M": 1103.75, "CLASSE": "06 - Acima do limite", "CD_FAZ": "404002", "TALHOES": "1", "FAZ_tAL": "404002001", "ID_LINHA": 247190 }, "geometry": { "type": "MultiLineString", "coordinates": [ [ [ 414010.976087312155869, 7622081.575064146891236 ], [ 414981.471659401489887, 7621556.54812360368669 ] ] ] } },
{ "type": "Feature", "properties": { "fid": 97.0, "COMPR_M": 1103.78, "CLASSE": "06 - Acima do limite", "CD_FAZ": "404002", "TALHOES": "1", "FAZ_tAL": "404002001", "ID_LINHA": 247191 }, "geometry": { "type": "MultiLineString", "coordinates": [ [ [ 414009.527311471640132, 7622078.947967728599906 ], [ 414980.044193663052283, 7621553.909498667344451 ] ] ] } },
{ "type": "Feature", "properties": { "fid": 98.0, "COMPR_M": 1103.8, "CLASSE": "06 - Acima do limite", "CD_FAZ": "404002", "TALHOES": "1", "FAZ_tAL": "404002001", "ID_LINHA": 247192 }, "geometry": { "type": "MultiLineString", "coordinates": [ [ [ 414008.07853563153185, 7622076.320871310308576 ], [ 414978.616727924323641, 7621551.270873728208244 ] ] ] } },
{ "type": "Feature", "properties": { "fid": 99.0, "COMPR_M": 1103.83, "CLASSE": "06 - Acima do limite", "CD_FAZ": "404002", "TALHOES": "1", "FAZ_tAL": "404002001", "ID_LINHA": 247193 }, "geometry": { "type": "MultiLineString", "coordinates": [ [ [ 414006.629759791190736, 7622073.693774892017245 ], [ 414977.189262185944244, 7621548.632248790003359 ] ] ] } }
]
}
